<?xml version="1.0" encoding="UTF-8"?>
<gpx xmlns="http://www.topografix.com/GPX/1/1" xmlns:gpxtpx="http://www.garmin.com/xmlschemas/TrackPointExtension/v1" xmlns:xsi="http://www.w3.org/2001/XMLSchema-instance" xsi:schemaLocation="http://www.topografix.com/GPX/1/1 http://www.topografix.com/GPX/1/1/gpx.xsd" version="1.1" creator="gpx.py -- https://github.com/tkrajina/gpxpy">
  <trk>
    <trkseg>
      <trkpt lat="38.904613" lon="111.85654">
        <ele>1434.0068</ele>
        <time>2014-01-24T00:21:00.745000Z</time>
      </trkpt>
      <trkpt lat="38.904613" lon="111.856514">
        <ele>1436.2097</ele>
        <time>2014-01-24T00:21:05.816000Z</time>
      </trkpt>
      <trkpt lat="38.904625" lon="111.8564">
        <ele>1438.5441</ele>
        <time>2014-01-24T00:21:10.887000Z</time>
      </trkpt>
      <trkpt lat="38.904625" lon="111.856285">
        <ele>1439.5635</ele>
        <time>2014-01-24T00:21:15.958000Z</time>
      </trkpt>
      <trkpt lat="38.904625" lon="111.856285">
        <ele>1439.6067</ele>
        <time>2014-01-24T00:21:21.029000Z</time>
      </trkpt>
      <trkpt lat="38.904655" lon="111.85617">
        <ele>1439.2537</ele>
        <time>2014-01-24T00:21:26.100000Z</time>
      </trkpt>
      <trkpt lat="38.904694" lon="111.85605">
        <ele>1438.7301</ele>
        <time>2014-01-24T00:21:31.171000Z</time>
      </trkpt>
      <trkpt lat="38.904713" lon="111.85591">
        <ele>1438.0841</ele>
        <time>2014-01-24T00:21:36.242000Z</time>
      </trkpt>
      <trkpt lat="38.904724" lon="111.85579">
        <ele>1437.3666</ele>
        <time>2014-01-24T00:21:41.313000Z</time>
      </trkpt>
      <trkpt lat="38.90473" lon="111.85565">
        <ele>1436.82</ele>
        <time>2014-01-24T00:21:46.384000Z</time>
      </trkpt>
      <trkpt lat="38.904743" lon="111.855515">
        <ele>1436.601</ele>
        <time>2014-01-24T00:21:51.455000Z</time>
      </trkpt>
      <trkpt lat="38.904762" lon="111.85539">
        <ele>1436.4551</ele>
        <time>2014-01-24T00:21:56.526000Z</time>
      </trkpt>
      <trkpt lat="38.90479" lon="111.855255">
        <ele>1436.2008</ele>
        <time>2014-01-24T00:22:01.597000Z</time>
      </trkpt>
      <trkpt lat="38.904797" lon="111.85511">
        <ele>1436.3333</ele>
        <time>2014-01-24T00:22:06.668000Z</time>
      </trkpt>
      <trkpt lat="38.904808" lon="111.854965">
        <ele>1437.3956</ele>
        <time>2014-01-24T00:22:11.739000Z</time>
      </trkpt>
      <trkpt lat="38.90482" lon="111.854836">
        <ele>1438.9465</ele>
        <time>2014-01-24T00:22:16.810000Z</time>
      </trkpt>
      <trkpt lat="38.90483" lon="111.854706">
        <ele>1440.0459</ele>
        <time>2014-01-24T00:22:21.881000Z</time>
      </trkpt>
      <trkpt lat="38.90483" lon="111.85457">
        <ele>1440.0708</ele>
        <time>2014-01-24T00:22:26.952000Z</time>
      </trkpt>
      <trkpt lat="38.904854" lon="111.85443">
        <ele>1439.1095</ele>
        <time>2014-01-24T00:22:32.023000Z</time>
      </trkpt>
      <trkpt lat="38.904865" lon="111.85431">
        <ele>1438.1986</ele>
        <time>2014-01-24T00:22:37.094000Z</time>
      </trkpt>
      <trkpt lat="38.904884" lon="111.85418">
        <ele>1438.1188</ele>
        <time>2014-01-24T00:22:42.165000Z</time>
      </trkpt>
      <trkpt lat="38.9049" lon="111.854034">
        <ele>1438.4973</ele>
        <time>2014-01-24T00:22:47.236000Z</time>
      </trkpt>
      <trkpt lat="38.90492" lon="111.8539">
        <ele>1438.9858</ele>
        <time>2014-01-24T00:22:52.307000Z</time>
      </trkpt>
      <trkpt lat="38.90492" lon="111.853775">
        <ele>1439.7078</ele>
        <time>2014-01-24T00:22:57.378000Z</time>
      </trkpt>
      <trkpt lat="38.90492" lon="111.85365">
        <ele>1440.4546</ele>
        <time>2014-01-24T00:23:02.449000Z</time>
      </trkpt>
      <trkpt lat="38.904915" lon="111.85353">
        <ele>1440.8024</ele>
        <time>2014-01-24T00:23:07.520000Z</time>
      </trkpt>
      <trkpt lat="38.904922" lon="111.85339">
        <ele>1440.7782</ele>
        <time>2014-01-24T00:23:12.591000Z</time>
      </trkpt>
      <trkpt lat="38.904938" lon="111.85326">
        <ele>1440.6343</ele>
        <time>2014-01-24T00:23:17.662000Z</time>
      </trkpt>
      <trkpt lat="38.904945" lon="111.85313">
        <ele>1440.4178</ele>
        <time>2014-01-24T00:23:22.733000Z</time>
      </trkpt>
      <trkpt lat="38.904953" lon="111.853">
        <ele>1440.0535</ele>
        <time>2014-01-24T00:23:27.804000Z</time>
      </trkpt>
      <trkpt lat="38.904945" lon="111.85287">
        <ele>1439.6952</ele>
        <time>2014-01-24T00:23:32.875000Z</time>
      </trkpt>
      <trkpt lat="38.904945" lon="111.85274">
        <ele>1439.7495</ele>
        <time>2014-01-24T00:23:37.946000Z</time>
      </trkpt>
      <trkpt lat="38.904938" lon="111.85261">
        <ele>1440.2454</ele>
        <time>2014-01-24T00:23:43.017000Z</time>
      </trkpt>
      <trkpt lat="38.904938" lon="111.85261">
        <ele>1440.4208</ele>
        <time>2014-01-24T00:23:48.088000Z</time>
      </trkpt>
      <trkpt lat="38.904915" lon="111.85248">
        <ele>1439.4838</ele>
        <time>2014-01-24T00:23:53.159000Z</time>
      </trkpt>
      <trkpt lat="38.904903" lon="111.85235">
        <ele>1438.1245</ele>
        <time>2014-01-24T00:23:58.230000Z</time>
      </trkpt>
      <trkpt lat="38.904877" lon="111.85222">
        <ele>1437.3734</ele>
        <time>2014-01-24T00:24:03.301000Z</time>
      </trkpt>
      <trkpt lat="38.904846" lon="111.8521">
        <ele>1437.9702</ele>
        <time>2014-01-24T00:24:08.372000Z</time>
      </trkpt>
      <trkpt lat="38.904808" lon="111.85197">
        <ele>1438.7394</ele>
        <time>2014-01-24T00:24:13.443000Z</time>
      </trkpt>
      <trkpt lat="38.904774" lon="111.85184">
        <ele>1439.1323</ele>
        <time>2014-01-24T00:24:18.514000Z</time>
      </trkpt>
      <trkpt lat="38.90472" lon="111.85171">
        <ele>1438.8889</ele>
        <time>2014-01-24T00:24:23.585000Z</time>
      </trkpt>
      <trkpt lat="38.90468" lon="111.85159">
        <ele>1437.9475</ele>
        <time>2014-01-24T00:24:28.656000Z</time>
      </trkpt>
      <trkpt lat="38.904633" lon="111.85146">
        <ele>1436.9585</ele>
        <time>2014-01-24T00:24:33.727000Z</time>
      </trkpt>
      <trkpt lat="38.904594" lon="111.85134">
        <ele>1436.3016</ele>
        <time>2014-01-24T00:24:38.798000Z</time>
      </trkpt>
      <trkpt lat="38.904552" lon="111.85123">
        <ele>1435.9789</ele>
        <time>2014-01-24T00:24:43.869000Z</time>
      </trkpt>
      <trkpt lat="38.904514" lon="111.85113">
        <ele>1436.3086</ele>
        <time>2014-01-24T00:24:48.940000Z</time>
      </trkpt>
      <trkpt lat="38.904476" lon="111.851">
        <ele>1437.2241</ele>
        <time>2014-01-24T00:24:54.011000Z</time>
      </trkpt>
      <trkpt lat="38.904438" lon="111.85087">
        <ele>1437.7378</ele>
        <time>2014-01-24T00:24:59.082000Z</time>
      </trkpt>
      <trkpt lat="38.904385" lon="111.85073">
        <ele>1437.3763</ele>
        <time>2014-01-24T00:25:04.153000Z</time>
      </trkpt>
      <trkpt lat="38.90434" lon="111.85062">
        <ele>1436.9973</ele>
        <time>2014-01-24T00:25:09.224000Z</time>
      </trkpt>
      <trkpt lat="38.9043" lon="111.8505">
        <ele>1437.7179</ele>
        <time>2014-01-24T00:25:14.295000Z</time>
      </trkpt>
      <trkpt lat="38.90425" lon="111.85039">
        <ele>1439.3052</ele>
        <time>2014-01-24T00:25:19.366000Z</time>
      </trkpt>
      <trkpt lat="38.904213" lon="111.850266">
        <ele>1440.2438</ele>
        <time>2014-01-24T00:25:24.437000Z</time>
      </trkpt>
      <trkpt lat="38.904167" lon="111.85015">
        <ele>1439.607</ele>
        <time>2014-01-24T00:25:29.508000Z</time>
      </trkpt>
      <trkpt lat="38.904125" lon="111.850044">
        <ele>1438.1656</ele>
        <time>2014-01-24T00:25:34.579000Z</time>
      </trkpt>
      <trkpt lat="38.90408" lon="111.84994">
        <ele>1437.1417</ele>
        <time>2014-01-24T00:25:39.650000Z</time>
      </trkpt>
      <trkpt lat="38.90403" lon="111.84982">
        <ele>1436.9675</ele>
        <time>2014-01-24T00:25:44.721000Z</time>
      </trkpt>
      <trkpt lat="38.903984" lon="111.84971">
        <ele>1437.369</ele>
        <time>2014-01-24T00:25:49.792000Z</time>
      </trkpt>
      <trkpt lat="38.903934" lon="111.84958">
        <ele>1437.828</ele>
        <time>2014-01-24T00:25:54.863000Z</time>
      </trkpt>
      <trkpt lat="38.90389" lon="111.849464">
        <ele>1437.8271</ele>
        <time>2014-01-24T00:25:59.934000Z</time>
      </trkpt>
      <trkpt lat="38.90384" lon="111.84935">
        <ele>1437.1862</ele>
        <time>2014-01-24T00:26:05.005000Z</time>
      </trkpt>
      <trkpt lat="38.903793" lon="111.84922">
        <ele>1436.3232</ele>
        <time>2014-01-24T00:26:10.076000Z</time>
      </trkpt>
      <trkpt lat="38.903736" lon="111.84909">
        <ele>1435.7762</ele>
        <time>2014-01-24T00:26:15.147000Z</time>
      </trkpt>
      <trkpt lat="38.903694" lon="111.84898">
        <ele>1435.3</ele>
        <time>2014-01-24T00:26:20.218000Z</time>
      </trkpt>
      <trkpt lat="38.903652" lon="111.84888">
        <ele>1434.5223</ele>
        <time>2014-01-24T00:26:25.289000Z</time>
      </trkpt>
      <trkpt lat="38.903584" lon="111.848755">
        <ele>1433.9519</ele>
        <time>2014-01-24T00:26:30.360000Z</time>
      </trkpt>
      <trkpt lat="38.90352" lon="111.84865">
        <ele>1434.0957</ele>
        <time>2014-01-24T00:26:35.431000Z</time>
      </trkpt>
      <trkpt lat="38.903446" lon="111.84854">
        <ele>1434.5516</ele>
        <time>2014-01-24T00:26:40.502000Z</time>
      </trkpt>
      <trkpt lat="38.90338" lon="111.848434">
        <ele>1434.7471</ele>
        <time>2014-01-24T00:26:45.573000Z</time>
      </trkpt>
      <trkpt lat="38.903316" lon="111.84833">
        <ele>1434.5774</ele>
        <time>2014-01-24T00:26:50.644000Z</time>
      </trkpt>
      <trkpt lat="38.903316" lon="111.84833">
        <ele>1434.2954</ele>
        <time>2014-01-24T00:26:55.715000Z</time>
      </trkpt>
      <trkpt lat="38.903267" lon="111.84823">
        <ele>1434.155</ele>
        <time>2014-01-24T00:27:00.786000Z</time>
      </trkpt>
      <trkpt lat="38.903214" lon="111.84813">
        <ele>1434.173</ele>
        <time>2014-01-24T00:27:05.857000Z</time>
      </trkpt>
      <trkpt lat="38.90315" lon="111.84803">
        <ele>1434.304</ele>
        <time>2014-01-24T00:27:10.928000Z</time>
      </trkpt>
      <trkpt lat="38.90315" lon="111.84803">
        <ele>1434.4976</ele>
        <time>2014-01-24T00:27:15.999000Z</time>
      </trkpt>
      <trkpt lat="38.903076" lon="111.84792">
        <ele>1434.3772</ele>
        <time>2014-01-24T00:27:21.070000Z</time>
      </trkpt>
      <trkpt lat="38.903015" lon="111.847824">
        <ele>1433.7072</ele>
        <time>2014-01-24T00:27:26.141000Z</time>
      </trkpt>
      <trkpt lat="38.90295" lon="111.847725">
        <ele>1432.9226</ele>
        <time>2014-01-24T00:27:31.212000Z</time>
      </trkpt>
      <trkpt lat="38.902878" lon="111.847626">
        <ele>1432.3304</ele>
        <time>2014-01-24T00:27:36.283000Z</time>
      </trkpt>
      <trkpt lat="38.90282" lon="111.847534">
        <ele>1431.8296</ele>
        <time>2014-01-24T00:27:41.354000Z</time>
      </trkpt>
      <trkpt lat="38.902752" lon="111.84743">
        <ele>1431.4884</ele>
        <time>2014-01-24T00:27:46.425000Z</time>
      </trkpt>
      <trkpt lat="38.902695" lon="111.84733">
        <ele>1431.4188</ele>
        <time>2014-01-24T00:27:51.496000Z</time>
      </trkpt>
      <trkpt lat="38.90263" lon="111.84723">
        <ele>1431.3682</ele>
        <time>2014-01-24T00:27:56.567000Z</time>
      </trkpt>
      <trkpt lat="38.902557" lon="111.84712">
        <ele>1431.2428</ele>
        <time>2014-01-24T00:28:01.638000Z</time>
      </trkpt>
      <trkpt lat="38.90249" lon="111.847015">
        <ele>1431.7059</ele>
        <time>2014-01-24T00:28:06.709000Z</time>
      </trkpt>
      <trkpt lat="38.90243" lon="111.846924">
        <ele>1433.328</ele>
        <time>2014-01-24T00:28:11.780000Z</time>
      </trkpt>
      <trkpt lat="38.90236" lon="111.84681">
        <ele>1435.624</ele>
        <time>2014-01-24T00:28:16.851000Z</time>
      </trkpt>
      <trkpt lat="38.902294" lon="111.84672">
        <ele>1437.3906</ele>
        <time>2014-01-24T00:28:21.922000Z</time>
      </trkpt>
      <trkpt lat="38.90224" lon="111.84662">
        <ele>1437.3894</ele>
        <time>2014-01-24T00:28:26.993000Z</time>
      </trkpt>
      <trkpt lat="38.90218" lon="111.84653">
        <ele>1435.5801</ele>
        <time>2014-01-24T00:28:32.064000Z</time>
      </trkpt>
      <trkpt lat="38.90211" lon="111.84645">
        <ele>1433.4017</ele>
        <time>2014-01-24T00:28:37.135000Z</time>
      </trkpt>
      <trkpt lat="38.902042" lon="111.84636">
        <ele>1432.1307</ele>
        <time>2014-01-24T00:28:42.206000Z</time>
      </trkpt>
      <trkpt lat="38.901985" lon="111.84627">
        <ele>1431.8304</ele>
        <time>2014-01-24T00:28:47.277000Z</time>
      </trkpt>
      <trkpt lat="38.90192" lon="111.84616">
        <ele>1431.9926</ele>
        <time>2014-01-24T00:28:52.348000Z</time>
      </trkpt>
      <trkpt lat="38.90185" lon="111.84605">
        <ele>1432.6982</ele>
        <time>2014-01-24T00:28:57.419000Z</time>
      </trkpt>
      <trkpt lat="38.90178" lon="111.84594">
        <ele>1434.089</ele>
        <time>2014-01-24T00:29:02.490000Z</time>
      </trkpt>
      <trkpt lat="38.901726" lon="111.84583">
        <ele>1435.4773</ele>
        <time>2014-01-24T00:29:07.561000Z</time>
      </trkpt>
      <trkpt lat="38.901665" lon="111.84573">
        <ele>1436.2758</ele>
        <time>2014-01-24T00:29:12.632000Z</time>
      </trkpt>
      <trkpt lat="38.901596" lon="111.84563">
        <ele>1436.6187</ele>
        <time>2014-01-24T00:29:17.703000Z</time>
      </trkpt>
      <trkpt lat="38.901527" lon="111.84552">
        <ele>1436.3499</ele>
        <time>2014-01-24T00:29:22.774000Z</time>
      </trkpt>
      <trkpt lat="38.901455" lon="111.845406">
        <ele>1435.2919</ele>
        <time>2014-01-24T00:29:27.845000Z</time>
      </trkpt>
      <trkpt lat="38.90138" lon="111.8453">
        <ele>1433.8651</ele>
        <time>2014-01-24T00:29:32.916000Z</time>
      </trkpt>
      <trkpt lat="38.901318" lon="111.84519">
        <ele>1432.719</ele>
        <time>2014-01-24T00:29:37.987000Z</time>
      </trkpt>
      <trkpt lat="38.901253" lon="111.845085">
        <ele>1432.1172</ele>
        <time>2014-01-24T00:29:43.058000Z</time>
      </trkpt>
      <trkpt lat="38.901188" lon="111.845">
        <ele>1432.204</ele>
        <time>2014-01-24T00:29:48.129000Z</time>
      </trkpt>
      <trkpt lat="38.901123" lon="111.8449">
        <ele>1433.096</ele>
        <time>2014-01-24T00:29:53.200000Z</time>
      </trkpt>
      <trkpt lat="38.901062" lon="111.84481">
        <ele>1434.4078</ele>
        <time>2014-01-24T00:29:58.271000Z</time>
      </trkpt>
      <trkpt lat="38.900993" lon="111.8447">
        <ele>1434.9258</ele>
        <time>2014-01-24T00:30:03.342000Z</time>
      </trkpt>
      <trkpt lat="38.90093" lon="111.84459">
        <ele>1434.0988</ele>
        <time>2014-01-24T00:30:08.413000Z</time>
      </trkpt>
      <trkpt lat="38.900856" lon="111.844475">
        <ele>1432.8701</ele>
        <time>2014-01-24T00:30:13.484000Z</time>
      </trkpt>
      <trkpt lat="38.900787" lon="111.84438">
        <ele>1432.3961</ele>
        <time>2014-01-24T00:30:18.555000Z</time>
      </trkpt>
      <trkpt lat="38.90073" lon="111.8443">
        <ele>1432.9022</ele>
        <time>2014-01-24T00:30:23.626000Z</time>
      </trkpt>
      <trkpt lat="38.90073" lon="111.8443">
        <ele>1433.8495</ele>
        <time>2014-01-24T00:30:28.697000Z</time>
      </trkpt>
      <trkpt lat="38.900673" lon="111.844185">
        <ele>1434.4861</ele>
        <time>2014-01-24T00:30:33.768000Z</time>
      </trkpt>
      <trkpt lat="38.900597" lon="111.84409">
        <ele>1434.4465</ele>
        <time>2014-01-24T00:30:38.839000Z</time>
      </trkpt>
      <trkpt lat="38.900597" lon="111.84409">
        <ele>1433.9098</ele>
        <time>2014-01-24T00:30:43.910000Z</time>
      </trkpt>
      <trkpt lat="38.900536" lon="111.844">
        <ele>1433.3713</ele>
        <time>2014-01-24T00:30:48.981000Z</time>
      </trkpt>
      <trkpt lat="38.900482" lon="111.84391">
        <ele>1433.181</ele>
        <time>2014-01-24T00:30:54.052000Z</time>
      </trkpt>
      <trkpt lat="38.90042" lon="111.84382">
        <ele>1433.833</ele>
        <time>2014-01-24T00:30:59.123000Z</time>
      </trkpt>
      <trkpt lat="38.900356" lon="111.843704">
        <ele>1435.4164</ele>
        <time>2014-01-24T00:31:04.194000Z</time>
      </trkpt>
      <trkpt lat="38.900288" lon="111.84359">
        <ele>1436.4423</ele>
        <time>2014-01-24T00:31:09.265000Z</time>
      </trkpt>
      <trkpt lat="38.90023" lon="111.8435">
        <ele>1435.824</ele>
        <time>2014-01-24T00:31:14.336000Z</time>
      </trkpt>
      <trkpt lat="38.90018" lon="111.84339">
        <ele>1434.6328</ele>
        <time>2014-01-24T00:31:19.407000Z</time>
      </trkpt>
      <trkpt lat="38.900112" lon="111.84329">
        <ele>1434.0521</ele>
        <time>2014-01-24T00:31:24.478000Z</time>
      </trkpt>
      <trkpt lat="38.90005" lon="111.8432">
        <ele>1434.2677</ele>
        <time>2014-01-24T00:31:29.549000Z</time>
      </trkpt>
      <trkpt lat="38.899998" lon="111.84309">
        <ele>1435.0298</ele>
        <time>2014-01-24T00:31:34.620000Z</time>
      </trkpt>
      <trkpt lat="38.899956" lon="111.84298">
        <ele>1435.4906</ele>
        <time>2014-01-24T00:31:39.691000Z</time>
      </trkpt>
      <trkpt lat="38.899956" lon="111.84298">
        <ele>1435.077</ele>
        <time>2014-01-24T00:31:44.762000Z</time>
      </trkpt>
      <trkpt lat="38.89989" lon="111.842865">
        <ele>1434.2346</ele>
        <time>2014-01-24T00:31:49.833000Z</time>
      </trkpt>
      <trkpt lat="38.89982" lon="111.84276">
        <ele>1433.5375</ele>
        <time>2014-01-24T00:31:54.904000Z</time>
      </trkpt>
      <trkpt lat="38.89977" lon="111.84267">
        <ele>1433.1525</ele>
        <time>2014-01-24T00:31:59.975000Z</time>
      </trkpt>
      <trkpt lat="38.89972" lon="111.84255">
        <ele>1433.1245</ele>
        <time>2014-01-24T00:32:05.046000Z</time>
      </trkpt>
      <trkpt lat="38.89966" lon="111.84245">
        <ele>1433.3474</ele>
        <time>2014-01-24T00:32:10.117000Z</time>
      </trkpt>
      <trkpt lat="38.899593" lon="111.84237">
        <ele>1433.5918</ele>
        <time>2014-01-24T00:32:15.188000Z</time>
      </trkpt>
      <trkpt lat="38.899593" lon="111.84237">
        <ele>1433.5143</ele>
        <time>2014-01-24T00:32:20.259000Z</time>
      </trkpt>
      <trkpt lat="38.899525" lon="111.842255">
        <ele>1433.1938</ele>
        <time>2014-01-24T00:32:25.330000Z</time>
      </trkpt>
      <trkpt lat="38.899467" lon="111.84216">
        <ele>1432.8768</ele>
        <time>2014-01-24T00:32:30.401000Z</time>
      </trkpt>
      <trkpt lat="38.899395" lon="111.84206">
        <ele>1432.6091</ele>
        <time>2014-01-24T00:32:35.472000Z</time>
      </trkpt>
      <trkpt lat="38.899323" lon="111.84195">
        <ele>1432.2794</ele>
        <time>2014-01-24T00:32:40.543000Z</time>
      </trkpt>
      <trkpt lat="38.89926" lon="111.84186">
        <ele>1432.0397</ele>
        <time>2014-01-24T00:32:45.614000Z</time>
      </trkpt>
      <trkpt lat="38.89921" lon="111.84175">
        <ele>1432.1819</ele>
        <time>2014-01-24T00:32:50.685000Z</time>
      </trkpt>
      <trkpt lat="38.89916" lon="111.84164">
        <ele>1432.7931</ele>
        <time>2014-01-24T00:32:55.756000Z</time>
      </trkpt>
      <trkpt lat="38.89916" lon="111.84164">
        <ele>1433.5089</ele>
        <time>2014-01-24T00:33:00.827000Z</time>
      </trkpt>
      <trkpt lat="38.899113" lon="111.84153">
        <ele>1434.2389</ele>
        <time>2014-01-24T00:33:05.898000Z</time>
      </trkpt>
      <trkpt lat="38.899055" lon="111.84143">
        <ele>1435.318</ele>
        <time>2014-01-24T00:33:10.969000Z</time>
      </trkpt>
      <trkpt lat="38.899014" lon="111.84133">
        <ele>1436.7131</ele>
        <time>2014-01-24T00:33:16.040000Z</time>
      </trkpt>
      <trkpt lat="38.898952" lon="111.841225">
        <ele>1437.684</ele>
        <time>2014-01-24T00:33:21.111000Z</time>
      </trkpt>
      <trkpt lat="38.89891" lon="111.841125">
        <ele>1437.8835</ele>
        <time>2014-01-24T00:33:26.182000Z</time>
      </trkpt>
      <trkpt lat="38.898857" lon="111.841">
        <ele>1438.201</ele>
        <time>2014-01-24T00:33:31.253000Z</time>
      </trkpt>
      <trkpt lat="38.898796" lon="111.84091">
        <ele>1439.3717</ele>
        <time>2014-01-24T00:33:36.324000Z</time>
      </trkpt>
      <trkpt lat="38.898796" lon="111.84091">
        <ele>1440.7056</ele>
        <time>2014-01-24T00:33:41.395000Z</time>
      </trkpt>
      <trkpt lat="38.89873" lon="111.84082">
        <ele>1441.3799</ele>
        <time>2014-01-24T00:33:46.466000Z</time>
      </trkpt>
      <trkpt lat="38.898666" lon="111.840706">
        <ele>1441.2787</ele>
        <time>2014-01-24T00:33:51.537000Z</time>
      </trkpt>
      <trkpt lat="38.898666" lon="111.840706">
        <ele>1440.5825</ele>
        <time>2014-01-24T00:33:56.608000Z</time>
      </trkpt>
      <trkpt lat="38.89861" lon="111.84059">
        <ele>1439.8574</ele>
        <time>2014-01-24T00:34:01.679000Z</time>
      </trkpt>
      <trkpt lat="38.898544" lon="111.84049">
        <ele>1440.1583</ele>
        <time>2014-01-24T00:34:06.750000Z</time>
      </trkpt>
      <trkpt lat="38.89849" lon="111.84038">
        <ele>1441.9662</ele>
        <time>2014-01-24T00:34:11.821000Z</time>
      </trkpt>
      <trkpt lat="38.89843" lon="111.84028">
        <ele>1444.2462</ele>
        <time>2014-01-24T00:34:16.892000Z</time>
      </trkpt>
      <trkpt lat="38.898376" lon="111.84017">
        <ele>1445.696</ele>
        <time>2014-01-24T00:34:21.963000Z</time>
      </trkpt>
      <trkpt lat="38.898323" lon="111.84007">
        <ele>1445.91</ele>
        <time>2014-01-24T00:34:27.034000Z</time>
      </trkpt>
      <trkpt lat="38.89826" lon="111.83999">
        <ele>1445.4359</ele>
        <time>2014-01-24T00:34:32.105000Z</time>
      </trkpt>
      <trkpt lat="38.8982" lon="111.83988">
        <ele>1445.3518</ele>
        <time>2014-01-24T00:34:37.176000Z</time>
      </trkpt>
      <trkpt lat="38.898148" lon="111.83978">
        <ele>1445.8568</ele>
        <time>2014-01-24T00:34:42.247000Z</time>
      </trkpt>
      <trkpt lat="38.898087" lon="111.839676">
        <ele>1446.3224</ele>
        <time>2014-01-24T00:34:47.318000Z</time>
      </trkpt>
      <trkpt lat="38.89804" lon="111.83957">
        <ele>1446.6179</ele>
        <time>2014-01-24T00:34:52.389000Z</time>
      </trkpt>
      <trkpt lat="38.897976" lon="111.83946">
        <ele>1446.9913</ele>
        <time>2014-01-24T00:34:57.460000Z</time>
      </trkpt>
      <trkpt lat="38.897915" lon="111.83935">
        <ele>1447.4968</ele>
        <time>2014-01-24T00:35:02.531000Z</time>
      </trkpt>
      <trkpt lat="38.897842" lon="111.83925">
        <ele>1447.8892</ele>
        <time>2014-01-24T00:35:07.602000Z</time>
      </trkpt>
      <trkpt lat="38.897778" lon="111.83915">
        <ele>1448.7327</ele>
        <time>2014-01-24T00:35:12.673000Z</time>
      </trkpt>
      <trkpt lat="38.897728" lon="111.83905">
        <ele>1450.9374</ele>
        <time>2014-01-24T00:35:17.744000Z</time>
      </trkpt>
      <trkpt lat="38.89767" lon="111.838936">
        <ele>1453.388</ele>
        <time>2014-01-24T00:35:22.815000Z</time>
      </trkpt>
      <trkpt lat="38.897633" lon="111.83883">
        <ele>1454.6614</ele>
        <time>2014-01-24T00:35:27.886000Z</time>
      </trkpt>
      <trkpt lat="38.89757" lon="111.83874">
        <ele>1454.9574</ele>
        <time>2014-01-24T00:35:32.957000Z</time>
      </trkpt>
      <trkpt lat="38.89753" lon="111.83863">
        <ele>1454.767</ele>
        <time>2014-01-24T00:35:38.028000Z</time>
      </trkpt>
      <trkpt lat="38.897488" lon="111.83852">
        <ele>1454.4459</ele>
        <time>2014-01-24T00:35:43.099000Z</time>
      </trkpt>
      <trkpt lat="38.89744" lon="111.83841">
        <ele>1454.3724</ele>
        <time>2014-01-24T00:35:48.170000Z</time>
      </trkpt>
      <trkpt lat="38.89741" lon="111.83828">
        <ele>1454.4792</ele>
        <time>2014-01-24T00:35:53.241000Z</time>
      </trkpt>
      <trkpt lat="38.89739" lon="111.838165">
        <ele>1454.3026</ele>
        <time>2014-01-24T00:35:58.312000Z</time>
      </trkpt>
      <trkpt lat="38.89737" lon="111.83804">
        <ele>1453.9298</ele>
        <time>2014-01-24T00:36:03.383000Z</time>
      </trkpt>
      <trkpt lat="38.897343" lon="111.83793">
        <ele>1454.3641</ele>
        <time>2014-01-24T00:36:08.454000Z</time>
      </trkpt>
      <trkpt lat="38.897327" lon="111.83781">
        <ele>1455.6241</ele>
        <time>2014-01-24T00:36:13.525000Z</time>
      </trkpt>
      <trkpt lat="38.897316" lon="111.83768">
        <ele>1456.532</ele>
        <time>2014-01-24T00:36:18.596000Z</time>
      </trkpt>
      <trkpt lat="38.897324" lon="111.837555">
        <ele>1456.6615</ele>
        <time>2014-01-24T00:36:23.667000Z</time>
      </trkpt>
      <trkpt lat="38.897335" lon="111.83742">
        <ele>1456.3954</ele>
        <time>2014-01-24T00:36:28.738000Z</time>
      </trkpt>
      <trkpt lat="38.897335" lon="111.83729">
        <ele>1456.0234</ele>
        <time>2014-01-24T00:36:33.809000Z</time>
      </trkpt>
      <trkpt lat="38.897346" lon="111.83714">
        <ele>1455.5692</ele>
        <time>2014-01-24T00:36:38.880000Z</time>
      </trkpt>
      <trkpt lat="38.897346" lon="111.83714">
        <ele>1455.0295</ele>
        <time>2014-01-24T00:36:43.951000Z</time>
      </trkpt>
      <trkpt lat="38.897346" lon="111.83702">
        <ele>1454.8285</ele>
        <time>2014-01-24T00:36:49.022000Z</time>
      </trkpt>
      <trkpt lat="38.897358" lon="111.83689">
        <ele>1455.3821</ele>
        <time>2014-01-24T00:36:54.093000Z</time>
      </trkpt>
      <trkpt lat="38.897377" lon="111.83677">
        <ele>1456.5635</ele>
        <time>2014-01-24T00:36:59.164000Z</time>
      </trkpt>
      <trkpt lat="38.897377" lon="111.83677">
        <ele>1457.8854</ele>
        <time>2014-01-24T00:37:04.235000Z</time>
      </trkpt>
      <trkpt lat="38.89739" lon="111.83664">
        <ele>1458.8556</ele>
        <time>2014-01-24T00:37:09.306000Z</time>
      </trkpt>
      <trkpt lat="38.897392" lon="111.83652">
        <ele>1459.1963</ele>
        <time>2014-01-24T00:37:14.377000Z</time>
      </trkpt>
      <trkpt lat="38.89739" lon="111.83638">
        <ele>1459.1697</ele>
        <time>2014-01-24T00:37:19.448000Z</time>
      </trkpt>
      <trkpt lat="38.897385" lon="111.836235">
        <ele>1459.0215</ele>
        <time>2014-01-24T00:37:24.519000Z</time>
      </trkpt>
      <trkpt lat="38.8974" lon="111.83612">
        <ele>1458.0533</ele>
        <time>2014-01-24T00:37:29.590000Z</time>
      </trkpt>
      <trkpt lat="38.897404" lon="111.835976">
        <ele>1457.7347</ele>
        <time>2014-01-24T00:37:34.661000Z</time>
      </trkpt>
      <trkpt lat="38.89741" lon="111.83583">
        <ele>1458.1055</ele>
        <time>2014-01-24T00:37:39.732000Z</time>
      </trkpt>
      <trkpt lat="38.897427" lon="111.8357">
        <ele>1458.71</ele>
        <time>2014-01-24T00:37:44.803000Z</time>
      </trkpt>
      <trkpt lat="38.897446" lon="111.83557">
        <ele>1459.042</ele>
        <time>2014-01-24T00:37:49.874000Z</time>
      </trkpt>
      <trkpt lat="38.89746" lon="111.83543">
        <ele>1459.3181</ele>
        <time>2014-01-24T00:37:54.945000Z</time>
      </trkpt>
      <trkpt lat="38.89746" lon="111.83543">
        <ele>1459.5862</ele>
        <time>2014-01-24T00:38:00.016000Z</time>
      </trkpt>
      <trkpt lat="38.897465" lon="111.835304">
        <ele>1459.5828</ele>
        <time>2014-01-24T00:38:05.087000Z</time>
      </trkpt>
      <trkpt lat="38.89754" lon="111.83521">
        <ele>1459.4618</ele>
        <time>2014-01-24T00:38:10.158000Z</time>
      </trkpt>
      <trkpt lat="38.89763" lon="111.83515">
        <ele>1459.7183</ele>
        <time>2014-01-24T00:38:15.229000Z</time>
      </trkpt>
      <trkpt lat="38.897705" lon="111.8351">
        <ele>1460.3757</ele>
        <time>2014-01-24T00:38:20.300000Z</time>
      </trkpt>
      <trkpt lat="38.897793" lon="111.83502">
        <ele>1461.242</ele>
        <time>2014-01-24T00:38:25.371000Z</time>
      </trkpt>
      <trkpt lat="38.89787" lon="111.83497">
        <ele>1461.975</ele>
        <time>2014-01-24T00:38:30.442000Z</time>
      </trkpt>
      <trkpt lat="38.897957" lon="111.834915">
        <ele>1462.2878</ele>
        <time>2014-01-24T00:38:35.513000Z</time>
      </trkpt>
      <trkpt lat="38.898052" lon="111.83488">
        <ele>1462.2124</ele>
        <time>2014-01-24T00:38:40.584000Z</time>
      </trkpt>
      <trkpt lat="38.898144" lon="111.83483">
        <ele>1461.8245</ele>
        <time>2014-01-24T00:38:45.655000Z</time>
      </trkpt>
      <trkpt lat="38.898235" lon="111.83485">
        <ele>1461.1217</ele>
        <time>2014-01-24T00:38:50.726000Z</time>
      </trkpt>
      <trkpt lat="38.898335" lon="111.83488">
        <ele>1460.5835</ele>
        <time>2014-01-24T00:38:55.797000Z</time>
      </trkpt>
      <trkpt lat="38.898434" lon="111.83487">
        <ele>1460.5616</ele>
        <time>2014-01-24T00:39:00.868000Z</time>
      </trkpt>
      <trkpt lat="38.898514" lon="111.8348">
        <ele>1460.6558</ele>
        <time>2014-01-24T00:39:05.939000Z</time>
      </trkpt>
      <trkpt lat="38.898556" lon="111.83469">
        <ele>1460.3326</ele>
        <time>2014-01-24T00:39:11.010000Z</time>
      </trkpt>
      <trkpt lat="38.898598" lon="111.83481">
        <ele>1459.5151</ele>
        <time>2014-01-24T00:39:16.081000Z</time>
      </trkpt>
      <trkpt lat="38.89868" lon="111.83486">
        <ele>1458.5764</ele>
        <time>2014-01-24T00:39:21.152000Z</time>
      </trkpt>
      <trkpt lat="38.898773" lon="111.83483">
        <ele>1457.9536</ele>
        <time>2014-01-24T00:39:26.223000Z</time>
      </trkpt>
      <trkpt lat="38.898865" lon="111.83483">
        <ele>1457.835</ele>
        <time>2014-01-24T00:39:31.294000Z</time>
      </trkpt>
      <trkpt lat="38.898945" lon="111.83489">
        <ele>1458.0756</ele>
        <time>2014-01-24T00:39:36.365000Z</time>
      </trkpt>
      <trkpt lat="38.89892" lon="111.835014">
        <ele>1459.2979</ele>
        <time>2014-01-24T00:39:41.436000Z</time>
      </trkpt>
      <trkpt lat="38.898945" lon="111.83513">
        <ele>1461.8627</ele>
        <time>2014-01-24T00:39:46.507000Z</time>
      </trkpt>
      <trkpt lat="38.898975" lon="111.83524">
        <ele>1463.6846</ele>
        <time>2014-01-24T00:39:51.578000Z</time>
      </trkpt>
      <trkpt lat="38.898975" lon="111.83524">
        <ele>1463.0569</ele>
        <time>2014-01-24T00:39:56.649000Z</time>
      </trkpt>
      <trkpt lat="38.897495" lon="111.83514">
        <ele>1463.568</ele>
        <time>2014-01-24T00:40:01.720000Z</time>
      </trkpt>
      <trkpt lat="38.89749" lon="111.83513">
        <ele>1463.6755</ele>
        <time>2014-01-24T00:40:06.791000Z</time>
      </trkpt>
      <trkpt lat="38.897472" lon="111.834984">
        <ele>1462.9165</ele>
        <time>2014-01-24T00:40:11.862000Z</time>
      </trkpt>
      <trkpt lat="38.89748" lon="111.83485">
        <ele>1460.8505</ele>
        <time>2014-01-24T00:40:16.933000Z</time>
      </trkpt>
      <trkpt lat="38.897476" lon="111.834694">
        <ele>1459.5664</ele>
        <time>2014-01-24T00:40:22.004000Z</time>
      </trkpt>
      <trkpt lat="38.897484" lon="111.83457">
        <ele>1458.6793</ele>
        <time>2014-01-24T00:40:27.075000Z</time>
      </trkpt>
      <trkpt lat="38.89748" lon="111.83444">
        <ele>1458.2993</ele>
        <time>2014-01-24T00:40:32.146000Z</time>
      </trkpt>
      <trkpt lat="38.897472" lon="111.8343">
        <ele>1457.8512</ele>
        <time>2014-01-24T00:40:37.217000Z</time>
      </trkpt>
      <trkpt lat="38.897476" lon="111.83415">
        <ele>1457.159</ele>
        <time>2014-01-24T00:40:42.288000Z</time>
      </trkpt>
      <trkpt lat="38.897472" lon="111.83401">
        <ele>1456.8993</ele>
        <time>2014-01-24T00:40:47.359000Z</time>
      </trkpt>
      <trkpt lat="38.897472" lon="111.83387">
        <ele>1457.6112</ele>
        <time>2014-01-24T00:40:52.430000Z</time>
      </trkpt>
      <trkpt lat="38.89748" lon="111.83374">
        <ele>1458.4998</ele>
        <time>2014-01-24T00:40:57.501000Z</time>
      </trkpt>
      <trkpt lat="38.897476" lon="111.83361">
        <ele>1458.3977</ele>
        <time>2014-01-24T00:41:02.572000Z</time>
      </trkpt>
      <trkpt lat="38.89747" lon="111.833466">
        <ele>1457.1919</ele>
        <time>2014-01-24T00:41:07.643000Z</time>
      </trkpt>
      <trkpt lat="38.89746" lon="111.83334">
        <ele>1455.8733</ele>
        <time>2014-01-24T00:41:12.714000Z</time>
      </trkpt>
      <trkpt lat="38.89746" lon="111.83322">
        <ele>1455.3801</ele>
        <time>2014-01-24T00:41:17.785000Z</time>
      </trkpt>
      <trkpt lat="38.89746" lon="111.83322">
        <ele>1455.6268</ele>
        <time>2014-01-24T00:41:22.856000Z</time>
      </trkpt>
      <trkpt lat="38.89745" lon="111.83309">
        <ele>1456.3701</ele>
        <time>2014-01-24T00:41:27.927000Z</time>
      </trkpt>
      <trkpt lat="38.89744" lon="111.83296">
        <ele>1457.1577</ele>
        <time>2014-01-24T00:41:32.998000Z</time>
      </trkpt>
      <trkpt lat="38.89745" lon="111.83283">
        <ele>1457.5951</ele>
        <time>2014-01-24T00:41:38.069000Z</time>
      </trkpt>
      <trkpt lat="38.897438" lon="111.83271">
        <ele>1457.9125</ele>
        <time>2014-01-24T00:41:43.140000Z</time>
      </trkpt>
      <trkpt lat="38.897434" lon="111.83258">
        <ele>1458.2594</ele>
        <time>2014-01-24T00:41:48.211000Z</time>
      </trkpt>
      <trkpt lat="38.897457" lon="111.832466">
        <ele>1458.0095</ele>
        <time>2014-01-24T00:41:53.282000Z</time>
      </trkpt>
      <trkpt lat="38.89756" lon="111.83246">
        <ele>1457.012</ele>
        <time>2014-01-24T00:41:58.353000Z</time>
      </trkpt>
      <trkpt lat="38.897648" lon="111.832436">
        <ele>1455.44</ele>
        <time>2014-01-24T00:42:03.424000Z</time>
      </trkpt>
      <trkpt lat="38.897747" lon="111.832405">
        <ele>1453.4055</ele>
        <time>2014-01-24T00:42:08.495000Z</time>
      </trkpt>
      <trkpt lat="38.897835" lon="111.83236">
        <ele>1451.455</ele>
        <time>2014-01-24T00:42:13.566000Z</time>
      </trkpt>
      <trkpt lat="38.89793" lon="111.83233">
        <ele>1450.6609</ele>
        <time>2014-01-24T00:42:18.637000Z</time>
      </trkpt>
      <trkpt lat="38.898018" lon="111.83231">
        <ele>1451.164</ele>
        <time>2014-01-24T00:42:23.708000Z</time>
      </trkpt>
      <trkpt lat="38.89811" lon="111.83234">
        <ele>1452.2546</ele>
        <time>2014-01-24T00:42:28.779000Z</time>
      </trkpt>
      <trkpt lat="38.89821" lon="111.83235">
        <ele>1453.094</ele>
        <time>2014-01-24T00:42:33.850000Z</time>
      </trkpt>
      <trkpt lat="38.89831" lon="111.83236">
        <ele>1453.3151</ele>
        <time>2014-01-24T00:42:38.921000Z</time>
      </trkpt>
      <trkpt lat="38.898415" lon="111.83238">
        <ele>1453.1616</ele>
        <time>2014-01-24T00:42:43.992000Z</time>
      </trkpt>
      <trkpt lat="38.898502" lon="111.83242">
        <ele>1453.076</ele>
        <time>2014-01-24T00:42:49.063000Z</time>
      </trkpt>
      <trkpt lat="38.89859" lon="111.83245">
        <ele>1453.2136</ele>
        <time>2014-01-24T00:42:54.134000Z</time>
      </trkpt>
      <trkpt lat="38.89869" lon="111.8325">
        <ele>1453.4532</ele>
        <time>2014-01-24T00:42:59.205000Z</time>
      </trkpt>
      <trkpt lat="38.898785" lon="111.83255">
        <ele>1453.4342</ele>
        <time>2014-01-24T00:43:04.276000Z</time>
      </trkpt>
      <trkpt lat="38.898872" lon="111.83261">
        <ele>1453.0752</ele>
        <time>2014-01-24T00:43:09.347000Z</time>
      </trkpt>
      <trkpt lat="38.89896" lon="111.83266">
        <ele>1452.6691</ele>
        <time>2014-01-24T00:43:14.418000Z</time>
      </trkpt>
      <trkpt lat="38.899048" lon="111.832726">
        <ele>1452.2013</ele>
        <time>2014-01-24T00:43:19.489000Z</time>
      </trkpt>
      <trkpt lat="38.899136" lon="111.83276">
        <ele>1451.215</ele>
        <time>2014-01-24T00:43:24.560000Z</time>
      </trkpt>
      <trkpt lat="38.89918" lon="111.83288">
        <ele>1449.7615</ele>
        <time>2014-01-24T00:43:29.631000Z</time>
      </trkpt>
      <trkpt lat="38.89926" lon="111.83296">
        <ele>1448.4888</ele>
        <time>2014-01-24T00:43:34.702000Z</time>
      </trkpt>
      <trkpt lat="38.899345" lon="111.83302">
        <ele>1447.8369</ele>
        <time>2014-01-24T00:43:39.773000Z</time>
      </trkpt>
      <trkpt lat="38.899345" lon="111.83302">
        <ele>1447.5701</ele>
        <time>2014-01-24T00:43:44.844000Z</time>
      </trkpt>
      <trkpt lat="38.899345" lon="111.83302">
        <ele>1447.1711</ele>
        <time>2014-01-24T00:43:49.915000Z</time>
      </trkpt>
      <trkpt lat="38.899345" lon="111.83302">
        <ele>1446.5586</ele>
        <time>2014-01-24T00:43:54.986000Z</time>
      </trkpt>
      <trkpt lat="38.89945" lon="111.833">
        <ele>1446.0723</ele>
        <time>2014-01-24T00:44:00.057000Z</time>
      </trkpt>
      <trkpt lat="38.899513" lon="111.83292">
        <ele>1445.8442</ele>
        <time>2014-01-24T00:44:05.128000Z</time>
      </trkpt>
      <trkpt lat="38.899605" lon="111.832855">
        <ele>1445.5187</ele>
        <time>2014-01-24T00:44:10.199000Z</time>
      </trkpt>
      <trkpt lat="38.899696" lon="111.832825">
        <ele>1444.6283</ele>
        <time>2014-01-24T00:44:15.270000Z</time>
      </trkpt>
      <trkpt lat="38.899696" lon="111.832825">
        <ele>1442.6438</ele>
        <time>2014-01-24T00:44:20.341000Z</time>
      </trkpt>
      <trkpt lat="38.89979" lon="111.83288">
        <ele>1442.2678</ele>
        <time>2014-01-24T00:44:25.412000Z</time>
      </trkpt>
      <trkpt lat="38.89989" lon="111.8329">
        <ele>1441.1365</ele>
        <time>2014-01-24T00:44:30.483000Z</time>
      </trkpt>
      <trkpt lat="38.899967" lon="111.83298">
        <ele>1438.6611</ele>
        <time>2014-01-24T00:44:35.554000Z</time>
      </trkpt>
      <trkpt lat="38.900013" lon="111.83309">
        <ele>1436.483</ele>
        <time>2014-01-24T00:44:40.625000Z</time>
      </trkpt>
      <trkpt lat="38.90008" lon="111.833176">
        <ele>1435.9894</ele>
        <time>2014-01-24T00:44:45.696000Z</time>
      </trkpt>
      <trkpt lat="38.900185" lon="111.833176">
        <ele>1435.8983</ele>
        <time>2014-01-24T00:44:50.767000Z</time>
      </trkpt>
      <trkpt lat="38.900284" lon="111.83317">
        <ele>1434.7787</ele>
        <time>2014-01-24T00:44:55.838000Z</time>
      </trkpt>
      <trkpt lat="38.90036" lon="111.83324">
        <ele>1432.8556</ele>
        <time>2014-01-24T00:45:00.909000Z</time>
      </trkpt>
      <trkpt lat="38.900455" lon="111.833244">
        <ele>1430.3059</ele>
        <time>2014-01-24T00:45:05.980000Z</time>
      </trkpt>
      <trkpt lat="38.90053" lon="111.833336">
        <ele>1427.2662</ele>
        <time>2014-01-24T00:45:11.051000Z</time>
      </trkpt>
      <trkpt lat="38.900627" lon="111.83335">
        <ele>1424.9691</ele>
        <time>2014-01-24T00:45:16.122000Z</time>
      </trkpt>
      <trkpt lat="38.90072" lon="111.833405">
        <ele>1424.0519</ele>
        <time>2014-01-24T00:45:21.193000Z</time>
      </trkpt>
      <trkpt lat="38.900806" lon="111.83349">
        <ele>1423.6722</ele>
        <time>2014-01-24T00:45:26.264000Z</time>
      </trkpt>
      <trkpt lat="38.900806" lon="111.83349">
        <ele>1423.1456</ele>
        <time>2014-01-24T00:45:31.335000Z</time>
      </trkpt>
      <trkpt lat="38.90088" lon="111.833565">
        <ele>1422.5614</ele>
        <time>2014-01-24T00:45:36.406000Z</time>
      </trkpt>
      <trkpt lat="38.90088" lon="111.833565">
        <ele>1422.0194</ele>
        <time>2014-01-24T00:45:41.477000Z</time>
      </trkpt>
      <trkpt lat="38.90088" lon="111.833565">
        <ele>1421.4414</ele>
        <time>2014-01-24T00:45:46.548000Z</time>
      </trkpt>
      <trkpt lat="38.90088" lon="111.833565">
        <ele>1420.9299</ele>
        <time>2014-01-24T00:45:51.619000Z</time>
      </trkpt>
      <trkpt lat="38.900894" lon="111.83369">
        <ele>1420.5677</ele>
        <time>2014-01-24T00:45:56.690000Z</time>
      </trkpt>
      <trkpt lat="38.90092" lon="111.83381">
        <ele>1421.3024</ele>
        <time>2014-01-24T00:46:01.761000Z</time>
      </trkpt>
      <trkpt lat="38.900948" lon="111.83393">
        <ele>1423.9435</ele>
        <time>2014-01-24T00:46:06.832000Z</time>
      </trkpt>
      <trkpt lat="38.900967" lon="111.834045">
        <ele>1427.2107</ele>
        <time>2014-01-24T00:46:11.903000Z</time>
      </trkpt>
      <trkpt lat="38.900986" lon="111.83416">
        <ele>1429.3673</ele>
        <time>2014-01-24T00:46:16.974000Z</time>
      </trkpt>
      <trkpt lat="38.90101" lon="111.83429">
        <ele>1430.2662</ele>
        <time>2014-01-24T00:46:22.045000Z</time>
      </trkpt>
      <trkpt lat="38.901012" lon="111.83442">
        <ele>1430.4082</ele>
        <time>2014-01-24T00:46:27.116000Z</time>
      </trkpt>
      <trkpt lat="38.901035" lon="111.83454">
        <ele>1430.024</ele>
        <time>2014-01-24T00:46:32.187000Z</time>
      </trkpt>
      <trkpt lat="38.901054" lon="111.83466">
        <ele>1429.1248</ele>
        <time>2014-01-24T00:46:37.258000Z</time>
      </trkpt>
      <trkpt lat="38.901073" lon="111.834785">
        <ele>1427.9009</ele>
        <time>2014-01-24T00:46:42.329000Z</time>
      </trkpt>
      <trkpt lat="38.901093" lon="111.8349">
        <ele>1426.6517</ele>
        <time>2014-01-24T00:46:47.400000Z</time>
      </trkpt>
      <trkpt lat="38.90113" lon="111.835014">
        <ele>1425.6731</ele>
        <time>2014-01-24T00:46:52.471000Z</time>
      </trkpt>
      <trkpt lat="38.901157" lon="111.83513">
        <ele>1425.5194</ele>
        <time>2014-01-24T00:46:57.542000Z</time>
      </trkpt>
      <trkpt lat="38.90118" lon="111.83524">
        <ele>1426.5593</ele>
        <time>2014-01-24T00:47:02.613000Z</time>
      </trkpt>
      <trkpt lat="38.90119" lon="111.835365">
        <ele>1428.6545</ele>
        <time>2014-01-24T00:47:07.684000Z</time>
      </trkpt>
      <trkpt lat="38.90122" lon="111.83549">
        <ele>1431.0963</ele>
        <time>2014-01-24T00:47:12.755000Z</time>
      </trkpt>
      <trkpt lat="38.901253" lon="111.8356">
        <ele>1432.8608</ele>
        <time>2014-01-24T00:47:17.826000Z</time>
      </trkpt>
      <trkpt lat="38.90128" lon="111.835724">
        <ele>1433.0142</ele>
        <time>2014-01-24T00:47:22.897000Z</time>
      </trkpt>
      <trkpt lat="38.901314" lon="111.83584">
        <ele>1431.7113</ele>
        <time>2014-01-24T00:47:27.968000Z</time>
      </trkpt>
      <trkpt lat="38.901405" lon="111.83582">
        <ele>1430.2202</ele>
        <time>2014-01-24T00:47:33.039000Z</time>
      </trkpt>
      <trkpt lat="38.901497" lon="111.835785">
        <ele>1429.5194</ele>
        <time>2014-01-24T00:47:38.110000Z</time>
      </trkpt>
      <trkpt lat="38.901596" lon="111.83582">
        <ele>1428.6647</ele>
        <time>2014-01-24T00:47:43.181000Z</time>
      </trkpt>
      <trkpt lat="38.901634" lon="111.835945">
        <ele>1426.5161</ele>
        <time>2014-01-24T00:47:48.252000Z</time>
      </trkpt>
      <trkpt lat="38.901722" lon="111.835976">
        <time>2014-01-24T00:47:53.323000Z</time>
      </trkpt>
    </trkseg>
  </trk>
</gpx>