<?xml version="1.0" encoding="UTF-8"?>
<gpx xmlns="http://www.topografix.com/GPX/1/1" xmlns:gpxtpx="http://www.garmin.com/xmlschemas/TrackPointExtension/v1" xmlns:xsi="http://www.w3.org/2001/XMLSchema-instance" xsi:schemaLocation="http://www.topografix.com/GPX/1/1 http://www.topografix.com/GPX/1/1/gpx.xsd" version="1.1" creator="gpx.py -- https://github.com/tkrajina/gpxpy">
  <trk>
    <trkseg>
      <trkpt lat="38.91224" lon="111.85024">
        <ele>1421.4335</ele>
        <time>2014-01-25T23:58:04.169000Z</time>
      </trkpt>
      <trkpt lat="38.91221" lon="111.85013">
        <ele>1420.9644</ele>
        <time>2014-01-25T23:58:08.686000Z</time>
      </trkpt>
      <trkpt lat="38.91218" lon="111.84999">
        <ele>1420.3159</ele>
        <time>2014-01-25T23:58:13.203000Z</time>
      </trkpt>
      <trkpt lat="38.91216" lon="111.84985">
        <ele>1419.1934</ele>
        <time>2014-01-25T23:58:17.720000Z</time>
      </trkpt>
      <trkpt lat="38.912125" lon="111.84974">
        <ele>1418.6449</ele>
        <time>2014-01-25T23:58:22.237000Z</time>
      </trkpt>
      <trkpt lat="38.912125" lon="111.84974">
        <ele>1419.399</ele>
        <time>2014-01-25T23:58:26.754000Z</time>
      </trkpt>
      <trkpt lat="38.912098" lon="111.84961">
        <ele>1420.5797</ele>
        <time>2014-01-25T23:58:31.271000Z</time>
      </trkpt>
      <trkpt lat="38.91208" lon="111.84949">
        <ele>1421.5962</ele>
        <time>2014-01-25T23:58:35.787000Z</time>
      </trkpt>
      <trkpt lat="38.91208" lon="111.84949">
        <ele>1422.6608</ele>
        <time>2014-01-25T23:58:40.303000Z</time>
      </trkpt>
      <trkpt lat="38.912037" lon="111.84935">
        <ele>1423.1825</ele>
        <time>2014-01-25T23:58:44.819000Z</time>
      </trkpt>
      <trkpt lat="38.912003" lon="111.84921">
        <ele>1422.6287</ele>
        <time>2014-01-25T23:58:49.335000Z</time>
      </trkpt>
      <trkpt lat="38.911976" lon="111.84908">
        <ele>1421.6814</ele>
        <time>2014-01-25T23:58:53.851000Z</time>
      </trkpt>
      <trkpt lat="38.91195" lon="111.84896">
        <ele>1421.0743</ele>
        <time>2014-01-25T23:58:58.367000Z</time>
      </trkpt>
      <trkpt lat="38.911922" lon="111.84882">
        <ele>1420.8396</ele>
        <time>2014-01-25T23:59:02.883000Z</time>
      </trkpt>
      <trkpt lat="38.911892" lon="111.84871">
        <ele>1420.81</ele>
        <time>2014-01-25T23:59:07.399000Z</time>
      </trkpt>
      <trkpt lat="38.911858" lon="111.84859">
        <ele>1420.4691</ele>
        <time>2014-01-25T23:59:11.915000Z</time>
      </trkpt>
      <trkpt lat="38.911827" lon="111.84845">
        <ele>1419.5066</ele>
        <time>2014-01-25T23:59:16.431000Z</time>
      </trkpt>
      <trkpt lat="38.911793" lon="111.84833">
        <ele>1418.6959</ele>
        <time>2014-01-25T23:59:20.947000Z</time>
      </trkpt>
      <trkpt lat="38.91175" lon="111.84821">
        <ele>1418.9491</ele>
        <time>2014-01-25T23:59:25.463000Z</time>
      </trkpt>
      <trkpt lat="38.91173" lon="111.84809">
        <ele>1419.9702</ele>
        <time>2014-01-25T23:59:29.979000Z</time>
      </trkpt>
      <trkpt lat="38.91171" lon="111.84797">
        <ele>1420.7666</ele>
        <time>2014-01-25T23:59:34.495000Z</time>
      </trkpt>
      <trkpt lat="38.91167" lon="111.84785">
        <ele>1420.8627</ele>
        <time>2014-01-25T23:59:39.011000Z</time>
      </trkpt>
      <trkpt lat="38.911636" lon="111.84773">
        <ele>1421.0055</ele>
        <time>2014-01-25T23:59:43.527000Z</time>
      </trkpt>
      <trkpt lat="38.91161" lon="111.84762">
        <ele>1421.8485</ele>
        <time>2014-01-25T23:59:48.043000Z</time>
      </trkpt>
      <trkpt lat="38.911587" lon="111.84748">
        <ele>1422.6128</ele>
        <time>2014-01-25T23:59:52.559000Z</time>
      </trkpt>
      <trkpt lat="38.911556" lon="111.84736">
        <ele>1422.4966</ele>
        <time>2014-01-25T23:59:57.075000Z</time>
      </trkpt>
      <trkpt lat="38.911522" lon="111.84725">
        <ele>1421.9467</ele>
        <time>2014-01-26T00:00:01.591000Z</time>
      </trkpt>
      <trkpt lat="38.911488" lon="111.84712">
        <ele>1421.5787</ele>
        <time>2014-01-26T00:00:06.107000Z</time>
      </trkpt>
      <trkpt lat="38.911457" lon="111.847">
        <ele>1421.4795</ele>
        <time>2014-01-26T00:00:10.623000Z</time>
      </trkpt>
      <trkpt lat="38.91144" lon="111.846886">
        <ele>1421.3323</ele>
        <time>2014-01-26T00:00:15.139000Z</time>
      </trkpt>
      <trkpt lat="38.911415" lon="111.846756">
        <ele>1420.8524</ele>
        <time>2014-01-26T00:00:19.655000Z</time>
      </trkpt>
      <trkpt lat="38.911392" lon="111.84664">
        <ele>1420.1031</ele>
        <time>2014-01-26T00:00:24.171000Z</time>
      </trkpt>
      <trkpt lat="38.91136" lon="111.84652">
        <ele>1419.3428</ele>
        <time>2014-01-26T00:00:28.687000Z</time>
      </trkpt>
      <trkpt lat="38.911346" lon="111.84638">
        <ele>1418.8201</ele>
        <time>2014-01-26T00:00:33.203000Z</time>
      </trkpt>
      <trkpt lat="38.91135" lon="111.846245">
        <ele>1418.9054</ele>
        <time>2014-01-26T00:00:37.719000Z</time>
      </trkpt>
      <trkpt lat="38.911304" lon="111.846115">
        <ele>1419.6222</ele>
        <time>2014-01-26T00:00:42.235000Z</time>
      </trkpt>
      <trkpt lat="38.911285" lon="111.84599">
        <ele>1420.3568</ele>
        <time>2014-01-26T00:00:46.751000Z</time>
      </trkpt>
      <trkpt lat="38.911266" lon="111.84586">
        <ele>1420.606</ele>
        <time>2014-01-26T00:00:51.267000Z</time>
      </trkpt>
      <trkpt lat="38.911263" lon="111.84574">
        <ele>1420.4182</ele>
        <time>2014-01-26T00:00:55.783000Z</time>
      </trkpt>
      <trkpt lat="38.91124" lon="111.84563">
        <ele>1419.3733</ele>
        <time>2014-01-26T00:01:00.299000Z</time>
      </trkpt>
      <trkpt lat="38.911205" lon="111.84549">
        <ele>1417.2156</ele>
        <time>2014-01-26T00:01:04.815000Z</time>
      </trkpt>
      <trkpt lat="38.91118" lon="111.84535">
        <ele>1414.8105</ele>
        <time>2014-01-26T00:01:09.331000Z</time>
      </trkpt>
      <trkpt lat="38.91114" lon="111.84522">
        <ele>1413.152</ele>
        <time>2014-01-26T00:01:13.847000Z</time>
      </trkpt>
      <trkpt lat="38.911076" lon="111.84511">
        <ele>1413.4775</ele>
        <time>2014-01-26T00:01:18.363000Z</time>
      </trkpt>
      <trkpt lat="38.91102" lon="111.84498">
        <ele>1418.2301</ele>
        <time>2014-01-26T00:01:22.879000Z</time>
      </trkpt>
      <trkpt lat="38.910957" lon="111.844864">
        <ele>1426.8711</ele>
        <time>2014-01-26T00:01:27.395000Z</time>
      </trkpt>
      <trkpt lat="38.910904" lon="111.84475">
        <ele>1434.587</ele>
        <time>2014-01-26T00:01:31.911000Z</time>
      </trkpt>
      <trkpt lat="38.910877" lon="111.84463">
        <ele>1438.2308</ele>
        <time>2014-01-26T00:01:36.427000Z</time>
      </trkpt>
      <trkpt lat="38.910877" lon="111.84463">
        <ele>1438.8014</ele>
        <time>2014-01-26T00:01:40.943000Z</time>
      </trkpt>
      <trkpt lat="38.91085" lon="111.844505">
        <ele>1438.0833</ele>
        <time>2014-01-26T00:01:45.459000Z</time>
      </trkpt>
      <trkpt lat="38.910816" lon="111.844376">
        <ele>1437.1812</ele>
        <time>2014-01-26T00:01:49.975000Z</time>
      </trkpt>
      <trkpt lat="38.910816" lon="111.844376">
        <ele>1436.4565</ele>
        <time>2014-01-26T00:01:54.491000Z</time>
      </trkpt>
      <trkpt lat="38.910805" lon="111.84425">
        <ele>1435.9</ele>
        <time>2014-01-26T00:01:59.007000Z</time>
      </trkpt>
      <trkpt lat="38.91078" lon="111.84414">
        <ele>1434.4983</ele>
        <time>2014-01-26T00:02:03.523000Z</time>
      </trkpt>
      <trkpt lat="38.910763" lon="111.84401">
        <ele>1430.7434</ele>
        <time>2014-01-26T00:02:08.039000Z</time>
      </trkpt>
      <trkpt lat="38.910732" lon="111.84387">
        <ele>1425.0315</ele>
        <time>2014-01-26T00:02:12.555000Z</time>
      </trkpt>
      <trkpt lat="38.910706" lon="111.84375">
        <ele>1419.898</ele>
        <time>2014-01-26T00:02:17.071000Z</time>
      </trkpt>
      <trkpt lat="38.910686" lon="111.84362">
        <ele>1417.3707</ele>
        <time>2014-01-26T00:02:21.587000Z</time>
      </trkpt>
      <trkpt lat="38.910656" lon="111.843506">
        <ele>1418.371</ele>
        <time>2014-01-26T00:02:26.103000Z</time>
      </trkpt>
      <trkpt lat="38.910614" lon="111.84338">
        <ele>1422.0919</ele>
        <time>2014-01-26T00:02:30.619000Z</time>
      </trkpt>
      <trkpt lat="38.91059" lon="111.84326">
        <ele>1426.181</ele>
        <time>2014-01-26T00:02:35.135000Z</time>
      </trkpt>
      <trkpt lat="38.910572" lon="111.84315">
        <ele>1429.6211</ele>
        <time>2014-01-26T00:02:39.651000Z</time>
      </trkpt>
      <trkpt lat="38.91059" lon="111.843025">
        <time>2014-01-26T00:02:44.167000Z</time>
      </trkpt>
    </trkseg>
  </trk>
</gpx>