<?xml version="1.0" encoding="UTF-8"?>
<gpx xmlns="http://www.topografix.com/GPX/1/1" xmlns:gpxtpx="http://www.garmin.com/xmlschemas/TrackPointExtension/v1" xmlns:xsi="http://www.w3.org/2001/XMLSchema-instance" xsi:schemaLocation="http://www.topografix.com/GPX/1/1 http://www.topografix.com/GPX/1/1/gpx.xsd" version="1.1" creator="gpx.py -- https://github.com/tkrajina/gpxpy">
  <trk>
    <trkseg>
      <trkpt lat="38.90683" lon="111.838356">
        <ele>1437.5508</ele>
        <time>2014-01-25T23:09:25.008000Z</time>
      </trkpt>
      <trkpt lat="38.906837" lon="111.838356">
        <ele>1433.672</ele>
        <time>2014-01-25T23:09:29.084000Z</time>
      </trkpt>
      <trkpt lat="38.90693" lon="111.838326">
        <ele>1430.1421</ele>
        <time>2014-01-25T23:09:33.160000Z</time>
      </trkpt>
      <trkpt lat="38.90704" lon="111.8383">
        <ele>1426.9688</ele>
        <time>2014-01-25T23:09:37.236000Z</time>
      </trkpt>
      <trkpt lat="38.90713" lon="111.83825">
        <ele>1424.9441</ele>
        <time>2014-01-25T23:09:41.312000Z</time>
      </trkpt>
      <trkpt lat="38.907215" lon="111.83818">
        <ele>1424.7965</ele>
        <time>2014-01-25T23:09:45.388000Z</time>
      </trkpt>
      <trkpt lat="38.907307" lon="111.83812">
        <ele>1426.6509</ele>
        <time>2014-01-25T23:09:49.464000Z</time>
      </trkpt>
      <trkpt lat="38.907406" lon="111.83804">
        <ele>1428.2823</ele>
        <time>2014-01-25T23:09:53.540000Z</time>
      </trkpt>
      <trkpt lat="38.907497" lon="111.838">
        <ele>1427.9536</ele>
        <time>2014-01-25T23:09:57.616000Z</time>
      </trkpt>
      <trkpt lat="38.90759" lon="111.837944">
        <ele>1426.74</ele>
        <time>2014-01-25T23:10:01.692000Z</time>
      </trkpt>
      <trkpt lat="38.90768" lon="111.83789">
        <ele>1426.0193</ele>
        <time>2014-01-25T23:10:05.768000Z</time>
      </trkpt>
      <trkpt lat="38.907776" lon="111.83785">
        <ele>1425.6365</ele>
        <time>2014-01-25T23:10:09.844000Z</time>
      </trkpt>
      <trkpt lat="38.907867" lon="111.83783">
        <ele>1425.1099</ele>
        <time>2014-01-25T23:10:13.920000Z</time>
      </trkpt>
      <trkpt lat="38.907955" lon="111.83778">
        <ele>1424.5834</ele>
        <time>2014-01-25T23:10:17.996000Z</time>
      </trkpt>
      <trkpt lat="38.908047" lon="111.83772">
        <ele>1424.3004</ele>
        <time>2014-01-25T23:10:22.072000Z</time>
      </trkpt>
      <trkpt lat="38.908154" lon="111.83766">
        <ele>1424.1691</ele>
        <time>2014-01-25T23:10:26.148000Z</time>
      </trkpt>
      <trkpt lat="38.908245" lon="111.8376">
        <ele>1423.9691</ele>
        <time>2014-01-25T23:10:30.224000Z</time>
      </trkpt>
      <trkpt lat="38.908344" lon="111.837555">
        <ele>1423.3312</ele>
        <time>2014-01-25T23:10:34.300000Z</time>
      </trkpt>
      <trkpt lat="38.908447" lon="111.83752">
        <ele>1422.247</ele>
        <time>2014-01-25T23:10:38.376000Z</time>
      </trkpt>
      <trkpt lat="38.90854" lon="111.83749">
        <ele>1421.3218</ele>
        <time>2014-01-25T23:10:42.452000Z</time>
      </trkpt>
      <trkpt lat="38.908615" lon="111.837425">
        <ele>1421.5316</ele>
        <time>2014-01-25T23:10:46.528000Z</time>
      </trkpt>
      <trkpt lat="38.908707" lon="111.83735">
        <ele>1424.0303</ele>
        <time>2014-01-25T23:10:50.604000Z</time>
      </trkpt>
      <trkpt lat="38.908813" lon="111.83728">
        <ele>1428.833</ele>
        <time>2014-01-25T23:10:54.680000Z</time>
      </trkpt>
      <trkpt lat="38.908913" lon="111.837204">
        <ele>1433.8925</ele>
        <time>2014-01-25T23:10:58.756000Z</time>
      </trkpt>
      <trkpt lat="38.90902" lon="111.837166">
        <ele>1436.9867</ele>
        <time>2014-01-25T23:11:02.832000Z</time>
      </trkpt>
      <trkpt lat="38.909115" lon="111.83719">
        <ele>1437.545</ele>
        <time>2014-01-25T23:11:06.908000Z</time>
      </trkpt>
      <trkpt lat="38.909203" lon="111.8373">
        <ele>1436.1565</ele>
        <time>2014-01-25T23:11:10.984000Z</time>
      </trkpt>
      <trkpt lat="38.909218" lon="111.837425">
        <ele>1433.5979</ele>
        <time>2014-01-25T23:11:15.060000Z</time>
      </trkpt>
      <trkpt lat="38.90921" lon="111.837555">
        <ele>1430.5865</ele>
        <time>2014-01-25T23:11:19.136000Z</time>
      </trkpt>
      <trkpt lat="38.909233" lon="111.8377">
        <ele>1428.004</ele>
        <time>2014-01-25T23:11:23.212000Z</time>
      </trkpt>
      <trkpt lat="38.90927" lon="111.837845">
        <ele>1427.3287</ele>
        <time>2014-01-25T23:11:27.288000Z</time>
      </trkpt>
      <trkpt lat="38.909294" lon="111.83796">
        <ele>1429.0189</ele>
        <time>2014-01-25T23:11:31.364000Z</time>
      </trkpt>
      <trkpt lat="38.90933" lon="111.8381">
        <ele>1431.3983</ele>
        <time>2014-01-25T23:11:35.440000Z</time>
      </trkpt>
      <trkpt lat="38.90936" lon="111.83822">
        <ele>1432.806</ele>
        <time>2014-01-25T23:11:39.516000Z</time>
      </trkpt>
      <trkpt lat="38.909393" lon="111.83835">
        <ele>1432.3162</ele>
        <time>2014-01-25T23:11:43.592000Z</time>
      </trkpt>
      <trkpt lat="38.90943" lon="111.838486">
        <ele>1429.7599</ele>
        <time>2014-01-25T23:11:47.668000Z</time>
      </trkpt>
      <trkpt lat="38.909462" lon="111.838615">
        <ele>1426.5746</ele>
        <time>2014-01-25T23:11:51.744000Z</time>
      </trkpt>
      <trkpt lat="38.909504" lon="111.83873">
        <ele>1424.0233</ele>
        <time>2014-01-25T23:11:55.820000Z</time>
      </trkpt>
      <trkpt lat="38.909542" lon="111.83884">
        <ele>1422.2241</ele>
        <time>2014-01-25T23:11:59.896000Z</time>
      </trkpt>
      <trkpt lat="38.90958" lon="111.83897">
        <ele>1421.6016</ele>
        <time>2014-01-25T23:12:03.972000Z</time>
      </trkpt>
      <trkpt lat="38.909615" lon="111.8391">
        <ele>1422.2599</ele>
        <time>2014-01-25T23:12:08.048000Z</time>
      </trkpt>
      <trkpt lat="38.909637" lon="111.839226">
        <ele>1423.3342</ele>
        <time>2014-01-25T23:12:12.124000Z</time>
      </trkpt>
      <trkpt lat="38.909653" lon="111.839355">
        <ele>1424.1362</ele>
        <time>2014-01-25T23:12:16.200000Z</time>
      </trkpt>
      <trkpt lat="38.909687" lon="111.839485">
        <ele>1424.5454</ele>
        <time>2014-01-25T23:12:20.276000Z</time>
      </trkpt>
      <trkpt lat="38.90971" lon="111.839615">
        <ele>1424.6365</ele>
        <time>2014-01-25T23:12:24.352000Z</time>
      </trkpt>
      <trkpt lat="38.909744" lon="111.83973">
        <ele>1424.4797</ele>
        <time>2014-01-25T23:12:28.428000Z</time>
      </trkpt>
      <trkpt lat="38.909782" lon="111.83986">
        <ele>1423.904</ele>
        <time>2014-01-25T23:12:32.504000Z</time>
      </trkpt>
      <trkpt lat="38.90981" lon="111.84">
        <ele>1422.763</ele>
        <time>2014-01-25T23:12:36.580000Z</time>
      </trkpt>
      <trkpt lat="38.90982" lon="111.84014">
        <ele>1421.4497</ele>
        <time>2014-01-25T23:12:40.656000Z</time>
      </trkpt>
      <trkpt lat="38.90984" lon="111.84029">
        <ele>1420.6384</ele>
        <time>2014-01-25T23:12:44.732000Z</time>
      </trkpt>
      <trkpt lat="38.909863" lon="111.8404">
        <ele>1420.5621</ele>
        <time>2014-01-25T23:12:48.808000Z</time>
      </trkpt>
      <trkpt lat="38.909885" lon="111.840546">
        <ele>1420.4683</ele>
        <time>2014-01-25T23:12:52.884000Z</time>
      </trkpt>
      <trkpt lat="38.90993" lon="111.84069">
        <ele>1419.067</ele>
        <time>2014-01-25T23:12:56.960000Z</time>
      </trkpt>
      <trkpt lat="38.909966" lon="111.84081">
        <ele>1416.3951</ele>
        <time>2014-01-25T23:13:01.036000Z</time>
      </trkpt>
      <trkpt lat="38.910015" lon="111.840935">
        <ele>1414.482</ele>
        <time>2014-01-25T23:13:05.112000Z</time>
      </trkpt>
      <trkpt lat="38.91005" lon="111.841064">
        <ele>1414.8939</ele>
        <time>2014-01-25T23:13:09.188000Z</time>
      </trkpt>
      <trkpt lat="38.91009" lon="111.8412">
        <ele>1417.1338</ele>
        <time>2014-01-25T23:13:13.264000Z</time>
      </trkpt>
      <trkpt lat="38.910126" lon="111.84135">
        <ele>1419.6622</ele>
        <time>2014-01-25T23:13:17.340000Z</time>
      </trkpt>
      <trkpt lat="38.91015" lon="111.841484">
        <ele>1421.328</ele>
        <time>2014-01-25T23:13:21.416000Z</time>
      </trkpt>
      <trkpt lat="38.910175" lon="111.84163">
        <ele>1422.0037</ele>
        <time>2014-01-25T23:13:25.492000Z</time>
      </trkpt>
      <trkpt lat="38.9102" lon="111.84175">
        <ele>1422.1147</ele>
        <time>2014-01-25T23:13:29.568000Z</time>
      </trkpt>
      <trkpt lat="38.91023" lon="111.841896">
        <ele>1421.5498</ele>
        <time>2014-01-25T23:13:33.644000Z</time>
      </trkpt>
      <trkpt lat="38.91026" lon="111.842026">
        <ele>1420.249</ele>
        <time>2014-01-25T23:13:37.720000Z</time>
      </trkpt>
      <trkpt lat="38.91029" lon="111.84217">
        <ele>1419.1392</ele>
        <time>2014-01-25T23:13:41.796000Z</time>
      </trkpt>
      <trkpt lat="38.910336" lon="111.84231">
        <ele>1419.471</ele>
        <time>2014-01-25T23:13:45.872000Z</time>
      </trkpt>
      <trkpt lat="38.910385" lon="111.84243">
        <ele>1421.7605</ele>
        <time>2014-01-25T23:13:49.948000Z</time>
      </trkpt>
      <trkpt lat="38.910427" lon="111.84256">
        <ele>1425.2666</ele>
        <time>2014-01-25T23:13:54.024000Z</time>
      </trkpt>
      <trkpt lat="38.910465" lon="111.84268">
        <ele>1428.2452</ele>
        <time>2014-01-25T23:13:58.100000Z</time>
      </trkpt>
      <trkpt lat="38.910473" lon="111.8428">
        <ele>1429.6062</ele>
        <time>2014-01-25T23:14:02.176000Z</time>
      </trkpt>
      <trkpt lat="38.910503" lon="111.8429">
        <ele>1428.6786</ele>
        <time>2014-01-25T23:14:06.252000Z</time>
      </trkpt>
      <trkpt lat="38.910538" lon="111.84302">
        <ele>1425.7155</ele>
        <time>2014-01-25T23:14:10.328000Z</time>
      </trkpt>
      <trkpt lat="38.91057" lon="111.843155">
        <ele>1423.4786</ele>
        <time>2014-01-25T23:14:14.404000Z</time>
      </trkpt>
      <trkpt lat="38.910603" lon="111.84331">
        <ele>1424.0182</ele>
        <time>2014-01-25T23:14:18.480000Z</time>
      </trkpt>
      <trkpt lat="38.910618" lon="111.84344">
        <ele>1425.901</ele>
        <time>2014-01-25T23:14:22.556000Z</time>
      </trkpt>
      <trkpt lat="38.910637" lon="111.84357">
        <ele>1427.1411</ele>
        <time>2014-01-25T23:14:26.632000Z</time>
      </trkpt>
      <trkpt lat="38.910656" lon="111.8437">
        <ele>1427.0391</ele>
        <time>2014-01-25T23:14:30.708000Z</time>
      </trkpt>
      <trkpt lat="38.910683" lon="111.843834">
        <ele>1425.9177</ele>
        <time>2014-01-25T23:14:34.784000Z</time>
      </trkpt>
      <trkpt lat="38.91072" lon="111.84397">
        <ele>1424.9545</ele>
        <time>2014-01-25T23:14:38.860000Z</time>
      </trkpt>
      <trkpt lat="38.910763" lon="111.84409">
        <ele>1424.87</ele>
        <time>2014-01-25T23:14:42.936000Z</time>
      </trkpt>
      <trkpt lat="38.910793" lon="111.844246">
        <ele>1425.0569</ele>
        <time>2014-01-25T23:14:47.012000Z</time>
      </trkpt>
      <trkpt lat="38.910812" lon="111.84439">
        <ele>1424.8564</ele>
        <time>2014-01-25T23:14:51.088000Z</time>
      </trkpt>
      <trkpt lat="38.91085" lon="111.84451">
        <ele>1424.4556</ele>
        <time>2014-01-25T23:14:55.164000Z</time>
      </trkpt>
      <trkpt lat="38.91087" lon="111.84464">
        <ele>1424.1459</ele>
        <time>2014-01-25T23:14:59.240000Z</time>
      </trkpt>
      <trkpt lat="38.91092" lon="111.84478">
        <ele>1423.7579</ele>
        <time>2014-01-25T23:15:03.316000Z</time>
      </trkpt>
      <trkpt lat="38.910946" lon="111.84492">
        <ele>1423.2148</ele>
        <time>2014-01-25T23:15:07.392000Z</time>
      </trkpt>
      <trkpt lat="38.910976" lon="111.84503">
        <ele>1422.9664</ele>
        <time>2014-01-25T23:15:11.468000Z</time>
      </trkpt>
      <trkpt lat="38.911007" lon="111.84515">
        <ele>1423.3519</ele>
        <time>2014-01-25T23:15:15.544000Z</time>
      </trkpt>
      <trkpt lat="38.911053" lon="111.84528">
        <ele>1424.2446</ele>
        <time>2014-01-25T23:15:19.620000Z</time>
      </trkpt>
      <trkpt lat="38.911087" lon="111.84543">
        <ele>1426.1207</ele>
        <time>2014-01-25T23:15:23.696000Z</time>
      </trkpt>
      <trkpt lat="38.911114" lon="111.84556">
        <ele>1429.0371</ele>
        <time>2014-01-25T23:15:27.772000Z</time>
      </trkpt>
      <trkpt lat="38.911148" lon="111.84568">
        <ele>1431.4872</ele>
        <time>2014-01-25T23:15:31.848000Z</time>
      </trkpt>
      <trkpt lat="38.911186" lon="111.84581">
        <ele>1431.9056</ele>
        <time>2014-01-25T23:15:35.924000Z</time>
      </trkpt>
      <trkpt lat="38.911213" lon="111.84593">
        <ele>1430.4647</ele>
        <time>2014-01-25T23:15:40Z</time>
      </trkpt>
      <trkpt lat="38.911236" lon="111.84607">
        <ele>1427.9694</ele>
        <time>2014-01-25T23:15:44.076000Z</time>
      </trkpt>
      <trkpt lat="38.911247" lon="111.8462">
        <ele>1424.8257</ele>
        <time>2014-01-25T23:15:48.152000Z</time>
      </trkpt>
      <trkpt lat="38.911274" lon="111.84633">
        <ele>1421.8159</ele>
        <time>2014-01-25T23:15:52.228000Z</time>
      </trkpt>
      <trkpt lat="38.911304" lon="111.846466">
        <ele>1420.2682</ele>
        <time>2014-01-25T23:15:56.304000Z</time>
      </trkpt>
      <trkpt lat="38.911335" lon="111.84661">
        <ele>1420.6245</ele>
        <time>2014-01-25T23:16:00.380000Z</time>
      </trkpt>
      <trkpt lat="38.91136" lon="111.84674">
        <ele>1422.1328</ele>
        <time>2014-01-25T23:16:04.456000Z</time>
      </trkpt>
      <trkpt lat="38.911385" lon="111.846886">
        <ele>1423.4493</ele>
        <time>2014-01-25T23:16:08.532000Z</time>
      </trkpt>
      <trkpt lat="38.91142" lon="111.847">
        <ele>1423.25</ele>
        <time>2014-01-25T23:16:12.608000Z</time>
      </trkpt>
      <trkpt lat="38.91145" lon="111.847115">
        <ele>1421.4446</ele>
        <time>2014-01-25T23:16:16.684000Z</time>
      </trkpt>
      <trkpt lat="38.91148" lon="111.84725">
        <ele>1419.4541</ele>
        <time>2014-01-25T23:16:20.760000Z</time>
      </trkpt>
      <trkpt lat="38.91151" lon="111.84738">
        <ele>1418.4104</ele>
        <time>2014-01-25T23:16:24.836000Z</time>
      </trkpt>
      <trkpt lat="38.911533" lon="111.847534">
        <ele>1418.1442</ele>
        <time>2014-01-25T23:16:28.912000Z</time>
      </trkpt>
      <trkpt lat="38.91156" lon="111.84766">
        <ele>1418.388</ele>
        <time>2014-01-25T23:16:32.988000Z</time>
      </trkpt>
      <trkpt lat="38.911594" lon="111.84779">
        <ele>1419.1107</ele>
        <time>2014-01-25T23:16:37.064000Z</time>
      </trkpt>
      <trkpt lat="38.91163" lon="111.84793">
        <ele>1420.0585</ele>
        <time>2014-01-25T23:16:41.140000Z</time>
      </trkpt>
      <trkpt lat="38.911655" lon="111.84806">
        <ele>1421.0634</ele>
        <time>2014-01-25T23:16:45.216000Z</time>
      </trkpt>
      <trkpt lat="38.911682" lon="111.8482">
        <ele>1422.411</ele>
        <time>2014-01-25T23:16:49.292000Z</time>
      </trkpt>
      <trkpt lat="38.91172" lon="111.848335">
        <ele>1423.9376</ele>
        <time>2014-01-25T23:16:53.368000Z</time>
      </trkpt>
      <trkpt lat="38.91175" lon="111.848465">
        <ele>1424.6837</ele>
        <time>2014-01-25T23:16:57.444000Z</time>
      </trkpt>
      <trkpt lat="38.911785" lon="111.848595">
        <ele>1424.0507</ele>
        <time>2014-01-25T23:17:01.520000Z</time>
      </trkpt>
      <trkpt lat="38.91181" lon="111.848724">
        <ele>1422.3755</ele>
        <time>2014-01-25T23:17:05.596000Z</time>
      </trkpt>
      <trkpt lat="38.91185" lon="111.84886">
        <ele>1420.328</ele>
        <time>2014-01-25T23:17:09.672000Z</time>
      </trkpt>
      <trkpt lat="38.911892" lon="111.84899">
        <ele>1418.5337</ele>
        <time>2014-01-25T23:17:13.748000Z</time>
      </trkpt>
      <trkpt lat="38.911926" lon="111.849106">
        <ele>1417.5039</ele>
        <time>2014-01-25T23:17:17.824000Z</time>
      </trkpt>
      <trkpt lat="38.91196" lon="111.849236">
        <ele>1416.985</ele>
        <time>2014-01-25T23:17:21.900000Z</time>
      </trkpt>
      <trkpt lat="38.911987" lon="111.84937">
        <ele>1416.3691</ele>
        <time>2014-01-25T23:17:25.976000Z</time>
      </trkpt>
      <trkpt lat="38.91201" lon="111.8495">
        <ele>1415.7142</ele>
        <time>2014-01-25T23:17:30.052000Z</time>
      </trkpt>
      <trkpt lat="38.91204" lon="111.84965">
        <ele>1415.638</ele>
        <time>2014-01-25T23:17:34.128000Z</time>
      </trkpt>
      <trkpt lat="38.912064" lon="111.84977">
        <ele>1416.3918</ele>
        <time>2014-01-25T23:17:38.204000Z</time>
      </trkpt>
      <trkpt lat="38.912098" lon="111.84989">
        <ele>1417.9247</ele>
        <time>2014-01-25T23:17:42.280000Z</time>
      </trkpt>
      <trkpt lat="38.912125" lon="111.85001">
        <ele>1419.8512</ele>
        <time>2014-01-25T23:17:46.356000Z</time>
      </trkpt>
      <trkpt lat="38.912155" lon="111.85014">
        <ele>1421.33</ele>
        <time>2014-01-25T23:17:50.432000Z</time>
      </trkpt>
      <trkpt lat="38.91219" lon="111.850266">
        <ele>1421.8641</ele>
        <time>2014-01-25T23:17:54.508000Z</time>
      </trkpt>
      <trkpt lat="38.912224" lon="111.8504">
        <ele>1421.9532</ele>
        <time>2014-01-25T23:17:58.584000Z</time>
      </trkpt>
      <trkpt lat="38.912254" lon="111.850555">
        <ele>1422.2815</ele>
        <time>2014-01-25T23:18:02.660000Z</time>
      </trkpt>
      <trkpt lat="38.91229" lon="111.850685">
        <ele>1422.9669</ele>
        <time>2014-01-25T23:18:06.736000Z</time>
      </trkpt>
      <trkpt lat="38.91232" lon="111.85082">
        <ele>1423.5879</ele>
        <time>2014-01-25T23:18:10.812000Z</time>
      </trkpt>
      <trkpt lat="38.912354" lon="111.850945">
        <ele>1423.8888</ele>
        <time>2014-01-25T23:18:14.888000Z</time>
      </trkpt>
      <trkpt lat="38.91238" lon="111.85108">
        <ele>1423.9539</ele>
        <time>2014-01-25T23:18:18.964000Z</time>
      </trkpt>
      <trkpt lat="38.912407" lon="111.8512">
        <ele>1424.1252</ele>
        <time>2014-01-25T23:18:23.040000Z</time>
      </trkpt>
      <trkpt lat="38.912437" lon="111.85134">
        <ele>1424.627</ele>
        <time>2014-01-25T23:18:27.116000Z</time>
      </trkpt>
      <trkpt lat="38.912464" lon="111.85148">
        <ele>1425.1743</ele>
        <time>2014-01-25T23:18:31.192000Z</time>
      </trkpt>
      <trkpt lat="38.912502" lon="111.85163">
        <ele>1425.331</ele>
        <time>2014-01-25T23:18:35.268000Z</time>
      </trkpt>
      <trkpt lat="38.912533" lon="111.85175">
        <ele>1425.0641</ele>
        <time>2014-01-25T23:18:39.344000Z</time>
      </trkpt>
      <trkpt lat="38.912563" lon="111.85189">
        <ele>1424.6917</ele>
        <time>2014-01-25T23:18:43.420000Z</time>
      </trkpt>
      <trkpt lat="38.912598" lon="111.85203">
        <ele>1424.4534</ele>
        <time>2014-01-25T23:18:47.496000Z</time>
      </trkpt>
      <trkpt lat="38.912624" lon="111.85215">
        <ele>1424.2339</ele>
        <time>2014-01-25T23:18:51.572000Z</time>
      </trkpt>
      <trkpt lat="38.91266" lon="111.85229">
        <ele>1423.7577</ele>
        <time>2014-01-25T23:18:55.648000Z</time>
      </trkpt>
      <trkpt lat="38.912685" lon="111.852425">
        <ele>1423.2203</ele>
        <time>2014-01-25T23:18:59.724000Z</time>
      </trkpt>
      <trkpt lat="38.912716" lon="111.85255">
        <ele>1422.9185</ele>
        <time>2014-01-25T23:19:03.800000Z</time>
      </trkpt>
      <trkpt lat="38.912758" lon="111.85269">
        <ele>1422.9015</ele>
        <time>2014-01-25T23:19:07.876000Z</time>
      </trkpt>
      <trkpt lat="38.912766" lon="111.85284">
        <ele>1423.2046</ele>
        <time>2014-01-25T23:19:11.952000Z</time>
      </trkpt>
      <trkpt lat="38.9128" lon="111.85296">
        <ele>1424.5822</ele>
        <time>2014-01-25T23:19:16.028000Z</time>
      </trkpt>
      <trkpt lat="38.912838" lon="111.8531">
        <ele>1427.2234</ele>
        <time>2014-01-25T23:19:20.104000Z</time>
      </trkpt>
      <trkpt lat="38.91287" lon="111.85324">
        <ele>1429.4762</ele>
        <time>2014-01-25T23:19:24.180000Z</time>
      </trkpt>
      <trkpt lat="38.912903" lon="111.85338">
        <ele>1429.947</ele>
        <time>2014-01-25T23:19:28.256000Z</time>
      </trkpt>
      <trkpt lat="38.912945" lon="111.85351">
        <ele>1429.407</ele>
        <time>2014-01-25T23:19:32.332000Z</time>
      </trkpt>
      <trkpt lat="38.912975" lon="111.85362">
        <ele>1429.2223</ele>
        <time>2014-01-25T23:19:36.408000Z</time>
      </trkpt>
      <trkpt lat="38.913013" lon="111.853745">
        <ele>1430.0281</ele>
        <time>2014-01-25T23:19:40.484000Z</time>
      </trkpt>
      <trkpt lat="38.913044" lon="111.853874">
        <ele>1431.1553</ele>
        <time>2014-01-25T23:19:44.560000Z</time>
      </trkpt>
      <trkpt lat="38.91307" lon="111.854004">
        <ele>1431.3733</ele>
        <time>2014-01-25T23:19:48.636000Z</time>
      </trkpt>
      <trkpt lat="38.9131" lon="111.85415">
        <ele>1430.5542</ele>
        <time>2014-01-25T23:19:52.712000Z</time>
      </trkpt>
      <trkpt lat="38.913124" lon="111.85428">
        <ele>1429.7336</ele>
        <time>2014-01-25T23:19:56.788000Z</time>
      </trkpt>
      <trkpt lat="38.91315" lon="111.8544">
        <ele>1429.6108</ele>
        <time>2014-01-25T23:20:00.864000Z</time>
      </trkpt>
      <trkpt lat="38.913162" lon="111.85453">
        <ele>1429.8806</ele>
        <time>2014-01-25T23:20:04.940000Z</time>
      </trkpt>
      <trkpt lat="38.91316" lon="111.854675">
        <ele>1429.8918</ele>
        <time>2014-01-25T23:20:09.016000Z</time>
      </trkpt>
      <trkpt lat="38.91311" lon="111.854805">
        <ele>1429.4342</ele>
        <time>2014-01-25T23:20:13.092000Z</time>
      </trkpt>
      <trkpt lat="38.913063" lon="111.85493">
        <ele>1428.8834</ele>
        <time>2014-01-25T23:20:17.168000Z</time>
      </trkpt>
      <trkpt lat="38.913006" lon="111.85504">
        <ele>1428.4337</ele>
        <time>2014-01-25T23:20:21.244000Z</time>
      </trkpt>
      <trkpt lat="38.912956" lon="111.855156">
        <ele>1427.8817</ele>
        <time>2014-01-25T23:20:25.320000Z</time>
      </trkpt>
      <trkpt lat="38.91291" lon="111.855286">
        <ele>1427.3538</ele>
        <time>2014-01-25T23:20:29.396000Z</time>
      </trkpt>
      <trkpt lat="38.912857" lon="111.8554">
        <ele>1427.1289</ele>
        <time>2014-01-25T23:20:33.472000Z</time>
      </trkpt>
      <trkpt lat="38.912804" lon="111.855515">
        <ele>1427.1705</ele>
        <time>2014-01-25T23:20:37.548000Z</time>
      </trkpt>
      <trkpt lat="38.91275" lon="111.85562">
        <ele>1427.3197</ele>
        <time>2014-01-25T23:20:41.624000Z</time>
      </trkpt>
      <trkpt lat="38.912693" lon="111.855736">
        <ele>1427.4762</ele>
        <time>2014-01-25T23:20:45.700000Z</time>
      </trkpt>
      <trkpt lat="38.912636" lon="111.855865">
        <ele>1427.5443</ele>
        <time>2014-01-25T23:20:49.776000Z</time>
      </trkpt>
      <trkpt lat="38.912594" lon="111.85598">
        <ele>1427.4996</ele>
        <time>2014-01-25T23:20:53.852000Z</time>
      </trkpt>
      <trkpt lat="38.912544" lon="111.85609">
        <ele>1427.5166</ele>
        <time>2014-01-25T23:20:57.928000Z</time>
      </trkpt>
      <trkpt lat="38.9125" lon="111.85621">
        <ele>1428.1022</ele>
        <time>2014-01-25T23:21:02.004000Z</time>
      </trkpt>
      <trkpt lat="38.91246" lon="111.856316">
        <ele>1429.338</ele>
        <time>2014-01-25T23:21:06.080000Z</time>
      </trkpt>
      <trkpt lat="38.91241" lon="111.85644">
        <ele>1430.3438</ele>
        <time>2014-01-25T23:21:10.156000Z</time>
      </trkpt>
      <trkpt lat="38.912354" lon="111.85656">
        <ele>1430.4961</ele>
        <time>2014-01-25T23:21:14.232000Z</time>
      </trkpt>
      <trkpt lat="38.9123" lon="111.85667">
        <ele>1430.2257</ele>
        <time>2014-01-25T23:21:18.308000Z</time>
      </trkpt>
      <trkpt lat="38.912247" lon="111.8568">
        <ele>1430.0482</ele>
        <time>2014-01-25T23:21:22.384000Z</time>
      </trkpt>
      <trkpt lat="38.912197" lon="111.8569">
        <ele>1430.1726</ele>
        <time>2014-01-25T23:21:26.460000Z</time>
      </trkpt>
      <trkpt lat="38.912148" lon="111.857">
        <ele>1430.4156</ele>
        <time>2014-01-25T23:21:30.536000Z</time>
      </trkpt>
      <trkpt lat="38.912094" lon="111.85712">
        <ele>1430.3373</ele>
        <time>2014-01-25T23:21:34.612000Z</time>
      </trkpt>
      <trkpt lat="38.91205" lon="111.85724">
        <ele>1429.9309</ele>
        <time>2014-01-25T23:21:38.688000Z</time>
      </trkpt>
      <trkpt lat="38.912" lon="111.85736">
        <ele>1429.6102</ele>
        <time>2014-01-25T23:21:42.764000Z</time>
      </trkpt>
      <trkpt lat="38.911957" lon="111.85747">
        <ele>1429.8164</ele>
        <time>2014-01-25T23:21:46.840000Z</time>
      </trkpt>
      <trkpt lat="38.911907" lon="111.857574">
        <ele>1430.6211</ele>
        <time>2014-01-25T23:21:50.916000Z</time>
      </trkpt>
      <trkpt lat="38.911854" lon="111.85769">
        <ele>1431.5011</ele>
        <time>2014-01-25T23:21:54.992000Z</time>
      </trkpt>
      <trkpt lat="38.911816" lon="111.8578">
        <ele>1431.8527</ele>
        <time>2014-01-25T23:21:59.068000Z</time>
      </trkpt>
      <trkpt lat="38.911766" lon="111.85793">
        <ele>1431.6079</ele>
        <time>2014-01-25T23:22:03.144000Z</time>
      </trkpt>
      <trkpt lat="38.911728" lon="111.85803">
        <ele>1431.1602</ele>
        <time>2014-01-25T23:22:07.220000Z</time>
      </trkpt>
      <trkpt lat="38.91167" lon="111.85815">
        <ele>1431.0742</ele>
        <time>2014-01-25T23:22:11.296000Z</time>
      </trkpt>
      <trkpt lat="38.911625" lon="111.85826">
        <ele>1431.5292</ele>
        <time>2014-01-25T23:22:15.372000Z</time>
      </trkpt>
      <trkpt lat="38.91158" lon="111.858376">
        <ele>1432.1631</ele>
        <time>2014-01-25T23:22:19.448000Z</time>
      </trkpt>
      <trkpt lat="38.911533" lon="111.85849">
        <ele>1432.5895</ele>
        <time>2014-01-25T23:22:23.524000Z</time>
      </trkpt>
      <trkpt lat="38.911484" lon="111.85859">
        <ele>1432.7598</ele>
        <time>2014-01-25T23:22:27.600000Z</time>
      </trkpt>
      <trkpt lat="38.91143" lon="111.85872">
        <ele>1432.4896</ele>
        <time>2014-01-25T23:22:31.676000Z</time>
      </trkpt>
      <trkpt lat="38.911396" lon="111.85883">
        <ele>1431.7583</ele>
        <time>2014-01-25T23:22:35.752000Z</time>
      </trkpt>
      <trkpt lat="38.91134" lon="111.85894">
        <ele>1431.2325</ele>
        <time>2014-01-25T23:22:39.828000Z</time>
      </trkpt>
      <trkpt lat="38.911278" lon="111.85906">
        <ele>1431.4548</ele>
        <time>2014-01-25T23:22:43.904000Z</time>
      </trkpt>
      <trkpt lat="38.911224" lon="111.859184">
        <ele>1432.1045</ele>
        <time>2014-01-25T23:22:47.980000Z</time>
      </trkpt>
      <trkpt lat="38.91118" lon="111.85931">
        <ele>1432.6149</ele>
        <time>2014-01-25T23:22:52.056000Z</time>
      </trkpt>
      <trkpt lat="38.91112" lon="111.85943">
        <ele>1432.672</ele>
        <time>2014-01-25T23:22:56.131000Z</time>
      </trkpt>
      <trkpt lat="38.911064" lon="111.85955">
        <ele>1432.1337</ele>
        <time>2014-01-25T23:23:00.206000Z</time>
      </trkpt>
      <trkpt lat="38.91102" lon="111.859665">
        <ele>1431.249</ele>
        <time>2014-01-25T23:23:04.281000Z</time>
      </trkpt>
      <trkpt lat="38.910976" lon="111.85978">
        <ele>1430.4783</ele>
        <time>2014-01-25T23:23:08.356000Z</time>
      </trkpt>
      <trkpt lat="38.91092" lon="111.85991">
        <ele>1430.3752</ele>
        <time>2014-01-25T23:23:12.431000Z</time>
      </trkpt>
      <trkpt lat="38.910862" lon="111.860016">
        <ele>1431.1403</ele>
        <time>2014-01-25T23:23:16.506000Z</time>
      </trkpt>
      <trkpt lat="38.91081" lon="111.860115">
        <ele>1432.1296</ele>
        <time>2014-01-25T23:23:20.581000Z</time>
      </trkpt>
      <trkpt lat="38.910763" lon="111.86024">
        <ele>1432.8179</ele>
        <time>2014-01-25T23:23:24.656000Z</time>
      </trkpt>
      <trkpt lat="38.910713" lon="111.86037">
        <ele>1433.1906</ele>
        <time>2014-01-25T23:23:28.731000Z</time>
      </trkpt>
      <trkpt lat="38.910656" lon="111.86048">
        <ele>1433.4812</ele>
        <time>2014-01-25T23:23:32.806000Z</time>
      </trkpt>
      <trkpt lat="38.910603" lon="111.86061">
        <ele>1433.5605</ele>
        <time>2014-01-25T23:23:36.881000Z</time>
      </trkpt>
      <trkpt lat="38.91055" lon="111.86074">
        <ele>1433.3663</ele>
        <time>2014-01-25T23:23:40.956000Z</time>
      </trkpt>
      <trkpt lat="38.910496" lon="111.86086">
        <ele>1433.3446</ele>
        <time>2014-01-25T23:23:45.031000Z</time>
      </trkpt>
      <trkpt lat="38.91045" lon="111.86096">
        <ele>1433.6937</ele>
        <time>2014-01-25T23:23:49.106000Z</time>
      </trkpt>
      <trkpt lat="38.910397" lon="111.86109">
        <ele>1433.9836</ele>
        <time>2014-01-25T23:23:53.181000Z</time>
      </trkpt>
      <trkpt lat="38.910343" lon="111.861206">
        <ele>1434.0615</ele>
        <time>2014-01-25T23:23:57.256000Z</time>
      </trkpt>
      <trkpt lat="38.910286" lon="111.86134">
        <ele>1433.9415</ele>
        <time>2014-01-25T23:24:01.331000Z</time>
      </trkpt>
      <trkpt lat="38.910217" lon="111.86146">
        <ele>1434.0715</ele>
        <time>2014-01-25T23:24:05.406000Z</time>
      </trkpt>
      <trkpt lat="38.91016" lon="111.86158">
        <ele>1434.8219</ele>
        <time>2014-01-25T23:24:09.481000Z</time>
      </trkpt>
      <trkpt lat="38.9101" lon="111.861694">
        <ele>1435.9047</ele>
        <time>2014-01-25T23:24:13.556000Z</time>
      </trkpt>
      <trkpt lat="38.910053" lon="111.86181">
        <ele>1436.5974</ele>
        <time>2014-01-25T23:24:17.631000Z</time>
      </trkpt>
      <trkpt lat="38.90998" lon="111.86191">
        <ele>1436.668</ele>
        <time>2014-01-25T23:24:21.706000Z</time>
      </trkpt>
      <trkpt lat="38.909943" lon="111.86202">
        <ele>1436.4532</ele>
        <time>2014-01-25T23:24:25.781000Z</time>
      </trkpt>
      <trkpt lat="38.909893" lon="111.86214">
        <ele>1436.32</ele>
        <time>2014-01-25T23:24:29.856000Z</time>
      </trkpt>
      <trkpt lat="38.909843" lon="111.862236">
        <ele>1436.355</ele>
        <time>2014-01-25T23:24:33.931000Z</time>
      </trkpt>
      <trkpt lat="38.909794" lon="111.86234">
        <ele>1436.5385</ele>
        <time>2014-01-25T23:24:38.006000Z</time>
      </trkpt>
      <trkpt lat="38.909733" lon="111.86245">
        <ele>1436.5795</ele>
        <time>2014-01-25T23:24:42.081000Z</time>
      </trkpt>
      <trkpt lat="38.909676" lon="111.86256">
        <ele>1436.197</ele>
        <time>2014-01-25T23:24:46.156000Z</time>
      </trkpt>
      <trkpt lat="38.90961" lon="111.86267">
        <ele>1435.6583</ele>
        <time>2014-01-25T23:24:50.231000Z</time>
      </trkpt>
      <trkpt lat="38.909542" lon="111.86279">
        <ele>1435.4008</ele>
        <time>2014-01-25T23:24:54.306000Z</time>
      </trkpt>
      <trkpt lat="38.909485" lon="111.86289">
        <ele>1435.806</ele>
        <time>2014-01-25T23:24:58.381000Z</time>
      </trkpt>
      <trkpt lat="38.909424" lon="111.863014">
        <ele>1436.916</ele>
        <time>2014-01-25T23:25:02.456000Z</time>
      </trkpt>
      <trkpt lat="38.909378" lon="111.86313">
        <ele>1438.0455</ele>
        <time>2014-01-25T23:25:06.531000Z</time>
      </trkpt>
      <trkpt lat="38.909317" lon="111.86326">
        <ele>1438.5436</ele>
        <time>2014-01-25T23:25:10.606000Z</time>
      </trkpt>
      <trkpt lat="38.909264" lon="111.86335">
        <ele>1438.5457</ele>
        <time>2014-01-25T23:25:14.681000Z</time>
      </trkpt>
      <trkpt lat="38.909214" lon="111.86345">
        <ele>1438.5541</ele>
        <time>2014-01-25T23:25:18.756000Z</time>
      </trkpt>
      <trkpt lat="38.909157" lon="111.86354">
        <ele>1438.777</ele>
        <time>2014-01-25T23:25:22.831000Z</time>
      </trkpt>
      <trkpt lat="38.909096" lon="111.86366">
        <ele>1439.0022</ele>
        <time>2014-01-25T23:25:26.906000Z</time>
      </trkpt>
      <trkpt lat="38.90904" lon="111.86379">
        <ele>1438.957</ele>
        <time>2014-01-25T23:25:30.981000Z</time>
      </trkpt>
      <trkpt lat="38.90898" lon="111.86391">
        <ele>1438.448</ele>
        <time>2014-01-25T23:25:35.056000Z</time>
      </trkpt>
      <trkpt lat="38.908916" lon="111.86402">
        <ele>1437.6794</ele>
        <time>2014-01-25T23:25:39.131000Z</time>
      </trkpt>
      <trkpt lat="38.908867" lon="111.86412">
        <ele>1437.5103</ele>
        <time>2014-01-25T23:25:43.206000Z</time>
      </trkpt>
      <trkpt lat="38.908802" lon="111.86425">
        <ele>1438.487</ele>
        <time>2014-01-25T23:25:47.281000Z</time>
      </trkpt>
      <trkpt lat="38.90875" lon="111.86436">
        <ele>1439.9381</ele>
        <time>2014-01-25T23:25:51.356000Z</time>
      </trkpt>
      <trkpt lat="38.908695" lon="111.86448">
        <ele>1440.882</ele>
        <time>2014-01-25T23:25:55.431000Z</time>
      </trkpt>
      <trkpt lat="38.90865" lon="111.8646">
        <ele>1440.926</ele>
        <time>2014-01-25T23:25:59.506000Z</time>
      </trkpt>
      <trkpt lat="38.90861" lon="111.86473">
        <ele>1440.4833</ele>
        <time>2014-01-25T23:26:03.581000Z</time>
      </trkpt>
      <trkpt lat="38.908604" lon="111.864845">
        <ele>1440.4174</ele>
        <time>2014-01-25T23:26:07.656000Z</time>
      </trkpt>
      <trkpt lat="38.90863" lon="111.86497">
        <ele>1441.3201</ele>
        <time>2014-01-25T23:26:11.731000Z</time>
      </trkpt>
      <trkpt lat="38.908638" lon="111.86509">
        <ele>1442.479</ele>
        <time>2014-01-25T23:26:15.806000Z</time>
      </trkpt>
      <trkpt lat="38.90866" lon="111.86521">
        <ele>1443.0693</ele>
        <time>2014-01-25T23:26:19.881000Z</time>
      </trkpt>
      <trkpt lat="38.90866" lon="111.86534">
        <ele>1443.3933</ele>
        <time>2014-01-25T23:26:23.956000Z</time>
      </trkpt>
      <trkpt lat="38.908714" lon="111.86543">
        <ele>1443.8193</ele>
        <time>2014-01-25T23:26:28.031000Z</time>
      </trkpt>
      <trkpt lat="38.908802" lon="111.86538">
        <ele>1444.1819</ele>
        <time>2014-01-25T23:26:32.106000Z</time>
      </trkpt>
      <trkpt lat="38.908855" lon="111.86527">
        <ele>1444.2662</ele>
        <time>2014-01-25T23:26:36.181000Z</time>
      </trkpt>
      <trkpt lat="38.90892" lon="111.865166">
        <ele>1443.4341</ele>
        <time>2014-01-25T23:26:40.256000Z</time>
      </trkpt>
      <trkpt lat="38.908974" lon="111.86506">
        <ele>1441.6298</ele>
        <time>2014-01-25T23:26:44.331000Z</time>
      </trkpt>
      <trkpt lat="38.90903" lon="111.86496">
        <ele>1439.7864</ele>
        <time>2014-01-25T23:26:48.406000Z</time>
      </trkpt>
      <trkpt lat="38.909096" lon="111.86486">
        <ele>1438.9421</ele>
        <time>2014-01-25T23:26:52.481000Z</time>
      </trkpt>
      <trkpt lat="38.90917" lon="111.86475">
        <ele>1439.3275</ele>
        <time>2014-01-25T23:26:56.556000Z</time>
      </trkpt>
      <trkpt lat="38.909218" lon="111.86464">
        <ele>1440.7404</ele>
        <time>2014-01-25T23:27:00.631000Z</time>
      </trkpt>
      <trkpt lat="38.909267" lon="111.86453">
        <ele>1442.7449</ele>
        <time>2014-01-25T23:27:04.706000Z</time>
      </trkpt>
      <trkpt lat="38.909325" lon="111.864426">
        <ele>1444.2328</ele>
        <time>2014-01-25T23:27:08.781000Z</time>
      </trkpt>
      <trkpt lat="38.909397" lon="111.86433">
        <ele>1444.1404</ele>
        <time>2014-01-25T23:27:12.856000Z</time>
      </trkpt>
      <trkpt lat="38.90945" lon="111.86422">
        <ele>1442.7921</ele>
        <time>2014-01-25T23:27:16.931000Z</time>
      </trkpt>
      <trkpt lat="38.909515" lon="111.86412">
        <ele>1441.1316</ele>
        <time>2014-01-25T23:27:21.006000Z</time>
      </trkpt>
      <trkpt lat="38.909576" lon="111.86401">
        <ele>1439.7017</ele>
        <time>2014-01-25T23:27:25.081000Z</time>
      </trkpt>
      <trkpt lat="38.90964" lon="111.863914">
        <ele>1438.7148</ele>
        <time>2014-01-25T23:27:29.156000Z</time>
      </trkpt>
      <trkpt lat="38.909706" lon="111.863815">
        <ele>1438.4755</ele>
        <time>2014-01-25T23:27:33.231000Z</time>
      </trkpt>
      <trkpt lat="38.90978" lon="111.86371">
        <ele>1438.9862</ele>
        <time>2014-01-25T23:27:37.306000Z</time>
      </trkpt>
      <trkpt lat="38.909832" lon="111.86361">
        <ele>1439.6886</ele>
        <time>2014-01-25T23:27:41.381000Z</time>
      </trkpt>
      <trkpt lat="38.90989" lon="111.86349">
        <ele>1439.8732</ele>
        <time>2014-01-25T23:27:45.456000Z</time>
      </trkpt>
      <trkpt lat="38.909943" lon="111.863365">
        <ele>1439.3848</ele>
        <time>2014-01-25T23:27:49.531000Z</time>
      </trkpt>
      <trkpt lat="38.91" lon="111.86325">
        <ele>1438.4463</ele>
        <time>2014-01-25T23:27:53.606000Z</time>
      </trkpt>
      <trkpt lat="38.910053" lon="111.863144">
        <ele>1437.4164</ele>
        <time>2014-01-25T23:27:57.681000Z</time>
      </trkpt>
      <trkpt lat="38.910114" lon="111.863014">
        <ele>1436.7012</ele>
        <time>2014-01-25T23:28:01.756000Z</time>
      </trkpt>
      <trkpt lat="38.910175" lon="111.86289">
        <ele>1436.2203</ele>
        <time>2014-01-25T23:28:05.831000Z</time>
      </trkpt>
      <trkpt lat="38.910233" lon="111.86278">
        <ele>1435.632</ele>
        <time>2014-01-25T23:28:09.906000Z</time>
      </trkpt>
      <trkpt lat="38.910286" lon="111.86266">
        <ele>1435.0521</ele>
        <time>2014-01-25T23:28:13.981000Z</time>
      </trkpt>
      <trkpt lat="38.91034" lon="111.86256">
        <ele>1434.9248</ele>
        <time>2014-01-25T23:28:18.056000Z</time>
      </trkpt>
      <trkpt lat="38.910397" lon="111.86243">
        <ele>1435.3291</ele>
        <time>2014-01-25T23:28:22.131000Z</time>
      </trkpt>
      <trkpt lat="38.91044" lon="111.862305">
        <ele>1435.8196</ele>
        <time>2014-01-25T23:28:26.206000Z</time>
      </trkpt>
      <trkpt lat="38.91049" lon="111.862175">
        <ele>1435.604</ele>
        <time>2014-01-25T23:28:30.281000Z</time>
      </trkpt>
      <trkpt lat="38.91054" lon="111.86206">
        <ele>1434.5066</ele>
        <time>2014-01-25T23:28:34.356000Z</time>
      </trkpt>
      <trkpt lat="38.9106" lon="111.861946">
        <ele>1433.4187</ele>
        <time>2014-01-25T23:28:38.431000Z</time>
      </trkpt>
      <trkpt lat="38.910656" lon="111.86184">
        <ele>1433.0784</ele>
        <time>2014-01-25T23:28:42.506000Z</time>
      </trkpt>
      <trkpt lat="38.910713" lon="111.86172">
        <ele>1433.2148</ele>
        <time>2014-01-25T23:28:46.581000Z</time>
      </trkpt>
      <trkpt lat="38.910763" lon="111.86161">
        <ele>1433.4027</ele>
        <time>2014-01-25T23:28:50.656000Z</time>
      </trkpt>
      <trkpt lat="38.910816" lon="111.861496">
        <ele>1433.4966</ele>
        <time>2014-01-25T23:28:54.731000Z</time>
      </trkpt>
      <trkpt lat="38.910866" lon="111.86138">
        <ele>1433.8352</ele>
        <time>2014-01-25T23:28:58.806000Z</time>
      </trkpt>
      <trkpt lat="38.91091" lon="111.86128">
        <ele>1434.4841</ele>
        <time>2014-01-25T23:29:02.881000Z</time>
      </trkpt>
      <trkpt lat="38.910957" lon="111.861176">
        <ele>1434.8691</ele>
        <time>2014-01-25T23:29:06.956000Z</time>
      </trkpt>
      <trkpt lat="38.911003" lon="111.861046">
        <ele>1434.7378</ele>
        <time>2014-01-25T23:29:11.031000Z</time>
      </trkpt>
      <trkpt lat="38.911057" lon="111.860954">
        <ele>1434.424</ele>
        <time>2014-01-25T23:29:15.106000Z</time>
      </trkpt>
      <trkpt lat="38.91111" lon="111.86083">
        <ele>1434.3685</ele>
        <time>2014-01-25T23:29:19.181000Z</time>
      </trkpt>
      <trkpt lat="38.911156" lon="111.86071">
        <ele>1434.7865</ele>
        <time>2014-01-25T23:29:23.256000Z</time>
      </trkpt>
      <trkpt lat="38.911205" lon="111.860596">
        <ele>1435.1162</ele>
        <time>2014-01-25T23:29:27.331000Z</time>
      </trkpt>
      <trkpt lat="38.91126" lon="111.860466">
        <ele>1434.4497</ele>
        <time>2014-01-25T23:29:31.406000Z</time>
      </trkpt>
      <trkpt lat="38.91131" lon="111.86036">
        <ele>1432.8682</ele>
        <time>2014-01-25T23:29:35.481000Z</time>
      </trkpt>
      <trkpt lat="38.91136" lon="111.86026">
        <ele>1431.5264</ele>
        <time>2014-01-25T23:29:39.556000Z</time>
      </trkpt>
      <trkpt lat="38.911423" lon="111.86012">
        <ele>1431.3364</ele>
        <time>2014-01-25T23:29:43.631000Z</time>
      </trkpt>
      <trkpt lat="38.91147" lon="111.86">
        <ele>1432.0598</ele>
        <time>2014-01-25T23:29:47.706000Z</time>
      </trkpt>
      <trkpt lat="38.911522" lon="111.85988">
        <ele>1432.6908</ele>
        <time>2014-01-25T23:29:51.781000Z</time>
      </trkpt>
      <trkpt lat="38.91158" lon="111.85975">
        <ele>1432.6177</ele>
        <time>2014-01-25T23:29:55.856000Z</time>
      </trkpt>
      <trkpt lat="38.91164" lon="111.859634">
        <ele>1432.1987</ele>
        <time>2014-01-25T23:29:59.931000Z</time>
      </trkpt>
      <trkpt lat="38.911694" lon="111.85952">
        <ele>1431.9141</ele>
        <time>2014-01-25T23:30:04.006000Z</time>
      </trkpt>
      <trkpt lat="38.91175" lon="111.859406">
        <ele>1432.2166</ele>
        <time>2014-01-25T23:30:08.081000Z</time>
      </trkpt>
      <trkpt lat="38.911804" lon="111.8593">
        <ele>1433.237</ele>
        <time>2014-01-25T23:30:12.156000Z</time>
      </trkpt>
      <trkpt lat="38.91185" lon="111.859184">
        <ele>1434.2363</ele>
        <time>2014-01-25T23:30:16.231000Z</time>
      </trkpt>
      <trkpt lat="38.91189" lon="111.85906">
        <ele>1434.3164</ele>
        <time>2014-01-25T23:30:20.306000Z</time>
      </trkpt>
      <trkpt lat="38.911926" lon="111.858955">
        <ele>1433.6372</ele>
        <time>2014-01-25T23:30:24.381000Z</time>
      </trkpt>
      <trkpt lat="38.911976" lon="111.858826">
        <ele>1432.8635</ele>
        <time>2014-01-25T23:30:28.456000Z</time>
      </trkpt>
      <trkpt lat="38.912025" lon="111.858734">
        <ele>1432.0544</ele>
        <time>2014-01-25T23:30:32.531000Z</time>
      </trkpt>
      <trkpt lat="38.91208" lon="111.85863">
        <ele>1431.008</ele>
        <time>2014-01-25T23:30:36.606000Z</time>
      </trkpt>
      <trkpt lat="38.91213" lon="111.85852">
        <ele>1430.1581</ele>
        <time>2014-01-25T23:30:40.681000Z</time>
      </trkpt>
      <trkpt lat="38.912178" lon="111.858406">
        <ele>1429.8046</ele>
        <time>2014-01-25T23:30:44.756000Z</time>
      </trkpt>
      <trkpt lat="38.912224" lon="111.8583">
        <ele>1429.5859</ele>
        <time>2014-01-25T23:30:48.831000Z</time>
      </trkpt>
      <trkpt lat="38.912277" lon="111.858185">
        <ele>1429.209</ele>
        <time>2014-01-25T23:30:52.906000Z</time>
      </trkpt>
      <trkpt lat="38.912334" lon="111.85805">
        <ele>1428.9045</ele>
        <time>2014-01-25T23:30:56.981000Z</time>
      </trkpt>
      <trkpt lat="38.912384" lon="111.85795">
        <ele>1428.9214</ele>
        <time>2014-01-25T23:31:01.056000Z</time>
      </trkpt>
      <trkpt lat="38.912437" lon="111.85785">
        <ele>1429.3115</ele>
        <time>2014-01-25T23:31:05.131000Z</time>
      </trkpt>
      <trkpt lat="38.912495" lon="111.85773">
        <ele>1429.9102</ele>
        <time>2014-01-25T23:31:09.206000Z</time>
      </trkpt>
      <trkpt lat="38.912548" lon="111.85761">
        <ele>1430.3826</ele>
        <time>2014-01-25T23:31:13.281000Z</time>
      </trkpt>
      <trkpt lat="38.91259" lon="111.857506">
        <ele>1430.3739</ele>
        <time>2014-01-25T23:31:17.356000Z</time>
      </trkpt>
      <trkpt lat="38.912647" lon="111.85739">
        <ele>1430.4778</ele>
        <time>2014-01-25T23:31:21.431000Z</time>
      </trkpt>
      <trkpt lat="38.91271" lon="111.85728">
        <ele>1431.2286</ele>
        <time>2014-01-25T23:31:25.506000Z</time>
      </trkpt>
      <trkpt lat="38.91275" lon="111.85718">
        <ele>1431.896</ele>
        <time>2014-01-25T23:31:29.581000Z</time>
      </trkpt>
      <trkpt lat="38.91282" lon="111.857056">
        <ele>1431.9297</ele>
        <time>2014-01-25T23:31:33.656000Z</time>
      </trkpt>
      <trkpt lat="38.912884" lon="111.85693">
        <ele>1431.5065</ele>
        <time>2014-01-25T23:31:37.731000Z</time>
      </trkpt>
      <trkpt lat="38.91295" lon="111.85683">
        <ele>1430.5366</ele>
        <time>2014-01-25T23:31:41.806000Z</time>
      </trkpt>
      <trkpt lat="38.913006" lon="111.85672">
        <ele>1429.367</ele>
        <time>2014-01-25T23:31:45.881000Z</time>
      </trkpt>
      <trkpt lat="38.913082" lon="111.85662">
        <ele>1429.1545</ele>
        <time>2014-01-25T23:31:49.956000Z</time>
      </trkpt>
      <trkpt lat="38.913147" lon="111.856514">
        <ele>1430.355</ele>
        <time>2014-01-25T23:31:54.031000Z</time>
      </trkpt>
      <trkpt lat="38.91321" lon="111.85641">
        <ele>1431.2848</ele>
        <time>2014-01-25T23:31:58.106000Z</time>
      </trkpt>
      <trkpt lat="38.913273" lon="111.8563">
        <ele>1430.1299</ele>
        <time>2014-01-25T23:32:02.181000Z</time>
      </trkpt>
      <trkpt lat="38.91335" lon="111.85619">
        <ele>1427.6248</ele>
        <time>2014-01-25T23:32:06.256000Z</time>
      </trkpt>
      <trkpt lat="38.91342" lon="111.856094">
        <ele>1425.6783</ele>
        <time>2014-01-25T23:32:10.331000Z</time>
      </trkpt>
      <trkpt lat="38.91348" lon="111.855965">
        <ele>1424.9869</ele>
        <time>2014-01-25T23:32:14.406000Z</time>
      </trkpt>
      <trkpt lat="38.913506" lon="111.85583">
        <ele>1425.1776</ele>
        <time>2014-01-25T23:32:18.481000Z</time>
      </trkpt>
      <trkpt lat="38.91349" lon="111.85569">
        <ele>1425.7783</ele>
        <time>2014-01-25T23:32:22.556000Z</time>
      </trkpt>
      <trkpt lat="38.913464" lon="111.85555">
        <ele>1426.4489</ele>
        <time>2014-01-25T23:32:26.631000Z</time>
      </trkpt>
      <trkpt lat="38.913452" lon="111.85544">
        <ele>1427.099</ele>
        <time>2014-01-25T23:32:30.706000Z</time>
      </trkpt>
      <trkpt lat="38.913433" lon="111.85531">
        <ele>1427.7018</ele>
        <time>2014-01-25T23:32:34.781000Z</time>
      </trkpt>
      <trkpt lat="38.913433" lon="111.85519">
        <ele>1427.7871</ele>
        <time>2014-01-25T23:32:38.856000Z</time>
      </trkpt>
      <trkpt lat="38.91346" lon="111.855064">
        <time>2014-01-25T23:32:42.931000Z</time>
      </trkpt>
    </trkseg>
  </trk>
</gpx>