<?xml version="1.0" encoding="UTF-8"?>
<gpx xmlns="http://www.topografix.com/GPX/1/1" xmlns:gpxtpx="http://www.garmin.com/xmlschemas/TrackPointExtension/v1" xmlns:xsi="http://www.w3.org/2001/XMLSchema-instance" xsi:schemaLocation="http://www.topografix.com/GPX/1/1 http://www.topografix.com/GPX/1/1/gpx.xsd" version="1.1" creator="gpx.py -- https://github.com/tkrajina/gpxpy">
  <trk>
    <trkseg>
      <trkpt lat="38.818867" lon="121.14736">
        <ele>43.550327</ele>
        <time>2014-02-24T10:35:13.371000Z</time>
      </trkpt>
      <trkpt lat="38.818848" lon="121.14736">
        <ele>42.151295</ele>
        <time>2014-02-24T10:35:16.580000Z</time>
      </trkpt>
      <trkpt lat="38.81875" lon="121.14738">
        <ele>40.79455</ele>
        <time>2014-02-24T10:35:19.789000Z</time>
      </trkpt>
      <trkpt lat="38.81866" lon="121.14735">
        <ele>42.155785</ele>
        <time>2014-02-24T10:35:22.998000Z</time>
      </trkpt>
      <trkpt lat="38.818558" lon="121.14733">
        <ele>46.10401</ele>
        <time>2014-02-24T10:35:26.207000Z</time>
      </trkpt>
      <trkpt lat="38.818558" lon="121.14733">
        <ele>50.198334</ele>
        <time>2014-02-24T10:35:29.416000Z</time>
      </trkpt>
      <trkpt lat="38.81844" lon="121.14734">
        <ele>52.261284</ele>
        <time>2014-02-24T10:35:32.625000Z</time>
      </trkpt>
      <trkpt lat="38.818336" lon="121.14733">
        <ele>52.37107</ele>
        <time>2014-02-24T10:35:35.834000Z</time>
      </trkpt>
      <trkpt lat="38.818226" lon="121.147316">
        <ele>51.356533</ele>
        <time>2014-02-24T10:35:39.043000Z</time>
      </trkpt>
      <trkpt lat="38.81813" lon="121.14731">
        <ele>50.20253</ele>
        <time>2014-02-24T10:35:42.252000Z</time>
      </trkpt>
      <trkpt lat="38.81802" lon="121.14731">
        <ele>49.466534</ele>
        <time>2014-02-24T10:35:45.461000Z</time>
      </trkpt>
      <trkpt lat="38.817924" lon="121.147316">
        <ele>49.264065</ele>
        <time>2014-02-24T10:35:48.670000Z</time>
      </trkpt>
      <trkpt lat="38.817833" lon="121.147316">
        <ele>49.519886</ele>
        <time>2014-02-24T10:35:51.879000Z</time>
      </trkpt>
      <trkpt lat="38.817738" lon="121.14731">
        <ele>49.87702</ele>
        <time>2014-02-24T10:35:55.088000Z</time>
      </trkpt>
      <trkpt lat="38.817646" lon="121.147316">
        <ele>50.001587</ele>
        <time>2014-02-24T10:35:58.297000Z</time>
      </trkpt>
      <trkpt lat="38.817528" lon="121.14733">
        <ele>49.893562</ele>
        <time>2014-02-24T10:36:01.506000Z</time>
      </trkpt>
      <trkpt lat="38.817398" lon="121.14737">
        <ele>49.968887</ele>
        <time>2014-02-24T10:36:04.715000Z</time>
      </trkpt>
      <trkpt lat="38.817314" lon="121.147415">
        <ele>51.187977</ele>
        <time>2014-02-24T10:36:07.924000Z</time>
      </trkpt>
      <trkpt lat="38.81723" lon="121.1475">
        <ele>52.539417</ele>
        <time>2014-02-24T10:36:11.133000Z</time>
      </trkpt>
      <trkpt lat="38.81719" lon="121.14761">
        <ele>53.65897</ele>
        <time>2014-02-24T10:36:14.342000Z</time>
      </trkpt>
      <trkpt lat="38.817165" lon="121.147766">
        <ele>53.480286</ele>
        <time>2014-02-24T10:36:17.551000Z</time>
      </trkpt>
      <trkpt lat="38.81718" lon="121.147896">
        <ele>51.744972</ele>
        <time>2014-02-24T10:36:20.760000Z</time>
      </trkpt>
      <trkpt lat="38.817215" lon="121.14802">
        <ele>49.1612</ele>
        <time>2014-02-24T10:36:23.969000Z</time>
      </trkpt>
      <trkpt lat="38.817272" lon="121.14814">
        <ele>46.85386</ele>
        <time>2014-02-24T10:36:27.178000Z</time>
      </trkpt>
      <trkpt lat="38.817356" lon="121.148224">
        <ele>45.069183</ele>
        <time>2014-02-24T10:36:30.387000Z</time>
      </trkpt>
      <trkpt lat="38.817467" lon="121.14829">
        <ele>43.88333</ele>
        <time>2014-02-24T10:36:33.596000Z</time>
      </trkpt>
      <trkpt lat="38.817574" lon="121.148315">
        <ele>43.650936</ele>
        <time>2014-02-24T10:36:36.805000Z</time>
      </trkpt>
      <trkpt lat="38.817696" lon="121.14832">
        <ele>44.145863</ele>
        <time>2014-02-24T10:36:40.014000Z</time>
      </trkpt>
      <trkpt lat="38.817787" lon="121.14833">
        <ele>44.986557</ele>
        <time>2014-02-24T10:36:43.223000Z</time>
      </trkpt>
      <trkpt lat="38.817894" lon="121.148315">
        <ele>46.208664</ele>
        <time>2014-02-24T10:36:46.432000Z</time>
      </trkpt>
      <trkpt lat="38.81799" lon="121.14831">
        <ele>47.58957</ele>
        <time>2014-02-24T10:36:49.641000Z</time>
      </trkpt>
      <trkpt lat="38.81809" lon="121.148315">
        <ele>48.842068</ele>
        <time>2014-02-24T10:36:52.850000Z</time>
      </trkpt>
      <trkpt lat="38.818188" lon="121.14833">
        <ele>49.651646</ele>
        <time>2014-02-24T10:36:56.059000Z</time>
      </trkpt>
      <trkpt lat="38.81828" lon="121.148346">
        <ele>49.740124</ele>
        <time>2014-02-24T10:36:59.268000Z</time>
      </trkpt>
      <trkpt lat="38.81838" lon="121.148346">
        <ele>48.827316</ele>
        <time>2014-02-24T10:37:02.477000Z</time>
      </trkpt>
      <trkpt lat="38.81848" lon="121.14831">
        <ele>47.030937</ele>
        <time>2014-02-24T10:37:05.686000Z</time>
      </trkpt>
      <trkpt lat="38.818584" lon="121.148224">
        <ele>45.544373</ele>
        <time>2014-02-24T10:37:08.895000Z</time>
      </trkpt>
      <trkpt lat="38.818665" lon="121.148125">
        <ele>45.407375</ele>
        <time>2014-02-24T10:37:12.104000Z</time>
      </trkpt>
      <trkpt lat="38.818718" lon="121.147995">
        <ele>46.26265</ele>
        <time>2014-02-24T10:37:15.313000Z</time>
      </trkpt>
      <trkpt lat="38.818733" lon="121.147865">
        <ele>47.159298</ele>
        <time>2014-02-24T10:37:18.522000Z</time>
      </trkpt>
      <trkpt lat="38.818733" lon="121.14771">
        <ele>47.961174</ele>
        <time>2014-02-24T10:37:21.731000Z</time>
      </trkpt>
      <trkpt lat="38.81871" lon="121.14759">
        <ele>49.335323</ele>
        <time>2014-02-24T10:37:24.940000Z</time>
      </trkpt>
      <trkpt lat="38.81867" lon="121.14747">
        <ele>51.471287</ele>
        <time>2014-02-24T10:37:28.149000Z</time>
      </trkpt>
      <trkpt lat="38.818592" lon="121.14738">
        <ele>53.640217</ele>
        <time>2014-02-24T10:37:31.358000Z</time>
      </trkpt>
      <trkpt lat="38.818504" lon="121.147316">
        <ele>55.25588</ele>
        <time>2014-02-24T10:37:34.567000Z</time>
      </trkpt>
      <trkpt lat="38.818394" lon="121.14729">
        <ele>56.060078</ele>
        <time>2014-02-24T10:37:37.776000Z</time>
      </trkpt>
      <trkpt lat="38.818283" lon="121.147285">
        <ele>56.229908</ele>
        <time>2014-02-24T10:37:40.985000Z</time>
      </trkpt>
      <trkpt lat="38.81818" lon="121.14728">
        <ele>56.087753</ele>
        <time>2014-02-24T10:37:44.194000Z</time>
      </trkpt>
      <trkpt lat="38.81809" lon="121.14728">
        <ele>55.672237</ele>
        <time>2014-02-24T10:37:47.403000Z</time>
      </trkpt>
      <trkpt lat="38.817993" lon="121.14728">
        <ele>55.078312</ele>
        <time>2014-02-24T10:37:50.612000Z</time>
      </trkpt>
      <trkpt lat="38.817898" lon="121.14728">
        <ele>54.731728</ele>
        <time>2014-02-24T10:37:53.821000Z</time>
      </trkpt>
      <trkpt lat="38.817802" lon="121.14729">
        <ele>54.651978</ele>
        <time>2014-02-24T10:37:57.030000Z</time>
      </trkpt>
      <trkpt lat="38.817707" lon="121.14728">
        <ele>54.45464</ele>
        <time>2014-02-24T10:38:00.239000Z</time>
      </trkpt>
      <trkpt lat="38.81761" lon="121.14727">
        <ele>53.787933</ele>
        <time>2014-02-24T10:38:03.448000Z</time>
      </trkpt>
      <trkpt lat="38.81751" lon="121.14728">
        <ele>53.02201</ele>
        <time>2014-02-24T10:38:06.657000Z</time>
      </trkpt>
      <trkpt lat="38.8174" lon="121.14731">
        <ele>52.61126</ele>
        <time>2014-02-24T10:38:09.866000Z</time>
      </trkpt>
      <trkpt lat="38.81731" lon="121.14738">
        <ele>52.82196</ele>
        <time>2014-02-24T10:38:13.075000Z</time>
      </trkpt>
      <trkpt lat="38.817234" lon="121.14747">
        <ele>54.254047</ele>
        <time>2014-02-24T10:38:16.284000Z</time>
      </trkpt>
      <trkpt lat="38.817177" lon="121.147606">
        <ele>56.630703</ele>
        <time>2014-02-24T10:38:19.493000Z</time>
      </trkpt>
      <trkpt lat="38.817146" lon="121.14772">
        <ele>57.7711</ele>
        <time>2014-02-24T10:38:22.702000Z</time>
      </trkpt>
      <trkpt lat="38.817142" lon="121.14784">
        <ele>56.18815</ele>
        <time>2014-02-24T10:38:25.911000Z</time>
      </trkpt>
      <trkpt lat="38.817165" lon="121.14798">
        <ele>53.038715</ele>
        <time>2014-02-24T10:38:29.120000Z</time>
      </trkpt>
      <trkpt lat="38.8172" lon="121.148094">
        <ele>50.323315</ele>
        <time>2014-02-24T10:38:32.329000Z</time>
      </trkpt>
      <trkpt lat="38.81727" lon="121.1482">
        <ele>48.874832</ele>
        <time>2014-02-24T10:38:35.538000Z</time>
      </trkpt>
      <trkpt lat="38.817368" lon="121.14826">
        <ele>48.50722</ele>
        <time>2014-02-24T10:38:38.747000Z</time>
      </trkpt>
      <trkpt lat="38.817448" lon="121.148315">
        <ele>48.627872</ele>
        <time>2014-02-24T10:38:41.956000Z</time>
      </trkpt>
      <trkpt lat="38.81755" lon="121.14833">
        <ele>48.2213</ele>
        <time>2014-02-24T10:38:45.165000Z</time>
      </trkpt>
      <trkpt lat="38.81764" lon="121.148346">
        <ele>46.803875</ele>
        <time>2014-02-24T10:38:48.374000Z</time>
      </trkpt>
      <trkpt lat="38.817753" lon="121.14836">
        <ele>45.341446</ele>
        <time>2014-02-24T10:38:51.583000Z</time>
      </trkpt>
      <trkpt lat="38.81787" lon="121.14836">
        <ele>44.75799</ele>
        <time>2014-02-24T10:38:54.792000Z</time>
      </trkpt>
      <trkpt lat="38.81798" lon="121.14836">
        <ele>44.796604</ele>
        <time>2014-02-24T10:38:58.001000Z</time>
      </trkpt>
      <trkpt lat="38.818096" lon="121.14835">
        <ele>45.200844</ele>
        <time>2014-02-24T10:39:01.210000Z</time>
      </trkpt>
      <trkpt lat="38.818203" lon="121.14836">
        <ele>45.88095</ele>
        <time>2014-02-24T10:39:04.419000Z</time>
      </trkpt>
      <trkpt lat="38.818295" lon="121.14838">
        <ele>45.888107</ele>
        <time>2014-02-24T10:39:07.628000Z</time>
      </trkpt>
      <trkpt lat="38.8184" lon="121.14839">
        <ele>44.48158</ele>
        <time>2014-02-24T10:39:10.837000Z</time>
      </trkpt>
      <trkpt lat="38.818493" lon="121.14839">
        <ele>42.434895</ele>
        <time>2014-02-24T10:39:14.046000Z</time>
      </trkpt>
      <trkpt lat="38.81859" lon="121.14833">
        <ele>41.01725</ele>
        <time>2014-02-24T10:39:17.255000Z</time>
      </trkpt>
      <trkpt lat="38.81866" lon="121.14823">
        <ele>40.67044</ele>
        <time>2014-02-24T10:39:20.464000Z</time>
      </trkpt>
      <trkpt lat="38.81871" lon="121.14813">
        <ele>41.049236</ele>
        <time>2014-02-24T10:39:23.673000Z</time>
      </trkpt>
      <trkpt lat="38.818745" lon="121.14798">
        <ele>41.71992</ele>
        <time>2014-02-24T10:39:26.882000Z</time>
      </trkpt>
      <trkpt lat="38.818764" lon="121.14785">
        <ele>42.496162</ele>
        <time>2014-02-24T10:39:30.091000Z</time>
      </trkpt>
      <trkpt lat="38.818768" lon="121.14771">
        <ele>43.06009</ele>
        <time>2014-02-24T10:39:33.300000Z</time>
      </trkpt>
      <trkpt lat="38.818737" lon="121.14756">
        <ele>43.270718</ele>
        <time>2014-02-24T10:39:36.509000Z</time>
      </trkpt>
      <trkpt lat="38.818672" lon="121.14747">
        <ele>43.399693</ele>
        <time>2014-02-24T10:39:39.718000Z</time>
      </trkpt>
      <trkpt lat="38.81859" lon="121.14739">
        <ele>43.710186</ele>
        <time>2014-02-24T10:39:42.927000Z</time>
      </trkpt>
      <trkpt lat="38.818478" lon="121.14732">
        <ele>44.35323</ele>
        <time>2014-02-24T10:39:46.136000Z</time>
      </trkpt>
      <trkpt lat="38.81837" lon="121.1473">
        <ele>45.23889</ele>
        <time>2014-02-24T10:39:49.345000Z</time>
      </trkpt>
      <trkpt lat="38.81828" lon="121.1473">
        <ele>45.852623</ele>
        <time>2014-02-24T10:39:52.554000Z</time>
      </trkpt>
      <trkpt lat="38.818184" lon="121.1473">
        <ele>45.863</ele>
        <time>2014-02-24T10:39:55.763000Z</time>
      </trkpt>
      <trkpt lat="38.81809" lon="121.1473">
        <ele>45.767883</ele>
        <time>2014-02-24T10:39:58.972000Z</time>
      </trkpt>
      <trkpt lat="38.817966" lon="121.147285">
        <ele>46.150948</ele>
        <time>2014-02-24T10:40:02.181000Z</time>
      </trkpt>
      <trkpt lat="38.81787" lon="121.14728">
        <ele>46.877815</ele>
        <time>2014-02-24T10:40:05.390000Z</time>
      </trkpt>
      <trkpt lat="38.817776" lon="121.147285">
        <ele>47.51493</ele>
        <time>2014-02-24T10:40:08.599000Z</time>
      </trkpt>
      <trkpt lat="38.817673" lon="121.147285">
        <ele>47.92437</ele>
        <time>2014-02-24T10:40:11.808000Z</time>
      </trkpt>
      <trkpt lat="38.81755" lon="121.14727">
        <ele>48.043156</ele>
        <time>2014-02-24T10:40:15.017000Z</time>
      </trkpt>
      <trkpt lat="38.81746" lon="121.14729">
        <ele>47.71578</ele>
        <time>2014-02-24T10:40:18.226000Z</time>
      </trkpt>
      <trkpt lat="38.817364" lon="121.147354">
        <ele>47.07877</ele>
        <time>2014-02-24T10:40:21.435000Z</time>
      </trkpt>
      <trkpt lat="38.81728" lon="121.14742">
        <ele>46.54448</ele>
        <time>2014-02-24T10:40:24.644000Z</time>
      </trkpt>
      <trkpt lat="38.81722" lon="121.14752">
        <ele>46.366833</ele>
        <time>2014-02-24T10:40:27.853000Z</time>
      </trkpt>
      <trkpt lat="38.817173" lon="121.14765">
        <ele>46.464455</ele>
        <time>2014-02-24T10:40:31.062000Z</time>
      </trkpt>
      <trkpt lat="38.817154" lon="121.147766">
        <ele>46.631104</ele>
        <time>2014-02-24T10:40:34.271000Z</time>
      </trkpt>
      <trkpt lat="38.817165" lon="121.14789">
        <ele>46.437855</ele>
        <time>2014-02-24T10:40:37.480000Z</time>
      </trkpt>
      <trkpt lat="38.8172" lon="121.14802">
        <ele>45.009583</ele>
        <time>2014-02-24T10:40:40.689000Z</time>
      </trkpt>
      <trkpt lat="38.817245" lon="121.14816">
        <ele>42.40893</ele>
        <time>2014-02-24T10:40:43.898000Z</time>
      </trkpt>
      <trkpt lat="38.81732" lon="121.14827">
        <ele>40.24437</ele>
        <time>2014-02-24T10:40:47.107000Z</time>
      </trkpt>
      <trkpt lat="38.817436" lon="121.14833">
        <ele>39.986694</ele>
        <time>2014-02-24T10:40:50.316000Z</time>
      </trkpt>
      <trkpt lat="38.817524" lon="121.148346">
        <ele>41.37815</ele>
        <time>2014-02-24T10:40:53.525000Z</time>
      </trkpt>
      <trkpt lat="38.81764" lon="121.14835">
        <ele>42.97699</ele>
        <time>2014-02-24T10:40:56.734000Z</time>
      </trkpt>
      <trkpt lat="38.81775" lon="121.14836">
        <ele>43.807358</ele>
        <time>2014-02-24T10:40:59.943000Z</time>
      </trkpt>
      <trkpt lat="38.817863" lon="121.14837">
        <ele>44.04861</ele>
        <time>2014-02-24T10:41:03.152000Z</time>
      </trkpt>
      <trkpt lat="38.81797" lon="121.148384">
        <ele>44.06785</ele>
        <time>2014-02-24T10:41:06.361000Z</time>
      </trkpt>
      <trkpt lat="38.81809" lon="121.148384">
        <ele>43.991222</ele>
        <time>2014-02-24T10:41:09.570000Z</time>
      </trkpt>
      <trkpt lat="38.81821" lon="121.148384">
        <ele>43.836857</ele>
        <time>2014-02-24T10:41:12.779000Z</time>
      </trkpt>
      <trkpt lat="38.818314" lon="121.148384">
        <ele>43.98663</ele>
        <time>2014-02-24T10:41:15.988000Z</time>
      </trkpt>
      <trkpt lat="38.81844" lon="121.14836">
        <ele>45.078682</ele>
        <time>2014-02-24T10:41:19.197000Z</time>
      </trkpt>
      <trkpt lat="38.818546" lon="121.14831">
        <ele>46.86416</ele>
        <time>2014-02-24T10:41:22.406000Z</time>
      </trkpt>
      <trkpt lat="38.81863" lon="121.14823">
        <ele>48.3428</ele>
        <time>2014-02-24T10:41:25.615000Z</time>
      </trkpt>
      <trkpt lat="38.818695" lon="121.14813">
        <ele>49.07893</ele>
        <time>2014-02-24T10:41:28.824000Z</time>
      </trkpt>
      <trkpt lat="38.818737" lon="121.147995">
        <ele>49.28983</ele>
        <time>2014-02-24T10:41:32.033000Z</time>
      </trkpt>
      <trkpt lat="38.818764" lon="121.14785">
        <ele>49.17997</ele>
        <time>2014-02-24T10:41:35.242000Z</time>
      </trkpt>
      <trkpt lat="38.818764" lon="121.14773">
        <ele>48.825584</ele>
        <time>2014-02-24T10:41:38.451000Z</time>
      </trkpt>
      <trkpt lat="38.818737" lon="121.1476">
        <ele>48.44394</ele>
        <time>2014-02-24T10:41:41.660000Z</time>
      </trkpt>
      <trkpt lat="38.818684" lon="121.14749">
        <ele>48.242756</ele>
        <time>2014-02-24T10:41:44.869000Z</time>
      </trkpt>
      <trkpt lat="38.818592" lon="121.1474">
        <ele>47.633278</ele>
        <time>2014-02-24T10:41:48.078000Z</time>
      </trkpt>
      <trkpt lat="38.81849" lon="121.14733">
        <ele>46.24164</ele>
        <time>2014-02-24T10:41:51.287000Z</time>
      </trkpt>
      <trkpt lat="38.81837" lon="121.14731">
        <ele>45.038445</ele>
        <time>2014-02-24T10:41:54.496000Z</time>
      </trkpt>
      <trkpt lat="38.818268" lon="121.147316">
        <ele>45.139286</ele>
        <time>2014-02-24T10:41:57.705000Z</time>
      </trkpt>
      <trkpt lat="38.818176" lon="121.14732">
        <ele>46.324425</ele>
        <time>2014-02-24T10:42:00.914000Z</time>
      </trkpt>
      <trkpt lat="38.818058" lon="121.147316">
        <ele>47.37946</ele>
        <time>2014-02-24T10:42:04.123000Z</time>
      </trkpt>
      <trkpt lat="38.817947" lon="121.147316">
        <ele>47.57422</ele>
        <time>2014-02-24T10:42:07.332000Z</time>
      </trkpt>
      <trkpt lat="38.81784" lon="121.147316">
        <ele>47.66239</ele>
        <time>2014-02-24T10:42:10.541000Z</time>
      </trkpt>
      <trkpt lat="38.817738" lon="121.14731">
        <ele>48.400238</ele>
        <time>2014-02-24T10:42:13.750000Z</time>
      </trkpt>
      <trkpt lat="38.817635" lon="121.14729">
        <ele>49.32778</ele>
        <time>2014-02-24T10:42:16.959000Z</time>
      </trkpt>
      <trkpt lat="38.817635" lon="121.14729">
        <ele>49.742912</ele>
        <time>2014-02-24T10:42:20.168000Z</time>
      </trkpt>
      <trkpt lat="38.81752" lon="121.147285">
        <ele>49.667152</ele>
        <time>2014-02-24T10:42:23.377000Z</time>
      </trkpt>
      <trkpt lat="38.81743" lon="121.1473">
        <ele>49.46514</ele>
        <time>2014-02-24T10:42:26.586000Z</time>
      </trkpt>
      <trkpt lat="38.817345" lon="121.14736">
        <ele>49.41868</ele>
        <time>2014-02-24T10:42:29.795000Z</time>
      </trkpt>
      <trkpt lat="38.817253" lon="121.147446">
        <ele>49.58552</ele>
        <time>2014-02-24T10:42:33.004000Z</time>
      </trkpt>
      <trkpt lat="38.817184" lon="121.14756">
        <ele>49.868923</ele>
        <time>2014-02-24T10:42:36.213000Z</time>
      </trkpt>
      <trkpt lat="38.817146" lon="121.147705">
        <ele>49.839813</ele>
        <time>2014-02-24T10:42:39.422000Z</time>
      </trkpt>
      <trkpt lat="38.817142" lon="121.14786">
        <ele>48.904438</ele>
        <time>2014-02-24T10:42:42.631000Z</time>
      </trkpt>
      <trkpt lat="38.81716" lon="121.14799">
        <ele>47.17067</ele>
        <time>2014-02-24T10:42:45.840000Z</time>
      </trkpt>
      <trkpt lat="38.8172" lon="121.1481">
        <ele>45.158314</ele>
        <time>2014-02-24T10:42:49.049000Z</time>
      </trkpt>
      <trkpt lat="38.81727" lon="121.148224">
        <ele>43.19989</ele>
        <time>2014-02-24T10:42:52.258000Z</time>
      </trkpt>
      <trkpt lat="38.817352" lon="121.1483">
        <ele>41.741478</ele>
        <time>2014-02-24T10:42:55.467000Z</time>
      </trkpt>
      <trkpt lat="38.817463" lon="121.14834">
        <ele>41.112087</ele>
        <time>2014-02-24T10:42:58.676000Z</time>
      </trkpt>
      <trkpt lat="38.817562" lon="121.14835">
        <ele>41.313583</ele>
        <time>2014-02-24T10:43:01.885000Z</time>
      </trkpt>
      <trkpt lat="38.817665" lon="121.14835">
        <ele>42.10822</ele>
        <time>2014-02-24T10:43:05.094000Z</time>
      </trkpt>
      <trkpt lat="38.817776" lon="121.14837">
        <ele>42.89354</ele>
        <time>2014-02-24T10:43:08.303000Z</time>
      </trkpt>
      <trkpt lat="38.81789" lon="121.14838">
        <ele>43.255234</ele>
        <time>2014-02-24T10:43:11.512000Z</time>
      </trkpt>
      <trkpt lat="38.81799" lon="121.14838">
        <ele>43.55792</ele>
        <time>2014-02-24T10:43:14.721000Z</time>
      </trkpt>
      <trkpt lat="38.818092" lon="121.14839">
        <ele>44.16343</ele>
        <time>2014-02-24T10:43:17.930000Z</time>
      </trkpt>
      <trkpt lat="38.8182" lon="121.1484">
        <ele>44.801018</ele>
        <time>2014-02-24T10:43:21.139000Z</time>
      </trkpt>
      <trkpt lat="38.81829" lon="121.1484">
        <ele>45.181587</ele>
        <time>2014-02-24T10:43:24.348000Z</time>
      </trkpt>
      <trkpt lat="38.818382" lon="121.1484">
        <ele>45.52497</ele>
        <time>2014-02-24T10:43:27.557000Z</time>
      </trkpt>
      <trkpt lat="38.818382" lon="121.1484">
        <ele>45.938156</ele>
        <time>2014-02-24T10:43:30.766000Z</time>
      </trkpt>
      <trkpt lat="38.818493" lon="121.14837">
        <ele>46.253445</ele>
        <time>2014-02-24T10:43:33.975000Z</time>
      </trkpt>
      <trkpt lat="38.818592" lon="121.14831">
        <ele>46.730186</ele>
        <time>2014-02-24T10:43:37.184000Z</time>
      </trkpt>
      <trkpt lat="38.818672" lon="121.14822">
        <ele>47.660927</ele>
        <time>2014-02-24T10:43:40.393000Z</time>
      </trkpt>
      <trkpt lat="38.818672" lon="121.14822">
        <ele>48.40443</ele>
        <time>2014-02-24T10:43:43.602000Z</time>
      </trkpt>
      <trkpt lat="38.818726" lon="121.14809">
        <ele>48.28337</ele>
        <time>2014-02-24T10:43:46.811000Z</time>
      </trkpt>
      <trkpt lat="38.81876" lon="121.14796">
        <ele>47.644463</ele>
        <time>2014-02-24T10:43:50.020000Z</time>
      </trkpt>
      <trkpt lat="38.818775" lon="121.147835">
        <ele>47.11318</ele>
        <time>2014-02-24T10:43:53.229000Z</time>
      </trkpt>
      <trkpt lat="38.818768" lon="121.147705">
        <ele>47.04265</ele>
        <time>2014-02-24T10:43:56.438000Z</time>
      </trkpt>
      <trkpt lat="38.818726" lon="121.14759">
        <ele>47.658634</ele>
        <time>2014-02-24T10:43:59.647000Z</time>
      </trkpt>
      <trkpt lat="38.818672" lon="121.14749">
        <ele>48.49811</ele>
        <time>2014-02-24T10:44:02.856000Z</time>
      </trkpt>
      <trkpt lat="38.818577" lon="121.14741">
        <ele>48.376896</ele>
        <time>2014-02-24T10:44:06.065000Z</time>
      </trkpt>
      <trkpt lat="38.81849" lon="121.14735">
        <ele>47.119907</ele>
        <time>2014-02-24T10:44:09.274000Z</time>
      </trkpt>
      <trkpt lat="38.8184" lon="121.147316">
        <ele>46.55036</ele>
        <time>2014-02-24T10:44:12.483000Z</time>
      </trkpt>
      <trkpt lat="38.81831" lon="121.147316">
        <ele>48.138927</ele>
        <time>2014-02-24T10:44:15.692000Z</time>
      </trkpt>
      <trkpt lat="38.818207" lon="121.14731">
        <ele>51.313637</ele>
        <time>2014-02-24T10:44:18.901000Z</time>
      </trkpt>
      <trkpt lat="38.81811" lon="121.1473">
        <ele>54.46263</ele>
        <time>2014-02-24T10:44:22.110000Z</time>
      </trkpt>
      <trkpt lat="38.818024" lon="121.14731">
        <ele>56.338436</ele>
        <time>2014-02-24T10:44:25.319000Z</time>
      </trkpt>
      <trkpt lat="38.81793" lon="121.147316">
        <ele>56.254894</ele>
        <time>2014-02-24T10:44:28.528000Z</time>
      </trkpt>
      <trkpt lat="38.81783" lon="121.14731">
        <ele>54.689476</ele>
        <time>2014-02-24T10:44:31.737000Z</time>
      </trkpt>
      <trkpt lat="38.817707" lon="121.1473">
        <ele>53.10281</ele>
        <time>2014-02-24T10:44:34.946000Z</time>
      </trkpt>
      <trkpt lat="38.817596" lon="121.1473">
        <ele>52.4645</ele>
        <time>2014-02-24T10:44:38.155000Z</time>
      </trkpt>
      <trkpt lat="38.81751" lon="121.14729">
        <ele>52.37839</ele>
        <time>2014-02-24T10:44:41.364000Z</time>
      </trkpt>
      <trkpt lat="38.8174" lon="121.14734">
        <ele>51.977356</ele>
        <time>2014-02-24T10:44:44.573000Z</time>
      </trkpt>
      <trkpt lat="38.817307" lon="121.147415">
        <ele>51.06234</ele>
        <time>2014-02-24T10:44:47.782000Z</time>
      </trkpt>
      <trkpt lat="38.81723" lon="121.14751">
        <ele>50.219032</ele>
        <time>2014-02-24T10:44:50.991000Z</time>
      </trkpt>
      <trkpt lat="38.817173" lon="121.14765">
        <ele>49.643368</ele>
        <time>2014-02-24T10:44:54.200000Z</time>
      </trkpt>
      <trkpt lat="38.81715" lon="121.147766">
        <ele>48.700623</ele>
        <time>2014-02-24T10:44:57.409000Z</time>
      </trkpt>
      <trkpt lat="38.81717" lon="121.14791">
        <ele>47.027958</ele>
        <time>2014-02-24T10:45:00.618000Z</time>
      </trkpt>
      <trkpt lat="38.817207" lon="121.14804">
        <ele>45.34382</ele>
        <time>2014-02-24T10:45:03.827000Z</time>
      </trkpt>
      <trkpt lat="38.817265" lon="121.148155">
        <ele>44.428593</ele>
        <time>2014-02-24T10:45:07.036000Z</time>
      </trkpt>
      <trkpt lat="38.81734" lon="121.14826">
        <ele>44.236855</ele>
        <time>2014-02-24T10:45:10.245000Z</time>
      </trkpt>
      <trkpt lat="38.817425" lon="121.14832">
        <ele>44.446907</ele>
        <time>2014-02-24T10:45:13.454000Z</time>
      </trkpt>
      <trkpt lat="38.81752" lon="121.14834">
        <ele>44.873077</ele>
        <time>2014-02-24T10:45:16.663000Z</time>
      </trkpt>
      <trkpt lat="38.81763" lon="121.148346">
        <ele>45.327007</ele>
        <time>2014-02-24T10:45:19.872000Z</time>
      </trkpt>
      <trkpt lat="38.817738" lon="121.148346">
        <ele>46.15486</ele>
        <time>2014-02-24T10:45:23.081000Z</time>
      </trkpt>
      <trkpt lat="38.81783" lon="121.14834">
        <ele>47.6137</ele>
        <time>2014-02-24T10:45:26.290000Z</time>
      </trkpt>
      <trkpt lat="38.81793" lon="121.14834">
        <ele>49.04263</ele>
        <time>2014-02-24T10:45:29.499000Z</time>
      </trkpt>
      <trkpt lat="38.81802" lon="121.14834">
        <ele>49.579952</ele>
        <time>2014-02-24T10:45:32.708000Z</time>
      </trkpt>
      <trkpt lat="38.81815" lon="121.148346">
        <ele>49.286015</ele>
        <time>2014-02-24T10:45:35.917000Z</time>
      </trkpt>
      <trkpt lat="38.818245" lon="121.148346">
        <ele>48.823566</ele>
        <time>2014-02-24T10:45:39.126000Z</time>
      </trkpt>
      <trkpt lat="38.81834" lon="121.14836">
        <ele>48.686794</ele>
        <time>2014-02-24T10:45:42.335000Z</time>
      </trkpt>
      <trkpt lat="38.818443" lon="121.14835">
        <ele>48.59942</ele>
        <time>2014-02-24T10:45:45.544000Z</time>
      </trkpt>
      <trkpt lat="38.818554" lon="121.14831">
        <ele>48.23001</ele>
        <time>2014-02-24T10:45:48.753000Z</time>
      </trkpt>
      <trkpt lat="38.818634" lon="121.14824">
        <ele>47.800385</ele>
        <time>2014-02-24T10:45:51.962000Z</time>
      </trkpt>
      <trkpt lat="38.818707" lon="121.14812">
        <ele>47.597813</ele>
        <time>2014-02-24T10:45:55.171000Z</time>
      </trkpt>
      <trkpt lat="38.81876" lon="121.14799">
        <ele>47.457962</ele>
        <time>2014-02-24T10:45:58.380000Z</time>
      </trkpt>
      <trkpt lat="38.81879" lon="121.147865">
        <ele>47.191612</ele>
        <time>2014-02-24T10:46:01.589000Z</time>
      </trkpt>
      <trkpt lat="38.818787" lon="121.14775">
        <ele>47.285572</ele>
        <time>2014-02-24T10:46:04.798000Z</time>
      </trkpt>
      <trkpt lat="38.818752" lon="121.147644">
        <ele>48.159065</ele>
        <time>2014-02-24T10:46:08.007000Z</time>
      </trkpt>
      <trkpt lat="38.818703" lon="121.14754">
        <ele>49.22976</ele>
        <time>2014-02-24T10:46:11.216000Z</time>
      </trkpt>
      <trkpt lat="38.818645" lon="121.14744">
        <ele>49.59308</ele>
        <time>2014-02-24T10:46:14.425000Z</time>
      </trkpt>
      <trkpt lat="38.818565" lon="121.14738">
        <ele>48.781853</ele>
        <time>2014-02-24T10:46:17.634000Z</time>
      </trkpt>
      <trkpt lat="38.818455" lon="121.14733">
        <ele>47.183056</ele>
        <time>2014-02-24T10:46:20.843000Z</time>
      </trkpt>
      <trkpt lat="38.818367" lon="121.14731">
        <ele>45.858074</ele>
        <time>2014-02-24T10:46:24.052000Z</time>
      </trkpt>
      <trkpt lat="38.81827" lon="121.1473">
        <ele>45.371033</ele>
        <time>2014-02-24T10:46:27.261000Z</time>
      </trkpt>
      <trkpt lat="38.81818" lon="121.14729">
        <ele>45.481926</ele>
        <time>2014-02-24T10:46:30.470000Z</time>
      </trkpt>
      <trkpt lat="38.818066" lon="121.14729">
        <ele>46.129128</ele>
        <time>2014-02-24T10:46:33.679000Z</time>
      </trkpt>
      <trkpt lat="38.817955" lon="121.1473">
        <ele>47.272022</ele>
        <time>2014-02-24T10:46:36.888000Z</time>
      </trkpt>
      <trkpt lat="38.817863" lon="121.1473">
        <ele>47.785545</ele>
        <time>2014-02-24T10:46:40.097000Z</time>
      </trkpt>
      <trkpt lat="38.817764" lon="121.1473">
        <ele>46.859062</ele>
        <time>2014-02-24T10:46:43.306000Z</time>
      </trkpt>
      <trkpt lat="38.81766" lon="121.147285">
        <ele>45.695095</ele>
        <time>2014-02-24T10:46:46.515000Z</time>
      </trkpt>
      <trkpt lat="38.81756" lon="121.14728">
        <ele>45.577168</ele>
        <time>2014-02-24T10:46:49.724000Z</time>
      </trkpt>
      <trkpt lat="38.817455" lon="121.1473">
        <ele>46.21901</ele>
        <time>2014-02-24T10:46:52.933000Z</time>
      </trkpt>
      <trkpt lat="38.81736" lon="121.147354">
        <ele>46.6193</ele>
        <time>2014-02-24T10:46:56.142000Z</time>
      </trkpt>
      <trkpt lat="38.81724" lon="121.14745">
        <ele>46.335537</ele>
        <time>2014-02-24T10:46:59.351000Z</time>
      </trkpt>
      <trkpt lat="38.81719" lon="121.147545">
        <ele>46.504745</ele>
        <time>2014-02-24T10:47:02.560000Z</time>
      </trkpt>
      <trkpt lat="38.81716" lon="121.14766">
        <ele>48.0348</ele>
        <time>2014-02-24T10:47:05.769000Z</time>
      </trkpt>
      <trkpt lat="38.81715" lon="121.1478">
        <ele>49.652752</ele>
        <time>2014-02-24T10:47:08.978000Z</time>
      </trkpt>
      <trkpt lat="38.817165" lon="121.147934">
        <ele>49.682438</ele>
        <time>2014-02-24T10:47:12.187000Z</time>
      </trkpt>
      <trkpt lat="38.817207" lon="121.148056">
        <ele>48.233654</ele>
        <time>2014-02-24T10:47:15.396000Z</time>
      </trkpt>
      <trkpt lat="38.817253" lon="121.14816">
        <ele>46.150314</ele>
        <time>2014-02-24T10:47:18.605000Z</time>
      </trkpt>
      <trkpt lat="38.817318" lon="121.14825">
        <ele>44.12664</ele>
        <time>2014-02-24T10:47:21.814000Z</time>
      </trkpt>
      <trkpt lat="38.817406" lon="121.14833">
        <ele>42.94224</ele>
        <time>2014-02-24T10:47:25.023000Z</time>
      </trkpt>
      <trkpt lat="38.817505" lon="121.14836">
        <ele>42.923058</ele>
        <time>2014-02-24T10:47:28.232000Z</time>
      </trkpt>
      <trkpt lat="38.817604" lon="121.14836">
        <ele>43.658108</ele>
        <time>2014-02-24T10:47:31.441000Z</time>
      </trkpt>
      <trkpt lat="38.8177" lon="121.148346">
        <ele>44.68475</ele>
        <time>2014-02-24T10:47:34.650000Z</time>
      </trkpt>
      <trkpt lat="38.8178" lon="121.148346">
        <ele>45.94001</ele>
        <time>2014-02-24T10:47:37.859000Z</time>
      </trkpt>
      <trkpt lat="38.817898" lon="121.14835">
        <ele>47.40625</ele>
        <time>2014-02-24T10:47:41.068000Z</time>
      </trkpt>
      <trkpt lat="38.81799" lon="121.14836">
        <ele>48.390057</ele>
        <time>2014-02-24T10:47:44.277000Z</time>
      </trkpt>
      <trkpt lat="38.81809" lon="121.14836">
        <ele>48.284184</ele>
        <time>2014-02-24T10:47:47.486000Z</time>
      </trkpt>
      <trkpt lat="38.818188" lon="121.14836">
        <ele>47.605003</ele>
        <time>2014-02-24T10:47:50.695000Z</time>
      </trkpt>
      <trkpt lat="38.818302" lon="121.14838">
        <ele>47.05581</ele>
        <time>2014-02-24T10:47:53.904000Z</time>
      </trkpt>
      <trkpt lat="38.818398" lon="121.14837">
        <ele>46.973965</ele>
        <time>2014-02-24T10:47:57.113000Z</time>
      </trkpt>
      <trkpt lat="38.8185" lon="121.14835">
        <ele>47.44811</ele>
        <time>2014-02-24T10:48:00.322000Z</time>
      </trkpt>
      <trkpt lat="38.81859" lon="121.14831">
        <ele>48.414917</ele>
        <time>2014-02-24T10:48:03.531000Z</time>
      </trkpt>
      <trkpt lat="38.818672" lon="121.148224">
        <ele>49.567043</ele>
        <time>2014-02-24T10:48:06.740000Z</time>
      </trkpt>
      <trkpt lat="38.81874" lon="121.1481">
        <ele>50.70682</ele>
        <time>2014-02-24T10:48:09.949000Z</time>
      </trkpt>
      <trkpt lat="38.81877" lon="121.14797">
        <ele>51.503773</ele>
        <time>2014-02-24T10:48:13.158000Z</time>
      </trkpt>
      <trkpt lat="38.81878" lon="121.147835">
        <ele>51.00509</ele>
        <time>2014-02-24T10:48:16.367000Z</time>
      </trkpt>
      <trkpt lat="38.81876" lon="121.147675">
        <ele>48.902702</ele>
        <time>2014-02-24T10:48:19.576000Z</time>
      </trkpt>
      <trkpt lat="38.818726" lon="121.14756">
        <ele>46.527397</ele>
        <time>2014-02-24T10:48:22.785000Z</time>
      </trkpt>
      <trkpt lat="38.81867" lon="121.14745">
        <ele>45.15486</ele>
        <time>2014-02-24T10:48:25.994000Z</time>
      </trkpt>
      <trkpt lat="38.81857" lon="121.14737">
        <ele>44.862675</ele>
        <time>2014-02-24T10:48:29.203000Z</time>
      </trkpt>
      <trkpt lat="38.818462" lon="121.147316">
        <ele>45.10492</ele>
        <time>2014-02-24T10:48:32.412000Z</time>
      </trkpt>
      <trkpt lat="38.818363" lon="121.14729">
        <ele>45.39621</ele>
        <time>2014-02-24T10:48:35.621000Z</time>
      </trkpt>
      <trkpt lat="38.81827" lon="121.14731">
        <ele>45.523277</ele>
        <time>2014-02-24T10:48:38.830000Z</time>
      </trkpt>
      <trkpt lat="38.818172" lon="121.147316">
        <ele>45.738487</ele>
        <time>2014-02-24T10:48:42.039000Z</time>
      </trkpt>
      <trkpt lat="38.81808" lon="121.14733">
        <ele>46.42352</ele>
        <time>2014-02-24T10:48:45.248000Z</time>
      </trkpt>
      <trkpt lat="38.81798" lon="121.14733">
        <ele>47.45959</ele>
        <time>2014-02-24T10:48:48.457000Z</time>
      </trkpt>
      <trkpt lat="38.81788" lon="121.14732">
        <ele>48.379505</ele>
        <time>2014-02-24T10:48:51.666000Z</time>
      </trkpt>
      <trkpt lat="38.817783" lon="121.14732">
        <ele>48.932564</ele>
        <time>2014-02-24T10:48:54.875000Z</time>
      </trkpt>
      <trkpt lat="38.81768" lon="121.147316">
        <ele>49.639545</ele>
        <time>2014-02-24T10:48:58.084000Z</time>
      </trkpt>
      <trkpt lat="38.817585" lon="121.14731">
        <ele>50.95088</ele>
        <time>2014-02-24T10:49:01.293000Z</time>
      </trkpt>
      <trkpt lat="38.817467" lon="121.14731">
        <ele>52.163147</ele>
        <time>2014-02-24T10:49:04.502000Z</time>
      </trkpt>
      <trkpt lat="38.817375" lon="121.14735">
        <ele>52.556034</ele>
        <time>2014-02-24T10:49:07.711000Z</time>
      </trkpt>
      <trkpt lat="38.817287" lon="121.1474">
        <ele>52.648216</ele>
        <time>2014-02-24T10:49:10.920000Z</time>
      </trkpt>
      <trkpt lat="38.81721" lon="121.147484">
        <ele>53.014</ele>
        <time>2014-02-24T10:49:14.129000Z</time>
      </trkpt>
      <trkpt lat="38.81717" lon="121.14759">
        <ele>53.200645</ele>
        <time>2014-02-24T10:49:17.338000Z</time>
      </trkpt>
      <trkpt lat="38.817154" lon="121.147705">
        <ele>52.62243</ele>
        <time>2014-02-24T10:49:20.547000Z</time>
      </trkpt>
      <trkpt lat="38.81715" lon="121.147835">
        <ele>51.018368</ele>
        <time>2014-02-24T10:49:23.756000Z</time>
      </trkpt>
      <trkpt lat="38.81716" lon="121.14797">
        <ele>48.653667</ele>
        <time>2014-02-24T10:49:26.965000Z</time>
      </trkpt>
      <trkpt lat="38.817196" lon="121.14809">
        <ele>46.812187</ele>
        <time>2014-02-24T10:49:30.174000Z</time>
      </trkpt>
      <trkpt lat="38.81726" lon="121.148186">
        <ele>46.506702</ele>
        <time>2014-02-24T10:49:33.383000Z</time>
      </trkpt>
      <trkpt lat="38.817333" lon="121.14829">
        <ele>47.200443</ele>
        <time>2014-02-24T10:49:36.592000Z</time>
      </trkpt>
      <trkpt lat="38.81742" lon="121.14834">
        <ele>47.860123</ele>
        <time>2014-02-24T10:49:39.801000Z</time>
      </trkpt>
      <trkpt lat="38.817543" lon="121.14835">
        <ele>47.595104</ele>
        <time>2014-02-24T10:49:43.010000Z</time>
      </trkpt>
      <trkpt lat="38.81765" lon="121.14835">
        <ele>46.37339</ele>
        <time>2014-02-24T10:49:46.219000Z</time>
      </trkpt>
      <trkpt lat="38.81777" lon="121.14836">
        <ele>44.87605</ele>
        <time>2014-02-24T10:49:49.428000Z</time>
      </trkpt>
      <trkpt lat="38.81788" lon="121.14836">
        <ele>43.63471</ele>
        <time>2014-02-24T10:49:52.637000Z</time>
      </trkpt>
      <trkpt lat="38.817966" lon="121.14835">
        <ele>42.979324</ele>
        <time>2014-02-24T10:49:55.846000Z</time>
      </trkpt>
      <trkpt lat="38.818085" lon="121.14836">
        <ele>43.154045</ele>
        <time>2014-02-24T10:49:59.055000Z</time>
      </trkpt>
      <trkpt lat="38.81821" lon="121.14836">
        <ele>44.52178</ele>
        <time>2014-02-24T10:50:02.264000Z</time>
      </trkpt>
      <trkpt lat="38.818306" lon="121.14837">
        <ele>46.951263</ele>
        <time>2014-02-24T10:50:05.473000Z</time>
      </trkpt>
      <trkpt lat="38.818405" lon="121.14837">
        <ele>48.552284</ele>
        <time>2014-02-24T10:50:08.682000Z</time>
      </trkpt>
      <trkpt lat="38.81851" lon="121.14836">
        <ele>48.042305</ele>
        <time>2014-02-24T10:50:11.891000Z</time>
      </trkpt>
      <trkpt lat="38.818604" lon="121.14829">
        <ele>47.87923</ele>
        <time>2014-02-24T10:50:15.100000Z</time>
      </trkpt>
      <trkpt lat="38.81868" lon="121.148224">
        <ele>50.18488</ele>
        <time>2014-02-24T10:50:18.309000Z</time>
      </trkpt>
      <trkpt lat="38.81873" lon="121.1481">
        <ele>53.207737</ele>
        <time>2014-02-24T10:50:21.518000Z</time>
      </trkpt>
      <trkpt lat="38.818768" lon="121.14797">
        <ele>54.69179</ele>
        <time>2014-02-24T10:50:24.727000Z</time>
      </trkpt>
      <trkpt lat="38.818768" lon="121.147804">
        <ele>54.484154</ele>
        <time>2014-02-24T10:50:27.936000Z</time>
      </trkpt>
      <trkpt lat="38.81875" lon="121.14766">
        <ele>53.097042</ele>
        <time>2014-02-24T10:50:31.145000Z</time>
      </trkpt>
      <trkpt lat="38.818707" lon="121.14753">
        <ele>51.286995</ele>
        <time>2014-02-24T10:50:34.354000Z</time>
      </trkpt>
      <trkpt lat="38.818634" lon="121.14743">
        <ele>49.71393</ele>
        <time>2014-02-24T10:50:37.563000Z</time>
      </trkpt>
      <trkpt lat="38.81853" lon="121.147354">
        <ele>48.65534</ele>
        <time>2014-02-24T10:50:40.772000Z</time>
      </trkpt>
      <trkpt lat="38.818428" lon="121.14731">
        <ele>47.946136</ele>
        <time>2014-02-24T10:50:43.981000Z</time>
      </trkpt>
      <trkpt lat="38.818314" lon="121.14729">
        <ele>47.28834</ele>
        <time>2014-02-24T10:50:47.190000Z</time>
      </trkpt>
      <trkpt lat="38.818214" lon="121.14729">
        <ele>46.66952</ele>
        <time>2014-02-24T10:50:50.399000Z</time>
      </trkpt>
      <trkpt lat="38.818104" lon="121.147285">
        <ele>46.193184</ele>
        <time>2014-02-24T10:50:53.608000Z</time>
      </trkpt>
      <trkpt lat="38.818012" lon="121.14727">
        <ele>45.51854</ele>
        <time>2014-02-24T10:50:56.817000Z</time>
      </trkpt>
      <trkpt lat="38.81789" lon="121.147285">
        <ele>44.53115</ele>
        <time>2014-02-24T10:51:00.026000Z</time>
      </trkpt>
      <trkpt lat="38.81779" lon="121.147285">
        <ele>44.085682</ele>
        <time>2014-02-24T10:51:03.235000Z</time>
      </trkpt>
      <trkpt lat="38.81769" lon="121.147285">
        <ele>44.854626</ele>
        <time>2014-02-24T10:51:06.444000Z</time>
      </trkpt>
      <trkpt lat="38.817585" lon="121.14727">
        <ele>46.180786</ele>
        <time>2014-02-24T10:51:09.653000Z</time>
      </trkpt>
      <trkpt lat="38.817493" lon="121.14727">
        <ele>47.09375</ele>
        <time>2014-02-24T10:51:12.862000Z</time>
      </trkpt>
      <trkpt lat="38.81739" lon="121.14733">
        <ele>47.420242</ele>
        <time>2014-02-24T10:51:16.071000Z</time>
      </trkpt>
      <trkpt lat="38.81729" lon="121.14742">
        <ele>47.61656</ele>
        <time>2014-02-24T10:51:19.280000Z</time>
      </trkpt>
      <trkpt lat="38.81721" lon="121.14752">
        <ele>48.018585</ele>
        <time>2014-02-24T10:51:22.489000Z</time>
      </trkpt>
      <trkpt lat="38.81717" lon="121.14764">
        <ele>48.34677</ele>
        <time>2014-02-24T10:51:25.698000Z</time>
      </trkpt>
      <trkpt lat="38.817158" lon="121.14777">
        <ele>47.968582</ele>
        <time>2014-02-24T10:51:28.907000Z</time>
      </trkpt>
      <trkpt lat="38.817165" lon="121.14793">
        <ele>46.725506</ele>
        <time>2014-02-24T10:51:32.116000Z</time>
      </trkpt>
      <trkpt lat="38.817184" lon="121.14804">
        <ele>45.28213</ele>
        <time>2014-02-24T10:51:35.325000Z</time>
      </trkpt>
      <trkpt lat="38.817234" lon="121.148155">
        <ele>44.46885</ele>
        <time>2014-02-24T10:51:38.534000Z</time>
      </trkpt>
      <trkpt lat="38.817307" lon="121.14824">
        <ele>44.5604</ele>
        <time>2014-02-24T10:51:41.743000Z</time>
      </trkpt>
      <trkpt lat="38.81738" lon="121.14831">
        <ele>45.175247</ele>
        <time>2014-02-24T10:51:44.952000Z</time>
      </trkpt>
      <trkpt lat="38.81748" lon="121.148346">
        <ele>45.72606</ele>
        <time>2014-02-24T10:51:48.161000Z</time>
      </trkpt>
      <trkpt lat="38.81758" lon="121.14835">
        <ele>46.31172</ele>
        <time>2014-02-24T10:51:51.370000Z</time>
      </trkpt>
      <trkpt lat="38.817684" lon="121.148346">
        <ele>47.206524</ele>
        <time>2014-02-24T10:51:54.579000Z</time>
      </trkpt>
      <trkpt lat="38.817787" lon="121.148346">
        <ele>48.106323</ele>
        <time>2014-02-24T10:51:57.788000Z</time>
      </trkpt>
      <trkpt lat="38.81788" lon="121.14834">
        <ele>48.71363</ele>
        <time>2014-02-24T10:52:00.997000Z</time>
      </trkpt>
      <trkpt lat="38.81799" lon="121.148346">
        <ele>49.03274</ele>
        <time>2014-02-24T10:52:04.206000Z</time>
      </trkpt>
      <trkpt lat="38.818104" lon="121.14837">
        <ele>48.56665</ele>
        <time>2014-02-24T10:52:07.415000Z</time>
      </trkpt>
      <trkpt lat="38.818203" lon="121.14838">
        <ele>46.703724</ele>
        <time>2014-02-24T10:52:10.624000Z</time>
      </trkpt>
      <trkpt lat="38.81829" lon="121.14838">
        <ele>44.132965</ele>
        <time>2014-02-24T10:52:13.833000Z</time>
      </trkpt>
      <trkpt lat="38.81841" lon="121.14838">
        <ele>42.78494</ele>
        <time>2014-02-24T10:52:17.042000Z</time>
      </trkpt>
      <trkpt lat="38.818512" lon="121.148346">
        <ele>43.70788</ele>
        <time>2014-02-24T10:52:20.251000Z</time>
      </trkpt>
      <trkpt lat="38.818592" lon="121.148285">
        <ele>46.714256</ele>
        <time>2014-02-24T10:52:23.460000Z</time>
      </trkpt>
      <trkpt lat="38.81866" lon="121.14821">
        <ele>50.652405</ele>
        <time>2014-02-24T10:52:26.669000Z</time>
      </trkpt>
      <trkpt lat="38.81873" lon="121.14806">
        <ele>53.709457</ele>
        <time>2014-02-24T10:52:29.878000Z</time>
      </trkpt>
      <trkpt lat="38.818752" lon="121.14795">
        <ele>54.302967</ele>
        <time>2014-02-24T10:52:33.087000Z</time>
      </trkpt>
      <trkpt lat="38.818756" lon="121.14781">
        <ele>52.480648</ele>
        <time>2014-02-24T10:52:36.296000Z</time>
      </trkpt>
      <trkpt lat="38.81874" lon="121.147675">
        <ele>49.7525</ele>
        <time>2014-02-24T10:52:39.505000Z</time>
      </trkpt>
      <trkpt lat="38.8187" lon="121.14753">
        <ele>47.682392</ele>
        <time>2014-02-24T10:52:42.714000Z</time>
      </trkpt>
      <trkpt lat="38.818634" lon="121.147446">
        <ele>46.76234</ele>
        <time>2014-02-24T10:52:45.923000Z</time>
      </trkpt>
      <trkpt lat="38.818535" lon="121.147385">
        <ele>46.75121</ele>
        <time>2014-02-24T10:52:49.132000Z</time>
      </trkpt>
      <trkpt lat="38.81844" lon="121.14736">
        <ele>46.893787</ele>
        <time>2014-02-24T10:52:52.341000Z</time>
      </trkpt>
      <trkpt lat="38.818344" lon="121.14733">
        <ele>46.707275</ele>
        <time>2014-02-24T10:52:55.550000Z</time>
      </trkpt>
      <trkpt lat="38.818237" lon="121.14731">
        <ele>46.27248</ele>
        <time>2014-02-24T10:52:58.759000Z</time>
      </trkpt>
      <trkpt lat="38.818123" lon="121.14729">
        <ele>45.97006</ele>
        <time>2014-02-24T10:53:01.968000Z</time>
      </trkpt>
      <trkpt lat="38.81802" lon="121.14729">
        <ele>45.740196</ele>
        <time>2014-02-24T10:53:05.177000Z</time>
      </trkpt>
      <trkpt lat="38.817913" lon="121.147285">
        <ele>45.426205</ele>
        <time>2014-02-24T10:53:08.386000Z</time>
      </trkpt>
      <trkpt lat="38.817814" lon="121.147285">
        <ele>45.298393</ele>
        <time>2014-02-24T10:53:11.595000Z</time>
      </trkpt>
      <trkpt lat="38.817707" lon="121.14728">
        <ele>46.14557</ele>
        <time>2014-02-24T10:53:14.804000Z</time>
      </trkpt>
      <trkpt lat="38.81761" lon="121.14728">
        <ele>48.056877</ele>
        <time>2014-02-24T10:53:18.013000Z</time>
      </trkpt>
      <trkpt lat="38.817516" lon="121.14728">
        <ele>49.751278</ele>
        <time>2014-02-24T10:53:21.222000Z</time>
      </trkpt>
      <trkpt lat="38.817425" lon="121.1473">
        <ele>50.16659</ele>
        <time>2014-02-24T10:53:24.431000Z</time>
      </trkpt>
      <trkpt lat="38.817326" lon="121.14737">
        <ele>50.12454</ele>
        <time>2014-02-24T10:53:27.640000Z</time>
      </trkpt>
      <trkpt lat="38.817245" lon="121.14748">
        <ele>50.526726</ele>
        <time>2014-02-24T10:53:30.849000Z</time>
      </trkpt>
      <trkpt lat="38.817207" lon="121.14758">
        <ele>50.939503</ele>
        <time>2014-02-24T10:53:34.058000Z</time>
      </trkpt>
      <trkpt lat="38.817173" lon="121.147705">
        <ele>50.39818</ele>
        <time>2014-02-24T10:53:37.267000Z</time>
      </trkpt>
      <trkpt lat="38.817165" lon="121.14786">
        <ele>48.596935</ele>
        <time>2014-02-24T10:53:40.476000Z</time>
      </trkpt>
      <trkpt lat="38.817184" lon="121.147995">
        <ele>46.21636</ele>
        <time>2014-02-24T10:53:43.685000Z</time>
      </trkpt>
      <trkpt lat="38.817223" lon="121.14811">
        <ele>44.47603</ele>
        <time>2014-02-24T10:53:46.894000Z</time>
      </trkpt>
      <trkpt lat="38.817284" lon="121.14822">
        <ele>44.08483</ele>
        <time>2014-02-24T10:53:50.103000Z</time>
      </trkpt>
      <trkpt lat="38.817368" lon="121.14832">
        <ele>44.68425</ele>
        <time>2014-02-24T10:53:53.312000Z</time>
      </trkpt>
      <trkpt lat="38.817474" lon="121.14836">
        <ele>45.326477</ele>
        <time>2014-02-24T10:53:56.521000Z</time>
      </trkpt>
      <trkpt lat="38.81758" lon="121.14836">
        <ele>45.4675</ele>
        <time>2014-02-24T10:53:59.730000Z</time>
      </trkpt>
      <trkpt lat="38.817707" lon="121.14836">
        <ele>45.508266</ele>
        <time>2014-02-24T10:54:02.939000Z</time>
      </trkpt>
      <trkpt lat="38.817802" lon="121.14835">
        <ele>45.887936</ele>
        <time>2014-02-24T10:54:06.148000Z</time>
      </trkpt>
      <trkpt lat="38.817898" lon="121.14836">
        <ele>46.213703</ele>
        <time>2014-02-24T10:54:09.357000Z</time>
      </trkpt>
      <trkpt lat="38.81799" lon="121.14837">
        <ele>45.747135</ele>
        <time>2014-02-24T10:54:12.566000Z</time>
      </trkpt>
      <trkpt lat="38.818085" lon="121.14838">
        <ele>44.570465</ele>
        <time>2014-02-24T10:54:15.775000Z</time>
      </trkpt>
      <trkpt lat="38.81818" lon="121.14837">
        <ele>43.636368</ele>
        <time>2014-02-24T10:54:18.984000Z</time>
      </trkpt>
      <trkpt lat="38.818287" lon="121.14838">
        <ele>43.826435</ele>
        <time>2014-02-24T10:54:22.193000Z</time>
      </trkpt>
      <trkpt lat="38.818375" lon="121.14839">
        <ele>44.918427</ele>
        <time>2014-02-24T10:54:25.402000Z</time>
      </trkpt>
      <trkpt lat="38.81848" lon="121.14837">
        <ele>45.973053</ele>
        <time>2014-02-24T10:54:28.611000Z</time>
      </trkpt>
      <trkpt lat="38.818584" lon="121.14832">
        <ele>47.128643</ele>
        <time>2014-02-24T10:54:31.820000Z</time>
      </trkpt>
      <trkpt lat="38.818653" lon="121.148254">
        <ele>48.923187</ele>
        <time>2014-02-24T10:54:35.029000Z</time>
      </trkpt>
      <trkpt lat="38.81871" lon="121.14815">
        <ele>50.522022</ele>
        <time>2014-02-24T10:54:38.238000Z</time>
      </trkpt>
      <trkpt lat="38.81875" lon="121.14801">
        <ele>50.824696</ele>
        <time>2014-02-24T10:54:41.447000Z</time>
      </trkpt>
      <trkpt lat="38.818768" lon="121.14787">
        <ele>50.013912</ele>
        <time>2014-02-24T10:54:44.656000Z</time>
      </trkpt>
      <trkpt lat="38.818764" lon="121.14774">
        <ele>48.776493</ele>
        <time>2014-02-24T10:54:47.865000Z</time>
      </trkpt>
      <trkpt lat="38.81874" lon="121.14763">
        <ele>47.609356</ele>
        <time>2014-02-24T10:54:51.074000Z</time>
      </trkpt>
      <trkpt lat="38.818684" lon="121.14751">
        <ele>46.830643</ele>
        <time>2014-02-24T10:54:54.283000Z</time>
      </trkpt>
      <trkpt lat="38.818607" lon="121.147415">
        <ele>46.65231</ele>
        <time>2014-02-24T10:54:57.492000Z</time>
      </trkpt>
      <trkpt lat="38.81852" lon="121.147354">
        <ele>46.892303</ele>
        <time>2014-02-24T10:55:00.701000Z</time>
      </trkpt>
      <trkpt lat="38.818417" lon="121.1473">
        <ele>46.98645</ele>
        <time>2014-02-24T10:55:03.910000Z</time>
      </trkpt>
      <trkpt lat="38.8183" lon="121.14729">
        <ele>46.5826</ele>
        <time>2014-02-24T10:55:07.119000Z</time>
      </trkpt>
      <trkpt lat="38.818188" lon="121.14729">
        <ele>46.001583</ele>
        <time>2014-02-24T10:55:10.328000Z</time>
      </trkpt>
      <trkpt lat="38.8181" lon="121.1473">
        <ele>45.638138</ele>
        <time>2014-02-24T10:55:13.537000Z</time>
      </trkpt>
      <trkpt lat="38.81801" lon="121.14729">
        <ele>45.346962</ele>
        <time>2014-02-24T10:55:16.746000Z</time>
      </trkpt>
      <trkpt lat="38.817894" lon="121.147285">
        <ele>45.0924</ele>
        <time>2014-02-24T10:55:19.955000Z</time>
      </trkpt>
      <trkpt lat="38.817776" lon="121.14727">
        <ele>44.94902</ele>
        <time>2014-02-24T10:55:23.164000Z</time>
      </trkpt>
      <trkpt lat="38.817654" lon="121.147255">
        <ele>45.554817</ele>
        <time>2014-02-24T10:55:26.373000Z</time>
      </trkpt>
      <trkpt lat="38.81755" lon="121.147255">
        <ele>47.25832</ele>
        <time>2014-02-24T10:55:29.582000Z</time>
      </trkpt>
      <trkpt lat="38.817455" lon="121.14728">
        <ele>49.087906</ele>
        <time>2014-02-24T10:55:32.791000Z</time>
      </trkpt>
      <trkpt lat="38.81737" lon="121.14734">
        <ele>49.962738</ele>
        <time>2014-02-24T10:55:36Z</time>
      </trkpt>
      <trkpt lat="38.817284" lon="121.147415">
        <ele>49.82003</ele>
        <time>2014-02-24T10:55:39.209000Z</time>
      </trkpt>
      <trkpt lat="38.81721" lon="121.1475">
        <ele>49.00737</ele>
        <time>2014-02-24T10:55:42.418000Z</time>
      </trkpt>
      <trkpt lat="38.81716" lon="121.14764">
        <ele>48.10074</ele>
        <time>2014-02-24T10:55:45.627000Z</time>
      </trkpt>
      <trkpt lat="38.817146" lon="121.14776">
        <ele>47.7524</ele>
        <time>2014-02-24T10:55:48.836000Z</time>
      </trkpt>
      <trkpt lat="38.817158" lon="121.1479">
        <ele>47.92088</ele>
        <time>2014-02-24T10:55:52.045000Z</time>
      </trkpt>
      <trkpt lat="38.817196" lon="121.14804">
        <ele>47.79254</ele>
        <time>2014-02-24T10:55:55.253000Z</time>
      </trkpt>
      <trkpt lat="38.817265" lon="121.14816">
        <ele>47.103603</ele>
        <time>2014-02-24T10:55:58.461000Z</time>
      </trkpt>
      <trkpt lat="38.81733" lon="121.148254">
        <ele>46.497456</ele>
        <time>2014-02-24T10:56:01.669000Z</time>
      </trkpt>
      <trkpt lat="38.81743" lon="121.14831">
        <ele>46.27716</ele>
        <time>2014-02-24T10:56:04.877000Z</time>
      </trkpt>
      <trkpt lat="38.817543" lon="121.148346">
        <ele>46.29598</ele>
        <time>2014-02-24T10:56:08.085000Z</time>
      </trkpt>
      <trkpt lat="38.817642" lon="121.148346">
        <ele>46.2942</ele>
        <time>2014-02-24T10:56:11.293000Z</time>
      </trkpt>
      <trkpt lat="38.817745" lon="121.148346">
        <ele>46.23499</ele>
        <time>2014-02-24T10:56:14.501000Z</time>
      </trkpt>
      <trkpt lat="38.81787" lon="121.14835">
        <ele>46.228294</ele>
        <time>2014-02-24T10:56:17.709000Z</time>
      </trkpt>
      <trkpt lat="38.817974" lon="121.14836">
        <ele>46.361782</ele>
        <time>2014-02-24T10:56:20.917000Z</time>
      </trkpt>
      <trkpt lat="38.818085" lon="121.14838">
        <ele>46.196636</ele>
        <time>2014-02-24T10:56:24.125000Z</time>
      </trkpt>
      <trkpt lat="38.818184" lon="121.148384">
        <ele>45.41733</ele>
        <time>2014-02-24T10:56:27.333000Z</time>
      </trkpt>
      <trkpt lat="38.818283" lon="121.148384">
        <ele>44.257202</ele>
        <time>2014-02-24T10:56:30.541000Z</time>
      </trkpt>
      <trkpt lat="38.818382" lon="121.148384">
        <ele>42.988903</ele>
        <time>2014-02-24T10:56:33.749000Z</time>
      </trkpt>
      <trkpt lat="38.81848" lon="121.14835">
        <ele>41.811172</ele>
        <time>2014-02-24T10:56:36.957000Z</time>
      </trkpt>
      <trkpt lat="38.818577" lon="121.14829">
        <ele>40.998215</ele>
        <time>2014-02-24T10:56:40.165000Z</time>
      </trkpt>
      <trkpt lat="38.818653" lon="121.1482">
        <ele>40.571377</ele>
        <time>2014-02-24T10:56:43.373000Z</time>
      </trkpt>
      <trkpt lat="38.818703" lon="121.148094">
        <ele>40.840733</ele>
        <time>2014-02-24T10:56:46.581000Z</time>
      </trkpt>
      <trkpt lat="38.81875" lon="121.14797">
        <ele>41.742752</ele>
        <time>2014-02-24T10:56:49.789000Z</time>
      </trkpt>
      <trkpt lat="38.81876" lon="121.14783">
        <ele>42.664707</ele>
        <time>2014-02-24T10:56:52.997000Z</time>
      </trkpt>
      <trkpt lat="38.818733" lon="121.14769">
        <ele>43.473114</ele>
        <time>2014-02-24T10:56:56.205000Z</time>
      </trkpt>
      <trkpt lat="38.818695" lon="121.147575">
        <ele>44.29159</ele>
        <time>2014-02-24T10:56:59.413000Z</time>
      </trkpt>
      <trkpt lat="38.81863" lon="121.147446">
        <ele>44.908924</ele>
        <time>2014-02-24T10:57:02.621000Z</time>
      </trkpt>
      <trkpt lat="38.818554" lon="121.14737">
        <ele>45.15104</ele>
        <time>2014-02-24T10:57:05.829000Z</time>
      </trkpt>
      <trkpt lat="38.818466" lon="121.14731">
        <ele>44.5483</ele>
        <time>2014-02-24T10:57:09.037000Z</time>
      </trkpt>
      <trkpt lat="38.818367" lon="121.14728">
        <ele>43.139194</ele>
        <time>2014-02-24T10:57:12.245000Z</time>
      </trkpt>
      <trkpt lat="38.81827" lon="121.14726">
        <ele>41.718964</ele>
        <time>2014-02-24T10:57:15.453000Z</time>
      </trkpt>
      <trkpt lat="38.818153" lon="121.147255">
        <ele>40.960106</ele>
        <time>2014-02-24T10:57:18.661000Z</time>
      </trkpt>
      <trkpt lat="38.818054" lon="121.147255">
        <ele>41.002724</ele>
        <time>2014-02-24T10:57:21.869000Z</time>
      </trkpt>
      <trkpt lat="38.817944" lon="121.14726">
        <ele>42.01911</ele>
        <time>2014-02-24T10:57:25.077000Z</time>
      </trkpt>
      <trkpt lat="38.817833" lon="121.147255">
        <ele>43.811134</ele>
        <time>2014-02-24T10:57:28.285000Z</time>
      </trkpt>
      <trkpt lat="38.817715" lon="121.14724">
        <ele>45.42066</ele>
        <time>2014-02-24T10:57:31.493000Z</time>
      </trkpt>
      <trkpt lat="38.817623" lon="121.14724">
        <ele>46.172215</ele>
        <time>2014-02-24T10:57:34.701000Z</time>
      </trkpt>
      <trkpt lat="38.817528" lon="121.14725">
        <ele>46.664246</ele>
        <time>2014-02-24T10:57:37.909000Z</time>
      </trkpt>
      <trkpt lat="38.817425" lon="121.14727">
        <ele>47.235226</ele>
        <time>2014-02-24T10:57:41.117000Z</time>
      </trkpt>
      <trkpt lat="38.817318" lon="121.14733">
        <ele>47.50788</ele>
        <time>2014-02-24T10:57:44.325000Z</time>
      </trkpt>
      <trkpt lat="38.81724" lon="121.1474">
        <ele>47.389587</ele>
        <time>2014-02-24T10:57:47.533000Z</time>
      </trkpt>
      <trkpt lat="38.817184" lon="121.14752">
        <ele>47.11488</ele>
        <time>2014-02-24T10:57:50.741000Z</time>
      </trkpt>
      <trkpt lat="38.81716" lon="121.14765">
        <ele>46.750168</ele>
        <time>2014-02-24T10:57:53.949000Z</time>
      </trkpt>
      <trkpt lat="38.817146" lon="121.14779">
        <ele>46.52996</ele>
        <time>2014-02-24T10:57:57.157000Z</time>
      </trkpt>
      <trkpt lat="38.817154" lon="121.14792">
        <ele>46.600822</ele>
        <time>2014-02-24T10:58:00.365000Z</time>
      </trkpt>
      <trkpt lat="38.81719" lon="121.14803">
        <ele>46.365944</ele>
        <time>2014-02-24T10:58:03.573000Z</time>
      </trkpt>
      <trkpt lat="38.81726" lon="121.14816">
        <ele>45.386513</ele>
        <time>2014-02-24T10:58:06.781000Z</time>
      </trkpt>
      <trkpt lat="38.81737" lon="121.1483">
        <ele>44.58831</ele>
        <time>2014-02-24T10:58:09.989000Z</time>
      </trkpt>
      <trkpt lat="38.817528" lon="121.14835">
        <ele>44.811485</ele>
        <time>2014-02-24T10:58:13.197000Z</time>
      </trkpt>
      <trkpt lat="38.817627" lon="121.14836">
        <ele>44.818127</ele>
        <time>2014-02-24T10:58:16.405000Z</time>
      </trkpt>
      <trkpt lat="38.817783" lon="121.14838">
        <ele>43.40614</ele>
        <time>2014-02-24T10:58:19.613000Z</time>
      </trkpt>
      <trkpt lat="38.817944" lon="121.148384">
        <ele>41.47311</ele>
        <time>2014-02-24T10:58:22.821000Z</time>
      </trkpt>
      <trkpt lat="38.818104" lon="121.148384">
        <ele>40.29231</ele>
        <time>2014-02-24T10:58:26.029000Z</time>
      </trkpt>
      <trkpt lat="38.818207" lon="121.14838">
        <ele>40.099854</ele>
        <time>2014-02-24T10:58:29.237000Z</time>
      </trkpt>
      <trkpt lat="38.8183" lon="121.148384">
        <ele>40.7623</ele>
        <time>2014-02-24T10:58:32.445000Z</time>
      </trkpt>
      <trkpt lat="38.8183" lon="121.148384">
        <time>2014-02-24T10:58:35.653000Z</time>
      </trkpt>
    </trkseg>
  </trk>
</gpx>