<?xml version="1.0" encoding="UTF-8"?>
<gpx xmlns="http://www.topografix.com/GPX/1/1" xmlns:gpxtpx="http://www.garmin.com/xmlschemas/TrackPointExtension/v1" xmlns:xsi="http://www.w3.org/2001/XMLSchema-instance" xsi:schemaLocation="http://www.topografix.com/GPX/1/1 http://www.topografix.com/GPX/1/1/gpx.xsd" version="1.1" creator="gpx.py -- https://github.com/tkrajina/gpxpy">
  <trk>
    <trkseg>
      <trkpt lat="38.818718" lon="121.147644">
        <ele>52.399647</ele>
        <time>2014-03-23T09:19:36.043000Z</time>
      </trkpt>
      <trkpt lat="38.818714" lon="121.14763">
        <ele>50.60482</ele>
        <time>2014-03-23T09:19:39.188000Z</time>
      </trkpt>
      <trkpt lat="38.81865" lon="121.14753">
        <ele>50.058964</ele>
        <time>2014-03-23T09:19:42.333000Z</time>
      </trkpt>
      <trkpt lat="38.818565" lon="121.14744">
        <ele>50.49874</ele>
        <time>2014-03-23T09:19:45.478000Z</time>
      </trkpt>
      <trkpt lat="38.81848" lon="121.14739">
        <ele>53.38769</ele>
        <time>2014-03-23T09:19:48.623000Z</time>
      </trkpt>
      <trkpt lat="38.818386" lon="121.147354">
        <ele>56.018105</ele>
        <time>2014-03-23T09:19:51.768000Z</time>
      </trkpt>
      <trkpt lat="38.818287" lon="121.147354">
        <ele>57.668568</ele>
        <time>2014-03-23T09:19:54.913000Z</time>
      </trkpt>
      <trkpt lat="38.818195" lon="121.14734">
        <ele>57.823345</ele>
        <time>2014-03-23T09:19:58.058000Z</time>
      </trkpt>
      <trkpt lat="38.8181" lon="121.147316">
        <ele>57.25971</ele>
        <time>2014-03-23T09:20:01.203000Z</time>
      </trkpt>
      <trkpt lat="38.81799" lon="121.14731">
        <ele>56.48726</ele>
        <time>2014-03-23T09:20:04.348000Z</time>
      </trkpt>
      <trkpt lat="38.817883" lon="121.1473">
        <ele>55.842983</ele>
        <time>2014-03-23T09:20:07.493000Z</time>
      </trkpt>
      <trkpt lat="38.817764" lon="121.1473">
        <ele>55.18749</ele>
        <time>2014-03-23T09:20:10.638000Z</time>
      </trkpt>
      <trkpt lat="38.817642" lon="121.147285">
        <ele>54.69842</ele>
        <time>2014-03-23T09:20:13.783000Z</time>
      </trkpt>
      <trkpt lat="38.81753" lon="121.14728">
        <ele>54.541336</ele>
        <time>2014-03-23T09:20:16.928000Z</time>
      </trkpt>
      <trkpt lat="38.817432" lon="121.14728">
        <ele>54.2291</ele>
        <time>2014-03-23T09:20:20.073000Z</time>
      </trkpt>
      <trkpt lat="38.817333" lon="121.14729">
        <ele>53.353672</ele>
        <time>2014-03-23T09:20:23.218000Z</time>
      </trkpt>
      <trkpt lat="38.817238" lon="121.14736">
        <ele>52.393215</ele>
        <time>2014-03-23T09:20:26.363000Z</time>
      </trkpt>
      <trkpt lat="38.81716" lon="121.14747">
        <ele>52.339687</ele>
        <time>2014-03-23T09:20:29.508000Z</time>
      </trkpt>
      <trkpt lat="38.81712" lon="121.1476">
        <ele>54.129684</ele>
        <time>2014-03-23T09:20:32.653000Z</time>
      </trkpt>
      <trkpt lat="38.817104" lon="121.147736">
        <ele>57.36993</ele>
        <time>2014-03-23T09:20:35.798000Z</time>
      </trkpt>
      <trkpt lat="38.817104" lon="121.14788">
        <ele>60.11553</ele>
        <time>2014-03-23T09:20:38.943000Z</time>
      </trkpt>
      <trkpt lat="38.817146" lon="121.14801">
        <ele>61.25852</ele>
        <time>2014-03-23T09:20:42.088000Z</time>
      </trkpt>
      <trkpt lat="38.817204" lon="121.148125">
        <ele>61.44281</ele>
        <time>2014-03-23T09:20:45.233000Z</time>
      </trkpt>
      <trkpt lat="38.81731" lon="121.148186">
        <ele>61.4502</ele>
        <time>2014-03-23T09:20:48.378000Z</time>
      </trkpt>
      <trkpt lat="38.817413" lon="121.1482">
        <ele>60.861195</ele>
        <time>2014-03-23T09:20:51.523000Z</time>
      </trkpt>
      <trkpt lat="38.81752" lon="121.14825">
        <ele>59.219116</ele>
        <time>2014-03-23T09:20:54.668000Z</time>
      </trkpt>
      <trkpt lat="38.817608" lon="121.14831">
        <ele>56.99423</ele>
        <time>2014-03-23T09:20:57.813000Z</time>
      </trkpt>
      <trkpt lat="38.8177" lon="121.14834">
        <ele>54.426353</ele>
        <time>2014-03-23T09:21:00.958000Z</time>
      </trkpt>
      <trkpt lat="38.817818" lon="121.14835">
        <ele>51.64169</ele>
        <time>2014-03-23T09:21:04.103000Z</time>
      </trkpt>
      <trkpt lat="38.817924" lon="121.14836">
        <ele>49.479828</ele>
        <time>2014-03-23T09:21:07.248000Z</time>
      </trkpt>
      <trkpt lat="38.818027" lon="121.148384">
        <ele>48.66629</ele>
        <time>2014-03-23T09:21:10.393000Z</time>
      </trkpt>
      <trkpt lat="38.81812" lon="121.14839">
        <ele>49.15837</ele>
        <time>2014-03-23T09:21:13.538000Z</time>
      </trkpt>
      <trkpt lat="38.818222" lon="121.1484">
        <ele>50.143597</ele>
        <time>2014-03-23T09:21:16.683000Z</time>
      </trkpt>
      <trkpt lat="38.818317" lon="121.1484">
        <ele>50.868874</ele>
        <time>2014-03-23T09:21:19.828000Z</time>
      </trkpt>
      <trkpt lat="38.81844" lon="121.14839">
        <ele>50.946888</ele>
        <time>2014-03-23T09:21:22.973000Z</time>
      </trkpt>
      <trkpt lat="38.81854" lon="121.14838">
        <ele>50.181496</ele>
        <time>2014-03-23T09:21:26.118000Z</time>
      </trkpt>
      <trkpt lat="38.81864" lon="121.1483">
        <ele>49.1831</ele>
        <time>2014-03-23T09:21:29.263000Z</time>
      </trkpt>
      <trkpt lat="38.818714" lon="121.14821">
        <ele>49.028305</ele>
        <time>2014-03-23T09:21:32.408000Z</time>
      </trkpt>
      <trkpt lat="38.818764" lon="121.14809">
        <ele>50.59301</ele>
        <time>2014-03-23T09:21:35.553000Z</time>
      </trkpt>
      <trkpt lat="38.818787" lon="121.147964">
        <ele>53.59906</ele>
        <time>2014-03-23T09:21:38.698000Z</time>
      </trkpt>
      <trkpt lat="38.818798" lon="121.14785">
        <ele>56.84632</ele>
        <time>2014-03-23T09:21:41.843000Z</time>
      </trkpt>
      <trkpt lat="38.818794" lon="121.14773">
        <ele>58.961918</ele>
        <time>2014-03-23T09:21:44.988000Z</time>
      </trkpt>
      <trkpt lat="38.81876" lon="121.1476">
        <ele>59.56082</ele>
        <time>2014-03-23T09:21:48.133000Z</time>
      </trkpt>
      <trkpt lat="38.818676" lon="121.14749">
        <ele>59.191113</ele>
        <time>2014-03-23T09:21:51.278000Z</time>
      </trkpt>
      <trkpt lat="38.818573" lon="121.14741">
        <ele>58.08669</ele>
        <time>2014-03-23T09:21:54.423000Z</time>
      </trkpt>
      <trkpt lat="38.818474" lon="121.14737">
        <ele>56.099567</ele>
        <time>2014-03-23T09:21:57.568000Z</time>
      </trkpt>
      <trkpt lat="38.81838" lon="121.14736">
        <ele>54.120975</ele>
        <time>2014-03-23T09:22:00.713000Z</time>
      </trkpt>
      <trkpt lat="38.81826" lon="121.14735">
        <ele>52.49605</ele>
        <time>2014-03-23T09:22:03.858000Z</time>
      </trkpt>
      <trkpt lat="38.818157" lon="121.14734">
        <ele>50.323597</ele>
        <time>2014-03-23T09:22:07.003000Z</time>
      </trkpt>
      <trkpt lat="38.81806" lon="121.14732">
        <ele>47.431522</ele>
        <time>2014-03-23T09:22:10.148000Z</time>
      </trkpt>
      <trkpt lat="38.81796" lon="121.1473">
        <ele>45.01841</ele>
        <time>2014-03-23T09:22:13.293000Z</time>
      </trkpt>
      <trkpt lat="38.817867" lon="121.147285">
        <ele>44.270565</ele>
        <time>2014-03-23T09:22:16.438000Z</time>
      </trkpt>
      <trkpt lat="38.817776" lon="121.147285">
        <ele>45.13196</ele>
        <time>2014-03-23T09:22:19.583000Z</time>
      </trkpt>
      <trkpt lat="38.817677" lon="121.14727">
        <ele>46.39017</ele>
        <time>2014-03-23T09:22:22.728000Z</time>
      </trkpt>
      <trkpt lat="38.817574" lon="121.14727">
        <ele>47.183964</ele>
        <time>2014-03-23T09:22:25.873000Z</time>
      </trkpt>
      <trkpt lat="38.81745" lon="121.14726">
        <ele>47.794743</ele>
        <time>2014-03-23T09:22:29.018000Z</time>
      </trkpt>
      <trkpt lat="38.81736" lon="121.1473">
        <ele>48.51263</ele>
        <time>2014-03-23T09:22:32.163000Z</time>
      </trkpt>
      <trkpt lat="38.817272" lon="121.14734">
        <ele>49.427597</ele>
        <time>2014-03-23T09:22:35.308000Z</time>
      </trkpt>
      <trkpt lat="38.817207" lon="121.14744">
        <ele>50.64733</ele>
        <time>2014-03-23T09:22:38.453000Z</time>
      </trkpt>
      <trkpt lat="38.817154" lon="121.147575">
        <ele>52.446964</ele>
        <time>2014-03-23T09:22:41.598000Z</time>
      </trkpt>
      <trkpt lat="38.817123" lon="121.14772">
        <ele>54.653427</ele>
        <time>2014-03-23T09:22:44.743000Z</time>
      </trkpt>
      <trkpt lat="38.817123" lon="121.14787">
        <ele>56.20854</ele>
        <time>2014-03-23T09:22:47.888000Z</time>
      </trkpt>
      <trkpt lat="38.81715" lon="121.14802">
        <ele>56.442303</ele>
        <time>2014-03-23T09:22:51.033000Z</time>
      </trkpt>
      <trkpt lat="38.817192" lon="121.14815">
        <ele>55.583115</ele>
        <time>2014-03-23T09:22:54.178000Z</time>
      </trkpt>
      <trkpt lat="38.817272" lon="121.14822">
        <ele>54.010014</ele>
        <time>2014-03-23T09:22:57.323000Z</time>
      </trkpt>
      <trkpt lat="38.817368" lon="121.148254">
        <ele>52.50837</ele>
        <time>2014-03-23T09:23:00.468000Z</time>
      </trkpt>
      <trkpt lat="38.817455" lon="121.1483">
        <ele>51.953217</ele>
        <time>2014-03-23T09:23:03.613000Z</time>
      </trkpt>
      <trkpt lat="38.817574" lon="121.14834">
        <ele>52.33996</ele>
        <time>2014-03-23T09:23:06.758000Z</time>
      </trkpt>
      <trkpt lat="38.81768" lon="121.14835">
        <ele>52.69297</ele>
        <time>2014-03-23T09:23:09.903000Z</time>
      </trkpt>
      <trkpt lat="38.81779" lon="121.14837">
        <ele>52.294075</ele>
        <time>2014-03-23T09:23:13.048000Z</time>
      </trkpt>
      <trkpt lat="38.817898" lon="121.14837">
        <ele>51.594414</ele>
        <time>2014-03-23T09:23:16.193000Z</time>
      </trkpt>
      <trkpt lat="38.817997" lon="121.148384">
        <ele>50.953407</ele>
        <time>2014-03-23T09:23:19.338000Z</time>
      </trkpt>
      <trkpt lat="38.818096" lon="121.148384">
        <ele>50.24734</ele>
        <time>2014-03-23T09:23:22.483000Z</time>
      </trkpt>
      <trkpt lat="38.818195" lon="121.148384">
        <ele>50.303925</ele>
        <time>2014-03-23T09:23:25.628000Z</time>
      </trkpt>
      <trkpt lat="38.818314" lon="121.1484">
        <ele>51.72111</ele>
        <time>2014-03-23T09:23:28.773000Z</time>
      </trkpt>
      <trkpt lat="38.81842" lon="121.1484">
        <ele>53.423756</ele>
        <time>2014-03-23T09:23:31.918000Z</time>
      </trkpt>
      <trkpt lat="38.818512" lon="121.14838">
        <ele>54.51055</ele>
        <time>2014-03-23T09:23:35.063000Z</time>
      </trkpt>
      <trkpt lat="38.818604" lon="121.148315">
        <ele>55.254524</ele>
        <time>2014-03-23T09:23:38.208000Z</time>
      </trkpt>
      <trkpt lat="38.81868" lon="121.14823">
        <ele>55.737972</ele>
        <time>2014-03-23T09:23:41.353000Z</time>
      </trkpt>
      <trkpt lat="38.81873" lon="121.14809">
        <ele>55.899883</ele>
        <time>2014-03-23T09:23:44.498000Z</time>
      </trkpt>
      <trkpt lat="38.81876" lon="121.14794">
        <ele>56.207294</ele>
        <time>2014-03-23T09:23:47.643000Z</time>
      </trkpt>
      <trkpt lat="38.81877" lon="121.1478">
        <ele>57.28201</ele>
        <time>2014-03-23T09:23:50.788000Z</time>
      </trkpt>
      <trkpt lat="38.818764" lon="121.14765">
        <ele>58.54853</ele>
        <time>2014-03-23T09:23:53.933000Z</time>
      </trkpt>
      <trkpt lat="38.818707" lon="121.14754">
        <ele>57.909454</ele>
        <time>2014-03-23T09:23:57.078000Z</time>
      </trkpt>
      <trkpt lat="38.81863" lon="121.147446">
        <ele>54.6279</ele>
        <time>2014-03-23T09:24:00.223000Z</time>
      </trkpt>
      <trkpt lat="38.818535" lon="121.14739">
        <ele>50.668118</ele>
        <time>2014-03-23T09:24:03.368000Z</time>
      </trkpt>
      <trkpt lat="38.818436" lon="121.14738">
        <ele>47.829403</ele>
        <time>2014-03-23T09:24:06.513000Z</time>
      </trkpt>
      <trkpt lat="38.818314" lon="121.14737">
        <ele>46.156925</ele>
        <time>2014-03-23T09:24:09.658000Z</time>
      </trkpt>
      <trkpt lat="38.818214" lon="121.147354">
        <ele>44.85948</ele>
        <time>2014-03-23T09:24:12.803000Z</time>
      </trkpt>
      <trkpt lat="38.818115" lon="121.14735">
        <ele>43.409496</ele>
        <time>2014-03-23T09:24:15.948000Z</time>
      </trkpt>
      <trkpt lat="38.818016" lon="121.14735">
        <ele>41.264626</ele>
        <time>2014-03-23T09:24:19.093000Z</time>
      </trkpt>
      <trkpt lat="38.817917" lon="121.14734">
        <ele>38.31227</ele>
        <time>2014-03-23T09:24:22.238000Z</time>
      </trkpt>
      <trkpt lat="38.81781" lon="121.14734">
        <ele>37.25846</ele>
        <time>2014-03-23T09:24:25.383000Z</time>
      </trkpt>
      <trkpt lat="38.81771" lon="121.14732">
        <ele>40.44593</ele>
        <time>2014-03-23T09:24:28.528000Z</time>
      </trkpt>
      <trkpt lat="38.817604" lon="121.1473">
        <ele>45.48008</ele>
        <time>2014-03-23T09:24:31.673000Z</time>
      </trkpt>
      <trkpt lat="38.8175" lon="121.14729">
        <ele>49.024548</ele>
        <time>2014-03-23T09:24:34.818000Z</time>
      </trkpt>
      <trkpt lat="38.817375" lon="121.1473">
        <ele>51.268555</ele>
        <time>2014-03-23T09:24:37.963000Z</time>
      </trkpt>
      <trkpt lat="38.81727" lon="121.14732">
        <ele>53.90016</ele>
        <time>2014-03-23T09:24:41.108000Z</time>
      </trkpt>
      <trkpt lat="38.817177" lon="121.147415">
        <ele>57.11058</ele>
        <time>2014-03-23T09:24:44.253000Z</time>
      </trkpt>
      <trkpt lat="38.817127" lon="121.14754">
        <ele>60.375202</ele>
        <time>2014-03-23T09:24:47.398000Z</time>
      </trkpt>
      <trkpt lat="38.81711" lon="121.14768">
        <ele>63.855816</ele>
        <time>2014-03-23T09:24:50.543000Z</time>
      </trkpt>
      <trkpt lat="38.81712" lon="121.14786">
        <ele>67.066795</ele>
        <time>2014-03-23T09:24:53.688000Z</time>
      </trkpt>
      <trkpt lat="38.81716" lon="121.148026">
        <ele>68.18004</ele>
        <time>2014-03-23T09:24:56.833000Z</time>
      </trkpt>
      <trkpt lat="38.817215" lon="121.14818">
        <ele>65.214905</ele>
        <time>2014-03-23T09:24:59.978000Z</time>
      </trkpt>
      <trkpt lat="38.817276" lon="121.14829">
        <ele>58.204433</ele>
        <time>2014-03-23T09:25:03.123000Z</time>
      </trkpt>
      <trkpt lat="38.81737" lon="121.148346">
        <ele>50.15434</ele>
        <time>2014-03-23T09:25:06.268000Z</time>
      </trkpt>
      <trkpt lat="38.817482" lon="121.14835">
        <ele>44.54133</ele>
        <time>2014-03-23T09:25:09.413000Z</time>
      </trkpt>
      <trkpt lat="38.81761" lon="121.14835">
        <ele>42.58891</ele>
        <time>2014-03-23T09:25:12.558000Z</time>
      </trkpt>
      <trkpt lat="38.81773" lon="121.14836">
        <ele>43.195953</ele>
        <time>2014-03-23T09:25:15.703000Z</time>
      </trkpt>
      <trkpt lat="38.817844" lon="121.14836">
        <ele>44.536095</ele>
        <time>2014-03-23T09:25:18.848000Z</time>
      </trkpt>
      <trkpt lat="38.81796" lon="121.14837">
        <ele>45.18724</ele>
        <time>2014-03-23T09:25:21.993000Z</time>
      </trkpt>
      <trkpt lat="38.81806" lon="121.14838">
        <ele>44.989914</ele>
        <time>2014-03-23T09:25:25.138000Z</time>
      </trkpt>
      <trkpt lat="38.818157" lon="121.148384">
        <ele>44.507244</ele>
        <time>2014-03-23T09:25:28.283000Z</time>
      </trkpt>
      <trkpt lat="38.818264" lon="121.14839">
        <ele>44.047604</ele>
        <time>2014-03-23T09:25:31.428000Z</time>
      </trkpt>
      <trkpt lat="38.81838" lon="121.1484">
        <ele>43.701645</ele>
        <time>2014-03-23T09:25:34.573000Z</time>
      </trkpt>
      <trkpt lat="38.818485" lon="121.14839">
        <ele>44.12943</ele>
        <time>2014-03-23T09:25:37.718000Z</time>
      </trkpt>
      <trkpt lat="38.81859" lon="121.14836">
        <ele>45.51203</ele>
        <time>2014-03-23T09:25:40.863000Z</time>
      </trkpt>
      <trkpt lat="38.818676" lon="121.14827">
        <ele>47.359615</ele>
        <time>2014-03-23T09:25:44.008000Z</time>
      </trkpt>
      <trkpt lat="38.818737" lon="121.14815">
        <ele>49.390476</ele>
        <time>2014-03-23T09:25:47.153000Z</time>
      </trkpt>
      <trkpt lat="38.81878" lon="121.147995">
        <ele>51.537586</ele>
        <time>2014-03-23T09:25:50.298000Z</time>
      </trkpt>
      <trkpt lat="38.818798" lon="121.14788">
        <ele>53.257355</ele>
        <time>2014-03-23T09:25:53.443000Z</time>
      </trkpt>
      <trkpt lat="38.818806" lon="121.14774">
        <ele>54.15605</ele>
        <time>2014-03-23T09:25:56.588000Z</time>
      </trkpt>
      <trkpt lat="38.81879" lon="121.147606">
        <ele>54.183228</ele>
        <time>2014-03-23T09:25:59.733000Z</time>
      </trkpt>
      <trkpt lat="38.818718" lon="121.14748">
        <ele>53.110096</ele>
        <time>2014-03-23T09:26:02.878000Z</time>
      </trkpt>
      <trkpt lat="38.81861" lon="121.14738">
        <ele>50.986828</ele>
        <time>2014-03-23T09:26:06.023000Z</time>
      </trkpt>
      <trkpt lat="38.818527" lon="121.14733">
        <ele>48.8773</ele>
        <time>2014-03-23T09:26:09.168000Z</time>
      </trkpt>
      <trkpt lat="38.818417" lon="121.14731">
        <ele>47.73798</ele>
        <time>2014-03-23T09:26:12.313000Z</time>
      </trkpt>
      <trkpt lat="38.81829" lon="121.147285">
        <ele>47.461967</ele>
        <time>2014-03-23T09:26:15.458000Z</time>
      </trkpt>
      <trkpt lat="38.81816" lon="121.14728">
        <ele>47.551064</ele>
        <time>2014-03-23T09:26:18.603000Z</time>
      </trkpt>
      <trkpt lat="38.818047" lon="121.14727">
        <ele>48.555275</ele>
        <time>2014-03-23T09:26:21.748000Z</time>
      </trkpt>
      <trkpt lat="38.817944" lon="121.14727">
        <ele>51.197784</ele>
        <time>2014-03-23T09:26:24.893000Z</time>
      </trkpt>
      <trkpt lat="38.81784" lon="121.14724">
        <ele>54.322693</ele>
        <time>2014-03-23T09:26:28.038000Z</time>
      </trkpt>
      <trkpt lat="38.81775" lon="121.14723">
        <ele>56.037853</ele>
        <time>2014-03-23T09:26:31.183000Z</time>
      </trkpt>
      <trkpt lat="38.81765" lon="121.14722">
        <ele>55.6834</ele>
        <time>2014-03-23T09:26:34.328000Z</time>
      </trkpt>
      <trkpt lat="38.81755" lon="121.147224">
        <ele>53.96925</ele>
        <time>2014-03-23T09:26:37.473000Z</time>
      </trkpt>
      <trkpt lat="38.81745" lon="121.14724">
        <ele>52.53658</ele>
        <time>2014-03-23T09:26:40.618000Z</time>
      </trkpt>
      <trkpt lat="38.81735" lon="121.147255">
        <ele>52.273357</ele>
        <time>2014-03-23T09:26:43.763000Z</time>
      </trkpt>
      <trkpt lat="38.817238" lon="121.14731">
        <ele>52.659428</ele>
        <time>2014-03-23T09:26:46.908000Z</time>
      </trkpt>
      <trkpt lat="38.817158" lon="121.14744">
        <ele>53.78202</ele>
        <time>2014-03-23T09:26:50.053000Z</time>
      </trkpt>
      <trkpt lat="38.817116" lon="121.147575">
        <ele>57.203476</ele>
        <time>2014-03-23T09:26:53.198000Z</time>
      </trkpt>
      <trkpt lat="38.81711" lon="121.147705">
        <ele>62.59314</ele>
        <time>2014-03-23T09:26:56.343000Z</time>
      </trkpt>
      <trkpt lat="38.81712" lon="121.14787">
        <ele>66.19296</ele>
        <time>2014-03-23T09:26:59.488000Z</time>
      </trkpt>
      <trkpt lat="38.817146" lon="121.148">
        <ele>65.8278</ele>
        <time>2014-03-23T09:27:02.633000Z</time>
      </trkpt>
      <trkpt lat="38.817215" lon="121.14813">
        <ele>62.95982</ele>
        <time>2014-03-23T09:27:05.778000Z</time>
      </trkpt>
      <trkpt lat="38.81729" lon="121.148254">
        <ele>58.905884</ele>
        <time>2014-03-23T09:27:08.923000Z</time>
      </trkpt>
      <trkpt lat="38.817413" lon="121.14831">
        <ele>54.41252</ele>
        <time>2014-03-23T09:27:12.068000Z</time>
      </trkpt>
      <trkpt lat="38.817535" lon="121.14833">
        <ele>51.036682</ele>
        <time>2014-03-23T09:27:15.213000Z</time>
      </trkpt>
      <trkpt lat="38.817646" lon="121.14835">
        <ele>49.25538</ele>
        <time>2014-03-23T09:27:18.358000Z</time>
      </trkpt>
      <trkpt lat="38.81775" lon="121.14836">
        <ele>48.12715</ele>
        <time>2014-03-23T09:27:21.503000Z</time>
      </trkpt>
      <trkpt lat="38.81786" lon="121.14837">
        <ele>47.218315</ele>
        <time>2014-03-23T09:27:24.648000Z</time>
      </trkpt>
      <trkpt lat="38.817966" lon="121.14837">
        <ele>46.380676</ele>
        <time>2014-03-23T09:27:27.793000Z</time>
      </trkpt>
      <trkpt lat="38.818077" lon="121.148384">
        <ele>45.3387</ele>
        <time>2014-03-23T09:27:30.938000Z</time>
      </trkpt>
      <trkpt lat="38.818195" lon="121.14839">
        <ele>44.33167</ele>
        <time>2014-03-23T09:27:34.083000Z</time>
      </trkpt>
      <trkpt lat="38.818306" lon="121.1484">
        <ele>43.714912</ele>
        <time>2014-03-23T09:27:37.228000Z</time>
      </trkpt>
      <trkpt lat="38.81842" lon="121.14841">
        <ele>43.21114</ele>
        <time>2014-03-23T09:27:40.373000Z</time>
      </trkpt>
      <trkpt lat="38.81852" lon="121.14839">
        <ele>42.816032</ele>
        <time>2014-03-23T09:27:43.518000Z</time>
      </trkpt>
      <trkpt lat="38.81864" lon="121.14833">
        <ele>43.227695</ele>
        <time>2014-03-23T09:27:46.663000Z</time>
      </trkpt>
      <trkpt lat="38.818707" lon="121.14825">
        <ele>45.054203</ele>
        <time>2014-03-23T09:27:49.808000Z</time>
      </trkpt>
      <trkpt lat="38.818768" lon="121.1481">
        <ele>47.658447</ele>
        <time>2014-03-23T09:27:52.953000Z</time>
      </trkpt>
      <trkpt lat="38.81881" lon="121.147964">
        <ele>50.038136</ele>
        <time>2014-03-23T09:27:56.098000Z</time>
      </trkpt>
      <trkpt lat="38.818825" lon="121.14785">
        <ele>51.844368</ele>
        <time>2014-03-23T09:27:59.243000Z</time>
      </trkpt>
      <trkpt lat="38.81882" lon="121.14769">
        <ele>53.500565</ele>
        <time>2014-03-23T09:28:02.388000Z</time>
      </trkpt>
      <trkpt lat="38.81879" lon="121.147575">
        <ele>55.196617</ele>
        <time>2014-03-23T09:28:05.533000Z</time>
      </trkpt>
      <trkpt lat="38.818718" lon="121.14746">
        <ele>56.05116</ele>
        <time>2014-03-23T09:28:08.678000Z</time>
      </trkpt>
      <trkpt lat="38.8186" lon="121.147354">
        <ele>54.78566</ele>
        <time>2014-03-23T09:28:11.823000Z</time>
      </trkpt>
      <trkpt lat="38.818516" lon="121.14731">
        <ele>51.503433</ele>
        <time>2014-03-23T09:28:14.968000Z</time>
      </trkpt>
      <trkpt lat="38.818386" lon="121.14728">
        <ele>47.831715</ele>
        <time>2014-03-23T09:28:18.113000Z</time>
      </trkpt>
      <trkpt lat="38.818268" lon="121.147255">
        <ele>45.548462</ele>
        <time>2014-03-23T09:28:21.258000Z</time>
      </trkpt>
      <trkpt lat="38.818165" lon="121.14726">
        <ele>45.10433</ele>
        <time>2014-03-23T09:28:24.403000Z</time>
      </trkpt>
      <trkpt lat="38.818073" lon="121.14725">
        <ele>45.990788</ele>
        <time>2014-03-23T09:28:27.548000Z</time>
      </trkpt>
      <trkpt lat="38.81795" lon="121.14724">
        <ele>47.582684</ele>
        <time>2014-03-23T09:28:30.693000Z</time>
      </trkpt>
      <trkpt lat="38.817837" lon="121.14723">
        <ele>49.254395</ele>
        <time>2014-03-23T09:28:33.838000Z</time>
      </trkpt>
      <trkpt lat="38.817726" lon="121.14724">
        <ele>50.84095</ele>
        <time>2014-03-23T09:28:36.983000Z</time>
      </trkpt>
      <trkpt lat="38.817627" lon="121.14724">
        <ele>52.32206</ele>
        <time>2014-03-23T09:28:40.128000Z</time>
      </trkpt>
      <trkpt lat="38.817535" lon="121.14724">
        <ele>53.49782</ele>
        <time>2014-03-23T09:28:43.273000Z</time>
      </trkpt>
      <trkpt lat="38.817417" lon="121.147255">
        <ele>54.762314</ele>
        <time>2014-03-23T09:28:46.418000Z</time>
      </trkpt>
      <trkpt lat="38.81729" lon="121.14727">
        <ele>56.846245</ele>
        <time>2014-03-23T09:28:49.563000Z</time>
      </trkpt>
      <trkpt lat="38.817204" lon="121.147354">
        <ele>59.403503</ele>
        <time>2014-03-23T09:28:52.708000Z</time>
      </trkpt>
      <trkpt lat="38.817146" lon="121.147484">
        <ele>62.598648</ele>
        <time>2014-03-23T09:28:55.853000Z</time>
      </trkpt>
      <trkpt lat="38.81712" lon="121.14763">
        <ele>66.72529</ele>
        <time>2014-03-23T09:28:58.998000Z</time>
      </trkpt>
      <trkpt lat="38.817123" lon="121.14778">
        <ele>69.93815</ele>
        <time>2014-03-23T09:29:02.143000Z</time>
      </trkpt>
      <trkpt lat="38.817146" lon="121.14796">
        <ele>70.0454</ele>
        <time>2014-03-23T09:29:05.288000Z</time>
      </trkpt>
      <trkpt lat="38.81719" lon="121.14812">
        <ele>67.44138</ele>
        <time>2014-03-23T09:29:08.433000Z</time>
      </trkpt>
      <trkpt lat="38.817253" lon="121.148224">
        <ele>63.335896</ele>
        <time>2014-03-23T09:29:11.578000Z</time>
      </trkpt>
      <trkpt lat="38.817364" lon="121.14826">
        <ele>58.722317</ele>
        <time>2014-03-23T09:29:14.723000Z</time>
      </trkpt>
      <trkpt lat="38.81748" lon="121.1483">
        <ele>54.073956</ele>
        <time>2014-03-23T09:29:17.868000Z</time>
      </trkpt>
      <trkpt lat="38.8176" lon="121.14833">
        <ele>49.880516</ele>
        <time>2014-03-23T09:29:21.013000Z</time>
      </trkpt>
      <trkpt lat="38.81769" lon="121.148346">
        <ele>46.69119</ele>
        <time>2014-03-23T09:29:24.158000Z</time>
      </trkpt>
      <trkpt lat="38.817795" lon="121.14836">
        <ele>44.5224</ele>
        <time>2014-03-23T09:29:27.303000Z</time>
      </trkpt>
      <trkpt lat="38.817905" lon="121.14836">
        <ele>42.724865</ele>
        <time>2014-03-23T09:29:30.448000Z</time>
      </trkpt>
      <trkpt lat="38.818" lon="121.14838">
        <ele>41.522038</ele>
        <time>2014-03-23T09:29:33.593000Z</time>
      </trkpt>
      <trkpt lat="38.818127" lon="121.148384">
        <ele>41.436565</ele>
        <time>2014-03-23T09:29:36.738000Z</time>
      </trkpt>
      <trkpt lat="38.818226" lon="121.14839">
        <ele>42.404766</ele>
        <time>2014-03-23T09:29:39.883000Z</time>
      </trkpt>
      <trkpt lat="38.818344" lon="121.14839">
        <ele>44.131714</ele>
        <time>2014-03-23T09:29:43.028000Z</time>
      </trkpt>
      <trkpt lat="38.818462" lon="121.14839">
        <ele>46.276268</ele>
        <time>2014-03-23T09:29:46.173000Z</time>
      </trkpt>
      <trkpt lat="38.818577" lon="121.14837">
        <ele>48.086178</ele>
        <time>2014-03-23T09:29:49.318000Z</time>
      </trkpt>
      <trkpt lat="38.81869" lon="121.14829">
        <ele>49.47396</ele>
        <time>2014-03-23T09:29:52.463000Z</time>
      </trkpt>
      <trkpt lat="38.818756" lon="121.148155">
        <ele>50.77365</ele>
        <time>2014-03-23T09:29:55.608000Z</time>
      </trkpt>
      <trkpt lat="38.818787" lon="121.147995">
        <ele>51.67352</ele>
        <time>2014-03-23T09:29:58.753000Z</time>
      </trkpt>
      <trkpt lat="38.818806" lon="121.147835">
        <ele>51.866356</ele>
        <time>2014-03-23T09:30:01.898000Z</time>
      </trkpt>
      <trkpt lat="38.818806" lon="121.147675">
        <ele>51.747158</ele>
        <time>2014-03-23T09:30:05.043000Z</time>
      </trkpt>
      <trkpt lat="38.81876" lon="121.14754">
        <ele>51.701633</ele>
        <time>2014-03-23T09:30:08.188000Z</time>
      </trkpt>
      <trkpt lat="38.81868" lon="121.147446">
        <ele>51.70563</ele>
        <time>2014-03-23T09:30:11.333000Z</time>
      </trkpt>
      <trkpt lat="38.81868" lon="121.147446">
        <ele>51.63046</ele>
        <time>2014-03-23T09:30:14.478000Z</time>
      </trkpt>
      <trkpt lat="38.81858" lon="121.14737">
        <ele>51.406467</ele>
        <time>2014-03-23T09:30:17.623000Z</time>
      </trkpt>
      <trkpt lat="38.818478" lon="121.14732">
        <ele>51.18394</ele>
        <time>2014-03-23T09:30:20.768000Z</time>
      </trkpt>
      <trkpt lat="38.818424" lon="121.14729">
        <ele>47.680233</ele>
        <time>2014-03-23T09:30:23.913000Z</time>
      </trkpt>
      <trkpt lat="38.818424" lon="121.14729">
        <ele>47.908577</ele>
        <time>2014-03-23T09:30:27.058000Z</time>
      </trkpt>
      <trkpt lat="38.818283" lon="121.14729">
        <ele>47.86602</ele>
        <time>2014-03-23T09:30:30.203000Z</time>
      </trkpt>
      <trkpt lat="38.818253" lon="121.14729">
        <ele>48.21102</ele>
        <time>2014-03-23T09:30:33.348000Z</time>
      </trkpt>
      <trkpt lat="38.818142" lon="121.14728">
        <ele>49.474285</ele>
        <time>2014-03-23T09:30:36.493000Z</time>
      </trkpt>
      <trkpt lat="38.81805" lon="121.14728">
        <ele>51.18251</ele>
        <time>2014-03-23T09:30:39.638000Z</time>
      </trkpt>
      <trkpt lat="38.817932" lon="121.147255">
        <ele>52.67126</ele>
        <time>2014-03-23T09:30:42.783000Z</time>
      </trkpt>
      <trkpt lat="38.817818" lon="121.147255">
        <ele>53.57506</ele>
        <time>2014-03-23T09:30:45.928000Z</time>
      </trkpt>
      <trkpt lat="38.81771" lon="121.147255">
        <ele>52.746445</ele>
        <time>2014-03-23T09:30:49.073000Z</time>
      </trkpt>
      <trkpt lat="38.817585" lon="121.14725">
        <ele>49.83049</ele>
        <time>2014-03-23T09:30:52.218000Z</time>
      </trkpt>
      <trkpt lat="38.817486" lon="121.14724">
        <ele>46.820465</ele>
        <time>2014-03-23T09:30:55.363000Z</time>
      </trkpt>
      <trkpt lat="38.81739" lon="121.14724">
        <ele>45.47416</ele>
        <time>2014-03-23T09:30:58.508000Z</time>
      </trkpt>
      <trkpt lat="38.81728" lon="121.14727">
        <ele>46.161057</ele>
        <time>2014-03-23T09:31:01.653000Z</time>
      </trkpt>
      <trkpt lat="38.817196" lon="121.147354">
        <ele>49.084538</ele>
        <time>2014-03-23T09:31:04.798000Z</time>
      </trkpt>
      <trkpt lat="38.81714" lon="121.1475">
        <ele>53.630943</ele>
        <time>2014-03-23T09:31:07.943000Z</time>
      </trkpt>
      <trkpt lat="38.817112" lon="121.14768">
        <ele>57.910435</ele>
        <time>2014-03-23T09:31:11.088000Z</time>
      </trkpt>
      <trkpt lat="38.817112" lon="121.1478">
        <ele>60.47261</ele>
        <time>2014-03-23T09:31:14.233000Z</time>
      </trkpt>
      <trkpt lat="38.817127" lon="121.147934">
        <ele>61.360268</ele>
        <time>2014-03-23T09:31:17.378000Z</time>
      </trkpt>
      <trkpt lat="38.817158" lon="121.14805">
        <ele>60.737186</ele>
        <time>2014-03-23T09:31:20.523000Z</time>
      </trkpt>
      <trkpt lat="38.8172" lon="121.148155">
        <ele>58.11457</ele>
        <time>2014-03-23T09:31:23.668000Z</time>
      </trkpt>
      <trkpt lat="38.817257" lon="121.14826">
        <ele>53.88336</ele>
        <time>2014-03-23T09:31:26.813000Z</time>
      </trkpt>
      <trkpt lat="38.817333" lon="121.14834">
        <ele>49.63146</ele>
        <time>2014-03-23T09:31:29.958000Z</time>
      </trkpt>
      <trkpt lat="38.817444" lon="121.14839">
        <ele>46.687965</ele>
        <time>2014-03-23T09:31:33.103000Z</time>
      </trkpt>
      <trkpt lat="38.817554" lon="121.14839">
        <ele>45.20631</ele>
        <time>2014-03-23T09:31:36.248000Z</time>
      </trkpt>
      <trkpt lat="38.817646" lon="121.148384">
        <ele>44.377987</ele>
        <time>2014-03-23T09:31:39.393000Z</time>
      </trkpt>
      <trkpt lat="38.81776" lon="121.14838">
        <ele>43.611732</ele>
        <time>2014-03-23T09:31:42.538000Z</time>
      </trkpt>
      <trkpt lat="38.817863" lon="121.14837">
        <ele>42.732044</ele>
        <time>2014-03-23T09:31:45.683000Z</time>
      </trkpt>
      <trkpt lat="38.817955" lon="121.14837">
        <ele>41.734768</ele>
        <time>2014-03-23T09:31:48.828000Z</time>
      </trkpt>
      <trkpt lat="38.818073" lon="121.14836">
        <ele>40.936398</ele>
        <time>2014-03-23T09:31:51.973000Z</time>
      </trkpt>
      <trkpt lat="38.818176" lon="121.14837">
        <ele>40.44358</ele>
        <time>2014-03-23T09:31:55.118000Z</time>
      </trkpt>
      <trkpt lat="38.81828" lon="121.14837">
        <ele>39.761368</ele>
        <time>2014-03-23T09:31:58.263000Z</time>
      </trkpt>
      <trkpt lat="38.81838" lon="121.14835">
        <ele>38.819588</ele>
        <time>2014-03-23T09:32:01.408000Z</time>
      </trkpt>
      <trkpt lat="38.818474" lon="121.148315">
        <ele>38.30377</ele>
        <time>2014-03-23T09:32:04.553000Z</time>
      </trkpt>
      <trkpt lat="38.818546" lon="121.14823">
        <ele>38.573082</ele>
        <time>2014-03-23T09:32:07.698000Z</time>
      </trkpt>
      <trkpt lat="38.818604" lon="121.148125">
        <ele>38.715683</ele>
        <time>2014-03-23T09:32:10.843000Z</time>
      </trkpt>
      <trkpt lat="38.81864" lon="121.14801">
        <ele>37.974068</ele>
        <time>2014-03-23T09:32:13.988000Z</time>
      </trkpt>
      <trkpt lat="38.818676" lon="121.14789">
        <ele>37.285084</ele>
        <time>2014-03-23T09:32:17.133000Z</time>
      </trkpt>
      <trkpt lat="38.818718" lon="121.14776">
        <ele>37.732304</ele>
        <time>2014-03-23T09:32:20.278000Z</time>
      </trkpt>
      <trkpt lat="38.81871" lon="121.14764">
        <ele>39.027885</ele>
        <time>2014-03-23T09:32:23.423000Z</time>
      </trkpt>
      <trkpt lat="38.818638" lon="121.147514">
        <ele>40.3432</ele>
        <time>2014-03-23T09:32:26.568000Z</time>
      </trkpt>
      <trkpt lat="38.81854" lon="121.147446">
        <ele>41.535984</ele>
        <time>2014-03-23T09:32:29.713000Z</time>
      </trkpt>
      <trkpt lat="38.818417" lon="121.147385">
        <ele>43.23397</ele>
        <time>2014-03-23T09:32:32.858000Z</time>
      </trkpt>
      <trkpt lat="38.818314" lon="121.14733">
        <ele>45.844643</ele>
        <time>2014-03-23T09:32:36.003000Z</time>
      </trkpt>
      <trkpt lat="38.818222" lon="121.14731">
        <ele>49.22817</ele>
        <time>2014-03-23T09:32:39.148000Z</time>
      </trkpt>
      <trkpt lat="38.81813" lon="121.14729">
        <ele>52.64239</ele>
        <time>2014-03-23T09:32:42.293000Z</time>
      </trkpt>
      <trkpt lat="38.818043" lon="121.14727">
        <ele>55.125324</ele>
        <time>2014-03-23T09:32:45.438000Z</time>
      </trkpt>
      <trkpt lat="38.81795" lon="121.14725">
        <ele>56.44804</ele>
        <time>2014-03-23T09:32:48.583000Z</time>
      </trkpt>
      <trkpt lat="38.81785" lon="121.14723">
        <ele>55.760952</ele>
        <time>2014-03-23T09:32:51.728000Z</time>
      </trkpt>
      <trkpt lat="38.817757" lon="121.14722">
        <ele>52.287434</ele>
        <time>2014-03-23T09:32:54.873000Z</time>
      </trkpt>
      <trkpt lat="38.817665" lon="121.147194">
        <ele>48.225536</ele>
        <time>2014-03-23T09:32:58.018000Z</time>
      </trkpt>
      <trkpt lat="38.817547" lon="121.147194">
        <ele>46.214333</ele>
        <time>2014-03-23T09:33:01.163000Z</time>
      </trkpt>
      <trkpt lat="38.81742" lon="121.1472">
        <ele>46.22966</ele>
        <time>2014-03-23T09:33:04.308000Z</time>
      </trkpt>
      <trkpt lat="38.817314" lon="121.147255">
        <ele>47.283337</ele>
        <time>2014-03-23T09:33:07.453000Z</time>
      </trkpt>
      <trkpt lat="38.817238" lon="121.14736">
        <ele>49.209732</ele>
        <time>2014-03-23T09:33:10.598000Z</time>
      </trkpt>
      <trkpt lat="38.817173" lon="121.14749">
        <ele>51.98615</ele>
        <time>2014-03-23T09:33:13.743000Z</time>
      </trkpt>
      <trkpt lat="38.817127" lon="121.147644">
        <ele>54.659645</ele>
        <time>2014-03-23T09:33:16.888000Z</time>
      </trkpt>
      <trkpt lat="38.817116" lon="121.14779">
        <ele>56.158405</ele>
        <time>2014-03-23T09:33:20.033000Z</time>
      </trkpt>
      <trkpt lat="38.817123" lon="121.147934">
        <ele>55.73715</ele>
        <time>2014-03-23T09:33:23.178000Z</time>
      </trkpt>
      <trkpt lat="38.817158" lon="121.148056">
        <ele>53.338387</ele>
        <time>2014-03-23T09:33:26.323000Z</time>
      </trkpt>
      <trkpt lat="38.817215" lon="121.14819">
        <ele>50.700405</ele>
        <time>2014-03-23T09:33:29.468000Z</time>
      </trkpt>
      <trkpt lat="38.817287" lon="121.148285">
        <ele>49.71712</ele>
        <time>2014-03-23T09:33:32.613000Z</time>
      </trkpt>
      <trkpt lat="38.817383" lon="121.14834">
        <ele>50.424084</ele>
        <time>2014-03-23T09:33:35.758000Z</time>
      </trkpt>
      <trkpt lat="38.817493" lon="121.148346">
        <ele>51.79514</ele>
        <time>2014-03-23T09:33:38.903000Z</time>
      </trkpt>
      <trkpt lat="38.817596" lon="121.14835">
        <ele>52.70109</ele>
        <time>2014-03-23T09:33:42.048000Z</time>
      </trkpt>
      <trkpt lat="38.81769" lon="121.14835">
        <ele>52.6604</ele>
        <time>2014-03-23T09:33:45.193000Z</time>
      </trkpt>
      <trkpt lat="38.817795" lon="121.14835">
        <ele>51.89102</ele>
        <time>2014-03-23T09:33:48.338000Z</time>
      </trkpt>
      <trkpt lat="38.817886" lon="121.14835">
        <ele>51.07443</ele>
        <time>2014-03-23T09:33:51.483000Z</time>
      </trkpt>
      <trkpt lat="38.817993" lon="121.14836">
        <ele>50.647575</ele>
        <time>2014-03-23T09:33:54.628000Z</time>
      </trkpt>
      <trkpt lat="38.81809" lon="121.14837">
        <ele>49.76507</ele>
        <time>2014-03-23T09:33:57.773000Z</time>
      </trkpt>
      <trkpt lat="38.818214" lon="121.14838">
        <ele>47.877617</ele>
        <time>2014-03-23T09:34:00.918000Z</time>
      </trkpt>
      <trkpt lat="38.818314" lon="121.14838">
        <ele>46.20061</ele>
        <time>2014-03-23T09:34:04.063000Z</time>
      </trkpt>
      <trkpt lat="38.81841" lon="121.148384">
        <ele>45.926666</ele>
        <time>2014-03-23T09:34:07.208000Z</time>
      </trkpt>
      <trkpt lat="38.8185" lon="121.14834">
        <ele>47.25561</ele>
        <time>2014-03-23T09:34:10.353000Z</time>
      </trkpt>
      <trkpt lat="38.81858" lon="121.148285">
        <ele>49.463623</ele>
        <time>2014-03-23T09:34:13.498000Z</time>
      </trkpt>
      <trkpt lat="38.818657" lon="121.14819">
        <ele>50.16828</ele>
        <time>2014-03-23T09:34:16.643000Z</time>
      </trkpt>
      <trkpt lat="38.818703" lon="121.14808">
        <ele>47.953403</ele>
        <time>2014-03-23T09:34:19.788000Z</time>
      </trkpt>
      <trkpt lat="38.81873" lon="121.147934">
        <ele>44.786842</ele>
        <time>2014-03-23T09:34:22.933000Z</time>
      </trkpt>
      <trkpt lat="38.818733" lon="121.14781">
        <ele>42.923317</ele>
        <time>2014-03-23T09:34:26.078000Z</time>
      </trkpt>
      <trkpt lat="38.818726" lon="121.14769">
        <ele>42.123158</ele>
        <time>2014-03-23T09:34:29.223000Z</time>
      </trkpt>
      <trkpt lat="38.818684" lon="121.147575">
        <ele>41.540077</ele>
        <time>2014-03-23T09:34:32.368000Z</time>
      </trkpt>
      <trkpt lat="38.818604" lon="121.1475">
        <ele>41.419456</ele>
        <time>2014-03-23T09:34:35.513000Z</time>
      </trkpt>
      <trkpt lat="38.818497" lon="121.14748">
        <ele>42.31871</ele>
        <time>2014-03-23T09:34:38.658000Z</time>
      </trkpt>
      <trkpt lat="38.818375" lon="121.14744">
        <ele>43.76719</ele>
        <time>2014-03-23T09:34:41.803000Z</time>
      </trkpt>
      <trkpt lat="38.818275" lon="121.14741">
        <ele>44.508343</ele>
        <time>2014-03-23T09:34:44.948000Z</time>
      </trkpt>
      <trkpt lat="38.81818" lon="121.147385">
        <ele>43.871887</ele>
        <time>2014-03-23T09:34:48.093000Z</time>
      </trkpt>
      <trkpt lat="38.81809" lon="121.14736">
        <ele>42.490227</ele>
        <time>2014-03-23T09:34:51.238000Z</time>
      </trkpt>
      <trkpt lat="38.817978" lon="121.14733">
        <ele>41.41425</ele>
        <time>2014-03-23T09:34:54.383000Z</time>
      </trkpt>
      <trkpt lat="38.817863" lon="121.1473">
        <ele>41.514942</ele>
        <time>2014-03-23T09:34:57.528000Z</time>
      </trkpt>
      <trkpt lat="38.817772" lon="121.14729">
        <ele>42.87458</ele>
        <time>2014-03-23T09:35:00.673000Z</time>
      </trkpt>
      <trkpt lat="38.81767" lon="121.14728">
        <ele>44.367153</ele>
        <time>2014-03-23T09:35:03.818000Z</time>
      </trkpt>
      <trkpt lat="38.817554" lon="121.14727">
        <ele>45.04897</ele>
        <time>2014-03-23T09:35:06.963000Z</time>
      </trkpt>
      <trkpt lat="38.817463" lon="121.14727">
        <ele>45.625465</ele>
        <time>2014-03-23T09:35:10.108000Z</time>
      </trkpt>
      <trkpt lat="38.817356" lon="121.1473">
        <ele>46.82391</ele>
        <time>2014-03-23T09:35:13.253000Z</time>
      </trkpt>
      <trkpt lat="38.81725" lon="121.14738">
        <ele>48.0786</ele>
        <time>2014-03-23T09:35:16.398000Z</time>
      </trkpt>
      <trkpt lat="38.817192" lon="121.14751">
        <ele>48.77586</ele>
        <time>2014-03-23T09:35:19.543000Z</time>
      </trkpt>
      <trkpt lat="38.81716" lon="121.14768">
        <ele>49.11912</ele>
        <time>2014-03-23T09:35:22.688000Z</time>
      </trkpt>
      <trkpt lat="38.817142" lon="121.14783">
        <ele>49.03337</ele>
        <time>2014-03-23T09:35:25.833000Z</time>
      </trkpt>
      <trkpt lat="38.817142" lon="121.14796">
        <ele>48.402588</ele>
        <time>2014-03-23T09:35:28.978000Z</time>
      </trkpt>
      <trkpt lat="38.817165" lon="121.14809">
        <ele>47.669525</ele>
        <time>2014-03-23T09:35:32.123000Z</time>
      </trkpt>
      <trkpt lat="38.817223" lon="121.148224">
        <ele>47.77369</ele>
        <time>2014-03-23T09:35:35.268000Z</time>
      </trkpt>
      <trkpt lat="38.817287" lon="121.148315">
        <ele>49.13537</ele>
        <time>2014-03-23T09:35:38.413000Z</time>
      </trkpt>
      <trkpt lat="38.817398" lon="121.14836">
        <ele>51.15462</ele>
        <time>2014-03-23T09:35:41.558000Z</time>
      </trkpt>
      <trkpt lat="38.81752" lon="121.14837">
        <ele>52.89391</ele>
        <time>2014-03-23T09:35:44.703000Z</time>
      </trkpt>
      <trkpt lat="38.817623" lon="121.14837">
        <ele>53.84172</ele>
        <time>2014-03-23T09:35:47.848000Z</time>
      </trkpt>
      <trkpt lat="38.817715" lon="121.14836">
        <ele>53.999332</ele>
        <time>2014-03-23T09:35:50.993000Z</time>
      </trkpt>
      <trkpt lat="38.817806" lon="121.14836">
        <ele>54.449398</ele>
        <time>2014-03-23T09:35:54.138000Z</time>
      </trkpt>
      <trkpt lat="38.81791" lon="121.14835">
        <ele>55.916977</ele>
        <time>2014-03-23T09:35:57.283000Z</time>
      </trkpt>
      <trkpt lat="38.818" lon="121.14836">
        <ele>57.2659</ele>
        <time>2014-03-23T09:36:00.428000Z</time>
      </trkpt>
      <trkpt lat="38.818115" lon="121.14837">
        <ele>57.1133</ele>
        <time>2014-03-23T09:36:03.573000Z</time>
      </trkpt>
      <trkpt lat="38.818207" lon="121.14838">
        <ele>55.742973</ele>
        <time>2014-03-23T09:36:06.718000Z</time>
      </trkpt>
      <trkpt lat="38.81831" lon="121.14839">
        <ele>53.04453</ele>
        <time>2014-03-23T09:36:09.863000Z</time>
      </trkpt>
      <trkpt lat="38.818405" lon="121.14837">
        <ele>49.013416</ele>
        <time>2014-03-23T09:36:13.008000Z</time>
      </trkpt>
      <trkpt lat="38.81849" lon="121.14832">
        <ele>45.740837</ele>
        <time>2014-03-23T09:36:16.153000Z</time>
      </trkpt>
      <trkpt lat="38.818584" lon="121.14825">
        <ele>44.83277</ele>
        <time>2014-03-23T09:36:19.298000Z</time>
      </trkpt>
      <trkpt lat="38.81866" lon="121.148155">
        <ele>44.562706</ele>
        <time>2014-03-23T09:36:22.443000Z</time>
      </trkpt>
      <trkpt lat="38.818703" lon="121.14803">
        <ele>43.25139</ele>
        <time>2014-03-23T09:36:25.588000Z</time>
      </trkpt>
      <trkpt lat="38.81872" lon="121.147896">
        <ele>41.831806</ele>
        <time>2014-03-23T09:36:28.733000Z</time>
      </trkpt>
      <trkpt lat="38.81874" lon="121.14778">
        <ele>41.806343</ele>
        <time>2014-03-23T09:36:31.878000Z</time>
      </trkpt>
      <trkpt lat="38.818745" lon="121.147644">
        <ele>42.87684</ele>
        <time>2014-03-23T09:36:35.023000Z</time>
      </trkpt>
      <trkpt lat="38.818687" lon="121.14753">
        <ele>44.24683</ele>
        <time>2014-03-23T09:36:38.168000Z</time>
      </trkpt>
      <trkpt lat="38.8186" lon="121.14745">
        <ele>45.54756</ele>
        <time>2014-03-23T09:36:41.313000Z</time>
      </trkpt>
      <trkpt lat="38.818497" lon="121.14741">
        <ele>46.38751</ele>
        <time>2014-03-23T09:36:44.458000Z</time>
      </trkpt>
      <trkpt lat="38.818405" lon="121.14739">
        <ele>46.342697</ele>
        <time>2014-03-23T09:36:47.603000Z</time>
      </trkpt>
      <trkpt lat="38.818287" lon="121.147354">
        <ele>45.645382</ele>
        <time>2014-03-23T09:36:50.748000Z</time>
      </trkpt>
      <trkpt lat="38.81818" lon="121.14734">
        <ele>44.93633</ele>
        <time>2014-03-23T09:36:53.893000Z</time>
      </trkpt>
      <trkpt lat="38.818066" lon="121.14732">
        <ele>44.419113</ele>
        <time>2014-03-23T09:36:57.038000Z</time>
      </trkpt>
      <trkpt lat="38.817966" lon="121.14729">
        <ele>44.35482</ele>
        <time>2014-03-23T09:37:00.183000Z</time>
      </trkpt>
      <trkpt lat="38.81785" lon="121.14726">
        <ele>45.190937</ele>
        <time>2014-03-23T09:37:03.328000Z</time>
      </trkpt>
      <trkpt lat="38.817745" lon="121.14726">
        <ele>46.42057</ele>
        <time>2014-03-23T09:37:06.473000Z</time>
      </trkpt>
      <trkpt lat="38.817642" lon="121.14727">
        <ele>47.003593</ele>
        <time>2014-03-23T09:37:09.618000Z</time>
      </trkpt>
      <trkpt lat="38.817528" lon="121.14728">
        <ele>46.77863</ele>
        <time>2014-03-23T09:37:12.763000Z</time>
      </trkpt>
      <trkpt lat="38.817432" lon="121.1473">
        <ele>46.45007</ele>
        <time>2014-03-23T09:37:15.908000Z</time>
      </trkpt>
      <trkpt lat="38.817318" lon="121.14735">
        <ele>46.7891</ele>
        <time>2014-03-23T09:37:19.053000Z</time>
      </trkpt>
      <trkpt lat="38.817245" lon="121.147446">
        <ele>47.480892</ele>
        <time>2014-03-23T09:37:22.198000Z</time>
      </trkpt>
      <trkpt lat="38.817192" lon="121.147575">
        <ele>47.56058</ele>
        <time>2014-03-23T09:37:25.343000Z</time>
      </trkpt>
      <trkpt lat="38.81717" lon="121.147705">
        <ele>46.90014</ele>
        <time>2014-03-23T09:37:28.488000Z</time>
      </trkpt>
      <trkpt lat="38.817165" lon="121.14784">
        <ele>46.282436</ele>
        <time>2014-03-23T09:37:31.633000Z</time>
      </trkpt>
      <trkpt lat="38.81717" lon="121.147995">
        <ele>46.37125</ele>
        <time>2014-03-23T09:37:34.778000Z</time>
      </trkpt>
      <trkpt lat="38.817204" lon="121.14812">
        <ele>47.560276</ele>
        <time>2014-03-23T09:37:37.923000Z</time>
      </trkpt>
      <trkpt lat="38.81725" lon="121.148224">
        <ele>49.596195</ele>
        <time>2014-03-23T09:37:41.068000Z</time>
      </trkpt>
      <trkpt lat="38.817326" lon="121.14831">
        <ele>51.424244</ele>
        <time>2014-03-23T09:37:44.213000Z</time>
      </trkpt>
      <trkpt lat="38.81741" lon="121.14835">
        <ele>52.003098</ele>
        <time>2014-03-23T09:37:47.358000Z</time>
      </trkpt>
      <trkpt lat="38.81752" lon="121.14835">
        <ele>51.339687</ele>
        <time>2014-03-23T09:37:50.503000Z</time>
      </trkpt>
      <trkpt lat="38.817627" lon="121.14836">
        <ele>50.210682</ele>
        <time>2014-03-23T09:37:53.648000Z</time>
      </trkpt>
      <trkpt lat="38.817738" lon="121.14837">
        <ele>49.269413</ele>
        <time>2014-03-23T09:37:56.793000Z</time>
      </trkpt>
      <trkpt lat="38.817833" lon="121.14838">
        <ele>48.212376</ele>
        <time>2014-03-23T09:37:59.938000Z</time>
      </trkpt>
      <trkpt lat="38.817936" lon="121.148384">
        <ele>46.72221</ele>
        <time>2014-03-23T09:38:03.083000Z</time>
      </trkpt>
      <trkpt lat="38.818043" lon="121.148384">
        <ele>45.392506</ele>
        <time>2014-03-23T09:38:06.228000Z</time>
      </trkpt>
      <trkpt lat="38.81814" lon="121.14839">
        <ele>44.835278</ele>
        <time>2014-03-23T09:38:09.373000Z</time>
      </trkpt>
      <trkpt lat="38.81823" lon="121.1484">
        <ele>44.80488</ele>
        <time>2014-03-23T09:38:12.518000Z</time>
      </trkpt>
      <trkpt lat="38.818336" lon="121.14841">
        <ele>44.835464</ele>
        <time>2014-03-23T09:38:15.663000Z</time>
      </trkpt>
      <trkpt lat="38.818462" lon="121.14837">
        <ele>44.65087</ele>
        <time>2014-03-23T09:38:18.808000Z</time>
      </trkpt>
      <trkpt lat="38.818554" lon="121.14829">
        <ele>44.358875</ele>
        <time>2014-03-23T09:38:21.953000Z</time>
      </trkpt>
      <trkpt lat="38.81863" lon="121.1482">
        <ele>44.170765</ele>
        <time>2014-03-23T09:38:25.098000Z</time>
      </trkpt>
      <trkpt lat="38.81868" lon="121.14805">
        <ele>43.412415</ele>
        <time>2014-03-23T09:38:28.243000Z</time>
      </trkpt>
      <trkpt lat="38.818703" lon="121.14792">
        <ele>41.340275</ele>
        <time>2014-03-23T09:38:31.388000Z</time>
      </trkpt>
      <trkpt lat="38.81872" lon="121.1478">
        <ele>38.819183</ele>
        <time>2014-03-23T09:38:34.533000Z</time>
      </trkpt>
      <trkpt lat="38.818733" lon="121.14767">
        <ele>37.677708</ele>
        <time>2014-03-23T09:38:37.678000Z</time>
      </trkpt>
      <trkpt lat="38.818676" lon="121.147545">
        <ele>38.39414</ele>
        <time>2014-03-23T09:38:40.823000Z</time>
      </trkpt>
      <trkpt lat="38.8186" lon="121.14748">
        <ele>40.222164</ele>
        <time>2014-03-23T09:38:43.968000Z</time>
      </trkpt>
      <trkpt lat="38.818493" lon="121.14744">
        <ele>42.791317</ele>
        <time>2014-03-23T09:38:47.113000Z</time>
      </trkpt>
      <trkpt lat="38.818394" lon="121.14742">
        <ele>45.672318</ele>
        <time>2014-03-23T09:38:50.258000Z</time>
      </trkpt>
      <trkpt lat="38.818283" lon="121.1474">
        <ele>47.443005</ele>
        <time>2014-03-23T09:38:53.403000Z</time>
      </trkpt>
      <trkpt lat="38.81816" lon="121.147354">
        <ele>47.354366</ele>
        <time>2014-03-23T09:38:56.548000Z</time>
      </trkpt>
      <trkpt lat="38.818047" lon="121.14732">
        <ele>46.25361</ele>
        <time>2014-03-23T09:38:59.693000Z</time>
      </trkpt>
      <trkpt lat="38.817932" lon="121.14729">
        <ele>45.089455</ele>
        <time>2014-03-23T09:39:02.838000Z</time>
      </trkpt>
      <trkpt lat="38.81783" lon="121.14727">
        <ele>43.79205</ele>
        <time>2014-03-23T09:39:05.982000Z</time>
      </trkpt>
      <trkpt lat="38.817734" lon="121.14726">
        <ele>42.283115</ele>
        <time>2014-03-23T09:39:09.126000Z</time>
      </trkpt>
      <trkpt lat="38.817635" lon="121.147255">
        <ele>41.98043</ele>
        <time>2014-03-23T09:39:12.270000Z</time>
      </trkpt>
      <trkpt lat="38.817543" lon="121.14726">
        <ele>43.699593</ele>
        <time>2014-03-23T09:39:15.414000Z</time>
      </trkpt>
      <trkpt lat="38.81744" lon="121.14727">
        <ele>45.73468</ele>
        <time>2014-03-23T09:39:18.558000Z</time>
      </trkpt>
      <trkpt lat="38.81734" lon="121.1473">
        <ele>46.4738</ele>
        <time>2014-03-23T09:39:21.702000Z</time>
      </trkpt>
      <trkpt lat="38.817253" lon="121.147354">
        <ele>47.06068</ele>
        <time>2014-03-23T09:39:24.846000Z</time>
      </trkpt>
      <trkpt lat="38.817192" lon="121.14749">
        <ele>49.09483</ele>
        <time>2014-03-23T09:39:27.990000Z</time>
      </trkpt>
      <trkpt lat="38.817146" lon="121.147644">
        <ele>51.91675</ele>
        <time>2014-03-23T09:39:31.134000Z</time>
      </trkpt>
      <trkpt lat="38.81713" lon="121.1478">
        <ele>53.82911</ele>
        <time>2014-03-23T09:39:34.278000Z</time>
      </trkpt>
      <trkpt lat="38.817127" lon="121.14795">
        <ele>53.753864</ele>
        <time>2014-03-23T09:39:37.422000Z</time>
      </trkpt>
      <trkpt lat="38.817165" lon="121.148056">
        <ele>51.83925</ele>
        <time>2014-03-23T09:39:40.566000Z</time>
      </trkpt>
      <trkpt lat="38.817226" lon="121.14817">
        <ele>50.14165</ele>
        <time>2014-03-23T09:39:43.710000Z</time>
      </trkpt>
      <trkpt lat="38.81731" lon="121.14829">
        <ele>50.206013</ele>
        <time>2014-03-23T09:39:46.854000Z</time>
      </trkpt>
      <trkpt lat="38.8174" lon="121.14836">
        <ele>51.478256</ele>
        <time>2014-03-23T09:39:49.998000Z</time>
      </trkpt>
      <trkpt lat="38.817528" lon="121.148384">
        <ele>52.93216</ele>
        <time>2014-03-23T09:39:53.142000Z</time>
      </trkpt>
      <trkpt lat="38.817635" lon="121.148384">
        <ele>53.86214</ele>
        <time>2014-03-23T09:39:56.286000Z</time>
      </trkpt>
      <trkpt lat="38.817757" lon="121.148384">
        <ele>53.692783</ele>
        <time>2014-03-23T09:39:59.430000Z</time>
      </trkpt>
      <trkpt lat="38.81785" lon="121.148384">
        <ele>52.57024</ele>
        <time>2014-03-23T09:40:02.574000Z</time>
      </trkpt>
      <trkpt lat="38.817947" lon="121.148384">
        <ele>51.515575</ele>
        <time>2014-03-23T09:40:05.718000Z</time>
      </trkpt>
      <trkpt lat="38.818047" lon="121.148384">
        <ele>51.293106</ele>
        <time>2014-03-23T09:40:08.862000Z</time>
      </trkpt>
      <trkpt lat="38.81814" lon="121.148384">
        <ele>51.600857</ele>
        <time>2014-03-23T09:40:12.006000Z</time>
      </trkpt>
      <trkpt lat="38.818245" lon="121.14839">
        <ele>51.968246</ele>
        <time>2014-03-23T09:40:15.150000Z</time>
      </trkpt>
      <trkpt lat="38.818348" lon="121.14839">
        <ele>52.25097</ele>
        <time>2014-03-23T09:40:18.294000Z</time>
      </trkpt>
      <trkpt lat="38.818462" lon="121.14836">
        <ele>52.514877</ele>
        <time>2014-03-23T09:40:21.438000Z</time>
      </trkpt>
      <trkpt lat="38.818542" lon="121.1483">
        <ele>52.733913</ele>
        <time>2014-03-23T09:40:24.582000Z</time>
      </trkpt>
      <trkpt lat="38.81861" lon="121.148224">
        <ele>52.418404</ele>
        <time>2014-03-23T09:40:27.726000Z</time>
      </trkpt>
      <trkpt lat="38.818672" lon="121.14812">
        <ele>50.720596</ele>
        <time>2014-03-23T09:40:30.870000Z</time>
      </trkpt>
      <trkpt lat="38.818703" lon="121.147964">
        <ele>47.91671</ele>
        <time>2014-03-23T09:40:34.014000Z</time>
      </trkpt>
      <trkpt lat="38.81872" lon="121.147835">
        <ele>45.593185</ele>
        <time>2014-03-23T09:40:37.158000Z</time>
      </trkpt>
      <trkpt lat="38.81873" lon="121.14772">
        <ele>44.744926</ele>
        <time>2014-03-23T09:40:40.302000Z</time>
      </trkpt>
      <trkpt lat="38.818703" lon="121.14758">
        <ele>44.865788</ele>
        <time>2014-03-23T09:40:43.446000Z</time>
      </trkpt>
      <trkpt lat="38.818638" lon="121.1475">
        <ele>45.27083</ele>
        <time>2014-03-23T09:40:46.590000Z</time>
      </trkpt>
      <trkpt lat="38.818535" lon="121.14746">
        <ele>45.754307</ele>
        <time>2014-03-23T09:40:49.734000Z</time>
      </trkpt>
      <trkpt lat="38.818428" lon="121.14743">
        <ele>46.19128</ele>
        <time>2014-03-23T09:40:52.878000Z</time>
      </trkpt>
      <trkpt lat="38.818317" lon="121.14739">
        <ele>46.482185</ele>
        <time>2014-03-23T09:40:56.022000Z</time>
      </trkpt>
      <trkpt lat="38.818226" lon="121.147354">
        <ele>46.58662</ele>
        <time>2014-03-23T09:40:59.166000Z</time>
      </trkpt>
      <trkpt lat="38.81811" lon="121.147316">
        <ele>46.532963</ele>
        <time>2014-03-23T09:41:02.310000Z</time>
      </trkpt>
      <trkpt lat="38.818" lon="121.14727">
        <ele>46.687576</ele>
        <time>2014-03-23T09:41:05.454000Z</time>
      </trkpt>
      <trkpt lat="38.817898" lon="121.14725">
        <ele>47.48031</ele>
        <time>2014-03-23T09:41:08.598000Z</time>
      </trkpt>
      <trkpt lat="38.817802" lon="121.14725">
        <ele>49.235046</ele>
        <time>2014-03-23T09:41:11.742000Z</time>
      </trkpt>
      <trkpt lat="38.817696" lon="121.14725">
        <ele>51.57471</ele>
        <time>2014-03-23T09:41:14.886000Z</time>
      </trkpt>
      <trkpt lat="38.817577" lon="121.14723">
        <ele>53.15726</ele>
        <time>2014-03-23T09:41:18.030000Z</time>
      </trkpt>
      <trkpt lat="38.81745" lon="121.14723">
        <ele>53.379707</ele>
        <time>2014-03-23T09:41:21.174000Z</time>
      </trkpt>
      <trkpt lat="38.817326" lon="121.14725">
        <ele>52.933628</ele>
        <time>2014-03-23T09:41:24.318000Z</time>
      </trkpt>
      <trkpt lat="38.817223" lon="121.14735">
        <ele>52.65298</ele>
        <time>2014-03-23T09:41:27.462000Z</time>
      </trkpt>
      <trkpt lat="38.81715" lon="121.14752">
        <ele>53.028297</ele>
        <time>2014-03-23T09:41:30.606000Z</time>
      </trkpt>
      <trkpt lat="38.817127" lon="121.14765">
        <ele>53.953915</ele>
        <time>2014-03-23T09:41:33.750000Z</time>
      </trkpt>
      <trkpt lat="38.81712" lon="121.14786">
        <ele>54.67773</ele>
        <time>2014-03-23T09:41:36.894000Z</time>
      </trkpt>
      <trkpt lat="38.81713" lon="121.147995">
        <ele>54.762604</ele>
        <time>2014-03-23T09:41:40.038000Z</time>
      </trkpt>
      <trkpt lat="38.817192" lon="121.14815">
        <ele>54.51457</ele>
        <time>2014-03-23T09:41:43.182000Z</time>
      </trkpt>
      <trkpt lat="38.817272" lon="121.14826">
        <ele>53.984657</ele>
        <time>2014-03-23T09:41:46.326000Z</time>
      </trkpt>
      <trkpt lat="38.81735" lon="121.14834">
        <ele>52.73362</ele>
        <time>2014-03-23T09:41:49.470000Z</time>
      </trkpt>
      <trkpt lat="38.81747" lon="121.14837">
        <ele>51.00985</ele>
        <time>2014-03-23T09:41:52.614000Z</time>
      </trkpt>
      <trkpt lat="38.817593" lon="121.14837">
        <ele>49.691994</ele>
        <time>2014-03-23T09:41:55.758000Z</time>
      </trkpt>
      <trkpt lat="38.817703" lon="121.148346">
        <time>2014-03-23T09:41:58.902000Z</time>
      </trkpt>
    </trkseg>
  </trk>
</gpx>