<?xml version="1.0" encoding="UTF-8"?>
<gpx xmlns="http://www.topografix.com/GPX/1/1" xmlns:gpxtpx="http://www.garmin.com/xmlschemas/TrackPointExtension/v1" xmlns:xsi="http://www.w3.org/2001/XMLSchema-instance" xsi:schemaLocation="http://www.topografix.com/GPX/1/1 http://www.topografix.com/GPX/1/1/gpx.xsd" version="1.1" creator="gpx.py -- https://github.com/tkrajina/gpxpy">
  <trk>
    <trkseg>
      <trkpt lat="38.818714" lon="121.148056">
        <ele>46.414783</ele>
        <time>2014-03-17T09:53:07.911000Z</time>
      </trkpt>
      <trkpt lat="38.818726" lon="121.148026">
        <ele>45.358063</ele>
        <time>2014-03-17T09:53:11.015000Z</time>
      </trkpt>
      <trkpt lat="38.818745" lon="121.14791">
        <ele>45.37575</ele>
        <time>2014-03-17T09:53:14.119000Z</time>
      </trkpt>
      <trkpt lat="38.818745" lon="121.1478">
        <ele>45.86565</ele>
        <time>2014-03-17T09:53:17.223000Z</time>
      </trkpt>
      <trkpt lat="38.818745" lon="121.1478">
        <ele>46.045788</ele>
        <time>2014-03-17T09:53:20.327000Z</time>
      </trkpt>
      <trkpt lat="38.818718" lon="121.14766">
        <ele>45.746048</ele>
        <time>2014-03-17T09:53:23.431000Z</time>
      </trkpt>
      <trkpt lat="38.81867" lon="121.14756">
        <ele>45.051968</ele>
        <time>2014-03-17T09:53:26.535000Z</time>
      </trkpt>
      <trkpt lat="38.818584" lon="121.14748">
        <ele>44.101048</ele>
        <time>2014-03-17T09:53:29.639000Z</time>
      </trkpt>
      <trkpt lat="38.818493" lon="121.14742">
        <ele>43.46487</ele>
        <time>2014-03-17T09:53:32.743000Z</time>
      </trkpt>
      <trkpt lat="38.81838" lon="121.14736">
        <ele>43.672276</ele>
        <time>2014-03-17T09:53:35.847000Z</time>
      </trkpt>
      <trkpt lat="38.818275" lon="121.14733">
        <ele>45.143284</ele>
        <time>2014-03-17T09:53:38.951000Z</time>
      </trkpt>
      <trkpt lat="38.818172" lon="121.1473">
        <ele>47.59291</ele>
        <time>2014-03-17T09:53:42.055000Z</time>
      </trkpt>
      <trkpt lat="38.818077" lon="121.1473">
        <ele>49.77556</ele>
        <time>2014-03-17T09:53:45.159000Z</time>
      </trkpt>
      <trkpt lat="38.817986" lon="121.14729">
        <ele>50.69581</ele>
        <time>2014-03-17T09:53:48.263000Z</time>
      </trkpt>
      <trkpt lat="38.81788" lon="121.14728">
        <ele>50.483185</ele>
        <time>2014-03-17T09:53:51.367000Z</time>
      </trkpt>
      <trkpt lat="38.81776" lon="121.14726">
        <ele>49.82706</ele>
        <time>2014-03-17T09:53:54.471000Z</time>
      </trkpt>
      <trkpt lat="38.817665" lon="121.14727">
        <ele>49.277225</ele>
        <time>2014-03-17T09:53:57.575000Z</time>
      </trkpt>
      <trkpt lat="38.81757" lon="121.147255">
        <ele>49.14983</ele>
        <time>2014-03-17T09:54:00.679000Z</time>
      </trkpt>
      <trkpt lat="38.81745" lon="121.14724">
        <ele>49.656746</ele>
        <time>2014-03-17T09:54:03.783000Z</time>
      </trkpt>
      <trkpt lat="38.81734" lon="121.14728">
        <ele>50.53687</ele>
        <time>2014-03-17T09:54:06.887000Z</time>
      </trkpt>
      <trkpt lat="38.817257" lon="121.14733">
        <ele>51.873093</ele>
        <time>2014-03-17T09:54:09.991000Z</time>
      </trkpt>
      <trkpt lat="38.8172" lon="121.14743">
        <ele>53.399536</ele>
        <time>2014-03-17T09:54:13.095000Z</time>
      </trkpt>
      <trkpt lat="38.817158" lon="121.14757">
        <ele>54.01719</ele>
        <time>2014-03-17T09:54:16.199000Z</time>
      </trkpt>
      <trkpt lat="38.81714" lon="121.14768">
        <ele>52.74221</ele>
        <time>2014-03-17T09:54:19.303000Z</time>
      </trkpt>
      <trkpt lat="38.817135" lon="121.14781">
        <ele>49.82502</ele>
        <time>2014-03-17T09:54:22.407000Z</time>
      </trkpt>
      <trkpt lat="38.81714" lon="121.14793">
        <ele>46.592716</ele>
        <time>2014-03-17T09:54:25.511000Z</time>
      </trkpt>
      <trkpt lat="38.81716" lon="121.14806">
        <ele>44.15136</ele>
        <time>2014-03-17T09:54:28.615000Z</time>
      </trkpt>
      <trkpt lat="38.817223" lon="121.1482">
        <ele>42.358246</ele>
        <time>2014-03-17T09:54:31.719000Z</time>
      </trkpt>
      <trkpt lat="38.8173" lon="121.1483">
        <ele>40.938084</ele>
        <time>2014-03-17T09:54:34.823000Z</time>
      </trkpt>
      <trkpt lat="38.8174" lon="121.14834">
        <ele>39.340446</ele>
        <time>2014-03-17T09:54:37.927000Z</time>
      </trkpt>
      <trkpt lat="38.817524" lon="121.14836">
        <ele>37.39854</ele>
        <time>2014-03-17T09:54:41.031000Z</time>
      </trkpt>
      <trkpt lat="38.817642" lon="121.14838">
        <ele>36.48943</ele>
        <time>2014-03-17T09:54:44.135000Z</time>
      </trkpt>
      <trkpt lat="38.817738" lon="121.14838">
        <ele>37.539307</ele>
        <time>2014-03-17T09:54:47.239000Z</time>
      </trkpt>
      <trkpt lat="38.817833" lon="121.14837">
        <ele>39.571594</ele>
        <time>2014-03-17T09:54:50.343000Z</time>
      </trkpt>
      <trkpt lat="38.81795" lon="121.14839">
        <ele>41.425076</ele>
        <time>2014-03-17T09:54:53.447000Z</time>
      </trkpt>
      <trkpt lat="38.818043" lon="121.14839">
        <ele>42.62289</ele>
        <time>2014-03-17T09:54:56.551000Z</time>
      </trkpt>
      <trkpt lat="38.818146" lon="121.14839">
        <ele>42.979286</ele>
        <time>2014-03-17T09:54:59.655000Z</time>
      </trkpt>
      <trkpt lat="38.81825" lon="121.14839">
        <ele>42.771355</ele>
        <time>2014-03-17T09:55:02.759000Z</time>
      </trkpt>
      <trkpt lat="38.818344" lon="121.148384">
        <ele>42.711113</ele>
        <time>2014-03-17T09:55:05.863000Z</time>
      </trkpt>
      <trkpt lat="38.818455" lon="121.14837">
        <ele>43.31479</ele>
        <time>2014-03-17T09:55:08.967000Z</time>
      </trkpt>
      <trkpt lat="38.818546" lon="121.14833">
        <ele>44.367043</ele>
        <time>2014-03-17T09:55:12.071000Z</time>
      </trkpt>
      <trkpt lat="38.818638" lon="121.14825">
        <ele>45.199776</ele>
        <time>2014-03-17T09:55:15.175000Z</time>
      </trkpt>
      <trkpt lat="38.818703" lon="121.148125">
        <ele>45.256947</ele>
        <time>2014-03-17T09:55:18.279000Z</time>
      </trkpt>
      <trkpt lat="38.81874" lon="121.148">
        <ele>44.648605</ele>
        <time>2014-03-17T09:55:21.383000Z</time>
      </trkpt>
      <trkpt lat="38.81876" lon="121.147865">
        <ele>43.974247</ele>
        <time>2014-03-17T09:55:24.487000Z</time>
      </trkpt>
      <trkpt lat="38.818752" lon="121.14773">
        <ele>43.536785</ele>
        <time>2014-03-17T09:55:27.591000Z</time>
      </trkpt>
      <trkpt lat="38.818726" lon="121.14761">
        <ele>43.291615</ele>
        <time>2014-03-17T09:55:30.695000Z</time>
      </trkpt>
      <trkpt lat="38.81867" lon="121.1475">
        <ele>43.028576</ele>
        <time>2014-03-17T09:55:33.799000Z</time>
      </trkpt>
      <trkpt lat="38.81859" lon="121.1474">
        <ele>42.64602</ele>
        <time>2014-03-17T09:55:36.903000Z</time>
      </trkpt>
      <trkpt lat="38.818493" lon="121.147316">
        <ele>42.31713</ele>
        <time>2014-03-17T09:55:40.006000Z</time>
      </trkpt>
      <trkpt lat="38.81837" lon="121.14729">
        <ele>42.47122</ele>
        <time>2014-03-17T09:55:43.109000Z</time>
      </trkpt>
      <trkpt lat="38.81825" lon="121.14727">
        <ele>43.409103</ele>
        <time>2014-03-17T09:55:46.212000Z</time>
      </trkpt>
      <trkpt lat="38.818142" lon="121.14728">
        <ele>44.879345</ele>
        <time>2014-03-17T09:55:49.315000Z</time>
      </trkpt>
      <trkpt lat="38.818047" lon="121.14728">
        <ele>46.420563</ele>
        <time>2014-03-17T09:55:52.418000Z</time>
      </trkpt>
      <trkpt lat="38.817955" lon="121.14728">
        <ele>47.688435</ele>
        <time>2014-03-17T09:55:55.521000Z</time>
      </trkpt>
      <trkpt lat="38.817867" lon="121.147285">
        <ele>48.388443</ele>
        <time>2014-03-17T09:55:58.624000Z</time>
      </trkpt>
      <trkpt lat="38.81777" lon="121.147285">
        <ele>48.15892</ele>
        <time>2014-03-17T09:56:01.727000Z</time>
      </trkpt>
      <trkpt lat="38.817654" lon="121.14727">
        <ele>47.607536</ele>
        <time>2014-03-17T09:56:04.830000Z</time>
      </trkpt>
      <trkpt lat="38.81756" lon="121.14727">
        <ele>47.88811</ele>
        <time>2014-03-17T09:56:07.933000Z</time>
      </trkpt>
      <trkpt lat="38.817455" lon="121.14726">
        <ele>49.074608</ele>
        <time>2014-03-17T09:56:11.036000Z</time>
      </trkpt>
      <trkpt lat="38.81734" lon="121.1473">
        <ele>50.37543</ele>
        <time>2014-03-17T09:56:14.139000Z</time>
      </trkpt>
      <trkpt lat="38.817245" lon="121.1474">
        <ele>51.119446</ele>
        <time>2014-03-17T09:56:17.242000Z</time>
      </trkpt>
      <trkpt lat="38.81718" lon="121.147514">
        <ele>51.014416</ele>
        <time>2014-03-17T09:56:20.345000Z</time>
      </trkpt>
      <trkpt lat="38.81715" lon="121.14763">
        <ele>50.34524</ele>
        <time>2014-03-17T09:56:23.448000Z</time>
      </trkpt>
      <trkpt lat="38.817127" lon="121.14777">
        <ele>49.458736</ele>
        <time>2014-03-17T09:56:26.551000Z</time>
      </trkpt>
      <trkpt lat="38.817123" lon="121.14792">
        <ele>48.293667</ele>
        <time>2014-03-17T09:56:29.654000Z</time>
      </trkpt>
      <trkpt lat="38.81714" lon="121.14804">
        <ele>45.896336</ele>
        <time>2014-03-17T09:56:32.757000Z</time>
      </trkpt>
      <trkpt lat="38.81719" lon="121.14815">
        <ele>42.26426</ele>
        <time>2014-03-17T09:56:35.860000Z</time>
      </trkpt>
      <trkpt lat="38.81726" lon="121.14827">
        <ele>39.61228</ele>
        <time>2014-03-17T09:56:38.963000Z</time>
      </trkpt>
      <trkpt lat="38.817356" lon="121.14832">
        <ele>39.58147</ele>
        <time>2014-03-17T09:56:42.066000Z</time>
      </trkpt>
      <trkpt lat="38.817467" lon="121.14834">
        <ele>41.26601</ele>
        <time>2014-03-17T09:56:45.169000Z</time>
      </trkpt>
      <trkpt lat="38.81758" lon="121.14834">
        <ele>42.601166</ele>
        <time>2014-03-17T09:56:48.272000Z</time>
      </trkpt>
      <trkpt lat="38.81768" lon="121.14834">
        <ele>42.278824</ele>
        <time>2014-03-17T09:56:51.375000Z</time>
      </trkpt>
      <trkpt lat="38.817802" lon="121.14835">
        <ele>40.76278</ele>
        <time>2014-03-17T09:56:54.478000Z</time>
      </trkpt>
      <trkpt lat="38.817898" lon="121.14837">
        <ele>39.365326</ele>
        <time>2014-03-17T09:56:57.581000Z</time>
      </trkpt>
      <trkpt lat="38.817993" lon="121.14838">
        <ele>38.73097</ele>
        <time>2014-03-17T09:57:00.684000Z</time>
      </trkpt>
      <trkpt lat="38.818085" lon="121.14838">
        <ele>38.541477</ele>
        <time>2014-03-17T09:57:03.787000Z</time>
      </trkpt>
      <trkpt lat="38.818184" lon="121.14839">
        <ele>38.079456</ele>
        <time>2014-03-17T09:57:06.890000Z</time>
      </trkpt>
      <trkpt lat="38.818283" lon="121.1484">
        <ele>37.128326</ele>
        <time>2014-03-17T09:57:09.993000Z</time>
      </trkpt>
      <trkpt lat="38.8184" lon="121.14839">
        <ele>36.601643</ele>
        <time>2014-03-17T09:57:13.096000Z</time>
      </trkpt>
      <trkpt lat="38.81849" lon="121.14836">
        <ele>37.40298</ele>
        <time>2014-03-17T09:57:16.199000Z</time>
      </trkpt>
      <trkpt lat="38.818604" lon="121.1483">
        <ele>39.28818</ele>
        <time>2014-03-17T09:57:19.302000Z</time>
      </trkpt>
      <trkpt lat="38.818684" lon="121.1482">
        <ele>41.442085</ele>
        <time>2014-03-17T09:57:22.405000Z</time>
      </trkpt>
      <trkpt lat="38.818726" lon="121.1481">
        <ele>43.140484</ele>
        <time>2014-03-17T09:57:25.508000Z</time>
      </trkpt>
      <trkpt lat="38.81875" lon="121.14798">
        <ele>43.677902</ele>
        <time>2014-03-17T09:57:28.611000Z</time>
      </trkpt>
      <trkpt lat="38.818756" lon="121.14786">
        <ele>42.8851</ele>
        <time>2014-03-17T09:57:31.714000Z</time>
      </trkpt>
      <trkpt lat="38.818733" lon="121.14771">
        <ele>41.54073</ele>
        <time>2014-03-17T09:57:34.817000Z</time>
      </trkpt>
      <trkpt lat="38.818687" lon="121.147575">
        <ele>40.5618</ele>
        <time>2014-03-17T09:57:37.920000Z</time>
      </trkpt>
      <trkpt lat="38.818626" lon="121.14748">
        <ele>40.363182</ele>
        <time>2014-03-17T09:57:41.023000Z</time>
      </trkpt>
      <trkpt lat="38.81855" lon="121.147385">
        <ele>40.83624</ele>
        <time>2014-03-17T09:57:44.126000Z</time>
      </trkpt>
      <trkpt lat="38.81845" lon="121.14733">
        <ele>41.02946</ele>
        <time>2014-03-17T09:57:47.229000Z</time>
      </trkpt>
      <trkpt lat="38.818336" lon="121.14731">
        <ele>40.290577</ele>
        <time>2014-03-17T09:57:50.332000Z</time>
      </trkpt>
      <trkpt lat="38.81822" lon="121.1473">
        <ele>39.812836</ele>
        <time>2014-03-17T09:57:53.435000Z</time>
      </trkpt>
      <trkpt lat="38.818108" lon="121.14729">
        <ele>40.936234</ele>
        <time>2014-03-17T09:57:56.538000Z</time>
      </trkpt>
      <trkpt lat="38.817993" lon="121.14731">
        <ele>43.015366</ele>
        <time>2014-03-17T09:57:59.641000Z</time>
      </trkpt>
      <trkpt lat="38.8179" lon="121.14731">
        <ele>44.920597</ele>
        <time>2014-03-17T09:58:02.744000Z</time>
      </trkpt>
      <trkpt lat="38.817802" lon="121.1473">
        <ele>46.356617</ele>
        <time>2014-03-17T09:58:05.847000Z</time>
      </trkpt>
      <trkpt lat="38.817703" lon="121.14728">
        <ele>47.10842</ele>
        <time>2014-03-17T09:58:08.950000Z</time>
      </trkpt>
      <trkpt lat="38.81759" lon="121.14726">
        <ele>47.10519</ele>
        <time>2014-03-17T09:58:12.053000Z</time>
      </trkpt>
      <trkpt lat="38.817467" lon="121.14727">
        <ele>46.789062</ele>
        <time>2014-03-17T09:58:15.156000Z</time>
      </trkpt>
      <trkpt lat="38.81737" lon="121.1473">
        <ele>46.656574</ele>
        <time>2014-03-17T09:58:18.259000Z</time>
      </trkpt>
      <trkpt lat="38.81729" lon="121.14736">
        <ele>46.970818</ele>
        <time>2014-03-17T09:58:21.362000Z</time>
      </trkpt>
      <trkpt lat="38.817215" lon="121.14746">
        <ele>47.45455</ele>
        <time>2014-03-17T09:58:24.465000Z</time>
      </trkpt>
      <trkpt lat="38.81716" lon="121.14758">
        <ele>47.16972</ele>
        <time>2014-03-17T09:58:27.568000Z</time>
      </trkpt>
      <trkpt lat="38.817135" lon="121.14773">
        <ele>45.77235</ele>
        <time>2014-03-17T09:58:30.671000Z</time>
      </trkpt>
      <trkpt lat="38.81714" lon="121.14788">
        <ele>44.062035</ele>
        <time>2014-03-17T09:58:33.774000Z</time>
      </trkpt>
      <trkpt lat="38.817165" lon="121.148">
        <ele>42.766052</ele>
        <time>2014-03-17T09:58:36.877000Z</time>
      </trkpt>
      <trkpt lat="38.817204" lon="121.14814">
        <ele>41.8821</ele>
        <time>2014-03-17T09:58:39.980000Z</time>
      </trkpt>
      <trkpt lat="38.81727" lon="121.14824">
        <ele>40.89808</ele>
        <time>2014-03-17T09:58:43.083000Z</time>
      </trkpt>
      <trkpt lat="38.817383" lon="121.14831">
        <ele>39.559196</ele>
        <time>2014-03-17T09:58:46.186000Z</time>
      </trkpt>
      <trkpt lat="38.817486" lon="121.14832">
        <ele>38.565605</ele>
        <time>2014-03-17T09:58:49.289000Z</time>
      </trkpt>
      <trkpt lat="38.81758" lon="121.14833">
        <ele>38.66055</ele>
        <time>2014-03-17T09:58:52.392000Z</time>
      </trkpt>
      <trkpt lat="38.817688" lon="121.14834">
        <ele>39.711395</ele>
        <time>2014-03-17T09:58:55.495000Z</time>
      </trkpt>
      <trkpt lat="38.817795" lon="121.148346">
        <ele>41.01475</ele>
        <time>2014-03-17T09:58:58.598000Z</time>
      </trkpt>
      <trkpt lat="38.81791" lon="121.14836">
        <ele>41.904217</ele>
        <time>2014-03-17T09:59:01.701000Z</time>
      </trkpt>
      <trkpt lat="38.818016" lon="121.14836">
        <ele>42.0249</ele>
        <time>2014-03-17T09:59:04.804000Z</time>
      </trkpt>
      <trkpt lat="38.818123" lon="121.14835">
        <ele>41.482758</ele>
        <time>2014-03-17T09:59:07.907000Z</time>
      </trkpt>
      <trkpt lat="38.81824" lon="121.14836">
        <ele>40.835876</ele>
        <time>2014-03-17T09:59:11.010000Z</time>
      </trkpt>
      <trkpt lat="38.81834" lon="121.14836">
        <ele>40.437668</ele>
        <time>2014-03-17T09:59:14.113000Z</time>
      </trkpt>
      <trkpt lat="38.818436" lon="121.14835">
        <ele>40.19981</ele>
        <time>2014-03-17T09:59:17.216000Z</time>
      </trkpt>
      <trkpt lat="38.81855" lon="121.14832">
        <ele>40.12027</ele>
        <time>2014-03-17T09:59:20.319000Z</time>
      </trkpt>
      <trkpt lat="38.81865" lon="121.14823">
        <ele>40.291756</ele>
        <time>2014-03-17T09:59:23.422000Z</time>
      </trkpt>
      <trkpt lat="38.818707" lon="121.1481">
        <ele>40.746685</ele>
        <time>2014-03-17T09:59:26.525000Z</time>
      </trkpt>
      <trkpt lat="38.81874" lon="121.14798">
        <ele>41.516685</ele>
        <time>2014-03-17T09:59:29.628000Z</time>
      </trkpt>
      <trkpt lat="38.818756" lon="121.147865">
        <ele>42.43479</ele>
        <time>2014-03-17T09:59:32.731000Z</time>
      </trkpt>
      <trkpt lat="38.818745" lon="121.147736">
        <ele>43.096024</ele>
        <time>2014-03-17T09:59:35.834000Z</time>
      </trkpt>
      <trkpt lat="38.818714" lon="121.147606">
        <ele>43.33441</ele>
        <time>2014-03-17T09:59:38.937000Z</time>
      </trkpt>
      <trkpt lat="38.818653" lon="121.147484">
        <ele>43.19036</ele>
        <time>2014-03-17T09:59:42.040000Z</time>
      </trkpt>
      <trkpt lat="38.81858" lon="121.147385">
        <ele>42.753384</ele>
        <time>2014-03-17T09:59:45.143000Z</time>
      </trkpt>
      <trkpt lat="38.818485" lon="121.14729">
        <ele>42.210102</ele>
        <time>2014-03-17T09:59:48.246000Z</time>
      </trkpt>
      <trkpt lat="38.818394" lon="121.14725">
        <ele>41.73171</ele>
        <time>2014-03-17T09:59:51.349000Z</time>
      </trkpt>
      <trkpt lat="38.818283" lon="121.14725">
        <ele>41.475994</ele>
        <time>2014-03-17T09:59:54.452000Z</time>
      </trkpt>
      <trkpt lat="38.81819" lon="121.14725">
        <ele>41.642765</ele>
        <time>2014-03-17T09:59:57.555000Z</time>
      </trkpt>
      <trkpt lat="38.81808" lon="121.14724">
        <ele>42.679417</ele>
        <time>2014-03-17T10:00:00.658000Z</time>
      </trkpt>
      <trkpt lat="38.81797" lon="121.14724">
        <ele>44.589577</ele>
        <time>2014-03-17T10:00:03.761000Z</time>
      </trkpt>
      <trkpt lat="38.817863" lon="121.14725">
        <ele>46.330734</ele>
        <time>2014-03-17T10:00:06.864000Z</time>
      </trkpt>
      <trkpt lat="38.817753" lon="121.14724">
        <ele>47.09044</ele>
        <time>2014-03-17T10:00:09.967000Z</time>
      </trkpt>
      <trkpt lat="38.817642" lon="121.14725">
        <ele>47.112976</ele>
        <time>2014-03-17T10:00:13.070000Z</time>
      </trkpt>
      <trkpt lat="38.817524" lon="121.14725">
        <ele>47.462364</ele>
        <time>2014-03-17T10:00:16.173000Z</time>
      </trkpt>
      <trkpt lat="38.817413" lon="121.14728">
        <ele>49.065666</ele>
        <time>2014-03-17T10:00:19.276000Z</time>
      </trkpt>
      <trkpt lat="38.817307" lon="121.14733">
        <ele>51.461</ele>
        <time>2014-03-17T10:00:22.379000Z</time>
      </trkpt>
      <trkpt lat="38.817226" lon="121.1474">
        <ele>53.25159</ele>
        <time>2014-03-17T10:00:25.482000Z</time>
      </trkpt>
      <trkpt lat="38.81718" lon="121.14751">
        <ele>53.398838</ele>
        <time>2014-03-17T10:00:28.585000Z</time>
      </trkpt>
      <trkpt lat="38.81714" lon="121.14764">
        <ele>51.648396</ele>
        <time>2014-03-17T10:00:31.688000Z</time>
      </trkpt>
      <trkpt lat="38.81712" lon="121.147766">
        <ele>48.85331</ele>
        <time>2014-03-17T10:00:34.791000Z</time>
      </trkpt>
      <trkpt lat="38.817116" lon="121.14791">
        <ele>46.345776</ele>
        <time>2014-03-17T10:00:37.894000Z</time>
      </trkpt>
      <trkpt lat="38.817146" lon="121.148026">
        <ele>44.478374</ele>
        <time>2014-03-17T10:00:40.997000Z</time>
      </trkpt>
      <trkpt lat="38.8172" lon="121.14816">
        <ele>42.908554</ele>
        <time>2014-03-17T10:00:44.100000Z</time>
      </trkpt>
      <trkpt lat="38.81727" lon="121.14828">
        <ele>41.60307</ele>
        <time>2014-03-17T10:00:47.203000Z</time>
      </trkpt>
      <trkpt lat="38.81736" lon="121.14833">
        <ele>40.624306</ele>
        <time>2014-03-17T10:00:50.306000Z</time>
      </trkpt>
      <trkpt lat="38.817474" lon="121.14834">
        <ele>40.18877</ele>
        <time>2014-03-17T10:00:53.409000Z</time>
      </trkpt>
      <trkpt lat="38.81759" lon="121.14834">
        <ele>40.836716</ele>
        <time>2014-03-17T10:00:56.512000Z</time>
      </trkpt>
      <trkpt lat="38.817722" lon="121.148346">
        <ele>42.493404</ele>
        <time>2014-03-17T10:00:59.615000Z</time>
      </trkpt>
      <trkpt lat="38.817837" lon="121.14835">
        <ele>44.22711</ele>
        <time>2014-03-17T10:01:02.718000Z</time>
      </trkpt>
      <trkpt lat="38.81795" lon="121.14835">
        <ele>45.207897</ele>
        <time>2014-03-17T10:01:05.821000Z</time>
      </trkpt>
      <trkpt lat="38.81807" lon="121.14836">
        <ele>45.33083</ele>
        <time>2014-03-17T10:01:08.924000Z</time>
      </trkpt>
      <trkpt lat="38.818188" lon="121.14836">
        <ele>44.81546</ele>
        <time>2014-03-17T10:01:12.027000Z</time>
      </trkpt>
      <trkpt lat="38.818314" lon="121.14836">
        <ele>44.182823</ele>
        <time>2014-03-17T10:01:15.130000Z</time>
      </trkpt>
      <trkpt lat="38.818424" lon="121.14836">
        <ele>43.879536</ele>
        <time>2014-03-17T10:01:18.233000Z</time>
      </trkpt>
      <trkpt lat="38.81854" lon="121.148315">
        <ele>43.86004</ele>
        <time>2014-03-17T10:01:21.336000Z</time>
      </trkpt>
      <trkpt lat="38.818615" lon="121.14825">
        <ele>43.90348</ele>
        <time>2014-03-17T10:01:24.439000Z</time>
      </trkpt>
      <trkpt lat="38.818707" lon="121.14812">
        <ele>43.947845</ele>
        <time>2014-03-17T10:01:27.542000Z</time>
      </trkpt>
      <trkpt lat="38.818756" lon="121.14798">
        <ele>44.25656</ele>
        <time>2014-03-17T10:01:30.645000Z</time>
      </trkpt>
      <trkpt lat="38.818764" lon="121.14785">
        <ele>44.984943</ele>
        <time>2014-03-17T10:01:33.748000Z</time>
      </trkpt>
      <trkpt lat="38.81875" lon="121.147705">
        <ele>45.48889</ele>
        <time>2014-03-17T10:01:36.851000Z</time>
      </trkpt>
      <trkpt lat="38.81871" lon="121.14756">
        <ele>45.27499</ele>
        <time>2014-03-17T10:01:39.954000Z</time>
      </trkpt>
      <trkpt lat="38.818645" lon="121.14743">
        <ele>44.87594</ele>
        <time>2014-03-17T10:01:43.057000Z</time>
      </trkpt>
      <trkpt lat="38.818577" lon="121.14732">
        <ele>44.94654</ele>
        <time>2014-03-17T10:01:46.160000Z</time>
      </trkpt>
      <trkpt lat="38.817867" lon="121.1473">
        <ele>41.55887</ele>
        <time>2014-03-17T10:01:49.263000Z</time>
      </trkpt>
      <trkpt lat="38.817852" lon="121.1473">
        <ele>40.98336</ele>
        <time>2014-03-17T10:01:52.366000Z</time>
      </trkpt>
      <trkpt lat="38.817852" lon="121.1473">
        <ele>40.636436</ele>
        <time>2014-03-17T10:01:55.469000Z</time>
      </trkpt>
      <trkpt lat="38.817753" lon="121.14731">
        <ele>40.790863</ele>
        <time>2014-03-17T10:01:58.572000Z</time>
      </trkpt>
      <trkpt lat="38.817654" lon="121.14728">
        <ele>41.477413</ele>
        <time>2014-03-17T10:02:01.675000Z</time>
      </trkpt>
      <trkpt lat="38.817547" lon="121.147255">
        <ele>42.64414</ele>
        <time>2014-03-17T10:02:04.778000Z</time>
      </trkpt>
      <trkpt lat="38.81745" lon="121.14726">
        <ele>44.103157</ele>
        <time>2014-03-17T10:02:07.881000Z</time>
      </trkpt>
      <trkpt lat="38.817364" lon="121.14731">
        <ele>45.594963</ele>
        <time>2014-03-17T10:02:10.984000Z</time>
      </trkpt>
      <trkpt lat="38.817284" lon="121.14739">
        <ele>46.614998</ele>
        <time>2014-03-17T10:02:14.087000Z</time>
      </trkpt>
      <trkpt lat="38.8172" lon="121.14753">
        <ele>46.70966</ele>
        <time>2014-03-17T10:02:17.190000Z</time>
      </trkpt>
      <trkpt lat="38.817154" lon="121.14764">
        <ele>45.66889</ele>
        <time>2014-03-17T10:02:20.293000Z</time>
      </trkpt>
      <trkpt lat="38.817142" lon="121.14776">
        <ele>43.408203</ele>
        <time>2014-03-17T10:02:23.396000Z</time>
      </trkpt>
      <trkpt lat="38.817142" lon="121.14788">
        <ele>40.43818</ele>
        <time>2014-03-17T10:02:26.499000Z</time>
      </trkpt>
      <trkpt lat="38.817173" lon="121.14801">
        <ele>38.04027</ele>
        <time>2014-03-17T10:02:29.602000Z</time>
      </trkpt>
      <trkpt lat="38.817238" lon="121.14813">
        <ele>36.96581</ele>
        <time>2014-03-17T10:02:32.705000Z</time>
      </trkpt>
      <trkpt lat="38.817314" lon="121.14824">
        <ele>37.07685</ele>
        <time>2014-03-17T10:02:35.808000Z</time>
      </trkpt>
      <trkpt lat="38.817413" lon="121.1483">
        <ele>37.790234</ele>
        <time>2014-03-17T10:02:38.911000Z</time>
      </trkpt>
      <trkpt lat="38.817547" lon="121.14832">
        <ele>38.6781</ele>
        <time>2014-03-17T10:02:42.014000Z</time>
      </trkpt>
      <trkpt lat="38.817665" lon="121.14833">
        <ele>39.543842</ele>
        <time>2014-03-17T10:02:45.117000Z</time>
      </trkpt>
      <trkpt lat="38.817776" lon="121.14834">
        <ele>40.555878</ele>
        <time>2014-03-17T10:02:48.220000Z</time>
      </trkpt>
      <trkpt lat="38.817883" lon="121.14835">
        <ele>41.84145</ele>
        <time>2014-03-17T10:02:51.323000Z</time>
      </trkpt>
      <trkpt lat="38.818" lon="121.14835">
        <ele>42.935486</ele>
        <time>2014-03-17T10:02:54.426000Z</time>
      </trkpt>
      <trkpt lat="38.818108" lon="121.14835">
        <ele>43.016186</ele>
        <time>2014-03-17T10:02:57.529000Z</time>
      </trkpt>
      <trkpt lat="38.81822" lon="121.14836">
        <ele>42.07323</ele>
        <time>2014-03-17T10:03:00.632000Z</time>
      </trkpt>
      <trkpt lat="38.818314" lon="121.14837">
        <ele>41.217052</ele>
        <time>2014-03-17T10:03:03.735000Z</time>
      </trkpt>
      <trkpt lat="38.818405" lon="121.14836">
        <ele>41.444183</ele>
        <time>2014-03-17T10:03:06.838000Z</time>
      </trkpt>
      <trkpt lat="38.81851" lon="121.148315">
        <ele>42.50267</ele>
        <time>2014-03-17T10:03:09.941000Z</time>
      </trkpt>
      <trkpt lat="38.818604" lon="121.148254">
        <ele>43.538925</ele>
        <time>2014-03-17T10:03:13.044000Z</time>
      </trkpt>
      <trkpt lat="38.81867" lon="121.14817">
        <ele>44.1963</ele>
        <time>2014-03-17T10:03:16.147000Z</time>
      </trkpt>
      <trkpt lat="38.818718" lon="121.14807">
        <ele>44.58539</ele>
        <time>2014-03-17T10:03:19.250000Z</time>
      </trkpt>
      <trkpt lat="38.818756" lon="121.14795">
        <ele>44.71295</ele>
        <time>2014-03-17T10:03:22.353000Z</time>
      </trkpt>
      <trkpt lat="38.818756" lon="121.14781">
        <ele>44.39008</ele>
        <time>2014-03-17T10:03:25.456000Z</time>
      </trkpt>
      <trkpt lat="38.818726" lon="121.147675">
        <ele>43.710358</ele>
        <time>2014-03-17T10:03:28.559000Z</time>
      </trkpt>
      <trkpt lat="38.81866" lon="121.14753">
        <ele>43.074997</ele>
        <time>2014-03-17T10:03:31.662000Z</time>
      </trkpt>
      <trkpt lat="38.818596" lon="121.14744">
        <ele>42.4816</ele>
        <time>2014-03-17T10:03:34.765000Z</time>
      </trkpt>
      <trkpt lat="38.81851" lon="121.14736">
        <ele>41.643436</ele>
        <time>2014-03-17T10:03:37.868000Z</time>
      </trkpt>
      <trkpt lat="38.818405" lon="121.14731">
        <ele>41.33714</ele>
        <time>2014-03-17T10:03:40.971000Z</time>
      </trkpt>
      <trkpt lat="38.818306" lon="121.14729">
        <ele>42.30574</ele>
        <time>2014-03-17T10:03:44.074000Z</time>
      </trkpt>
      <trkpt lat="38.818207" lon="121.147285">
        <ele>43.968834</ele>
        <time>2014-03-17T10:03:47.177000Z</time>
      </trkpt>
      <trkpt lat="38.818108" lon="121.147285">
        <ele>45.4099</ele>
        <time>2014-03-17T10:03:50.280000Z</time>
      </trkpt>
      <trkpt lat="38.81799" lon="121.14728">
        <ele>46.144783</ele>
        <time>2014-03-17T10:03:53.383000Z</time>
      </trkpt>
      <trkpt lat="38.817886" lon="121.14728">
        <ele>45.888367</ele>
        <time>2014-03-17T10:03:56.486000Z</time>
      </trkpt>
      <trkpt lat="38.817772" lon="121.14726">
        <ele>44.92466</ele>
        <time>2014-03-17T10:03:59.589000Z</time>
      </trkpt>
      <trkpt lat="38.817677" lon="121.14725">
        <ele>44.086685</ele>
        <time>2014-03-17T10:04:02.692000Z</time>
      </trkpt>
      <trkpt lat="38.81756" lon="121.14724">
        <ele>43.979397</ele>
        <time>2014-03-17T10:04:05.795000Z</time>
      </trkpt>
      <trkpt lat="38.817455" lon="121.14724">
        <ele>45.24863</ele>
        <time>2014-03-17T10:04:08.898000Z</time>
      </trkpt>
      <trkpt lat="38.817345" lon="121.14729">
        <ele>47.89403</ele>
        <time>2014-03-17T10:04:12.001000Z</time>
      </trkpt>
      <trkpt lat="38.81725" lon="121.147385">
        <ele>50.361443</ele>
        <time>2014-03-17T10:04:15.104000Z</time>
      </trkpt>
      <trkpt lat="38.817192" lon="121.147484">
        <ele>51.46279</ele>
        <time>2014-03-17T10:04:18.207000Z</time>
      </trkpt>
      <trkpt lat="38.817146" lon="121.147606">
        <ele>51.19505</ele>
        <time>2014-03-17T10:04:21.310000Z</time>
      </trkpt>
      <trkpt lat="38.81713" lon="121.14773">
        <ele>49.44405</ele>
        <time>2014-03-17T10:04:24.413000Z</time>
      </trkpt>
      <trkpt lat="38.817127" lon="121.14786">
        <ele>46.593296</ele>
        <time>2014-03-17T10:04:27.516000Z</time>
      </trkpt>
      <trkpt lat="38.817146" lon="121.14799">
        <ele>43.929386</ele>
        <time>2014-03-17T10:04:30.619000Z</time>
      </trkpt>
      <trkpt lat="38.81719" lon="121.14811">
        <ele>42.475254</ele>
        <time>2014-03-17T10:04:33.722000Z</time>
      </trkpt>
      <trkpt lat="38.81726" lon="121.148224">
        <ele>42.350243</ele>
        <time>2014-03-17T10:04:36.825000Z</time>
      </trkpt>
      <trkpt lat="38.817337" lon="121.1483">
        <ele>43.028694</ele>
        <time>2014-03-17T10:04:39.928000Z</time>
      </trkpt>
      <trkpt lat="38.817463" lon="121.14833">
        <ele>42.987103</ele>
        <time>2014-03-17T10:04:43.031000Z</time>
      </trkpt>
      <trkpt lat="38.817577" lon="121.148346">
        <ele>41.323685</ele>
        <time>2014-03-17T10:04:46.134000Z</time>
      </trkpt>
      <trkpt lat="38.817684" lon="121.14835">
        <ele>39.182564</ele>
        <time>2014-03-17T10:04:49.237000Z</time>
      </trkpt>
      <trkpt lat="38.817787" lon="121.14836">
        <ele>37.820877</ele>
        <time>2014-03-17T10:04:52.340000Z</time>
      </trkpt>
      <trkpt lat="38.817886" lon="121.14836">
        <ele>36.992195</ele>
        <time>2014-03-17T10:04:55.443000Z</time>
      </trkpt>
      <trkpt lat="38.81799" lon="121.14836">
        <ele>36.209366</ele>
        <time>2014-03-17T10:04:58.546000Z</time>
      </trkpt>
      <trkpt lat="38.81808" lon="121.14838">
        <ele>35.37182</ele>
        <time>2014-03-17T10:05:01.649000Z</time>
      </trkpt>
      <trkpt lat="38.818176" lon="121.14838">
        <ele>35.081696</ele>
        <time>2014-03-17T10:05:04.752000Z</time>
      </trkpt>
      <trkpt lat="38.818275" lon="121.14838">
        <ele>35.782463</ele>
        <time>2014-03-17T10:05:07.855000Z</time>
      </trkpt>
      <trkpt lat="38.81838" lon="121.14836">
        <ele>37.193893</ele>
        <time>2014-03-17T10:05:10.958000Z</time>
      </trkpt>
      <trkpt lat="38.81847" lon="121.14832">
        <ele>38.66616</ele>
        <time>2014-03-17T10:05:14.061000Z</time>
      </trkpt>
      <trkpt lat="38.81856" lon="121.14826">
        <ele>39.187893</ele>
        <time>2014-03-17T10:05:17.164000Z</time>
      </trkpt>
      <trkpt lat="38.81865" lon="121.148155">
        <ele>38.214344</ele>
        <time>2014-03-17T10:05:20.267000Z</time>
      </trkpt>
      <trkpt lat="38.81872" lon="121.148056">
        <ele>37.0529</ele>
        <time>2014-03-17T10:05:23.370000Z</time>
      </trkpt>
      <trkpt lat="38.818752" lon="121.147896">
        <ele>36.897293</ele>
        <time>2014-03-17T10:05:26.473000Z</time>
      </trkpt>
      <trkpt lat="38.818745" lon="121.147736">
        <ele>37.353306</ele>
        <time>2014-03-17T10:05:29.576000Z</time>
      </trkpt>
      <trkpt lat="38.818695" lon="121.1476">
        <ele>37.742622</ele>
        <time>2014-03-17T10:05:32.679000Z</time>
      </trkpt>
      <trkpt lat="38.818623" lon="121.14747">
        <ele>38.40319</ele>
        <time>2014-03-17T10:05:35.782000Z</time>
      </trkpt>
      <trkpt lat="38.81855" lon="121.14738">
        <ele>39.92165</ele>
        <time>2014-03-17T10:05:38.885000Z</time>
      </trkpt>
      <trkpt lat="38.81846" lon="121.147316">
        <ele>42.008614</ele>
        <time>2014-03-17T10:05:41.988000Z</time>
      </trkpt>
      <trkpt lat="38.818367" lon="121.14729">
        <ele>43.963894</ele>
        <time>2014-03-17T10:05:45.091000Z</time>
      </trkpt>
      <trkpt lat="38.818268" lon="121.147285">
        <ele>45.361332</ele>
        <time>2014-03-17T10:05:48.194000Z</time>
      </trkpt>
      <trkpt lat="38.81816" lon="121.14728">
        <ele>45.88157</ele>
        <time>2014-03-17T10:05:51.297000Z</time>
      </trkpt>
      <trkpt lat="38.81807" lon="121.14727">
        <ele>45.60492</ele>
        <time>2014-03-17T10:05:54.400000Z</time>
      </trkpt>
      <trkpt lat="38.81795" lon="121.147255">
        <ele>45.06417</ele>
        <time>2014-03-17T10:05:57.503000Z</time>
      </trkpt>
      <trkpt lat="38.817856" lon="121.14724">
        <ele>44.476112</ele>
        <time>2014-03-17T10:06:00.606000Z</time>
      </trkpt>
      <trkpt lat="38.817757" lon="121.14723">
        <ele>43.492912</ele>
        <time>2014-03-17T10:06:03.709000Z</time>
      </trkpt>
      <trkpt lat="38.817646" lon="121.14723">
        <ele>42.20469</ele>
        <time>2014-03-17T10:06:06.812000Z</time>
      </trkpt>
      <trkpt lat="38.81754" lon="121.14723">
        <ele>41.47</ele>
        <time>2014-03-17T10:06:09.915000Z</time>
      </trkpt>
      <trkpt lat="38.817425" lon="121.147255">
        <ele>41.670834</ele>
        <time>2014-03-17T10:06:13.018000Z</time>
      </trkpt>
      <trkpt lat="38.817333" lon="121.1473">
        <ele>41.957672</ele>
        <time>2014-03-17T10:06:16.121000Z</time>
      </trkpt>
      <trkpt lat="38.81725" lon="121.14739">
        <ele>41.59369</ele>
        <time>2014-03-17T10:06:19.224000Z</time>
      </trkpt>
      <trkpt lat="38.81718" lon="121.14752">
        <ele>41.102448</ele>
        <time>2014-03-17T10:06:22.327000Z</time>
      </trkpt>
      <trkpt lat="38.817135" lon="121.14766">
        <ele>41.1076</ele>
        <time>2014-03-17T10:06:25.430000Z</time>
      </trkpt>
      <trkpt lat="38.817127" lon="121.14779">
        <ele>41.31127</ele>
        <time>2014-03-17T10:06:28.533000Z</time>
      </trkpt>
      <trkpt lat="38.817142" lon="121.14792">
        <ele>41.05987</ele>
        <time>2014-03-17T10:06:31.636000Z</time>
      </trkpt>
      <trkpt lat="38.817177" lon="121.14803">
        <ele>40.222397</ele>
        <time>2014-03-17T10:06:34.739000Z</time>
      </trkpt>
      <trkpt lat="38.81724" lon="121.14813">
        <ele>39.202686</ele>
        <time>2014-03-17T10:06:37.842000Z</time>
      </trkpt>
      <trkpt lat="38.81731" lon="121.148254">
        <ele>37.997974</ele>
        <time>2014-03-17T10:06:40.945000Z</time>
      </trkpt>
      <trkpt lat="38.817417" lon="121.148315">
        <ele>36.518265</ele>
        <time>2014-03-17T10:06:44.048000Z</time>
      </trkpt>
      <trkpt lat="38.817516" lon="121.14833">
        <ele>35.848473</ele>
        <time>2014-03-17T10:06:47.151000Z</time>
      </trkpt>
      <trkpt lat="38.817623" lon="121.148346">
        <ele>36.696327</ele>
        <time>2014-03-17T10:06:50.254000Z</time>
      </trkpt>
      <trkpt lat="38.817745" lon="121.148346">
        <ele>37.69281</ele>
        <time>2014-03-17T10:06:53.357000Z</time>
      </trkpt>
      <trkpt lat="38.81784" lon="121.14835">
        <ele>37.58202</ele>
        <time>2014-03-17T10:06:56.460000Z</time>
      </trkpt>
      <trkpt lat="38.81794" lon="121.14836">
        <ele>37.68256</ele>
        <time>2014-03-17T10:06:59.563000Z</time>
      </trkpt>
      <trkpt lat="38.818035" lon="121.14838">
        <ele>39.274837</ele>
        <time>2014-03-17T10:07:02.666000Z</time>
      </trkpt>
      <trkpt lat="38.81815" lon="121.148384">
        <ele>40.269394</ele>
        <time>2014-03-17T10:07:05.769000Z</time>
      </trkpt>
      <trkpt lat="38.81825" lon="121.14839">
        <ele>38.649376</ele>
        <time>2014-03-17T10:07:08.872000Z</time>
      </trkpt>
      <trkpt lat="38.818356" lon="121.14839">
        <ele>35.974728</ele>
        <time>2014-03-17T10:07:11.975000Z</time>
      </trkpt>
      <trkpt lat="38.818443" lon="121.14836">
        <ele>34.69027</ele>
        <time>2014-03-17T10:07:15.078000Z</time>
      </trkpt>
      <trkpt lat="38.818527" lon="121.148315">
        <ele>35.304688</ele>
        <time>2014-03-17T10:07:18.181000Z</time>
      </trkpt>
      <trkpt lat="38.818615" lon="121.14825">
        <ele>36.858765</ele>
        <time>2014-03-17T10:07:21.284000Z</time>
      </trkpt>
      <trkpt lat="38.818684" lon="121.14814">
        <ele>38.303226</ele>
        <time>2014-03-17T10:07:24.387000Z</time>
      </trkpt>
      <trkpt lat="38.81873" lon="121.148">
        <ele>39.26392</ele>
        <time>2014-03-17T10:07:27.490000Z</time>
      </trkpt>
      <trkpt lat="38.81875" lon="121.14788">
        <ele>39.702812</ele>
        <time>2014-03-17T10:07:30.593000Z</time>
      </trkpt>
      <trkpt lat="38.81874" lon="121.14774">
        <ele>39.79333</ele>
        <time>2014-03-17T10:07:33.696000Z</time>
      </trkpt>
      <trkpt lat="38.818718" lon="121.14761">
        <ele>40.13167</ele>
        <time>2014-03-17T10:07:36.799000Z</time>
      </trkpt>
      <trkpt lat="38.818657" lon="121.1475">
        <ele>41.058468</ele>
        <time>2014-03-17T10:07:39.902000Z</time>
      </trkpt>
      <trkpt lat="38.81859" lon="121.147415">
        <ele>42.108932</ele>
        <time>2014-03-17T10:07:43.005000Z</time>
      </trkpt>
      <trkpt lat="38.818493" lon="121.147316">
        <ele>42.56904</ele>
        <time>2014-03-17T10:07:46.108000Z</time>
      </trkpt>
      <trkpt lat="38.81839" lon="121.14729">
        <ele>42.150715</ele>
        <time>2014-03-17T10:07:49.211000Z</time>
      </trkpt>
      <trkpt lat="38.818287" lon="121.147285">
        <ele>41.197414</ele>
        <time>2014-03-17T10:07:52.314000Z</time>
      </trkpt>
      <trkpt lat="38.818176" lon="121.147285">
        <ele>41.290997</ele>
        <time>2014-03-17T10:07:55.417000Z</time>
      </trkpt>
      <trkpt lat="38.818066" lon="121.147285">
        <ele>43.220066</ele>
        <time>2014-03-17T10:07:58.520000Z</time>
      </trkpt>
      <trkpt lat="38.817963" lon="121.147285">
        <ele>45.403896</ele>
        <time>2014-03-17T10:08:01.623000Z</time>
      </trkpt>
      <trkpt lat="38.817856" lon="121.14728">
        <ele>46.20685</ele>
        <time>2014-03-17T10:08:04.726000Z</time>
      </trkpt>
      <trkpt lat="38.817764" lon="121.14728">
        <ele>45.997604</ele>
        <time>2014-03-17T10:08:07.829000Z</time>
      </trkpt>
      <trkpt lat="38.817673" lon="121.14727">
        <ele>45.616756</ele>
        <time>2014-03-17T10:08:10.932000Z</time>
      </trkpt>
      <trkpt lat="38.817585" lon="121.14725">
        <ele>45.35064</ele>
        <time>2014-03-17T10:08:14.035000Z</time>
      </trkpt>
      <trkpt lat="38.817474" lon="121.14724">
        <ele>45.197662</ele>
        <time>2014-03-17T10:08:17.138000Z</time>
      </trkpt>
      <trkpt lat="38.817364" lon="121.147285">
        <ele>45.173237</ele>
        <time>2014-03-17T10:08:20.241000Z</time>
      </trkpt>
      <trkpt lat="38.81727" lon="121.147354">
        <ele>45.420704</ele>
        <time>2014-03-17T10:08:23.344000Z</time>
      </trkpt>
      <trkpt lat="38.8172" lon="121.14746">
        <ele>46.025497</ele>
        <time>2014-03-17T10:08:26.447000Z</time>
      </trkpt>
      <trkpt lat="38.817165" lon="121.14759">
        <ele>46.632027</ele>
        <time>2014-03-17T10:08:29.550000Z</time>
      </trkpt>
      <trkpt lat="38.817154" lon="121.14773">
        <ele>46.79837</ele>
        <time>2014-03-17T10:08:32.653000Z</time>
      </trkpt>
      <trkpt lat="38.81716" lon="121.147865">
        <ele>45.976612</ele>
        <time>2014-03-17T10:08:35.756000Z</time>
      </trkpt>
      <trkpt lat="38.817192" lon="121.14801">
        <ele>44.162895</ele>
        <time>2014-03-17T10:08:38.859000Z</time>
      </trkpt>
      <trkpt lat="38.817234" lon="121.14812">
        <ele>42.7074</ele>
        <time>2014-03-17T10:08:41.962000Z</time>
      </trkpt>
      <trkpt lat="38.81731" lon="121.14823">
        <ele>42.557114</ele>
        <time>2014-03-17T10:08:45.065000Z</time>
      </trkpt>
      <trkpt lat="38.817394" lon="121.1483">
        <ele>42.946762</ele>
        <time>2014-03-17T10:08:48.168000Z</time>
      </trkpt>
      <trkpt lat="38.817497" lon="121.14834">
        <ele>42.718227</ele>
        <time>2014-03-17T10:08:51.271000Z</time>
      </trkpt>
      <trkpt lat="38.817608" lon="121.14835">
        <ele>41.73705</ele>
        <time>2014-03-17T10:08:54.374000Z</time>
      </trkpt>
      <trkpt lat="38.8177" lon="121.14835">
        <ele>40.764473</ele>
        <time>2014-03-17T10:08:57.477000Z</time>
      </trkpt>
      <trkpt lat="38.81781" lon="121.14837">
        <ele>40.280838</ele>
        <time>2014-03-17T10:09:00.580000Z</time>
      </trkpt>
      <trkpt lat="38.81791" lon="121.14838">
        <ele>39.891273</ele>
        <time>2014-03-17T10:09:03.683000Z</time>
      </trkpt>
      <trkpt lat="38.818012" lon="121.14838">
        <ele>38.848904</ele>
        <time>2014-03-17T10:09:06.786000Z</time>
      </trkpt>
      <trkpt lat="38.818115" lon="121.14838">
        <ele>36.750454</ele>
        <time>2014-03-17T10:09:09.889000Z</time>
      </trkpt>
      <trkpt lat="38.81822" lon="121.14837">
        <ele>34.321594</ele>
        <time>2014-03-17T10:09:12.992000Z</time>
      </trkpt>
      <trkpt lat="38.818325" lon="121.14836">
        <ele>32.77016</ele>
        <time>2014-03-17T10:09:16.095000Z</time>
      </trkpt>
      <trkpt lat="38.818424" lon="121.148346">
        <ele>33.178547</ele>
        <time>2014-03-17T10:09:19.198000Z</time>
      </trkpt>
      <trkpt lat="38.818546" lon="121.148285">
        <ele>35.452026</ele>
        <time>2014-03-17T10:09:22.301000Z</time>
      </trkpt>
      <trkpt lat="38.818645" lon="121.14819">
        <ele>37.72692</ele>
        <time>2014-03-17T10:09:25.404000Z</time>
      </trkpt>
      <trkpt lat="38.81871" lon="121.14809">
        <ele>38.52833</ele>
        <time>2014-03-17T10:09:28.507000Z</time>
      </trkpt>
      <trkpt lat="38.81875" lon="121.14795">
        <ele>38.286755</ele>
        <time>2014-03-17T10:09:31.610000Z</time>
      </trkpt>
      <trkpt lat="38.81876" lon="121.14782">
        <ele>38.180798</ele>
        <time>2014-03-17T10:09:34.713000Z</time>
      </trkpt>
      <trkpt lat="38.818745" lon="121.147675">
        <ele>39.239582</ele>
        <time>2014-03-17T10:09:37.816000Z</time>
      </trkpt>
      <trkpt lat="38.818695" lon="121.14754">
        <ele>41.16242</ele>
        <time>2014-03-17T10:09:40.919000Z</time>
      </trkpt>
      <trkpt lat="38.81862" lon="121.14743">
        <ele>42.387177</ele>
        <time>2014-03-17T10:09:44.022000Z</time>
      </trkpt>
      <trkpt lat="38.818523" lon="121.14735">
        <ele>42.218746</ele>
        <time>2014-03-17T10:09:47.125000Z</time>
      </trkpt>
      <trkpt lat="38.81842" lon="121.14731">
        <ele>41.74025</ele>
        <time>2014-03-17T10:09:50.228000Z</time>
      </trkpt>
      <trkpt lat="38.818306" lon="121.14729">
        <ele>42.22238</ele>
        <time>2014-03-17T10:09:53.331000Z</time>
      </trkpt>
      <trkpt lat="38.81822" lon="121.1473">
        <ele>43.550034</ele>
        <time>2014-03-17T10:09:56.434000Z</time>
      </trkpt>
      <trkpt lat="38.818115" lon="121.147285">
        <ele>44.783325</ele>
        <time>2014-03-17T10:09:59.537000Z</time>
      </trkpt>
      <trkpt lat="38.818005" lon="121.147285">
        <ele>45.862484</ele>
        <time>2014-03-17T10:10:02.640000Z</time>
      </trkpt>
      <trkpt lat="38.817913" lon="121.14727">
        <ele>47.18997</ele>
        <time>2014-03-17T10:10:05.743000Z</time>
      </trkpt>
      <trkpt lat="38.817818" lon="121.14728">
        <ele>48.069927</ele>
        <time>2014-03-17T10:10:08.846000Z</time>
      </trkpt>
      <trkpt lat="38.817703" lon="121.14727">
        <ele>47.391644</ele>
        <time>2014-03-17T10:10:11.949000Z</time>
      </trkpt>
      <trkpt lat="38.8176" lon="121.14726">
        <ele>45.972576</ele>
        <time>2014-03-17T10:10:15.052000Z</time>
      </trkpt>
      <trkpt lat="38.817513" lon="121.147255">
        <ele>45.642498</ele>
        <time>2014-03-17T10:10:18.155000Z</time>
      </trkpt>
      <trkpt lat="38.817413" lon="121.147285">
        <ele>46.599277</ele>
        <time>2014-03-17T10:10:21.258000Z</time>
      </trkpt>
      <trkpt lat="38.81732" lon="121.14735">
        <ele>47.671955</ele>
        <time>2014-03-17T10:10:24.361000Z</time>
      </trkpt>
      <trkpt lat="38.81726" lon="121.14744">
        <ele>48.205757</ele>
        <time>2014-03-17T10:10:27.464000Z</time>
      </trkpt>
      <trkpt lat="38.817196" lon="121.14756">
        <ele>48.20642</ele>
        <time>2014-03-17T10:10:30.567000Z</time>
      </trkpt>
      <trkpt lat="38.817154" lon="121.147705">
        <ele>47.879143</ele>
        <time>2014-03-17T10:10:33.670000Z</time>
      </trkpt>
      <trkpt lat="38.817154" lon="121.147865">
        <ele>46.94408</ele>
        <time>2014-03-17T10:10:36.773000Z</time>
      </trkpt>
      <trkpt lat="38.817165" lon="121.147995">
        <ele>45.33829</ele>
        <time>2014-03-17T10:10:39.876000Z</time>
      </trkpt>
      <trkpt lat="38.817226" lon="121.14812">
        <ele>43.32384</ele>
        <time>2014-03-17T10:10:42.979000Z</time>
      </trkpt>
      <trkpt lat="38.817284" lon="121.14821">
        <ele>41.149456</ele>
        <time>2014-03-17T10:10:46.082000Z</time>
      </trkpt>
      <trkpt lat="38.81736" lon="121.14828">
        <ele>39.455242</ele>
        <time>2014-03-17T10:10:49.185000Z</time>
      </trkpt>
      <trkpt lat="38.81745" lon="121.14832">
        <ele>38.91753</ele>
        <time>2014-03-17T10:10:52.288000Z</time>
      </trkpt>
      <trkpt lat="38.817562" lon="121.148346">
        <ele>39.37706</ele>
        <time>2014-03-17T10:10:55.391000Z</time>
      </trkpt>
      <trkpt lat="38.817665" lon="121.148346">
        <ele>40.2199</ele>
        <time>2014-03-17T10:10:58.494000Z</time>
      </trkpt>
      <trkpt lat="38.817757" lon="121.14834">
        <ele>40.849857</ele>
        <time>2014-03-17T10:11:01.597000Z</time>
      </trkpt>
      <trkpt lat="38.817852" lon="121.14835">
        <ele>41.14999</ele>
        <time>2014-03-17T10:11:04.700000Z</time>
      </trkpt>
      <trkpt lat="38.81795" lon="121.148346">
        <ele>41.27958</ele>
        <time>2014-03-17T10:11:07.803000Z</time>
      </trkpt>
      <trkpt lat="38.818058" lon="121.14835">
        <ele>41.341747</ele>
        <time>2014-03-17T10:11:10.906000Z</time>
      </trkpt>
      <trkpt lat="38.818172" lon="121.14837">
        <ele>41.23828</ele>
        <time>2014-03-17T10:11:14.009000Z</time>
      </trkpt>
      <trkpt lat="38.818287" lon="121.14838">
        <ele>40.908955</ele>
        <time>2014-03-17T10:11:17.112000Z</time>
      </trkpt>
      <trkpt lat="38.818394" lon="121.14835">
        <ele>40.69701</ele>
        <time>2014-03-17T10:11:20.215000Z</time>
      </trkpt>
      <trkpt lat="38.818485" lon="121.1483">
        <ele>41.104763</ele>
        <time>2014-03-17T10:11:23.318000Z</time>
      </trkpt>
      <trkpt lat="38.818584" lon="121.14823">
        <ele>42.0265</ele>
        <time>2014-03-17T10:11:26.421000Z</time>
      </trkpt>
      <trkpt lat="38.818665" lon="121.14814">
        <ele>42.756714</ele>
        <time>2014-03-17T10:11:29.524000Z</time>
      </trkpt>
      <trkpt lat="38.818718" lon="121.14801">
        <ele>42.70078</ele>
        <time>2014-03-17T10:11:32.627000Z</time>
      </trkpt>
      <trkpt lat="38.81874" lon="121.147896">
        <ele>41.691418</ele>
        <time>2014-03-17T10:11:35.730000Z</time>
      </trkpt>
      <trkpt lat="38.818745" lon="121.14777">
        <ele>40.146507</ele>
        <time>2014-03-17T10:11:38.833000Z</time>
      </trkpt>
      <trkpt lat="38.818714" lon="121.14767">
        <ele>38.910454</ele>
        <time>2014-03-17T10:11:41.936000Z</time>
      </trkpt>
      <trkpt lat="38.818672" lon="121.14755">
        <ele>38.552402</ele>
        <time>2014-03-17T10:11:45.039000Z</time>
      </trkpt>
      <trkpt lat="38.8186" lon="121.147446">
        <ele>38.93388</ele>
        <time>2014-03-17T10:11:48.142000Z</time>
      </trkpt>
      <trkpt lat="38.818504" lon="121.14736">
        <ele>39.4839</ele>
        <time>2014-03-17T10:11:51.245000Z</time>
      </trkpt>
      <trkpt lat="38.81841" lon="121.14733">
        <ele>39.928043</ele>
        <time>2014-03-17T10:11:54.348000Z</time>
      </trkpt>
      <trkpt lat="38.81831" lon="121.14731">
        <ele>40.827465</ele>
        <time>2014-03-17T10:11:57.451000Z</time>
      </trkpt>
      <trkpt lat="38.8182" lon="121.14731">
        <ele>42.37645</ele>
        <time>2014-03-17T10:12:00.554000Z</time>
      </trkpt>
      <trkpt lat="38.818104" lon="121.1473">
        <ele>44.171482</ele>
        <time>2014-03-17T10:12:03.657000Z</time>
      </trkpt>
      <trkpt lat="38.817997" lon="121.14729">
        <ele>45.77133</ele>
        <time>2014-03-17T10:12:06.760000Z</time>
      </trkpt>
      <trkpt lat="38.817883" lon="121.14729">
        <ele>46.71667</ele>
        <time>2014-03-17T10:12:09.863000Z</time>
      </trkpt>
      <trkpt lat="38.817772" lon="121.14728">
        <ele>46.69941</ele>
        <time>2014-03-17T10:12:12.966000Z</time>
      </trkpt>
      <trkpt lat="38.81766" lon="121.147285">
        <ele>46.081215</ele>
        <time>2014-03-17T10:12:16.069000Z</time>
      </trkpt>
      <trkpt lat="38.817547" lon="121.147285">
        <ele>45.49973</ele>
        <time>2014-03-17T10:12:19.172000Z</time>
      </trkpt>
      <trkpt lat="38.817425" lon="121.1473">
        <ele>45.416412</ele>
        <time>2014-03-17T10:12:22.275000Z</time>
      </trkpt>
      <trkpt lat="38.817314" lon="121.147354">
        <ele>46.061512</ele>
        <time>2014-03-17T10:12:25.378000Z</time>
      </trkpt>
      <trkpt lat="38.817245" lon="121.14744">
        <ele>47.300674</ele>
        <time>2014-03-17T10:12:28.481000Z</time>
      </trkpt>
      <trkpt lat="38.817192" lon="121.14756">
        <ele>48.40668</ele>
        <time>2014-03-17T10:12:31.584000Z</time>
      </trkpt>
      <trkpt lat="38.81715" lon="121.14771">
        <ele>48.28142</ele>
        <time>2014-03-17T10:12:34.687000Z</time>
      </trkpt>
      <trkpt lat="38.81714" lon="121.14785">
        <ele>46.701767</ele>
        <time>2014-03-17T10:12:37.790000Z</time>
      </trkpt>
      <trkpt lat="38.81716" lon="121.147964">
        <ele>44.559765</ele>
        <time>2014-03-17T10:12:40.893000Z</time>
      </trkpt>
      <trkpt lat="38.8172" lon="121.14808">
        <ele>42.49517</ele>
        <time>2014-03-17T10:12:43.996000Z</time>
      </trkpt>
      <trkpt lat="38.81725" lon="121.14821">
        <ele>40.680103</ele>
        <time>2014-03-17T10:12:47.099000Z</time>
      </trkpt>
      <trkpt lat="38.817337" lon="121.148285">
        <ele>39.708046</ele>
        <time>2014-03-17T10:12:50.202000Z</time>
      </trkpt>
      <trkpt lat="38.817436" lon="121.14834">
        <ele>39.853268</ele>
        <time>2014-03-17T10:12:53.305000Z</time>
      </trkpt>
      <trkpt lat="38.817566" lon="121.14835">
        <ele>40.8679</ele>
        <time>2014-03-17T10:12:56.408000Z</time>
      </trkpt>
      <trkpt lat="38.817677" lon="121.148346">
        <ele>42.178844</ele>
        <time>2014-03-17T10:12:59.511000Z</time>
      </trkpt>
      <trkpt lat="38.817787" lon="121.148346">
        <ele>43.113396</ele>
        <time>2014-03-17T10:13:02.614000Z</time>
      </trkpt>
      <trkpt lat="38.81791" lon="121.148346">
        <ele>43.44006</ele>
        <time>2014-03-17T10:13:05.717000Z</time>
      </trkpt>
      <trkpt lat="38.818035" lon="121.14835">
        <ele>42.819744</ele>
        <time>2014-03-17T10:13:08.820000Z</time>
      </trkpt>
      <trkpt lat="38.818157" lon="121.14837">
        <ele>41.15934</ele>
        <time>2014-03-17T10:13:11.923000Z</time>
      </trkpt>
      <trkpt lat="38.818256" lon="121.148384">
        <ele>39.502693</ele>
        <time>2014-03-17T10:13:15.026000Z</time>
      </trkpt>
      <trkpt lat="38.818356" lon="121.14837">
        <ele>38.993137</ele>
        <time>2014-03-17T10:13:18.129000Z</time>
      </trkpt>
      <trkpt lat="38.81847" lon="121.14834">
        <ele>39.901936</ele>
        <time>2014-03-17T10:13:21.232000Z</time>
      </trkpt>
      <trkpt lat="38.818558" lon="121.14827">
        <ele>41.60964</ele>
        <time>2014-03-17T10:13:24.335000Z</time>
      </trkpt>
      <trkpt lat="38.81864" lon="121.14818">
        <ele>43.008575</ele>
        <time>2014-03-17T10:13:27.438000Z</time>
      </trkpt>
      <trkpt lat="38.81871" lon="121.14806">
        <ele>43.487617</ele>
        <time>2014-03-17T10:13:30.541000Z</time>
      </trkpt>
      <trkpt lat="38.818733" lon="121.147934">
        <ele>42.94233</ele>
        <time>2014-03-17T10:13:33.644000Z</time>
      </trkpt>
      <trkpt lat="38.81875" lon="121.1478">
        <ele>41.72391</ele>
        <time>2014-03-17T10:13:36.747000Z</time>
      </trkpt>
      <trkpt lat="38.81872" lon="121.14767">
        <ele>40.631496</ele>
        <time>2014-03-17T10:13:39.850000Z</time>
      </trkpt>
      <trkpt lat="38.818672" lon="121.14757">
        <ele>40.126743</ele>
        <time>2014-03-17T10:13:42.953000Z</time>
      </trkpt>
      <trkpt lat="38.81861" lon="121.14748">
        <ele>40.17517</ele>
        <time>2014-03-17T10:13:46.056000Z</time>
      </trkpt>
      <trkpt lat="38.81853" lon="121.1474">
        <ele>40.576054</ele>
        <time>2014-03-17T10:13:49.159000Z</time>
      </trkpt>
      <trkpt lat="38.81845" lon="121.14735">
        <ele>41.13367</ele>
        <time>2014-03-17T10:13:52.262000Z</time>
      </trkpt>
      <trkpt lat="38.81833" lon="121.14732">
        <ele>42.00224</ele>
        <time>2014-03-17T10:13:55.365000Z</time>
      </trkpt>
      <trkpt lat="38.818222" lon="121.14731">
        <ele>43.228172</ele>
        <time>2014-03-17T10:13:58.468000Z</time>
      </trkpt>
      <trkpt lat="38.81812" lon="121.14731">
        <ele>44.37893</ele>
        <time>2014-03-17T10:14:01.571000Z</time>
      </trkpt>
      <trkpt lat="38.818" lon="121.14731">
        <ele>45.134148</ele>
        <time>2014-03-17T10:14:04.674000Z</time>
      </trkpt>
      <trkpt lat="38.817898" lon="121.14731">
        <ele>45.67088</ele>
        <time>2014-03-17T10:14:07.777000Z</time>
      </trkpt>
      <trkpt lat="38.817802" lon="121.147316">
        <ele>46.099304</ele>
        <time>2014-03-17T10:14:10.880000Z</time>
      </trkpt>
      <trkpt lat="38.8177" lon="121.1473">
        <ele>46.279648</ele>
        <time>2014-03-17T10:14:13.983000Z</time>
      </trkpt>
      <trkpt lat="38.817577" lon="121.14729">
        <ele>46.202972</ele>
        <time>2014-03-17T10:14:17.086000Z</time>
      </trkpt>
      <trkpt lat="38.81746" lon="121.14729">
        <ele>46.07815</ele>
        <time>2014-03-17T10:14:20.189000Z</time>
      </trkpt>
      <trkpt lat="38.817345" lon="121.14735">
        <ele>46.012848</ele>
        <time>2014-03-17T10:14:23.292000Z</time>
      </trkpt>
      <trkpt lat="38.817253" lon="121.14743">
        <ele>46.086723</ele>
        <time>2014-03-17T10:14:26.395000Z</time>
      </trkpt>
      <trkpt lat="38.817177" lon="121.14757">
        <ele>46.264652</ele>
        <time>2014-03-17T10:14:29.498000Z</time>
      </trkpt>
      <trkpt lat="38.817142" lon="121.1477">
        <ele>46.25391</ele>
        <time>2014-03-17T10:14:32.601000Z</time>
      </trkpt>
      <trkpt lat="38.81714" lon="121.14784">
        <ele>45.834373</ele>
        <time>2014-03-17T10:14:35.704000Z</time>
      </trkpt>
      <trkpt lat="38.81716" lon="121.147995">
        <ele>45.24299</ele>
        <time>2014-03-17T10:14:38.807000Z</time>
      </trkpt>
      <trkpt lat="38.817234" lon="121.14812">
        <ele>44.27573</ele>
        <time>2014-03-17T10:14:41.910000Z</time>
      </trkpt>
      <trkpt lat="38.81732" lon="121.14823">
        <ele>42.646217</ele>
        <time>2014-03-17T10:14:45.013000Z</time>
      </trkpt>
      <trkpt lat="38.81744" lon="121.14831">
        <ele>41.219402</ele>
        <time>2014-03-17T10:14:48.116000Z</time>
      </trkpt>
      <trkpt lat="38.81756" lon="121.14833">
        <ele>40.847343</ele>
        <time>2014-03-17T10:14:51.219000Z</time>
      </trkpt>
      <trkpt lat="38.817688" lon="121.148346">
        <ele>41.117344</ele>
        <time>2014-03-17T10:14:54.322000Z</time>
      </trkpt>
      <trkpt lat="38.8178" lon="121.14835">
        <ele>41.444473</ele>
        <time>2014-03-17T10:14:57.425000Z</time>
      </trkpt>
      <trkpt lat="38.817917" lon="121.14836">
        <ele>41.593098</ele>
        <time>2014-03-17T10:15:00.528000Z</time>
      </trkpt>
      <trkpt lat="38.818024" lon="121.148346">
        <ele>41.34322</ele>
        <time>2014-03-17T10:15:03.631000Z</time>
      </trkpt>
      <trkpt lat="38.818146" lon="121.14835">
        <ele>40.663483</ele>
        <time>2014-03-17T10:15:06.734000Z</time>
      </trkpt>
      <trkpt lat="38.818275" lon="121.14837">
        <ele>39.971184</ele>
        <time>2014-03-17T10:15:09.837000Z</time>
      </trkpt>
      <trkpt lat="38.81837" lon="121.14836">
        <ele>39.86259</ele>
        <time>2014-03-17T10:15:12.940000Z</time>
      </trkpt>
      <trkpt lat="38.818474" lon="121.14835">
        <time>2014-03-17T10:15:16.043000Z</time>
      </trkpt>
    </trkseg>
  </trk>
</gpx>