<?xml version="1.0" encoding="UTF-8"?>
<gpx xmlns="http://www.topografix.com/GPX/1/1" xmlns:gpxtpx="http://www.garmin.com/xmlschemas/TrackPointExtension/v1" xmlns:xsi="http://www.w3.org/2001/XMLSchema-instance" xsi:schemaLocation="http://www.topografix.com/GPX/1/1 http://www.topografix.com/GPX/1/1/gpx.xsd" version="1.1" creator="gpx.py -- https://github.com/tkrajina/gpxpy">
  <trk>
    <trkseg>
      <trkpt lat="38.818752" lon="121.14758">
        <ele>99.81917</ele>
        <time>2014-03-27T09:35:19.593000Z</time>
      </trkpt>
      <trkpt lat="38.81875" lon="121.14755">
        <ele>96.75644</ele>
        <time>2014-03-27T09:35:22.799000Z</time>
      </trkpt>
      <trkpt lat="38.81875" lon="121.14755">
        <ele>94.9339</ele>
        <time>2014-03-27T09:35:26.005000Z</time>
      </trkpt>
      <trkpt lat="38.818695" lon="121.14744">
        <ele>94.30379</ele>
        <time>2014-03-27T09:35:29.211000Z</time>
      </trkpt>
      <trkpt lat="38.818615" lon="121.14737">
        <ele>93.44319</ele>
        <time>2014-03-27T09:35:32.417000Z</time>
      </trkpt>
      <trkpt lat="38.818527" lon="121.14731">
        <ele>90.70206</ele>
        <time>2014-03-27T09:35:35.623000Z</time>
      </trkpt>
      <trkpt lat="38.818428" lon="121.1473">
        <ele>86.1879</ele>
        <time>2014-03-27T09:35:38.829000Z</time>
      </trkpt>
      <trkpt lat="38.81832" lon="121.147285">
        <ele>79.89822</ele>
        <time>2014-03-27T09:35:42.035000Z</time>
      </trkpt>
      <trkpt lat="38.818222" lon="121.147285">
        <ele>71.85047</ele>
        <time>2014-03-27T09:35:45.241000Z</time>
      </trkpt>
      <trkpt lat="38.81812" lon="121.14729">
        <ele>64.8515</ele>
        <time>2014-03-27T09:35:48.447000Z</time>
      </trkpt>
      <trkpt lat="38.81802" lon="121.14729">
        <ele>60.976223</ele>
        <time>2014-03-27T09:35:51.653000Z</time>
      </trkpt>
      <trkpt lat="38.817905" lon="121.14728">
        <ele>61.33311</ele>
        <time>2014-03-27T09:35:54.859000Z</time>
      </trkpt>
      <trkpt lat="38.81779" lon="121.14727">
        <ele>61.2161</ele>
        <time>2014-03-27T09:35:58.065000Z</time>
      </trkpt>
      <trkpt lat="38.817696" lon="121.14726">
        <ele>60.406757</ele>
        <time>2014-03-27T09:36:01.271000Z</time>
      </trkpt>
      <trkpt lat="38.8176" lon="121.14725">
        <ele>59.57436</ele>
        <time>2014-03-27T09:36:04.477000Z</time>
      </trkpt>
      <trkpt lat="38.8175" lon="121.14723">
        <ele>58.90519</ele>
        <time>2014-03-27T09:36:07.683000Z</time>
      </trkpt>
      <trkpt lat="38.817406" lon="121.14724">
        <ele>58.021477</ele>
        <time>2014-03-27T09:36:10.889000Z</time>
      </trkpt>
      <trkpt lat="38.81731" lon="121.1473">
        <ele>57.06928</ele>
        <time>2014-03-27T09:36:14.095000Z</time>
      </trkpt>
      <trkpt lat="38.81725" lon="121.1474">
        <ele>57.7933</ele>
        <time>2014-03-27T09:36:17.301000Z</time>
      </trkpt>
      <trkpt lat="38.817204" lon="121.14751">
        <ele>61.014885</ele>
        <time>2014-03-27T09:36:20.507000Z</time>
      </trkpt>
      <trkpt lat="38.81716" lon="121.14762">
        <ele>63.979584</ele>
        <time>2014-03-27T09:36:23.713000Z</time>
      </trkpt>
      <trkpt lat="38.817142" lon="121.14775">
        <ele>63.11836</ele>
        <time>2014-03-27T09:36:26.919000Z</time>
      </trkpt>
      <trkpt lat="38.817142" lon="121.14788">
        <ele>58.30127</ele>
        <time>2014-03-27T09:36:30.125000Z</time>
      </trkpt>
      <trkpt lat="38.81715" lon="121.147995">
        <ele>52.405327</ele>
        <time>2014-03-27T09:36:33.331000Z</time>
      </trkpt>
      <trkpt lat="38.817177" lon="121.148125">
        <ele>48.39477</ele>
        <time>2014-03-27T09:36:36.537000Z</time>
      </trkpt>
      <trkpt lat="38.81723" lon="121.14825">
        <ele>46.929005</ele>
        <time>2014-03-27T09:36:39.743000Z</time>
      </trkpt>
      <trkpt lat="38.817345" lon="121.148315">
        <ele>47.435497</ele>
        <time>2014-03-27T09:36:42.949000Z</time>
      </trkpt>
      <trkpt lat="38.81747" lon="121.14834">
        <ele>49.48346</ele>
        <time>2014-03-27T09:36:46.155000Z</time>
      </trkpt>
      <trkpt lat="38.817574" lon="121.14835">
        <ele>52.13171</ele>
        <time>2014-03-27T09:36:49.361000Z</time>
      </trkpt>
      <trkpt lat="38.817677" lon="121.14836">
        <ele>53.182926</ele>
        <time>2014-03-27T09:36:52.567000Z</time>
      </trkpt>
      <trkpt lat="38.817783" lon="121.14835">
        <ele>51.2083</ele>
        <time>2014-03-27T09:36:55.773000Z</time>
      </trkpt>
      <trkpt lat="38.817875" lon="121.14835">
        <ele>47.1681</ele>
        <time>2014-03-27T09:36:58.979000Z</time>
      </trkpt>
      <trkpt lat="38.817986" lon="121.14834">
        <ele>43.210148</ele>
        <time>2014-03-27T09:37:02.185000Z</time>
      </trkpt>
      <trkpt lat="38.81809" lon="121.14834">
        <ele>40.739964</ele>
        <time>2014-03-27T09:37:05.391000Z</time>
      </trkpt>
      <trkpt lat="38.8182" lon="121.14836">
        <ele>39.766243</ele>
        <time>2014-03-27T09:37:08.597000Z</time>
      </trkpt>
      <trkpt lat="38.81832" lon="121.148346">
        <ele>38.876915</ele>
        <time>2014-03-27T09:37:11.803000Z</time>
      </trkpt>
      <trkpt lat="38.81842" lon="121.148315">
        <ele>37.2134</ele>
        <time>2014-03-27T09:37:15.009000Z</time>
      </trkpt>
      <trkpt lat="38.818512" lon="121.14825">
        <ele>36.11255</ele>
        <time>2014-03-27T09:37:18.215000Z</time>
      </trkpt>
      <trkpt lat="38.818592" lon="121.14815">
        <ele>38.506554</ele>
        <time>2014-03-27T09:37:21.421000Z</time>
      </trkpt>
      <trkpt lat="38.818657" lon="121.14804">
        <ele>44.94269</ele>
        <time>2014-03-27T09:37:24.627000Z</time>
      </trkpt>
      <trkpt lat="38.818703" lon="121.14792">
        <ele>52.251514</ele>
        <time>2014-03-27T09:37:27.833000Z</time>
      </trkpt>
      <trkpt lat="38.81873" lon="121.14776">
        <ele>57.480465</ele>
        <time>2014-03-27T09:37:31.039000Z</time>
      </trkpt>
      <trkpt lat="38.818707" lon="121.14758">
        <ele>59.98135</ele>
        <time>2014-03-27T09:37:34.245000Z</time>
      </trkpt>
      <trkpt lat="38.818653" lon="121.14743">
        <ele>59.94995</ele>
        <time>2014-03-27T09:37:37.451000Z</time>
      </trkpt>
      <trkpt lat="38.81858" lon="121.14729">
        <ele>57.62515</ele>
        <time>2014-03-27T09:37:40.657000Z</time>
      </trkpt>
      <trkpt lat="38.81847" lon="121.14721">
        <ele>53.913788</ele>
        <time>2014-03-27T09:37:43.863000Z</time>
      </trkpt>
      <trkpt lat="38.81836" lon="121.14719">
        <ele>50.997356</ele>
        <time>2014-03-27T09:37:47.069000Z</time>
      </trkpt>
      <trkpt lat="38.818253" lon="121.1472">
        <ele>50.759216</ele>
        <time>2014-03-27T09:37:50.275000Z</time>
      </trkpt>
      <trkpt lat="38.818146" lon="121.14722">
        <ele>52.888245</ele>
        <time>2014-03-27T09:37:53.481000Z</time>
      </trkpt>
      <trkpt lat="38.81803" lon="121.14723">
        <ele>56.514664</ele>
        <time>2014-03-27T09:37:56.687000Z</time>
      </trkpt>
      <trkpt lat="38.817936" lon="121.147224">
        <ele>60.6413</ele>
        <time>2014-03-27T09:37:59.893000Z</time>
      </trkpt>
      <trkpt lat="38.817844" lon="121.14722">
        <ele>62.468746</ele>
        <time>2014-03-27T09:38:03.099000Z</time>
      </trkpt>
      <trkpt lat="38.817753" lon="121.14721">
        <ele>60.344425</ele>
        <time>2014-03-27T09:38:06.305000Z</time>
      </trkpt>
      <trkpt lat="38.81766" lon="121.14721">
        <ele>56.553658</ele>
        <time>2014-03-27T09:38:09.511000Z</time>
      </trkpt>
      <trkpt lat="38.817566" lon="121.147194">
        <ele>52.921597</ele>
        <time>2014-03-27T09:38:12.717000Z</time>
      </trkpt>
      <trkpt lat="38.81746" lon="121.147194">
        <ele>49.609745</ele>
        <time>2014-03-27T09:38:15.923000Z</time>
      </trkpt>
      <trkpt lat="38.817368" lon="121.14722">
        <ele>47.570984</ele>
        <time>2014-03-27T09:38:19.129000Z</time>
      </trkpt>
      <trkpt lat="38.81726" lon="121.14727">
        <ele>47.652805</ele>
        <time>2014-03-27T09:38:22.335000Z</time>
      </trkpt>
      <trkpt lat="38.81719" lon="121.14739">
        <ele>49.34597</ele>
        <time>2014-03-27T09:38:25.541000Z</time>
      </trkpt>
      <trkpt lat="38.817154" lon="121.1475">
        <ele>51.421757</ele>
        <time>2014-03-27T09:38:28.747000Z</time>
      </trkpt>
      <trkpt lat="38.81714" lon="121.14761">
        <ele>52.894596</ele>
        <time>2014-03-27T09:38:31.953000Z</time>
      </trkpt>
      <trkpt lat="38.817123" lon="121.147766">
        <ele>53.53669</ele>
        <time>2014-03-27T09:38:35.159000Z</time>
      </trkpt>
      <trkpt lat="38.817123" lon="121.14792">
        <ele>53.575058</ele>
        <time>2014-03-27T09:38:38.365000Z</time>
      </trkpt>
      <trkpt lat="38.81714" lon="121.14806">
        <ele>53.60194</ele>
        <time>2014-03-27T09:38:41.571000Z</time>
      </trkpt>
      <trkpt lat="38.81716" lon="121.1482">
        <ele>54.006874</ele>
        <time>2014-03-27T09:38:44.777000Z</time>
      </trkpt>
      <trkpt lat="38.817223" lon="121.1483">
        <ele>55.58241</ele>
        <time>2014-03-27T09:38:47.983000Z</time>
      </trkpt>
      <trkpt lat="38.817223" lon="121.1483">
        <ele>58.60022</ele>
        <time>2014-03-27T09:38:51.189000Z</time>
      </trkpt>
      <trkpt lat="38.817314" lon="121.14835">
        <ele>61.512653</ele>
        <time>2014-03-27T09:38:54.395000Z</time>
      </trkpt>
      <trkpt lat="38.81741" lon="121.14832">
        <ele>63.967583</ele>
        <time>2014-03-27T09:38:57.601000Z</time>
      </trkpt>
      <trkpt lat="38.817505" lon="121.14832">
        <ele>66.9694</ele>
        <time>2014-03-27T09:39:00.807000Z</time>
      </trkpt>
      <trkpt lat="38.8176" lon="121.14832">
        <ele>68.45608</ele>
        <time>2014-03-27T09:39:04.013000Z</time>
      </trkpt>
      <trkpt lat="38.81771" lon="121.14835">
        <ele>65.67031</ele>
        <time>2014-03-27T09:39:07.219000Z</time>
      </trkpt>
      <trkpt lat="38.817806" lon="121.14837">
        <ele>60.14363</ele>
        <time>2014-03-27T09:39:10.425000Z</time>
      </trkpt>
      <trkpt lat="38.81791" lon="121.14838">
        <ele>55.54433</ele>
        <time>2014-03-27T09:39:13.631000Z</time>
      </trkpt>
      <trkpt lat="38.818" lon="121.14836">
        <ele>52.95825</ele>
        <time>2014-03-27T09:39:16.837000Z</time>
      </trkpt>
      <trkpt lat="38.818092" lon="121.148346">
        <ele>51.019493</ele>
        <time>2014-03-27T09:39:20.043000Z</time>
      </trkpt>
      <trkpt lat="38.818184" lon="121.14835">
        <ele>48.166565</ele>
        <time>2014-03-27T09:39:23.249000Z</time>
      </trkpt>
      <trkpt lat="38.818275" lon="121.14835">
        <ele>44.20069</ele>
        <time>2014-03-27T09:39:26.455000Z</time>
      </trkpt>
      <trkpt lat="38.818275" lon="121.14835">
        <ele>40.683685</ele>
        <time>2014-03-27T09:39:29.661000Z</time>
      </trkpt>
      <trkpt lat="38.818382" lon="121.14835">
        <ele>38.574127</ele>
        <time>2014-03-27T09:39:32.867000Z</time>
      </trkpt>
      <trkpt lat="38.818478" lon="121.148315">
        <ele>38.212177</ele>
        <time>2014-03-27T09:39:36.073000Z</time>
      </trkpt>
      <trkpt lat="38.818554" lon="121.14824">
        <ele>39.858303</ele>
        <time>2014-03-27T09:39:39.279000Z</time>
      </trkpt>
      <trkpt lat="38.81862" lon="121.14814">
        <ele>43.05697</ele>
        <time>2014-03-27T09:39:42.485000Z</time>
      </trkpt>
      <trkpt lat="38.81867" lon="121.14804">
        <ele>48.16327</ele>
        <time>2014-03-27T09:39:45.691000Z</time>
      </trkpt>
      <trkpt lat="38.8187" lon="121.14791">
        <ele>54.66433</ele>
        <time>2014-03-27T09:39:48.897000Z</time>
      </trkpt>
      <trkpt lat="38.81873" lon="121.14777">
        <ele>59.622227</ele>
        <time>2014-03-27T09:39:52.103000Z</time>
      </trkpt>
      <trkpt lat="38.818745" lon="121.14763">
        <ele>61.459686</ele>
        <time>2014-03-27T09:39:55.309000Z</time>
      </trkpt>
      <trkpt lat="38.81872" lon="121.147484">
        <ele>60.774364</ele>
        <time>2014-03-27T09:39:58.515000Z</time>
      </trkpt>
      <trkpt lat="38.818626" lon="121.14735">
        <ele>58.704433</ele>
        <time>2014-03-27T09:40:01.721000Z</time>
      </trkpt>
      <trkpt lat="38.818512" lon="121.14733">
        <ele>56.10897</ele>
        <time>2014-03-27T09:40:04.927000Z</time>
      </trkpt>
      <trkpt lat="38.81839" lon="121.14733">
        <ele>53.464478</ele>
        <time>2014-03-27T09:40:08.133000Z</time>
      </trkpt>
      <trkpt lat="38.818264" lon="121.14734">
        <ele>51.536304</ele>
        <time>2014-03-27T09:40:11.339000Z</time>
      </trkpt>
      <trkpt lat="38.818127" lon="121.14734">
        <ele>50.682457</ele>
        <time>2014-03-27T09:40:14.545000Z</time>
      </trkpt>
      <trkpt lat="38.818024" lon="121.147354">
        <ele>50.40865</ele>
        <time>2014-03-27T09:40:17.751000Z</time>
      </trkpt>
      <trkpt lat="38.817917" lon="121.147354">
        <ele>49.646275</ele>
        <time>2014-03-27T09:40:20.957000Z</time>
      </trkpt>
      <trkpt lat="38.817802" lon="121.14732">
        <ele>47.762768</ele>
        <time>2014-03-27T09:40:24.163000Z</time>
      </trkpt>
      <trkpt lat="38.81771" lon="121.14729">
        <ele>45.62835</ele>
        <time>2014-03-27T09:40:27.369000Z</time>
      </trkpt>
      <trkpt lat="38.81761" lon="121.14728">
        <ele>44.28323</ele>
        <time>2014-03-27T09:40:30.575000Z</time>
      </trkpt>
      <trkpt lat="38.8175" lon="121.14727">
        <ele>43.69049</ele>
        <time>2014-03-27T09:40:33.781000Z</time>
      </trkpt>
      <trkpt lat="38.817398" lon="121.14729">
        <ele>43.579212</ele>
        <time>2014-03-27T09:40:36.987000Z</time>
      </trkpt>
      <trkpt lat="38.817303" lon="121.14732">
        <ele>43.78121</ele>
        <time>2014-03-27T09:40:40.193000Z</time>
      </trkpt>
      <trkpt lat="38.817192" lon="121.1474">
        <ele>45.120003</ele>
        <time>2014-03-27T09:40:43.399000Z</time>
      </trkpt>
      <trkpt lat="38.817116" lon="121.14752">
        <ele>50.55643</ele>
        <time>2014-03-27T09:40:46.605000Z</time>
      </trkpt>
      <trkpt lat="38.817074" lon="121.147675">
        <ele>60.835495</ele>
        <time>2014-03-27T09:40:49.811000Z</time>
      </trkpt>
      <trkpt lat="38.817062" lon="121.147804">
        <ele>71.13763</ele>
        <time>2014-03-27T09:40:53.017000Z</time>
      </trkpt>
      <trkpt lat="38.81708" lon="121.14796">
        <ele>76.95333</ele>
        <time>2014-03-27T09:40:56.223000Z</time>
      </trkpt>
      <trkpt lat="38.817127" lon="121.14812">
        <ele>78.63253</ele>
        <time>2014-03-27T09:40:59.429000Z</time>
      </trkpt>
      <trkpt lat="38.8172" lon="121.14824">
        <ele>77.61029</ele>
        <time>2014-03-27T09:41:02.635000Z</time>
      </trkpt>
      <trkpt lat="38.81729" lon="121.148315">
        <ele>73.91226</ele>
        <time>2014-03-27T09:41:05.841000Z</time>
      </trkpt>
      <trkpt lat="38.81741" lon="121.14836">
        <ele>68.68925</ele>
        <time>2014-03-27T09:41:09.047000Z</time>
      </trkpt>
      <trkpt lat="38.81753" lon="121.14837">
        <ele>64.74093</ele>
        <time>2014-03-27T09:41:12.253000Z</time>
      </trkpt>
      <trkpt lat="38.817646" lon="121.14836">
        <ele>63.01825</ele>
        <time>2014-03-27T09:41:15.459000Z</time>
      </trkpt>
      <trkpt lat="38.817757" lon="121.14837">
        <ele>61.27281</ele>
        <time>2014-03-27T09:41:18.665000Z</time>
      </trkpt>
      <trkpt lat="38.817863" lon="121.14836">
        <ele>57.596474</ele>
        <time>2014-03-27T09:41:21.871000Z</time>
      </trkpt>
      <trkpt lat="38.817978" lon="121.148346">
        <ele>52.631866</ele>
        <time>2014-03-27T09:41:25.077000Z</time>
      </trkpt>
      <trkpt lat="38.81808" lon="121.14835">
        <ele>48.313454</ele>
        <time>2014-03-27T09:41:28.283000Z</time>
      </trkpt>
      <trkpt lat="38.818188" lon="121.14835">
        <ele>45.674755</ele>
        <time>2014-03-27T09:41:31.489000Z</time>
      </trkpt>
      <trkpt lat="38.818287" lon="121.14835">
        <ele>44.485146</ele>
        <time>2014-03-27T09:41:34.695000Z</time>
      </trkpt>
      <trkpt lat="38.81839" lon="121.14835">
        <ele>43.8302</ele>
        <time>2014-03-27T09:41:37.901000Z</time>
      </trkpt>
      <trkpt lat="38.818493" lon="121.14833">
        <ele>42.75698</ele>
        <time>2014-03-27T09:41:41.107000Z</time>
      </trkpt>
      <trkpt lat="38.818596" lon="121.14827">
        <ele>40.90928</ele>
        <time>2014-03-27T09:41:44.313000Z</time>
      </trkpt>
      <trkpt lat="38.818676" lon="121.14819">
        <ele>39.106922</ele>
        <time>2014-03-27T09:41:47.519000Z</time>
      </trkpt>
      <trkpt lat="38.818726" lon="121.148056">
        <ele>38.828487</ele>
        <time>2014-03-27T09:41:50.725000Z</time>
      </trkpt>
      <trkpt lat="38.818752" lon="121.14793">
        <ele>40.888054</ele>
        <time>2014-03-27T09:41:53.931000Z</time>
      </trkpt>
      <trkpt lat="38.818775" lon="121.14778">
        <ele>43.727757</ele>
        <time>2014-03-27T09:41:57.137000Z</time>
      </trkpt>
      <trkpt lat="38.818752" lon="121.14763">
        <ele>45.45067</ele>
        <time>2014-03-27T09:42:00.343000Z</time>
      </trkpt>
      <trkpt lat="38.818676" lon="121.14752">
        <ele>46.2019</ele>
        <time>2014-03-27T09:42:03.549000Z</time>
      </trkpt>
      <trkpt lat="38.81858" lon="121.14744">
        <ele>46.521973</ele>
        <time>2014-03-27T09:42:06.755000Z</time>
      </trkpt>
      <trkpt lat="38.818466" lon="121.14739">
        <ele>46.310177</ele>
        <time>2014-03-27T09:42:09.961000Z</time>
      </trkpt>
      <trkpt lat="38.81835" lon="121.147385">
        <ele>45.551796</ele>
        <time>2014-03-27T09:42:13.167000Z</time>
      </trkpt>
      <trkpt lat="38.818253" lon="121.147385">
        <ele>44.46044</ele>
        <time>2014-03-27T09:42:16.373000Z</time>
      </trkpt>
      <trkpt lat="38.818146" lon="121.14738">
        <ele>43.489708</ele>
        <time>2014-03-27T09:42:19.579000Z</time>
      </trkpt>
      <trkpt lat="38.81804" lon="121.14735">
        <ele>42.851147</ele>
        <time>2014-03-27T09:42:22.785000Z</time>
      </trkpt>
      <trkpt lat="38.817932" lon="121.147316">
        <ele>42.70335</ele>
        <time>2014-03-27T09:42:25.991000Z</time>
      </trkpt>
      <trkpt lat="38.81783" lon="121.14729">
        <ele>43.079063</ele>
        <time>2014-03-27T09:42:29.197000Z</time>
      </trkpt>
      <trkpt lat="38.81773" lon="121.147285">
        <ele>43.84836</ele>
        <time>2014-03-27T09:42:32.403000Z</time>
      </trkpt>
      <trkpt lat="38.817627" lon="121.14727">
        <ele>45.136135</ele>
        <time>2014-03-27T09:42:35.609000Z</time>
      </trkpt>
      <trkpt lat="38.81751" lon="121.14728">
        <ele>47.207508</ele>
        <time>2014-03-27T09:42:38.815000Z</time>
      </trkpt>
      <trkpt lat="38.8174" lon="121.1473">
        <ele>49.710415</ele>
        <time>2014-03-27T09:42:42.021000Z</time>
      </trkpt>
      <trkpt lat="38.81731" lon="121.14734">
        <ele>52.2201</ele>
        <time>2014-03-27T09:42:45.227000Z</time>
      </trkpt>
      <trkpt lat="38.817215" lon="121.14743">
        <ele>55.06145</ele>
        <time>2014-03-27T09:42:48.433000Z</time>
      </trkpt>
      <trkpt lat="38.81715" lon="121.14754">
        <ele>58.86423</ele>
        <time>2014-03-27T09:42:51.639000Z</time>
      </trkpt>
      <trkpt lat="38.817116" lon="121.147675">
        <ele>63.245575</ele>
        <time>2014-03-27T09:42:54.845000Z</time>
      </trkpt>
      <trkpt lat="38.8171" lon="121.14783">
        <ele>66.79937</ele>
        <time>2014-03-27T09:42:58.051000Z</time>
      </trkpt>
      <trkpt lat="38.817097" lon="121.14797">
        <ele>68.41379</ele>
        <time>2014-03-27T09:43:01.257000Z</time>
      </trkpt>
      <trkpt lat="38.81714" lon="121.148125">
        <ele>68.360634</ele>
        <time>2014-03-27T09:43:04.463000Z</time>
      </trkpt>
      <trkpt lat="38.817207" lon="121.14823">
        <ele>67.569725</ele>
        <time>2014-03-27T09:43:07.669000Z</time>
      </trkpt>
      <trkpt lat="38.817295" lon="121.14831">
        <ele>66.86507</ele>
        <time>2014-03-27T09:43:10.875000Z</time>
      </trkpt>
      <trkpt lat="38.81739" lon="121.148346">
        <ele>66.68697</ele>
        <time>2014-03-27T09:43:14.081000Z</time>
      </trkpt>
      <trkpt lat="38.8175" lon="121.14835">
        <ele>66.94698</ele>
        <time>2014-03-27T09:43:17.287000Z</time>
      </trkpt>
      <trkpt lat="38.817616" lon="121.14835">
        <ele>67.25268</ele>
        <time>2014-03-27T09:43:20.493000Z</time>
      </trkpt>
      <trkpt lat="38.817722" lon="121.14836">
        <ele>67.02562</ele>
        <time>2014-03-27T09:43:23.699000Z</time>
      </trkpt>
      <trkpt lat="38.817837" lon="121.14837">
        <ele>65.289635</ele>
        <time>2014-03-27T09:43:26.905000Z</time>
      </trkpt>
      <trkpt lat="38.817932" lon="121.14838">
        <ele>62.064804</ele>
        <time>2014-03-27T09:43:30.111000Z</time>
      </trkpt>
      <trkpt lat="38.81803" lon="121.14838">
        <ele>58.50673</ele>
        <time>2014-03-27T09:43:33.317000Z</time>
      </trkpt>
      <trkpt lat="38.818127" lon="121.148384">
        <ele>55.47587</ele>
        <time>2014-03-27T09:43:36.523000Z</time>
      </trkpt>
      <trkpt lat="38.818226" lon="121.148384">
        <ele>53.181118</ele>
        <time>2014-03-27T09:43:39.729000Z</time>
      </trkpt>
      <trkpt lat="38.81834" lon="121.14838">
        <ele>51.507824</ele>
        <time>2014-03-27T09:43:42.935000Z</time>
      </trkpt>
      <trkpt lat="38.818428" lon="121.14834">
        <ele>50.168957</ele>
        <time>2014-03-27T09:43:46.141000Z</time>
      </trkpt>
      <trkpt lat="38.818527" lon="121.148285">
        <ele>49.19008</ele>
        <time>2014-03-27T09:43:49.347000Z</time>
      </trkpt>
      <trkpt lat="38.818623" lon="121.14821">
        <ele>48.647846</ele>
        <time>2014-03-27T09:43:52.553000Z</time>
      </trkpt>
      <trkpt lat="38.81871" lon="121.148094">
        <ele>48.4891</ele>
        <time>2014-03-27T09:43:55.759000Z</time>
      </trkpt>
      <trkpt lat="38.81875" lon="121.14796">
        <ele>48.54346</ele>
        <time>2014-03-27T09:43:58.965000Z</time>
      </trkpt>
      <trkpt lat="38.818768" lon="121.14783">
        <ele>48.12044</ele>
        <time>2014-03-27T09:44:02.171000Z</time>
      </trkpt>
      <trkpt lat="38.818764" lon="121.14771">
        <ele>47.14482</ele>
        <time>2014-03-27T09:44:05.377000Z</time>
      </trkpt>
      <trkpt lat="38.818726" lon="121.14759">
        <ele>46.631577</ele>
        <time>2014-03-27T09:44:08.583000Z</time>
      </trkpt>
      <trkpt lat="38.818638" lon="121.147484">
        <ele>47.298115</ele>
        <time>2014-03-27T09:44:11.789000Z</time>
      </trkpt>
      <trkpt lat="38.818523" lon="121.14741">
        <ele>48.780983</ele>
        <time>2014-03-27T09:44:14.995000Z</time>
      </trkpt>
      <trkpt lat="38.818394" lon="121.14738">
        <ele>50.171223</ele>
        <time>2014-03-27T09:44:18.201000Z</time>
      </trkpt>
      <trkpt lat="38.818275" lon="121.14738">
        <ele>50.800797</ele>
        <time>2014-03-27T09:44:21.407000Z</time>
      </trkpt>
      <trkpt lat="38.81817" lon="121.14737">
        <ele>50.821693</ele>
        <time>2014-03-27T09:44:24.613000Z</time>
      </trkpt>
      <trkpt lat="38.81805" lon="121.14737">
        <ele>50.368942</ele>
        <time>2014-03-27T09:44:27.819000Z</time>
      </trkpt>
      <trkpt lat="38.817944" lon="121.147354">
        <ele>49.461277</ele>
        <time>2014-03-27T09:44:31.025000Z</time>
      </trkpt>
      <trkpt lat="38.81785" lon="121.147354">
        <ele>48.42062</ele>
        <time>2014-03-27T09:44:34.231000Z</time>
      </trkpt>
      <trkpt lat="38.817738" lon="121.147354">
        <ele>47.64621</ele>
        <time>2014-03-27T09:44:37.437000Z</time>
      </trkpt>
      <trkpt lat="38.817623" lon="121.14733">
        <ele>46.97646</ele>
        <time>2014-03-27T09:44:40.643000Z</time>
      </trkpt>
      <trkpt lat="38.817524" lon="121.14732">
        <ele>46.135666</ele>
        <time>2014-03-27T09:44:43.849000Z</time>
      </trkpt>
      <trkpt lat="38.81743" lon="121.14733">
        <ele>45.40969</ele>
        <time>2014-03-27T09:44:47.055000Z</time>
      </trkpt>
      <trkpt lat="38.817226" lon="121.14823">
        <ele>60.243744</ele>
        <time>2014-03-27T09:44:50.261000Z</time>
      </trkpt>
      <trkpt lat="38.817226" lon="121.14823">
        <ele>60.220966</ele>
        <time>2014-03-27T09:44:53.467000Z</time>
      </trkpt>
      <trkpt lat="38.817333" lon="121.14827">
        <ele>58.608562</ele>
        <time>2014-03-27T09:44:56.673000Z</time>
      </trkpt>
      <trkpt lat="38.817356" lon="121.14828">
        <ele>54.198143</ele>
        <time>2014-03-27T09:44:59.879000Z</time>
      </trkpt>
      <trkpt lat="38.81745" lon="121.14833">
        <ele>49.270374</ele>
        <time>2014-03-27T09:45:03.085000Z</time>
      </trkpt>
      <trkpt lat="38.81745" lon="121.14833">
        <ele>46.89108</ele>
        <time>2014-03-27T09:45:06.291000Z</time>
      </trkpt>
      <trkpt lat="38.81755" lon="121.14837">
        <ele>47.355602</ele>
        <time>2014-03-27T09:45:09.497000Z</time>
      </trkpt>
      <trkpt lat="38.817665" lon="121.14839">
        <ele>49.56549</ele>
        <time>2014-03-27T09:45:12.703000Z</time>
      </trkpt>
      <trkpt lat="38.817776" lon="121.148384">
        <ele>52.09843</ele>
        <time>2014-03-27T09:45:15.909000Z</time>
      </trkpt>
      <trkpt lat="38.817867" lon="121.14838">
        <ele>53.282066</ele>
        <time>2014-03-27T09:45:19.115000Z</time>
      </trkpt>
      <trkpt lat="38.817966" lon="121.148384">
        <ele>52.362007</ele>
        <time>2014-03-27T09:45:22.321000Z</time>
      </trkpt>
      <trkpt lat="38.818073" lon="121.148384">
        <ele>50.33391</ele>
        <time>2014-03-27T09:45:25.527000Z</time>
      </trkpt>
      <trkpt lat="38.818188" lon="121.148384">
        <ele>48.20915</ele>
        <time>2014-03-27T09:45:28.733000Z</time>
      </trkpt>
      <trkpt lat="38.818295" lon="121.148384">
        <ele>46.390366</ele>
        <time>2014-03-27T09:45:31.939000Z</time>
      </trkpt>
      <trkpt lat="38.8184" lon="121.148384">
        <ele>45.311657</ele>
        <time>2014-03-27T09:45:35.145000Z</time>
      </trkpt>
      <trkpt lat="38.818516" lon="121.14832">
        <ele>44.72832</ele>
        <time>2014-03-27T09:45:38.351000Z</time>
      </trkpt>
      <trkpt lat="38.818604" lon="121.148254">
        <ele>43.504356</ele>
        <time>2014-03-27T09:45:41.557000Z</time>
      </trkpt>
      <trkpt lat="38.81868" lon="121.14815">
        <ele>41.4322</ele>
        <time>2014-03-27T09:45:44.763000Z</time>
      </trkpt>
      <trkpt lat="38.818718" lon="121.148026">
        <ele>40.729</ele>
        <time>2014-03-27T09:45:47.969000Z</time>
      </trkpt>
      <trkpt lat="38.81874" lon="121.14791">
        <ele>42.92058</ele>
        <time>2014-03-27T09:45:51.175000Z</time>
      </trkpt>
      <trkpt lat="38.81874" lon="121.1478">
        <ele>46.192574</ele>
        <time>2014-03-27T09:45:54.381000Z</time>
      </trkpt>
      <trkpt lat="38.818733" lon="121.147675">
        <ele>48.521355</ele>
        <time>2014-03-27T09:45:57.587000Z</time>
      </trkpt>
      <trkpt lat="38.818676" lon="121.14754">
        <ele>49.80746</ele>
        <time>2014-03-27T09:46:00.793000Z</time>
      </trkpt>
      <trkpt lat="38.81859" lon="121.147446">
        <ele>50.31478</ele>
        <time>2014-03-27T09:46:03.999000Z</time>
      </trkpt>
      <trkpt lat="38.81847" lon="121.147415">
        <ele>50.04569</ele>
        <time>2014-03-27T09:46:07.205000Z</time>
      </trkpt>
      <trkpt lat="38.81837" lon="121.1474">
        <ele>48.821526</ele>
        <time>2014-03-27T09:46:10.411000Z</time>
      </trkpt>
      <trkpt lat="38.818264" lon="121.14738">
        <ele>46.99797</ele>
        <time>2014-03-27T09:46:13.617000Z</time>
      </trkpt>
      <trkpt lat="38.818157" lon="121.147354">
        <ele>45.582893</ele>
        <time>2014-03-27T09:46:16.823000Z</time>
      </trkpt>
      <trkpt lat="38.818066" lon="121.14732">
        <ele>44.862495</ele>
        <time>2014-03-27T09:46:20.029000Z</time>
      </trkpt>
      <trkpt lat="38.817966" lon="121.14731">
        <ele>44.39814</ele>
        <time>2014-03-27T09:46:23.235000Z</time>
      </trkpt>
      <trkpt lat="38.81785" lon="121.1473">
        <ele>44.262848</ele>
        <time>2014-03-27T09:46:26.441000Z</time>
      </trkpt>
      <trkpt lat="38.817753" lon="121.1473">
        <ele>45.231293</ele>
        <time>2014-03-27T09:46:29.647000Z</time>
      </trkpt>
      <trkpt lat="38.817654" lon="121.14729">
        <ele>47.421406</ele>
        <time>2014-03-27T09:46:32.853000Z</time>
      </trkpt>
      <trkpt lat="38.81755" lon="121.14729">
        <ele>49.637756</ele>
        <time>2014-03-27T09:46:36.059000Z</time>
      </trkpt>
      <trkpt lat="38.817448" lon="121.14731">
        <ele>50.814953</ele>
        <time>2014-03-27T09:46:39.265000Z</time>
      </trkpt>
      <trkpt lat="38.817356" lon="121.14734">
        <ele>51.058395</ele>
        <time>2014-03-27T09:46:42.471000Z</time>
      </trkpt>
      <trkpt lat="38.817276" lon="121.147415">
        <ele>50.843678</ele>
        <time>2014-03-27T09:46:45.677000Z</time>
      </trkpt>
      <trkpt lat="38.817204" lon="121.14755">
        <ele>50.401306</ele>
        <time>2014-03-27T09:46:48.883000Z</time>
      </trkpt>
      <trkpt lat="38.81717" lon="121.14768">
        <ele>49.862343</ele>
        <time>2014-03-27T09:46:52.089000Z</time>
      </trkpt>
      <trkpt lat="38.817154" lon="121.14781">
        <ele>49.84302</ele>
        <time>2014-03-27T09:46:55.295000Z</time>
      </trkpt>
      <trkpt lat="38.81716" lon="121.14797">
        <ele>50.871582</ele>
        <time>2014-03-27T09:46:58.501000Z</time>
      </trkpt>
      <trkpt lat="38.817196" lon="121.14808">
        <ele>52.42322</ele>
        <time>2014-03-27T09:47:01.707000Z</time>
      </trkpt>
      <trkpt lat="38.817253" lon="121.14818">
        <ele>53.575626</ele>
        <time>2014-03-27T09:47:04.913000Z</time>
      </trkpt>
      <trkpt lat="38.817314" lon="121.14826">
        <ele>53.370773</ele>
        <time>2014-03-27T09:47:08.119000Z</time>
      </trkpt>
      <trkpt lat="38.817394" lon="121.148315">
        <ele>51.413334</ele>
        <time>2014-03-27T09:47:11.325000Z</time>
      </trkpt>
      <trkpt lat="38.81749" lon="121.14835">
        <ele>49.13653</ele>
        <time>2014-03-27T09:47:14.531000Z</time>
      </trkpt>
      <trkpt lat="38.8176" lon="121.14835">
        <ele>48.619804</ele>
        <time>2014-03-27T09:47:17.737000Z</time>
      </trkpt>
      <trkpt lat="38.81771" lon="121.14836">
        <ele>49.971966</ele>
        <time>2014-03-27T09:47:20.943000Z</time>
      </trkpt>
      <trkpt lat="38.8178" lon="121.14837">
        <ele>51.620674</ele>
        <time>2014-03-27T09:47:24.149000Z</time>
      </trkpt>
      <trkpt lat="38.8179" lon="121.148384">
        <ele>52.083237</ele>
        <time>2014-03-27T09:47:27.355000Z</time>
      </trkpt>
      <trkpt lat="38.817993" lon="121.14839">
        <ele>51.168526</ele>
        <time>2014-03-27T09:47:30.561000Z</time>
      </trkpt>
      <trkpt lat="38.8181" lon="121.14839">
        <ele>49.555023</ele>
        <time>2014-03-27T09:47:33.767000Z</time>
      </trkpt>
      <trkpt lat="38.818222" lon="121.148384">
        <ele>48.01394</ele>
        <time>2014-03-27T09:47:36.973000Z</time>
      </trkpt>
      <trkpt lat="38.81834" lon="121.14841">
        <ele>47.615654</ele>
        <time>2014-03-27T09:47:40.179000Z</time>
      </trkpt>
      <trkpt lat="38.81846" lon="121.148415">
        <ele>48.81406</ele>
        <time>2014-03-27T09:47:43.385000Z</time>
      </trkpt>
      <trkpt lat="38.818554" lon="121.14838">
        <ele>50.536957</ele>
        <time>2014-03-27T09:47:46.591000Z</time>
      </trkpt>
      <trkpt lat="38.818645" lon="121.14831">
        <ele>51.74435</ele>
        <time>2014-03-27T09:47:49.797000Z</time>
      </trkpt>
      <trkpt lat="38.818707" lon="121.14821">
        <ele>52.494724</ele>
        <time>2014-03-27T09:47:53.003000Z</time>
      </trkpt>
      <trkpt lat="38.81875" lon="121.14808">
        <ele>53.07924</ele>
        <time>2014-03-27T09:47:56.209000Z</time>
      </trkpt>
      <trkpt lat="38.818768" lon="121.14795">
        <ele>53.33929</ele>
        <time>2014-03-27T09:47:59.415000Z</time>
      </trkpt>
      <trkpt lat="38.818768" lon="121.14782">
        <ele>52.76741</ele>
        <time>2014-03-27T09:48:02.621000Z</time>
      </trkpt>
      <trkpt lat="38.818756" lon="121.14769">
        <ele>51.54483</ele>
        <time>2014-03-27T09:48:05.827000Z</time>
      </trkpt>
      <trkpt lat="38.81871" lon="121.14757">
        <ele>50.00185</ele>
        <time>2014-03-27T09:48:09.033000Z</time>
      </trkpt>
      <trkpt lat="38.81864" lon="121.147484">
        <ele>48.127537</ele>
        <time>2014-03-27T09:48:12.239000Z</time>
      </trkpt>
      <trkpt lat="38.81856" lon="121.147415">
        <ele>46.372513</ele>
        <time>2014-03-27T09:48:15.445000Z</time>
      </trkpt>
      <trkpt lat="38.81846" lon="121.14737">
        <ele>45.425518</ele>
        <time>2014-03-27T09:48:18.651000Z</time>
      </trkpt>
      <trkpt lat="38.81835" lon="121.14735">
        <ele>45.480293</ele>
        <time>2014-03-27T09:48:21.857000Z</time>
      </trkpt>
      <trkpt lat="38.818245" lon="121.14733">
        <ele>46.688385</ele>
        <time>2014-03-27T09:48:25.063000Z</time>
      </trkpt>
      <trkpt lat="38.818146" lon="121.14734">
        <ele>48.594185</ele>
        <time>2014-03-27T09:48:28.269000Z</time>
      </trkpt>
      <trkpt lat="38.818054" lon="121.14732">
        <ele>49.76311</ele>
        <time>2014-03-27T09:48:31.475000Z</time>
      </trkpt>
      <trkpt lat="38.817947" lon="121.14731">
        <ele>48.92538</ele>
        <time>2014-03-27T09:48:34.681000Z</time>
      </trkpt>
      <trkpt lat="38.81785" lon="121.14731">
        <ele>46.507202</ele>
        <time>2014-03-27T09:48:37.887000Z</time>
      </trkpt>
      <trkpt lat="38.817726" lon="121.14731">
        <ele>44.043217</ele>
        <time>2014-03-27T09:48:41.093000Z</time>
      </trkpt>
      <trkpt lat="38.817627" lon="121.14731">
        <ele>42.46757</ele>
        <time>2014-03-27T09:48:44.299000Z</time>
      </trkpt>
      <trkpt lat="38.817528" lon="121.1473">
        <ele>41.983406</ele>
        <time>2014-03-27T09:48:47.505000Z</time>
      </trkpt>
      <trkpt lat="38.817425" lon="121.14733">
        <ele>43.191093</ele>
        <time>2014-03-27T09:48:50.711000Z</time>
      </trkpt>
      <trkpt lat="38.81733" lon="121.14739">
        <ele>45.866165</ele>
        <time>2014-03-27T09:48:53.917000Z</time>
      </trkpt>
      <trkpt lat="38.817265" lon="121.147484">
        <ele>48.14918</ele>
        <time>2014-03-27T09:48:57.123000Z</time>
      </trkpt>
      <trkpt lat="38.81721" lon="121.14761">
        <ele>48.80063</ele>
        <time>2014-03-27T09:49:00.329000Z</time>
      </trkpt>
      <trkpt lat="38.817173" lon="121.14774">
        <ele>48.897743</ele>
        <time>2014-03-27T09:49:03.535000Z</time>
      </trkpt>
      <trkpt lat="38.817165" lon="121.14787">
        <ele>49.565754</ele>
        <time>2014-03-27T09:49:06.741000Z</time>
      </trkpt>
      <trkpt lat="38.817177" lon="121.14801">
        <ele>50.02438</ele>
        <time>2014-03-27T09:49:09.947000Z</time>
      </trkpt>
      <trkpt lat="38.81722" lon="121.14815">
        <ele>49.368645</ele>
        <time>2014-03-27T09:49:13.153000Z</time>
      </trkpt>
      <trkpt lat="38.817272" lon="121.14825">
        <ele>48.4931</ele>
        <time>2014-03-27T09:49:16.359000Z</time>
      </trkpt>
      <trkpt lat="38.817383" lon="121.14833">
        <ele>48.695034</ele>
        <time>2014-03-27T09:49:19.565000Z</time>
      </trkpt>
      <trkpt lat="38.817482" lon="121.14836">
        <ele>50.028957</ele>
        <time>2014-03-27T09:49:22.771000Z</time>
      </trkpt>
      <trkpt lat="38.817577" lon="121.14837">
        <ele>51.420353</ele>
        <time>2014-03-27T09:49:25.977000Z</time>
      </trkpt>
      <trkpt lat="38.817688" lon="121.14838">
        <ele>52.106667</ele>
        <time>2014-03-27T09:49:29.183000Z</time>
      </trkpt>
      <trkpt lat="38.81779" lon="121.14837">
        <ele>52.163223</ele>
        <time>2014-03-27T09:49:32.389000Z</time>
      </trkpt>
      <trkpt lat="38.8179" lon="121.14837">
        <ele>51.81434</ele>
        <time>2014-03-27T09:49:35.595000Z</time>
      </trkpt>
      <trkpt lat="38.818016" lon="121.14835">
        <ele>51.356567</ele>
        <time>2014-03-27T09:49:38.801000Z</time>
      </trkpt>
      <trkpt lat="38.818127" lon="121.14836">
        <ele>50.678474</ele>
        <time>2014-03-27T09:49:42.007000Z</time>
      </trkpt>
      <trkpt lat="38.818233" lon="121.14838">
        <ele>49.677223</ele>
        <time>2014-03-27T09:49:45.213000Z</time>
      </trkpt>
      <trkpt lat="38.818348" lon="121.148384">
        <ele>49.019398</ele>
        <time>2014-03-27T09:49:48.419000Z</time>
      </trkpt>
      <trkpt lat="38.818455" lon="121.14837">
        <ele>49.469246</ele>
        <time>2014-03-27T09:49:51.625000Z</time>
      </trkpt>
      <trkpt lat="38.818558" lon="121.148315">
        <ele>50.890087</ele>
        <time>2014-03-27T09:49:54.831000Z</time>
      </trkpt>
      <trkpt lat="38.81864" lon="121.148224">
        <ele>52.70715</ele>
        <time>2014-03-27T09:49:58.037000Z</time>
      </trkpt>
      <trkpt lat="38.818695" lon="121.14812">
        <ele>54.38501</ele>
        <time>2014-03-27T09:50:01.243000Z</time>
      </trkpt>
      <trkpt lat="38.81873" lon="121.147995">
        <ele>55.16939</ele>
        <time>2014-03-27T09:50:04.449000Z</time>
      </trkpt>
      <trkpt lat="38.818756" lon="121.147865">
        <ele>54.23675</ele>
        <time>2014-03-27T09:50:07.655000Z</time>
      </trkpt>
      <trkpt lat="38.81874" lon="121.14772">
        <ele>52.2074</ele>
        <time>2014-03-27T09:50:10.861000Z</time>
      </trkpt>
      <trkpt lat="38.818714" lon="121.147606">
        <ele>50.343445</ele>
        <time>2014-03-27T09:50:14.067000Z</time>
      </trkpt>
      <trkpt lat="38.818665" lon="121.1475">
        <ele>48.93714</ele>
        <time>2014-03-27T09:50:17.273000Z</time>
      </trkpt>
      <trkpt lat="38.818577" lon="121.147446">
        <ele>47.263557</ele>
        <time>2014-03-27T09:50:20.479000Z</time>
      </trkpt>
      <trkpt lat="38.818485" lon="121.14741">
        <ele>45.06271</ele>
        <time>2014-03-27T09:50:23.685000Z</time>
      </trkpt>
      <trkpt lat="38.818367" lon="121.14738">
        <ele>42.880344</ele>
        <time>2014-03-27T09:50:26.891000Z</time>
      </trkpt>
      <trkpt lat="38.818264" lon="121.14735">
        <ele>41.302734</ele>
        <time>2014-03-27T09:50:30.097000Z</time>
      </trkpt>
      <trkpt lat="38.818142" lon="121.14732">
        <ele>41.03343</ele>
        <time>2014-03-27T09:50:33.303000Z</time>
      </trkpt>
      <trkpt lat="38.81804" lon="121.147316">
        <ele>42.27699</ele>
        <time>2014-03-27T09:50:36.509000Z</time>
      </trkpt>
      <trkpt lat="38.81792" lon="121.14729">
        <ele>44.16106</ele>
        <time>2014-03-27T09:50:39.715000Z</time>
      </trkpt>
      <trkpt lat="38.817825" lon="121.147285">
        <ele>45.824497</ele>
        <time>2014-03-27T09:50:42.920000Z</time>
      </trkpt>
      <trkpt lat="38.817726" lon="121.14726">
        <ele>46.756176</ele>
        <time>2014-03-27T09:50:46.125000Z</time>
      </trkpt>
      <trkpt lat="38.817623" lon="121.147255">
        <ele>46.633717</ele>
        <time>2014-03-27T09:50:49.330000Z</time>
      </trkpt>
      <trkpt lat="38.81751" lon="121.14726">
        <ele>45.872326</ele>
        <time>2014-03-27T09:50:52.535000Z</time>
      </trkpt>
      <trkpt lat="38.81742" lon="121.14729">
        <ele>45.93013</ele>
        <time>2014-03-27T09:50:55.740000Z</time>
      </trkpt>
      <trkpt lat="38.817337" lon="121.14736">
        <ele>47.597652</ele>
        <time>2014-03-27T09:50:58.945000Z</time>
      </trkpt>
      <trkpt lat="38.81725" lon="121.147446">
        <ele>49.286736</ele>
        <time>2014-03-27T09:51:02.150000Z</time>
      </trkpt>
      <trkpt lat="38.817192" lon="121.14756">
        <ele>49.393238</ele>
        <time>2014-03-27T09:51:05.355000Z</time>
      </trkpt>
      <trkpt lat="38.817165" lon="121.14768">
        <ele>48.465363</ele>
        <time>2014-03-27T09:51:08.560000Z</time>
      </trkpt>
      <trkpt lat="38.81715" lon="121.14782">
        <ele>47.730972</ele>
        <time>2014-03-27T09:51:11.765000Z</time>
      </trkpt>
      <trkpt lat="38.817158" lon="121.14795">
        <ele>47.702923</ele>
        <time>2014-03-27T09:51:14.970000Z</time>
      </trkpt>
      <trkpt lat="38.817173" lon="121.14806">
        <ele>48.269764</ele>
        <time>2014-03-27T09:51:18.175000Z</time>
      </trkpt>
      <trkpt lat="38.81722" lon="121.14817">
        <ele>49.22259</ele>
        <time>2014-03-27T09:51:21.380000Z</time>
      </trkpt>
      <trkpt lat="38.81729" lon="121.14826">
        <ele>50.22903</ele>
        <time>2014-03-27T09:51:24.585000Z</time>
      </trkpt>
      <trkpt lat="38.817375" lon="121.14834">
        <ele>50.735718</ele>
        <time>2014-03-27T09:51:27.790000Z</time>
      </trkpt>
      <trkpt lat="38.81747" lon="121.14838">
        <ele>50.587345</ele>
        <time>2014-03-27T09:51:30.995000Z</time>
      </trkpt>
      <trkpt lat="38.81758" lon="121.14838">
        <ele>50.243587</ele>
        <time>2014-03-27T09:51:34.200000Z</time>
      </trkpt>
      <trkpt lat="38.81768" lon="121.148384">
        <ele>50.107304</ele>
        <time>2014-03-27T09:51:37.405000Z</time>
      </trkpt>
      <trkpt lat="38.817787" lon="121.14839">
        <ele>49.951233</ele>
        <time>2014-03-27T09:51:40.610000Z</time>
      </trkpt>
      <trkpt lat="38.817886" lon="121.148384">
        <ele>49.230297</ele>
        <time>2014-03-27T09:51:43.815000Z</time>
      </trkpt>
      <trkpt lat="38.81799" lon="121.14836">
        <ele>48.01602</ele>
        <time>2014-03-27T09:51:47.020000Z</time>
      </trkpt>
      <trkpt lat="38.818108" lon="121.14836">
        <ele>47.168102</ele>
        <time>2014-03-27T09:51:50.225000Z</time>
      </trkpt>
      <trkpt lat="38.818207" lon="121.14836">
        <ele>47.21847</ele>
        <time>2014-03-27T09:51:53.430000Z</time>
      </trkpt>
      <trkpt lat="38.81832" lon="121.14837">
        <ele>48.080486</ele>
        <time>2014-03-27T09:51:56.635000Z</time>
      </trkpt>
      <trkpt lat="38.818417" lon="121.14837">
        <ele>49.3636</ele>
        <time>2014-03-27T09:51:59.840000Z</time>
      </trkpt>
      <trkpt lat="38.818504" lon="121.14834">
        <ele>50.424877</ele>
        <time>2014-03-27T09:52:03.045000Z</time>
      </trkpt>
      <trkpt lat="38.818596" lon="121.14828">
        <ele>51.10367</ele>
        <time>2014-03-27T09:52:06.250000Z</time>
      </trkpt>
      <trkpt lat="38.81867" lon="121.148186">
        <ele>51.80054</ele>
        <time>2014-03-27T09:52:09.455000Z</time>
      </trkpt>
      <trkpt lat="38.81871" lon="121.14807">
        <ele>52.597614</ele>
        <time>2014-03-27T09:52:12.660000Z</time>
      </trkpt>
      <trkpt lat="38.818733" lon="121.14795">
        <ele>53.257175</ele>
        <time>2014-03-27T09:52:15.865000Z</time>
      </trkpt>
      <trkpt lat="38.818756" lon="121.14781">
        <ele>53.4032</ele>
        <time>2014-03-27T09:52:19.070000Z</time>
      </trkpt>
      <trkpt lat="38.818737" lon="121.14768">
        <ele>52.862343</ele>
        <time>2014-03-27T09:52:22.275000Z</time>
      </trkpt>
      <trkpt lat="38.818687" lon="121.14755">
        <ele>51.723362</ele>
        <time>2014-03-27T09:52:25.480000Z</time>
      </trkpt>
      <trkpt lat="38.81862" lon="121.14747">
        <ele>50.286976</ele>
        <time>2014-03-27T09:52:28.685000Z</time>
      </trkpt>
      <trkpt lat="38.818527" lon="121.14742">
        <ele>48.604645</ele>
        <time>2014-03-27T09:52:31.890000Z</time>
      </trkpt>
      <trkpt lat="38.818413" lon="121.1474">
        <ele>46.597984</ele>
        <time>2014-03-27T09:52:35.095000Z</time>
      </trkpt>
      <trkpt lat="38.818302" lon="121.14738">
        <ele>44.802486</ele>
        <time>2014-03-27T09:52:38.300000Z</time>
      </trkpt>
      <trkpt lat="38.818184" lon="121.147354">
        <ele>44.0419</ele>
        <time>2014-03-27T09:52:41.505000Z</time>
      </trkpt>
      <trkpt lat="38.81807" lon="121.14732">
        <ele>44.21872</ele>
        <time>2014-03-27T09:52:44.710000Z</time>
      </trkpt>
      <trkpt lat="38.817966" lon="121.1473">
        <ele>44.783283</ele>
        <time>2014-03-27T09:52:47.915000Z</time>
      </trkpt>
      <trkpt lat="38.81786" lon="121.14729">
        <ele>45.293148</ele>
        <time>2014-03-27T09:52:51.120000Z</time>
      </trkpt>
      <trkpt lat="38.81777" lon="121.14728">
        <ele>45.581055</ele>
        <time>2014-03-27T09:52:54.325000Z</time>
      </trkpt>
      <trkpt lat="38.817677" lon="121.14728">
        <ele>45.64856</ele>
        <time>2014-03-27T09:52:57.530000Z</time>
      </trkpt>
      <trkpt lat="38.817554" lon="121.14728">
        <ele>45.305756</ele>
        <time>2014-03-27T09:53:00.735000Z</time>
      </trkpt>
      <trkpt lat="38.817463" lon="121.147285">
        <ele>44.24154</ele>
        <time>2014-03-27T09:53:03.940000Z</time>
      </trkpt>
      <trkpt lat="38.817375" lon="121.14733">
        <ele>42.83269</ele>
        <time>2014-03-27T09:53:07.145000Z</time>
      </trkpt>
      <trkpt lat="38.817303" lon="121.1474">
        <ele>42.49255</ele>
        <time>2014-03-27T09:53:10.350000Z</time>
      </trkpt>
      <trkpt lat="38.817234" lon="121.14751">
        <ele>43.90383</ele>
        <time>2014-03-27T09:53:13.555000Z</time>
      </trkpt>
      <trkpt lat="38.817184" lon="121.14763">
        <ele>46.17979</ele>
        <time>2014-03-27T09:53:16.760000Z</time>
      </trkpt>
      <trkpt lat="38.81716" lon="121.14775">
        <ele>48.261093</ele>
        <time>2014-03-27T09:53:19.965000Z</time>
      </trkpt>
      <trkpt lat="38.817154" lon="121.14788">
        <ele>50.239605</ele>
        <time>2014-03-27T09:53:23.170000Z</time>
      </trkpt>
      <trkpt lat="38.817173" lon="121.148026">
        <ele>52.33656</ele>
        <time>2014-03-27T09:53:26.375000Z</time>
      </trkpt>
      <trkpt lat="38.81721" lon="121.14816">
        <ele>53.968857</ele>
        <time>2014-03-27T09:53:29.580000Z</time>
      </trkpt>
      <trkpt lat="38.817272" lon="121.14826">
        <ele>54.393356</ele>
        <time>2014-03-27T09:53:32.785000Z</time>
      </trkpt>
      <trkpt lat="38.817345" lon="121.148346">
        <ele>53.89116</ele>
        <time>2014-03-27T09:53:35.990000Z</time>
      </trkpt>
      <trkpt lat="38.81744" lon="121.148384">
        <ele>53.10435</ele>
        <time>2014-03-27T09:53:39.195000Z</time>
      </trkpt>
      <trkpt lat="38.81754" lon="121.14839">
        <ele>52.555923</ele>
        <time>2014-03-27T09:53:42.400000Z</time>
      </trkpt>
      <trkpt lat="38.817665" lon="121.14838">
        <ele>52.47181</ele>
        <time>2014-03-27T09:53:45.605000Z</time>
      </trkpt>
      <trkpt lat="38.817764" lon="121.14837">
        <ele>52.750084</ele>
        <time>2014-03-27T09:53:48.810000Z</time>
      </trkpt>
      <trkpt lat="38.81786" lon="121.14835">
        <ele>53.13062</ele>
        <time>2014-03-27T09:53:52.015000Z</time>
      </trkpt>
      <trkpt lat="38.817963" lon="121.14837">
        <ele>53.453243</ele>
        <time>2014-03-27T09:53:55.220000Z</time>
      </trkpt>
      <trkpt lat="38.818058" lon="121.14837">
        <ele>53.015545</ele>
        <time>2014-03-27T09:53:58.425000Z</time>
      </trkpt>
      <trkpt lat="38.81815" lon="121.148384">
        <ele>51.470486</ele>
        <time>2014-03-27T09:54:01.630000Z</time>
      </trkpt>
      <trkpt lat="38.818264" lon="121.14839">
        <ele>49.82266</ele>
        <time>2014-03-27T09:54:04.835000Z</time>
      </trkpt>
      <trkpt lat="38.818367" lon="121.14839">
        <ele>49.180565</ele>
        <time>2014-03-27T09:54:08.040000Z</time>
      </trkpt>
      <trkpt lat="38.818466" lon="121.148346">
        <ele>49.509</ele>
        <time>2014-03-27T09:54:11.245000Z</time>
      </trkpt>
      <trkpt lat="38.818573" lon="121.148285">
        <ele>50.23873</ele>
        <time>2014-03-27T09:54:14.450000Z</time>
      </trkpt>
      <trkpt lat="38.818645" lon="121.14821">
        <ele>50.83628</ele>
        <time>2014-03-27T09:54:17.655000Z</time>
      </trkpt>
      <trkpt lat="38.818703" lon="121.14811">
        <ele>50.76748</ele>
        <time>2014-03-27T09:54:20.860000Z</time>
      </trkpt>
      <trkpt lat="38.81874" lon="121.14798">
        <ele>49.887062</ele>
        <time>2014-03-27T09:54:24.065000Z</time>
      </trkpt>
      <trkpt lat="38.818768" lon="121.147865">
        <ele>49.001278</ele>
        <time>2014-03-27T09:54:27.270000Z</time>
      </trkpt>
      <trkpt lat="38.818752" lon="121.14774">
        <ele>48.920063</ele>
        <time>2014-03-27T09:54:30.475000Z</time>
      </trkpt>
      <trkpt lat="38.818714" lon="121.14764">
        <ele>49.331192</ele>
        <time>2014-03-27T09:54:33.680000Z</time>
      </trkpt>
      <trkpt lat="38.818657" lon="121.14752">
        <ele>49.311718</ele>
        <time>2014-03-27T09:54:36.885000Z</time>
      </trkpt>
      <trkpt lat="38.81858" lon="121.147446">
        <ele>48.54624</ele>
        <time>2014-03-27T09:54:40.090000Z</time>
      </trkpt>
      <trkpt lat="38.818466" lon="121.14739">
        <ele>47.38341</ele>
        <time>2014-03-27T09:54:43.295000Z</time>
      </trkpt>
      <trkpt lat="38.818363" lon="121.14737">
        <ele>46.21098</ele>
        <time>2014-03-27T09:54:46.500000Z</time>
      </trkpt>
      <trkpt lat="38.818264" lon="121.14736">
        <ele>45.406113</ele>
        <time>2014-03-27T09:54:49.705000Z</time>
      </trkpt>
      <trkpt lat="38.818157" lon="121.14734">
        <ele>45.31191</ele>
        <time>2014-03-27T09:54:52.910000Z</time>
      </trkpt>
      <trkpt lat="38.81806" lon="121.14732">
        <ele>45.806396</ele>
        <time>2014-03-27T09:54:56.115000Z</time>
      </trkpt>
      <trkpt lat="38.81796" lon="121.14732">
        <ele>46.386444</ele>
        <time>2014-03-27T09:54:59.320000Z</time>
      </trkpt>
      <trkpt lat="38.817867" lon="121.14732">
        <ele>47.045967</ele>
        <time>2014-03-27T09:55:02.525000Z</time>
      </trkpt>
      <trkpt lat="38.817753" lon="121.147316">
        <ele>48.116848</ele>
        <time>2014-03-27T09:55:05.730000Z</time>
      </trkpt>
      <trkpt lat="38.81766" lon="121.14731">
        <ele>49.163883</ele>
        <time>2014-03-27T09:55:08.935000Z</time>
      </trkpt>
      <trkpt lat="38.81754" lon="121.147316">
        <ele>49.608204</ele>
        <time>2014-03-27T09:55:12.140000Z</time>
      </trkpt>
      <trkpt lat="38.817436" lon="121.14732">
        <ele>49.33179</ele>
        <time>2014-03-27T09:55:15.345000Z</time>
      </trkpt>
      <trkpt lat="38.81732" lon="121.147385">
        <ele>48.522263</ele>
        <time>2014-03-27T09:55:18.550000Z</time>
      </trkpt>
      <trkpt lat="38.817257" lon="121.14748">
        <ele>47.706387</ele>
        <time>2014-03-27T09:55:21.755000Z</time>
      </trkpt>
      <trkpt lat="38.817207" lon="121.14758">
        <ele>47.30089</ele>
        <time>2014-03-27T09:55:24.960000Z</time>
      </trkpt>
      <trkpt lat="38.81717" lon="121.14773">
        <ele>47.638947</ele>
        <time>2014-03-27T09:55:28.165000Z</time>
      </trkpt>
      <trkpt lat="38.81716" lon="121.14787">
        <ele>48.943184</ele>
        <time>2014-03-27T09:55:31.370000Z</time>
      </trkpt>
      <trkpt lat="38.81718" lon="121.148">
        <ele>50.57351</ele>
        <time>2014-03-27T09:55:34.575000Z</time>
      </trkpt>
      <trkpt lat="38.81722" lon="121.14813">
        <ele>51.57661</ele>
        <time>2014-03-27T09:55:37.780000Z</time>
      </trkpt>
      <trkpt lat="38.81728" lon="121.14823">
        <ele>51.776897</ele>
        <time>2014-03-27T09:55:40.985000Z</time>
      </trkpt>
      <trkpt lat="38.81736" lon="121.14832">
        <ele>51.68708</ele>
        <time>2014-03-27T09:55:44.190000Z</time>
      </trkpt>
      <trkpt lat="38.817444" lon="121.14836">
        <ele>52.344036</ele>
        <time>2014-03-27T09:55:47.395000Z</time>
      </trkpt>
      <trkpt lat="38.817554" lon="121.14838">
        <ele>54.141876</ele>
        <time>2014-03-27T09:55:50.600000Z</time>
      </trkpt>
      <trkpt lat="38.817646" lon="121.14835">
        <ele>56.0224</ele>
        <time>2014-03-27T09:55:53.805000Z</time>
      </trkpt>
      <trkpt lat="38.817745" lon="121.14836">
        <ele>56.31772</ele>
        <time>2014-03-27T09:55:57.010000Z</time>
      </trkpt>
      <trkpt lat="38.817856" lon="121.14837">
        <ele>54.772545</ele>
        <time>2014-03-27T09:56:00.215000Z</time>
      </trkpt>
      <trkpt lat="38.81795" lon="121.14838">
        <ele>53.180332</ele>
        <time>2014-03-27T09:56:03.420000Z</time>
      </trkpt>
      <trkpt lat="38.81807" lon="121.148384">
        <ele>53.013454</ele>
        <time>2014-03-27T09:56:06.625000Z</time>
      </trkpt>
      <trkpt lat="38.818165" lon="121.14839">
        <ele>53.1747</ele>
        <time>2014-03-27T09:56:09.830000Z</time>
      </trkpt>
      <trkpt lat="38.81827" lon="121.14839">
        <ele>52.187836</ele>
        <time>2014-03-27T09:56:13.035000Z</time>
      </trkpt>
      <trkpt lat="38.818363" lon="121.1484">
        <ele>50.325394</ele>
        <time>2014-03-27T09:56:16.240000Z</time>
      </trkpt>
      <trkpt lat="38.81845" lon="121.14837">
        <ele>48.61794</ele>
        <time>2014-03-27T09:56:19.445000Z</time>
      </trkpt>
      <trkpt lat="38.818546" lon="121.14831">
        <ele>47.526356</ele>
        <time>2014-03-27T09:56:22.650000Z</time>
      </trkpt>
      <trkpt lat="38.81863" lon="121.14823">
        <ele>46.681877</ele>
        <time>2014-03-27T09:56:25.855000Z</time>
      </trkpt>
      <trkpt lat="38.81868" lon="121.14813">
        <ele>45.638504</ele>
        <time>2014-03-27T09:56:29.060000Z</time>
      </trkpt>
      <trkpt lat="38.818718" lon="121.147995">
        <ele>45.405163</ele>
        <time>2014-03-27T09:56:32.265000Z</time>
      </trkpt>
      <trkpt lat="38.81874" lon="121.14786">
        <ele>47.029316</ele>
        <time>2014-03-27T09:56:35.470000Z</time>
      </trkpt>
      <trkpt lat="38.818718" lon="121.147736">
        <ele>49.401917</ele>
        <time>2014-03-27T09:56:38.675000Z</time>
      </trkpt>
      <trkpt lat="38.81869" lon="121.147606">
        <ele>50.64531</ele>
        <time>2014-03-27T09:56:41.880000Z</time>
      </trkpt>
      <trkpt lat="38.818638" lon="121.1475">
        <ele>49.77227</ele>
        <time>2014-03-27T09:56:45.085000Z</time>
      </trkpt>
      <trkpt lat="38.81858" lon="121.14739">
        <ele>47.36129</ele>
        <time>2014-03-27T09:56:48.290000Z</time>
      </trkpt>
      <trkpt lat="38.8185" lon="121.147316">
        <ele>45.53018</ele>
        <time>2014-03-27T09:56:51.495000Z</time>
      </trkpt>
      <trkpt lat="38.818382" lon="121.1473">
        <ele>45.59533</ele>
        <time>2014-03-27T09:56:54.700000Z</time>
      </trkpt>
      <trkpt lat="38.818268" lon="121.1473">
        <ele>47.1804</ele>
        <time>2014-03-27T09:56:57.905000Z</time>
      </trkpt>
      <trkpt lat="38.81816" lon="121.1473">
        <ele>49.38469</ele>
        <time>2014-03-27T09:57:01.110000Z</time>
      </trkpt>
      <trkpt lat="38.81807" lon="121.14729">
        <ele>51.206997</ele>
        <time>2014-03-27T09:57:04.315000Z</time>
      </trkpt>
      <trkpt lat="38.817966" lon="121.14728">
        <ele>52.001938</ele>
        <time>2014-03-27T09:57:07.520000Z</time>
      </trkpt>
      <trkpt lat="38.817856" lon="121.14728">
        <ele>51.990036</ele>
        <time>2014-03-27T09:57:10.725000Z</time>
      </trkpt>
      <trkpt lat="38.817757" lon="121.14729">
        <ele>51.917267</ele>
        <time>2014-03-27T09:57:13.930000Z</time>
      </trkpt>
      <trkpt lat="38.817657" lon="121.14729">
        <ele>52.39143</ele>
        <time>2014-03-27T09:57:17.135000Z</time>
      </trkpt>
      <trkpt lat="38.81757" lon="121.14728">
        <ele>53.227837</ele>
        <time>2014-03-27T09:57:20.340000Z</time>
      </trkpt>
      <trkpt lat="38.81748" lon="121.14729">
        <ele>53.855347</ele>
        <time>2014-03-27T09:57:23.545000Z</time>
      </trkpt>
      <trkpt lat="38.817387" lon="121.14732">
        <ele>53.757412</ele>
        <time>2014-03-27T09:57:26.750000Z</time>
      </trkpt>
      <trkpt lat="38.817307" lon="121.14738">
        <ele>52.87634</ele>
        <time>2014-03-27T09:57:29.955000Z</time>
      </trkpt>
      <trkpt lat="38.817234" lon="121.14748">
        <ele>51.883297</ele>
        <time>2014-03-27T09:57:33.160000Z</time>
      </trkpt>
      <trkpt lat="38.81718" lon="121.1476">
        <ele>51.37307</ele>
        <time>2014-03-27T09:57:36.365000Z</time>
      </trkpt>
      <trkpt lat="38.81715" lon="121.14773">
        <ele>50.993317</ele>
        <time>2014-03-27T09:57:39.570000Z</time>
      </trkpt>
      <trkpt lat="38.817142" lon="121.14784">
        <ele>49.79325</ele>
        <time>2014-03-27T09:57:42.775000Z</time>
      </trkpt>
      <trkpt lat="38.81717" lon="121.14799">
        <ele>48.10372</ele>
        <time>2014-03-27T09:57:45.980000Z</time>
      </trkpt>
      <trkpt lat="38.817215" lon="121.14811">
        <ele>47.35398</ele>
        <time>2014-03-27T09:57:49.185000Z</time>
      </trkpt>
      <trkpt lat="38.817303" lon="121.14822">
        <ele>47.897305</ele>
        <time>2014-03-27T09:57:52.390000Z</time>
      </trkpt>
      <trkpt lat="38.817383" lon="121.1483">
        <ele>48.95692</ele>
        <time>2014-03-27T09:57:55.595000Z</time>
      </trkpt>
      <trkpt lat="38.817463" lon="121.14835">
        <ele>49.584785</ele>
        <time>2014-03-27T09:57:58.800000Z</time>
      </trkpt>
      <trkpt lat="38.817574" lon="121.14837">
        <ele>49.2914</ele>
        <time>2014-03-27T09:58:02.005000Z</time>
      </trkpt>
      <trkpt lat="38.817688" lon="121.14838">
        <ele>48.79858</ele>
        <time>2014-03-27T09:58:05.210000Z</time>
      </trkpt>
      <trkpt lat="38.817783" lon="121.14838">
        <ele>48.924156</ele>
        <time>2014-03-27T09:58:08.415000Z</time>
      </trkpt>
      <trkpt lat="38.81789" lon="121.14838">
        <ele>49.41982</ele>
        <time>2014-03-27T09:58:11.620000Z</time>
      </trkpt>
      <trkpt lat="38.818" lon="121.14838">
        <ele>49.24135</ele>
        <time>2014-03-27T09:58:14.825000Z</time>
      </trkpt>
      <trkpt lat="38.8181" lon="121.14837">
        <ele>48.081684</ele>
        <time>2014-03-27T09:58:18.030000Z</time>
      </trkpt>
      <trkpt lat="38.818203" lon="121.14837">
        <ele>46.873417</ele>
        <time>2014-03-27T09:58:21.235000Z</time>
      </trkpt>
      <trkpt lat="38.818302" lon="121.14838">
        <ele>46.34053</ele>
        <time>2014-03-27T09:58:24.440000Z</time>
      </trkpt>
      <trkpt lat="38.81841" lon="121.14835">
        <ele>46.434956</ele>
        <time>2014-03-27T09:58:27.645000Z</time>
      </trkpt>
      <trkpt lat="38.818504" lon="121.14831">
        <ele>47.418507</ele>
        <time>2014-03-27T09:58:30.850000Z</time>
      </trkpt>
      <trkpt lat="38.818596" lon="121.14825">
        <ele>49.385033</ele>
        <time>2014-03-27T09:58:34.055000Z</time>
      </trkpt>
      <trkpt lat="38.81866" lon="121.14816">
        <ele>51.391735</ele>
        <time>2014-03-27T09:58:37.260000Z</time>
      </trkpt>
      <trkpt lat="38.81873" lon="121.14804">
        <ele>52.411633</ele>
        <time>2014-03-27T09:58:40.465000Z</time>
      </trkpt>
      <trkpt lat="38.818764" lon="121.14793">
        <ele>52.409523</ele>
        <time>2014-03-27T09:58:43.670000Z</time>
      </trkpt>
      <trkpt lat="38.818768" lon="121.1478">
        <ele>51.68174</ele>
        <time>2014-03-27T09:58:46.875000Z</time>
      </trkpt>
      <trkpt lat="38.818737" lon="121.147675">
        <ele>50.5735</ele>
        <time>2014-03-27T09:58:50.080000Z</time>
      </trkpt>
      <trkpt lat="38.81869" lon="121.14757">
        <ele>49.64388</ele>
        <time>2014-03-27T09:58:53.285000Z</time>
      </trkpt>
      <trkpt lat="38.818623" lon="121.14749">
        <ele>48.94424</ele>
        <time>2014-03-27T09:58:56.490000Z</time>
      </trkpt>
      <trkpt lat="38.818527" lon="121.147415">
        <ele>47.813156</ele>
        <time>2014-03-27T09:58:59.695000Z</time>
      </trkpt>
      <trkpt lat="38.818436" lon="121.147385">
        <ele>46.271435</ele>
        <time>2014-03-27T09:59:02.900000Z</time>
      </trkpt>
      <trkpt lat="38.818344" lon="121.14737">
        <ele>45.44425</ele>
        <time>2014-03-27T09:59:06.105000Z</time>
      </trkpt>
      <trkpt lat="38.818237" lon="121.14735">
        <ele>45.9061</ele>
        <time>2014-03-27T09:59:09.310000Z</time>
      </trkpt>
      <trkpt lat="38.818134" lon="121.14733">
        <ele>46.900753</ele>
        <time>2014-03-27T09:59:12.515000Z</time>
      </trkpt>
      <trkpt lat="38.818024" lon="121.14731">
        <ele>47.567593</ele>
        <time>2014-03-27T09:59:15.720000Z</time>
      </trkpt>
      <trkpt lat="38.81791" lon="121.14729">
        <ele>47.502094</ele>
        <time>2014-03-27T09:59:18.925000Z</time>
      </trkpt>
      <trkpt lat="38.8178" lon="121.1473">
        <ele>46.61904</ele>
        <time>2014-03-27T09:59:22.130000Z</time>
      </trkpt>
      <trkpt lat="38.817703" lon="121.1473">
        <ele>45.46585</ele>
        <time>2014-03-27T09:59:25.335000Z</time>
      </trkpt>
      <trkpt lat="38.817604" lon="121.1473">
        <ele>45.179554</ele>
        <time>2014-03-27T09:59:28.540000Z</time>
      </trkpt>
      <trkpt lat="38.817505" lon="121.14729">
        <ele>46.14539</ele>
        <time>2014-03-27T09:59:31.745000Z</time>
      </trkpt>
      <trkpt lat="38.817406" lon="121.14731">
        <ele>47.160015</ele>
        <time>2014-03-27T09:59:34.950000Z</time>
      </trkpt>
      <trkpt lat="38.817326" lon="121.14736">
        <ele>46.926437</ele>
        <time>2014-03-27T09:59:38.155000Z</time>
      </trkpt>
      <trkpt lat="38.817253" lon="121.147446">
        <ele>45.741653</ele>
        <time>2014-03-27T09:59:41.360000Z</time>
      </trkpt>
      <trkpt lat="38.817184" lon="121.14755">
        <ele>44.946945</ele>
        <time>2014-03-27T09:59:44.565000Z</time>
      </trkpt>
      <trkpt lat="38.817154" lon="121.14768">
        <ele>45.208504</ele>
        <time>2014-03-27T09:59:47.770000Z</time>
      </trkpt>
      <trkpt lat="38.81714" lon="121.1478">
        <ele>45.655342</ele>
        <time>2014-03-27T09:59:50.975000Z</time>
      </trkpt>
      <trkpt lat="38.81715" lon="121.147934">
        <ele>45.4392</ele>
        <time>2014-03-27T09:59:54.180000Z</time>
      </trkpt>
      <trkpt lat="38.817184" lon="121.14805">
        <ele>45.776955</ele>
        <time>2014-03-27T09:59:57.385000Z</time>
      </trkpt>
      <trkpt lat="38.817238" lon="121.14817">
        <ele>47.73282</ele>
        <time>2014-03-27T10:00:00.590000Z</time>
      </trkpt>
      <trkpt lat="38.817326" lon="121.14826">
        <ele>49.523132</ele>
        <time>2014-03-27T10:00:03.795000Z</time>
      </trkpt>
      <trkpt lat="38.81741" lon="121.14832">
        <ele>49.262234</ele>
        <time>2014-03-27T10:00:07Z</time>
      </trkpt>
      <trkpt lat="38.8175" lon="121.14836">
        <ele>47.655754</ele>
        <time>2014-03-27T10:00:10.205000Z</time>
      </trkpt>
      <trkpt lat="38.8176" lon="121.14836">
        <ele>46.259216</ele>
        <time>2014-03-27T10:00:13.410000Z</time>
      </trkpt>
      <trkpt lat="38.81772" lon="121.14838">
        <ele>46.07873</ele>
        <time>2014-03-27T10:00:16.615000Z</time>
      </trkpt>
      <trkpt lat="38.817825" lon="121.14838">
        <ele>47.211994</ele>
        <time>2014-03-27T10:00:19.820000Z</time>
      </trkpt>
      <trkpt lat="38.817924" lon="121.14839">
        <ele>48.58466</ele>
        <time>2014-03-27T10:00:23.025000Z</time>
      </trkpt>
      <trkpt lat="38.818043" lon="121.14839">
        <ele>48.960938</ele>
        <time>2014-03-27T10:00:26.230000Z</time>
      </trkpt>
      <trkpt lat="38.818146" lon="121.1484">
        <ele>48.167652</ele>
        <time>2014-03-27T10:00:29.435000Z</time>
      </trkpt>
      <trkpt lat="38.818253" lon="121.14841">
        <ele>47.13167</ele>
        <time>2014-03-27T10:00:32.640000Z</time>
      </trkpt>
      <trkpt lat="38.818363" lon="121.14842">
        <ele>47.20958</ele>
        <time>2014-03-27T10:00:35.845000Z</time>
      </trkpt>
      <trkpt lat="38.818466" lon="121.14839">
        <ele>48.672966</ele>
        <time>2014-03-27T10:00:39.050000Z</time>
      </trkpt>
      <trkpt lat="38.818546" lon="121.14834">
        <ele>50.530266</ele>
        <time>2014-03-27T10:00:42.255000Z</time>
      </trkpt>
      <trkpt lat="38.818634" lon="121.14824">
        <ele>51.956196</ele>
        <time>2014-03-27T10:00:45.460000Z</time>
      </trkpt>
      <trkpt lat="38.8187" lon="121.14812">
        <ele>52.58478</ele>
        <time>2014-03-27T10:00:48.665000Z</time>
      </trkpt>
      <trkpt lat="38.818737" lon="121.147995">
        <ele>52.260445</ele>
        <time>2014-03-27T10:00:51.870000Z</time>
      </trkpt>
      <trkpt lat="38.818752" lon="121.14786">
        <ele>50.865875</ele>
        <time>2014-03-27T10:00:55.075000Z</time>
      </trkpt>
      <trkpt lat="38.81875" lon="121.147736">
        <ele>48.69863</ele>
        <time>2014-03-27T10:00:58.280000Z</time>
      </trkpt>
      <trkpt lat="38.818714" lon="121.1476">
        <ele>46.809204</ele>
        <time>2014-03-27T10:01:01.485000Z</time>
      </trkpt>
      <trkpt lat="38.81867" lon="121.1475">
        <ele>45.6545</ele>
        <time>2014-03-27T10:01:04.690000Z</time>
      </trkpt>
      <trkpt lat="38.818596" lon="121.147415">
        <ele>44.741802</ele>
        <time>2014-03-27T10:01:07.895000Z</time>
      </trkpt>
      <trkpt lat="38.81849" lon="121.14737">
        <ele>43.894722</ele>
        <time>2014-03-27T10:01:11.100000Z</time>
      </trkpt>
      <trkpt lat="38.81837" lon="121.14734">
        <ele>43.289364</ele>
        <time>2014-03-27T10:01:14.305000Z</time>
      </trkpt>
      <trkpt lat="38.818268" lon="121.14732">
        <ele>43.25407</ele>
        <time>2014-03-27T10:01:17.510000Z</time>
      </trkpt>
      <trkpt lat="38.81817" lon="121.147316">
        <ele>44.178345</ele>
        <time>2014-03-27T10:01:20.715000Z</time>
      </trkpt>
      <trkpt lat="38.81808" lon="121.1473">
        <ele>45.829567</ele>
        <time>2014-03-27T10:01:23.920000Z</time>
      </trkpt>
      <trkpt lat="38.81798" lon="121.14729">
        <ele>47.37846</ele>
        <time>2014-03-27T10:01:27.125000Z</time>
      </trkpt>
      <trkpt lat="38.81789" lon="121.14729">
        <ele>48.310276</ele>
        <time>2014-03-27T10:01:30.330000Z</time>
      </trkpt>
      <trkpt lat="38.81779" lon="121.14729">
        <ele>48.659515</ele>
        <time>2014-03-27T10:01:33.535000Z</time>
      </trkpt>
      <trkpt lat="38.81767" lon="121.1473">
        <ele>48.65973</ele>
        <time>2014-03-27T10:01:36.740000Z</time>
      </trkpt>
      <trkpt lat="38.817574" lon="121.14731">
        <ele>48.510303</ele>
        <time>2014-03-27T10:01:39.945000Z</time>
      </trkpt>
      <trkpt lat="38.817482" lon="121.147316">
        <ele>48.521885</ele>
        <time>2014-03-27T10:01:43.150000Z</time>
      </trkpt>
      <trkpt lat="38.817387" lon="121.14736">
        <ele>49.23345</ele>
        <time>2014-03-27T10:01:46.355000Z</time>
      </trkpt>
      <trkpt lat="38.817303" lon="121.14742">
        <ele>50.553993</ele>
        <time>2014-03-27T10:01:49.560000Z</time>
      </trkpt>
      <trkpt lat="38.817238" lon="121.147514">
        <ele>51.53339</ele>
        <time>2014-03-27T10:01:52.765000Z</time>
      </trkpt>
      <trkpt lat="38.817207" lon="121.14763">
        <ele>51.64005</ele>
        <time>2014-03-27T10:01:55.970000Z</time>
      </trkpt>
      <trkpt lat="38.817177" lon="121.14775">
        <ele>51.262344</ele>
        <time>2014-03-27T10:01:59.175000Z</time>
      </trkpt>
      <trkpt lat="38.817173" lon="121.14787">
        <ele>50.915955</ele>
        <time>2014-03-27T10:02:02.380000Z</time>
      </trkpt>
      <trkpt lat="38.817184" lon="121.148">
        <ele>50.85383</ele>
        <time>2014-03-27T10:02:05.585000Z</time>
      </trkpt>
      <trkpt lat="38.817223" lon="121.148125">
        <ele>51.13941</ele>
        <time>2014-03-27T10:02:08.790000Z</time>
      </trkpt>
      <trkpt lat="38.817287" lon="121.14823">
        <ele>51.58395</ele>
        <time>2014-03-27T10:02:11.995000Z</time>
      </trkpt>
      <trkpt lat="38.81736" lon="121.14831">
        <ele>51.402607</ele>
        <time>2014-03-27T10:02:15.200000Z</time>
      </trkpt>
      <trkpt lat="38.81748" lon="121.14837">
        <ele>49.539562</ele>
        <time>2014-03-27T10:02:18.405000Z</time>
      </trkpt>
      <trkpt lat="38.81757" lon="121.14836">
        <ele>46.441586</ele>
        <time>2014-03-27T10:02:21.610000Z</time>
      </trkpt>
      <trkpt lat="38.81767" lon="121.14836">
        <ele>44.0178</ele>
        <time>2014-03-27T10:02:24.815000Z</time>
      </trkpt>
      <trkpt lat="38.817776" lon="121.14838">
        <ele>43.17509</ele>
        <time>2014-03-27T10:02:28.020000Z</time>
      </trkpt>
      <trkpt lat="38.81787" lon="121.148384">
        <ele>43.47879</ele>
        <time>2014-03-27T10:02:31.225000Z</time>
      </trkpt>
      <trkpt lat="38.817974" lon="121.1484">
        <ele>44.66833</ele>
        <time>2014-03-27T10:02:34.430000Z</time>
      </trkpt>
      <trkpt lat="38.818077" lon="121.1484">
        <ele>46.347843</ele>
        <time>2014-03-27T10:02:37.635000Z</time>
      </trkpt>
      <trkpt lat="38.81819" lon="121.1484">
        <ele>47.504677</ele>
        <time>2014-03-27T10:02:40.840000Z</time>
      </trkpt>
      <trkpt lat="38.81829" lon="121.14841">
        <ele>47.642</ele>
        <time>2014-03-27T10:02:44.045000Z</time>
      </trkpt>
      <trkpt lat="38.81841" lon="121.148415">
        <ele>47.278522</ele>
        <time>2014-03-27T10:02:47.250000Z</time>
      </trkpt>
      <trkpt lat="38.818497" lon="121.14836">
        <ele>47.071022</ele>
        <time>2014-03-27T10:02:50.455000Z</time>
      </trkpt>
      <trkpt lat="38.818584" lon="121.14831">
        <ele>47.81805</ele>
        <time>2014-03-27T10:02:53.660000Z</time>
      </trkpt>
      <trkpt lat="38.81866" lon="121.148224">
        <ele>49.66481</ele>
        <time>2014-03-27T10:02:56.865000Z</time>
      </trkpt>
      <trkpt lat="38.81872" lon="121.14811">
        <ele>51.445744</ele>
        <time>2014-03-27T10:03:00.070000Z</time>
      </trkpt>
      <trkpt lat="38.818764" lon="121.14798">
        <ele>52.028206</ele>
        <time>2014-03-27T10:03:03.275000Z</time>
      </trkpt>
      <trkpt lat="38.81877" lon="121.147865">
        <ele>51.282745</ele>
        <time>2014-03-27T10:03:06.480000Z</time>
      </trkpt>
      <trkpt lat="38.818752" lon="121.14771">
        <ele>49.58938</ele>
        <time>2014-03-27T10:03:09.685000Z</time>
      </trkpt>
      <trkpt lat="38.81871" lon="121.14759">
        <ele>47.65843</ele>
        <time>2014-03-27T10:03:12.890000Z</time>
      </trkpt>
      <trkpt lat="38.81865" lon="121.147484">
        <ele>45.999386</ele>
        <time>2014-03-27T10:03:16.095000Z</time>
      </trkpt>
      <trkpt lat="38.818573" lon="121.147415">
        <ele>44.805084</ele>
        <time>2014-03-27T10:03:19.300000Z</time>
      </trkpt>
      <trkpt lat="38.818466" lon="121.14739">
        <ele>44.75258</ele>
        <time>2014-03-27T10:03:22.505000Z</time>
      </trkpt>
      <trkpt lat="38.818367" lon="121.14738">
        <ele>46.129826</ele>
        <time>2014-03-27T10:03:25.710000Z</time>
      </trkpt>
      <trkpt lat="38.818253" lon="121.14737">
        <ele>46.89203</ele>
        <time>2014-03-27T10:03:28.915000Z</time>
      </trkpt>
      <trkpt lat="38.818153" lon="121.147354">
        <ele>45.462032</ele>
        <time>2014-03-27T10:03:32.120000Z</time>
      </trkpt>
      <trkpt lat="38.81806" lon="121.14735">
        <ele>43.811577</ele>
        <time>2014-03-27T10:03:35.325000Z</time>
      </trkpt>
      <trkpt lat="38.81797" lon="121.14733">
        <ele>43.925465</ele>
        <time>2014-03-27T10:03:38.530000Z</time>
      </trkpt>
      <trkpt lat="38.817867" lon="121.14732">
        <ele>44.97353</ele>
        <time>2014-03-27T10:03:41.735000Z</time>
      </trkpt>
      <trkpt lat="38.81777" lon="121.147316">
        <ele>45.693443</ele>
        <time>2014-03-27T10:03:44.940000Z</time>
      </trkpt>
      <trkpt lat="38.81767" lon="121.1473">
        <ele>46.032112</ele>
        <time>2014-03-27T10:03:48.145000Z</time>
      </trkpt>
      <trkpt lat="38.817562" lon="121.1473">
        <ele>46.336903</ele>
        <time>2014-03-27T10:03:51.350000Z</time>
      </trkpt>
      <trkpt lat="38.81747" lon="121.1473">
        <ele>46.662216</ele>
        <time>2014-03-27T10:03:54.555000Z</time>
      </trkpt>
      <trkpt lat="38.817383" lon="121.14734">
        <ele>46.973232</ele>
        <time>2014-03-27T10:03:57.760000Z</time>
      </trkpt>
      <trkpt lat="38.81729" lon="121.14741">
        <ele>47.612198</ele>
        <time>2014-03-27T10:04:00.965000Z</time>
      </trkpt>
      <trkpt lat="38.817223" lon="121.14751">
        <ele>48.731915</ele>
        <time>2014-03-27T10:04:04.170000Z</time>
      </trkpt>
      <trkpt lat="38.817173" lon="121.14762">
        <ele>49.748566</ele>
        <time>2014-03-27T10:04:07.375000Z</time>
      </trkpt>
      <trkpt lat="38.81715" lon="121.14777">
        <ele>50.147087</ele>
        <time>2014-03-27T10:04:10.580000Z</time>
      </trkpt>
      <trkpt lat="38.81715" lon="121.14792">
        <ele>49.999386</ele>
        <time>2014-03-27T10:04:13.785000Z</time>
      </trkpt>
      <trkpt lat="38.81717" lon="121.14804">
        <ele>49.384876</ele>
        <time>2014-03-27T10:04:16.990000Z</time>
      </trkpt>
      <trkpt lat="38.81721" lon="121.14816">
        <ele>48.23433</ele>
        <time>2014-03-27T10:04:20.195000Z</time>
      </trkpt>
      <trkpt lat="38.817276" lon="121.14825">
        <ele>47.13259</ele>
        <time>2014-03-27T10:04:23.400000Z</time>
      </trkpt>
      <trkpt lat="38.81736" lon="121.14832">
        <ele>46.884262</ele>
        <time>2014-03-27T10:04:26.605000Z</time>
      </trkpt>
      <trkpt lat="38.817455" lon="121.14836">
        <ele>47.444412</ele>
        <time>2014-03-27T10:04:29.810000Z</time>
      </trkpt>
      <trkpt lat="38.817577" lon="121.14837">
        <ele>48.24491</ele>
        <time>2014-03-27T10:04:33.015000Z</time>
      </trkpt>
      <trkpt lat="38.81768" lon="121.14836">
        <ele>48.918465</ele>
        <time>2014-03-27T10:04:36.220000Z</time>
      </trkpt>
      <trkpt lat="38.817783" lon="121.14837">
        <ele>49.26076</ele>
        <time>2014-03-27T10:04:39.425000Z</time>
      </trkpt>
      <trkpt lat="38.817883" lon="121.14838">
        <ele>49.358315</ele>
        <time>2014-03-27T10:04:42.630000Z</time>
      </trkpt>
      <trkpt lat="38.81798" lon="121.14839">
        <ele>49.199017</ele>
        <time>2014-03-27T10:04:45.835000Z</time>
      </trkpt>
      <trkpt lat="38.818073" lon="121.1484">
        <ele>48.723103</ele>
        <time>2014-03-27T10:04:49.040000Z</time>
      </trkpt>
      <trkpt lat="38.818172" lon="121.14841">
        <ele>48.03738</ele>
        <time>2014-03-27T10:04:52.245000Z</time>
      </trkpt>
      <trkpt lat="38.818264" lon="121.14841">
        <ele>46.91461</ele>
        <time>2014-03-27T10:04:55.450000Z</time>
      </trkpt>
      <trkpt lat="38.81837" lon="121.1484">
        <ele>45.73602</ele>
        <time>2014-03-27T10:04:58.655000Z</time>
      </trkpt>
      <trkpt lat="38.818462" lon="121.14836">
        <ele>45.79716</ele>
        <time>2014-03-27T10:05:01.860000Z</time>
      </trkpt>
      <trkpt lat="38.818565" lon="121.1483">
        <ele>47.102886</ele>
        <time>2014-03-27T10:05:05.065000Z</time>
      </trkpt>
      <trkpt lat="38.818657" lon="121.14819">
        <ele>48.03262</ele>
        <time>2014-03-27T10:05:08.270000Z</time>
      </trkpt>
      <trkpt lat="38.818718" lon="121.14807">
        <ele>47.75004</ele>
        <time>2014-03-27T10:05:11.475000Z</time>
      </trkpt>
      <trkpt lat="38.818752" lon="121.14795">
        <ele>46.9332</ele>
        <time>2014-03-27T10:05:14.680000Z</time>
      </trkpt>
      <trkpt lat="38.818764" lon="121.14781">
        <ele>46.47541</ele>
        <time>2014-03-27T10:05:17.885000Z</time>
      </trkpt>
      <trkpt lat="38.818745" lon="121.147675">
        <ele>46.48539</ele>
        <time>2014-03-27T10:05:21.090000Z</time>
      </trkpt>
      <trkpt lat="38.81871" lon="121.14756">
        <ele>45.956463</ele>
        <time>2014-03-27T10:05:24.295000Z</time>
      </trkpt>
      <trkpt lat="38.818634" lon="121.14745">
        <ele>44.23207</ele>
        <time>2014-03-27T10:05:27.500000Z</time>
      </trkpt>
      <trkpt lat="38.81854" lon="121.1474">
        <ele>43.089005</ele>
        <time>2014-03-27T10:05:30.705000Z</time>
      </trkpt>
      <trkpt lat="38.818447" lon="121.14739">
        <ele>44.049995</ele>
        <time>2014-03-27T10:05:33.910000Z</time>
      </trkpt>
      <trkpt lat="38.818333" lon="121.147385">
        <ele>45.628536</ele>
        <time>2014-03-27T10:05:37.115000Z</time>
      </trkpt>
      <trkpt lat="38.81821" lon="121.14737">
        <ele>46.05016</ele>
        <time>2014-03-27T10:05:40.320000Z</time>
      </trkpt>
      <trkpt lat="38.81809" lon="121.14735">
        <ele>45.462215</ele>
        <time>2014-03-27T10:05:43.525000Z</time>
      </trkpt>
      <trkpt lat="38.817993" lon="121.14733">
        <ele>45.0047</ele>
        <time>2014-03-27T10:05:46.730000Z</time>
      </trkpt>
      <trkpt lat="38.817894" lon="121.147316">
        <ele>45.290173</ele>
        <time>2014-03-27T10:05:49.935000Z</time>
      </trkpt>
      <trkpt lat="38.817787" lon="121.1473">
        <ele>45.9755</ele>
        <time>2014-03-27T10:05:53.140000Z</time>
      </trkpt>
      <trkpt lat="38.81769" lon="121.147285">
        <ele>46.470287</ele>
        <time>2014-03-27T10:05:56.345000Z</time>
      </trkpt>
      <trkpt lat="38.8176" lon="121.14726">
        <ele>46.64621</ele>
        <time>2014-03-27T10:05:59.550000Z</time>
      </trkpt>
      <trkpt lat="38.81749" lon="121.14726">
        <ele>46.83794</ele>
        <time>2014-03-27T10:06:02.755000Z</time>
      </trkpt>
      <trkpt lat="38.81738" lon="121.147285">
        <ele>47.438633</ele>
        <time>2014-03-27T10:06:05.960000Z</time>
      </trkpt>
      <trkpt lat="38.81729" lon="121.14734">
        <ele>48.355854</ele>
        <time>2014-03-27T10:06:09.165000Z</time>
      </trkpt>
      <trkpt lat="38.817223" lon="121.147446">
        <ele>49.155884</ele>
        <time>2014-03-27T10:06:12.370000Z</time>
      </trkpt>
      <trkpt lat="38.817165" lon="121.1476">
        <ele>49.283836</ele>
        <time>2014-03-27T10:06:15.575000Z</time>
      </trkpt>
      <trkpt lat="38.817142" lon="121.14775">
        <ele>48.354794</ele>
        <time>2014-03-27T10:06:18.780000Z</time>
      </trkpt>
      <trkpt lat="38.817142" lon="121.14787">
        <ele>46.76887</ele>
        <time>2014-03-27T10:06:21.985000Z</time>
      </trkpt>
      <trkpt lat="38.817158" lon="121.147995">
        <ele>45.512856</ele>
        <time>2014-03-27T10:06:25.190000Z</time>
      </trkpt>
      <trkpt lat="38.81719" lon="121.1481">
        <ele>44.949936</ele>
        <time>2014-03-27T10:06:28.395000Z</time>
      </trkpt>
      <trkpt lat="38.817257" lon="121.148224">
        <ele>44.421867</ele>
        <time>2014-03-27T10:06:31.600000Z</time>
      </trkpt>
      <trkpt lat="38.817345" lon="121.148315">
        <ele>43.478203</ele>
        <time>2014-03-27T10:06:34.805000Z</time>
      </trkpt>
      <trkpt lat="38.817455" lon="121.14836">
        <ele>43.08639</ele>
        <time>2014-03-27T10:06:38.010000Z</time>
      </trkpt>
      <trkpt lat="38.81757" lon="121.14838">
        <ele>44.046215</ele>
        <time>2014-03-27T10:06:41.215000Z</time>
      </trkpt>
      <trkpt lat="38.81768" lon="121.148384">
        <ele>45.600925</ele>
        <time>2014-03-27T10:06:44.420000Z</time>
      </trkpt>
      <trkpt lat="38.81778" lon="121.14839">
        <ele>46.88953</ele>
        <time>2014-03-27T10:06:47.625000Z</time>
      </trkpt>
      <trkpt lat="38.81788" lon="121.14841">
        <ele>47.638668</ele>
        <time>2014-03-27T10:06:50.830000Z</time>
      </trkpt>
      <trkpt lat="38.817986" lon="121.14841">
        <ele>47.66099</ele>
        <time>2014-03-27T10:06:54.035000Z</time>
      </trkpt>
      <trkpt lat="38.818085" lon="121.14841">
        <ele>47.131756</ele>
        <time>2014-03-27T10:06:57.240000Z</time>
      </trkpt>
      <trkpt lat="38.818176" lon="121.14841">
        <ele>46.120815</ele>
        <time>2014-03-27T10:07:00.445000Z</time>
      </trkpt>
      <trkpt lat="38.818295" lon="121.148415">
        <ele>44.654465</ele>
        <time>2014-03-27T10:07:03.650000Z</time>
      </trkpt>
      <trkpt lat="38.81839" lon="121.14841">
        <ele>43.38593</ele>
        <time>2014-03-27T10:07:06.855000Z</time>
      </trkpt>
      <trkpt lat="38.818504" lon="121.148346">
        <ele>43.679485</ele>
        <time>2014-03-27T10:07:10.060000Z</time>
      </trkpt>
      <trkpt lat="38.81858" lon="121.14828">
        <ele>46.459797</ele>
        <time>2014-03-27T10:07:13.265000Z</time>
      </trkpt>
      <trkpt lat="38.818638" lon="121.14818">
        <ele>50.898327</ele>
        <time>2014-03-27T10:07:16.470000Z</time>
      </trkpt>
      <trkpt lat="38.818687" lon="121.148056">
        <ele>54.452805</ele>
        <time>2014-03-27T10:07:19.675000Z</time>
      </trkpt>
      <trkpt lat="38.818718" lon="121.147934">
        <ele>54.987606</ele>
        <time>2014-03-27T10:07:22.880000Z</time>
      </trkpt>
      <trkpt lat="38.81872" lon="121.147804">
        <ele>52.94654</ele>
        <time>2014-03-27T10:07:26.085000Z</time>
      </trkpt>
      <trkpt lat="38.8187" lon="121.14767">
        <ele>49.969963</ele>
        <time>2014-03-27T10:07:29.290000Z</time>
      </trkpt>
      <trkpt lat="38.81864" lon="121.14754">
        <ele>47.024742</ele>
        <time>2014-03-27T10:07:32.495000Z</time>
      </trkpt>
      <trkpt lat="38.818558" lon="121.147446">
        <ele>45.285217</ele>
        <time>2014-03-27T10:07:35.700000Z</time>
      </trkpt>
      <trkpt lat="38.818447" lon="121.14741">
        <ele>45.39173</ele>
        <time>2014-03-27T10:07:38.905000Z</time>
      </trkpt>
      <trkpt lat="38.81835" lon="121.14738">
        <ele>45.766365</ele>
        <time>2014-03-27T10:07:42.110000Z</time>
      </trkpt>
      <trkpt lat="38.818256" lon="121.147354">
        <ele>45.06978</ele>
        <time>2014-03-27T10:07:45.315000Z</time>
      </trkpt>
      <trkpt lat="38.818157" lon="121.14734">
        <ele>44.4475</ele>
        <time>2014-03-27T10:07:48.520000Z</time>
      </trkpt>
      <trkpt lat="38.818066" lon="121.14732">
        <ele>45.166847</ele>
        <time>2014-03-27T10:07:51.725000Z</time>
      </trkpt>
      <trkpt lat="38.817966" lon="121.1473">
        <ele>46.45236</ele>
        <time>2014-03-27T10:07:54.930000Z</time>
      </trkpt>
      <trkpt lat="38.817844" lon="121.14727">
        <ele>47.296394</ele>
        <time>2014-03-27T10:07:58.135000Z</time>
      </trkpt>
      <trkpt lat="38.81773" lon="121.14727">
        <ele>48.1076</ele>
        <time>2014-03-27T10:08:01.340000Z</time>
      </trkpt>
      <trkpt lat="38.817623" lon="121.147255">
        <ele>49.344563</ele>
        <time>2014-03-27T10:08:04.545000Z</time>
      </trkpt>
      <trkpt lat="38.817524" lon="121.14725">
        <ele>50.293457</ele>
        <time>2014-03-27T10:08:07.750000Z</time>
      </trkpt>
      <trkpt lat="38.817425" lon="121.14727">
        <ele>50.162754</ele>
        <time>2014-03-27T10:08:10.955000Z</time>
      </trkpt>
      <trkpt lat="38.81733" lon="121.14732">
        <ele>49.339508</ele>
        <time>2014-03-27T10:08:14.160000Z</time>
      </trkpt>
      <trkpt lat="38.81725" lon="121.147415">
        <ele>48.47272</ele>
        <time>2014-03-27T10:08:17.365000Z</time>
      </trkpt>
      <trkpt lat="38.81719" lon="121.14754">
        <ele>48.041065</ele>
        <time>2014-03-27T10:08:20.570000Z</time>
      </trkpt>
      <trkpt lat="38.817154" lon="121.14768">
        <ele>48.279423</ele>
        <time>2014-03-27T10:08:23.775000Z</time>
      </trkpt>
      <trkpt lat="38.817135" lon="121.14783">
        <ele>48.906322</ele>
        <time>2014-03-27T10:08:26.980000Z</time>
      </trkpt>
      <trkpt lat="38.81715" lon="121.14795">
        <ele>49.4544</ele>
        <time>2014-03-27T10:08:30.185000Z</time>
      </trkpt>
      <trkpt lat="38.817192" lon="121.14808">
        <ele>49.718567</ele>
        <time>2014-03-27T10:08:33.390000Z</time>
      </trkpt>
      <trkpt lat="38.817245" lon="121.14821">
        <ele>49.379486</ele>
        <time>2014-03-27T10:08:36.595000Z</time>
      </trkpt>
      <trkpt lat="38.817314" lon="121.148285">
        <ele>48.457615</ele>
        <time>2014-03-27T10:08:39.800000Z</time>
      </trkpt>
      <trkpt lat="38.817417" lon="121.14835">
        <ele>47.56724</ele>
        <time>2014-03-27T10:08:43.005000Z</time>
      </trkpt>
      <trkpt lat="38.817516" lon="121.14837">
        <ele>47.874004</ele>
        <time>2014-03-27T10:08:46.210000Z</time>
      </trkpt>
      <trkpt lat="38.81761" lon="121.14837">
        <ele>49.680428</ele>
        <time>2014-03-27T10:08:49.415000Z</time>
      </trkpt>
      <trkpt lat="38.817722" lon="121.14839">
        <ele>51.29595</ele>
        <time>2014-03-27T10:08:52.620000Z</time>
      </trkpt>
      <trkpt lat="38.817818" lon="121.14839">
        <ele>51.29688</ele>
        <time>2014-03-27T10:08:55.825000Z</time>
      </trkpt>
      <trkpt lat="38.817924" lon="121.148384">
        <ele>50.43958</ele>
        <time>2014-03-27T10:08:59.030000Z</time>
      </trkpt>
      <trkpt lat="38.81803" lon="121.148384">
        <ele>49.779194</ele>
        <time>2014-03-27T10:09:02.235000Z</time>
      </trkpt>
      <trkpt lat="38.818127" lon="121.1484">
        <ele>49.35726</ele>
        <time>2014-03-27T10:09:05.440000Z</time>
      </trkpt>
      <trkpt lat="38.818222" lon="121.148415">
        <ele>49.086884</ele>
        <time>2014-03-27T10:09:08.645000Z</time>
      </trkpt>
      <trkpt lat="38.81833" lon="121.14843">
        <ele>49.08242</ele>
        <time>2014-03-27T10:09:11.850000Z</time>
      </trkpt>
      <trkpt lat="38.81842" lon="121.1484">
        <ele>49.320583</ele>
        <time>2014-03-27T10:09:15.055000Z</time>
      </trkpt>
      <trkpt lat="38.818516" lon="121.14835">
        <ele>49.651756</ele>
        <time>2014-03-27T10:09:18.260000Z</time>
      </trkpt>
      <trkpt lat="38.818607" lon="121.14826">
        <ele>49.950478</ele>
        <time>2014-03-27T10:09:21.465000Z</time>
      </trkpt>
      <trkpt lat="38.818687" lon="121.148155">
        <ele>50.07941</ele>
        <time>2014-03-27T10:09:24.670000Z</time>
      </trkpt>
      <trkpt lat="38.81873" lon="121.14803">
        <ele>49.797997</ele>
        <time>2014-03-27T10:09:27.875000Z</time>
      </trkpt>
      <trkpt lat="38.818745" lon="121.1479">
        <ele>49.0116</ele>
        <time>2014-03-27T10:09:31.080000Z</time>
      </trkpt>
      <trkpt lat="38.818726" lon="121.14776">
        <ele>48.214897</ele>
        <time>2014-03-27T10:09:34.285000Z</time>
      </trkpt>
      <trkpt lat="38.818707" lon="121.147644">
        <ele>47.64559</ele>
        <time>2014-03-27T10:09:37.490000Z</time>
      </trkpt>
      <trkpt lat="38.81867" lon="121.147545">
        <ele>47.061096</ele>
        <time>2014-03-27T10:09:40.695000Z</time>
      </trkpt>
      <trkpt lat="38.818573" lon="121.147446">
        <ele>46.448498</ele>
        <time>2014-03-27T10:09:43.900000Z</time>
      </trkpt>
      <trkpt lat="38.81847" lon="121.14741">
        <ele>45.846813</ele>
        <time>2014-03-27T10:09:47.105000Z</time>
      </trkpt>
      <trkpt lat="38.81835" lon="121.14739">
        <ele>45.149693</ele>
        <time>2014-03-27T10:09:50.310000Z</time>
      </trkpt>
      <trkpt lat="38.818237" lon="121.14738">
        <ele>43.94217</ele>
        <time>2014-03-27T10:09:53.515000Z</time>
      </trkpt>
      <trkpt lat="38.818134" lon="121.14736">
        <ele>42.096523</ele>
        <time>2014-03-27T10:09:56.720000Z</time>
      </trkpt>
      <trkpt lat="38.818043" lon="121.14734">
        <ele>40.49058</ele>
        <time>2014-03-27T10:09:59.925000Z</time>
      </trkpt>
      <trkpt lat="38.817947" lon="121.14734">
        <ele>40.102844</ele>
        <time>2014-03-27T10:10:03.130000Z</time>
      </trkpt>
      <trkpt lat="38.817852" lon="121.14732">
        <ele>40.969086</ele>
        <time>2014-03-27T10:10:06.335000Z</time>
      </trkpt>
      <trkpt lat="38.81775" lon="121.1473">
        <ele>42.326557</ele>
        <time>2014-03-27T10:10:09.540000Z</time>
      </trkpt>
      <trkpt lat="38.81765" lon="121.147285">
        <ele>43.34804</ele>
        <time>2014-03-27T10:10:12.745000Z</time>
      </trkpt>
      <trkpt lat="38.817547" lon="121.14728">
        <ele>44.112938</ele>
        <time>2014-03-27T10:10:15.950000Z</time>
      </trkpt>
      <trkpt lat="38.81744" lon="121.147285">
        <ele>45.08957</ele>
        <time>2014-03-27T10:10:19.155000Z</time>
      </trkpt>
      <trkpt lat="38.81733" lon="121.14734">
        <ele>46.106712</ele>
        <time>2014-03-27T10:10:22.360000Z</time>
      </trkpt>
      <trkpt lat="38.817257" lon="121.147446">
        <ele>46.828815</ele>
        <time>2014-03-27T10:10:25.565000Z</time>
      </trkpt>
      <trkpt lat="38.817204" lon="121.14757">
        <ele>47.381664</ele>
        <time>2014-03-27T10:10:28.770000Z</time>
      </trkpt>
      <trkpt lat="38.817173" lon="121.14768">
        <ele>47.86585</ele>
        <time>2014-03-27T10:10:31.975000Z</time>
      </trkpt>
      <trkpt lat="38.817165" lon="121.14781">
        <ele>48.126408</ele>
        <time>2014-03-27T10:10:35.180000Z</time>
      </trkpt>
      <trkpt lat="38.817184" lon="121.147964">
        <ele>47.84862</ele>
        <time>2014-03-27T10:10:38.385000Z</time>
      </trkpt>
      <trkpt lat="38.817223" lon="121.148094">
        <ele>46.83281</ele>
        <time>2014-03-27T10:10:41.590000Z</time>
      </trkpt>
      <trkpt lat="38.81727" lon="121.14819">
        <ele>45.523335</ele>
        <time>2014-03-27T10:10:44.795000Z</time>
      </trkpt>
      <trkpt lat="38.817337" lon="121.14828">
        <ele>44.796124</ele>
        <time>2014-03-27T10:10:48Z</time>
      </trkpt>
      <trkpt lat="38.81742" lon="121.14834">
        <ele>45.092545</ele>
        <time>2014-03-27T10:10:51.205000Z</time>
      </trkpt>
      <trkpt lat="38.81754" lon="121.14835">
        <ele>46.014977</ele>
        <time>2014-03-27T10:10:54.410000Z</time>
      </trkpt>
      <trkpt lat="38.817642" lon="121.14837">
        <ele>46.75874</ele>
        <time>2014-03-27T10:10:57.615000Z</time>
      </trkpt>
      <trkpt lat="38.817753" lon="121.14837">
        <ele>46.967903</ele>
        <time>2014-03-27T10:11:00.820000Z</time>
      </trkpt>
      <trkpt lat="38.817875" lon="121.14838">
        <ele>46.745277</ele>
        <time>2014-03-27T10:11:04.025000Z</time>
      </trkpt>
      <trkpt lat="38.818005" lon="121.1484">
        <ele>46.633442</ele>
        <time>2014-03-27T10:11:07.230000Z</time>
      </trkpt>
      <trkpt lat="38.81813" lon="121.14841">
        <ele>46.855556</ele>
        <time>2014-03-27T10:11:10.435000Z</time>
      </trkpt>
      <trkpt lat="38.818253" lon="121.14842">
        <ele>46.903454</ele>
        <time>2014-03-27T10:11:13.640000Z</time>
      </trkpt>
      <trkpt lat="38.818367" lon="121.14843">
        <ele>46.49144</ele>
        <time>2014-03-27T10:11:16.845000Z</time>
      </trkpt>
      <trkpt lat="38.81849" lon="121.14839">
        <ele>45.945274</ele>
        <time>2014-03-27T10:11:20.050000Z</time>
      </trkpt>
      <trkpt lat="38.81859" lon="121.148315">
        <ele>45.6925</ele>
        <time>2014-03-27T10:11:23.255000Z</time>
      </trkpt>
      <trkpt lat="38.81867" lon="121.14819">
        <ele>45.95582</ele>
        <time>2014-03-27T10:11:26.460000Z</time>
      </trkpt>
      <trkpt lat="38.81872" lon="121.14804">
        <ele>46.053345</ele>
        <time>2014-03-27T10:11:29.665000Z</time>
      </trkpt>
      <trkpt lat="38.818733" lon="121.1479">
        <ele>45.273323</ele>
        <time>2014-03-27T10:11:32.870000Z</time>
      </trkpt>
      <trkpt lat="38.818733" lon="121.14776">
        <ele>44.027542</ele>
        <time>2014-03-27T10:11:36.075000Z</time>
      </trkpt>
      <trkpt lat="38.8187" lon="121.14764">
        <ele>43.7044</ele>
        <time>2014-03-27T10:11:39.280000Z</time>
      </trkpt>
      <trkpt lat="38.818645" lon="121.14753">
        <ele>44.910484</ele>
        <time>2014-03-27T10:11:42.485000Z</time>
      </trkpt>
      <trkpt lat="38.818558" lon="121.14744">
        <ele>46.593082</ele>
        <time>2014-03-27T10:11:45.690000Z</time>
      </trkpt>
      <trkpt lat="38.818462" lon="121.14739">
        <ele>47.2776</ele>
        <time>2014-03-27T10:11:48.895000Z</time>
      </trkpt>
      <trkpt lat="38.818363" lon="121.147354">
        <ele>46.48483</ele>
        <time>2014-03-27T10:11:52.100000Z</time>
      </trkpt>
      <trkpt lat="38.818256" lon="121.14734">
        <ele>44.77143</ele>
        <time>2014-03-27T10:11:55.305000Z</time>
      </trkpt>
      <trkpt lat="38.818146" lon="121.14732">
        <ele>43.197414</ele>
        <time>2014-03-27T10:11:58.510000Z</time>
      </trkpt>
      <trkpt lat="38.818043" lon="121.14731">
        <ele>42.901108</ele>
        <time>2014-03-27T10:12:01.715000Z</time>
      </trkpt>
      <trkpt lat="38.818043" lon="121.14731">
        <time>2014-03-27T10:12:04.920000Z</time>
      </trkpt>
    </trkseg>
  </trk>
</gpx>