<?xml version="1.0" encoding="UTF-8"?>
<gpx xmlns="http://www.topografix.com/GPX/1/1" xmlns:gpxtpx="http://www.garmin.com/xmlschemas/TrackPointExtension/v1" xmlns:xsi="http://www.w3.org/2001/XMLSchema-instance" xsi:schemaLocation="http://www.topografix.com/GPX/1/1 http://www.topografix.com/GPX/1/1/gpx.xsd" version="1.1" creator="gpx.py -- https://github.com/tkrajina/gpxpy">
  <trk>
    <trkseg>
      <trkpt lat="38.818386" lon="121.1474">
        <ele>43.06498</ele>
        <time>2014-04-06T09:31:49.190000Z</time>
      </trkpt>
      <trkpt lat="38.818375" lon="121.1474">
        <ele>43.024036</ele>
        <time>2014-04-06T09:31:52.919000Z</time>
      </trkpt>
      <trkpt lat="38.818275" lon="121.14741">
        <ele>41.706173</ele>
        <time>2014-04-06T09:31:56.648000Z</time>
      </trkpt>
      <trkpt lat="38.818275" lon="121.14741">
        <ele>40.66779</ele>
        <time>2014-04-06T09:32:00.377000Z</time>
      </trkpt>
      <trkpt lat="38.81817" lon="121.147415">
        <ele>40.82446</ele>
        <time>2014-04-06T09:32:04.106000Z</time>
      </trkpt>
      <trkpt lat="38.818066" lon="121.1474">
        <ele>41.587826</ele>
        <time>2014-04-06T09:32:07.835000Z</time>
      </trkpt>
      <trkpt lat="38.817966" lon="121.14737">
        <ele>41.658096</ele>
        <time>2014-04-06T09:32:11.564000Z</time>
      </trkpt>
      <trkpt lat="38.81787" lon="121.14736">
        <ele>40.71116</ele>
        <time>2014-04-06T09:32:15.293000Z</time>
      </trkpt>
      <trkpt lat="38.81778" lon="121.14736">
        <ele>39.61371</ele>
        <time>2014-04-06T09:32:19.022000Z</time>
      </trkpt>
      <trkpt lat="38.817673" lon="121.14738">
        <ele>38.772957</ele>
        <time>2014-04-06T09:32:22.751000Z</time>
      </trkpt>
      <trkpt lat="38.817577" lon="121.14738">
        <ele>37.957382</ele>
        <time>2014-04-06T09:32:26.480000Z</time>
      </trkpt>
      <trkpt lat="38.817482" lon="121.147385">
        <ele>37.444206</ele>
        <time>2014-04-06T09:32:30.209000Z</time>
      </trkpt>
      <trkpt lat="38.81738" lon="121.14744">
        <ele>37.890213</ele>
        <time>2014-04-06T09:32:33.938000Z</time>
      </trkpt>
      <trkpt lat="38.817303" lon="121.147514">
        <ele>39.170403</ele>
        <time>2014-04-06T09:32:37.667000Z</time>
      </trkpt>
      <trkpt lat="38.817253" lon="121.14761">
        <ele>40.3433</ele>
        <time>2014-04-06T09:32:41.396000Z</time>
      </trkpt>
      <trkpt lat="38.817226" lon="121.147736">
        <ele>39.641384</ele>
        <time>2014-04-06T09:32:45.125000Z</time>
      </trkpt>
      <trkpt lat="38.817223" lon="121.14787">
        <ele>36.141533</ele>
        <time>2014-04-06T09:32:48.854000Z</time>
      </trkpt>
      <trkpt lat="38.817245" lon="121.148">
        <ele>31.722992</ele>
        <time>2014-04-06T09:32:52.583000Z</time>
      </trkpt>
      <trkpt lat="38.817314" lon="121.14812">
        <ele>29.140669</ele>
        <time>2014-04-06T09:32:56.312000Z</time>
      </trkpt>
      <trkpt lat="38.817398" lon="121.14819">
        <ele>28.970928</ele>
        <time>2014-04-06T09:33:00.041000Z</time>
      </trkpt>
      <trkpt lat="38.8175" lon="121.148254">
        <ele>30.213367</ele>
        <time>2014-04-06T09:33:03.770000Z</time>
      </trkpt>
      <trkpt lat="38.817596" lon="121.14827">
        <ele>32.427086</ele>
        <time>2014-04-06T09:33:07.499000Z</time>
      </trkpt>
      <trkpt lat="38.8177" lon="121.14826">
        <ele>35.77776</ele>
        <time>2014-04-06T09:33:11.228000Z</time>
      </trkpt>
      <trkpt lat="38.81779" lon="121.14827">
        <ele>38.822433</ele>
        <time>2014-04-06T09:33:14.957000Z</time>
      </trkpt>
      <trkpt lat="38.817886" lon="121.14827">
        <ele>40.21508</ele>
        <time>2014-04-06T09:33:18.686000Z</time>
      </trkpt>
      <trkpt lat="38.817986" lon="121.14827">
        <ele>40.519215</ele>
        <time>2014-04-06T09:33:22.415000Z</time>
      </trkpt>
      <trkpt lat="38.81809" lon="121.14826">
        <ele>40.354237</ele>
        <time>2014-04-06T09:33:26.144000Z</time>
      </trkpt>
      <trkpt lat="38.81818" lon="121.14828">
        <ele>39.933426</ele>
        <time>2014-04-06T09:33:29.873000Z</time>
      </trkpt>
      <trkpt lat="38.818283" lon="121.148285">
        <ele>40.061848</ele>
        <time>2014-04-06T09:33:33.602000Z</time>
      </trkpt>
      <trkpt lat="38.818386" lon="121.14828">
        <ele>41.47394</ele>
        <time>2014-04-06T09:33:37.331000Z</time>
      </trkpt>
      <trkpt lat="38.818493" lon="121.14824">
        <ele>43.7466</ele>
        <time>2014-04-06T09:33:41.060000Z</time>
      </trkpt>
      <trkpt lat="38.81858" lon="121.14817">
        <ele>44.412357</ele>
        <time>2014-04-06T09:33:44.789000Z</time>
      </trkpt>
      <trkpt lat="38.818634" lon="121.14806">
        <ele>42.21743</ele>
        <time>2014-04-06T09:33:48.518000Z</time>
      </trkpt>
      <trkpt lat="38.818676" lon="121.14794">
        <ele>39.25704</ele>
        <time>2014-04-06T09:33:52.247000Z</time>
      </trkpt>
      <trkpt lat="38.81869" lon="121.14782">
        <ele>37.70765</ele>
        <time>2014-04-06T09:33:55.976000Z</time>
      </trkpt>
      <trkpt lat="38.818676" lon="121.14769">
        <ele>37.51666</ele>
        <time>2014-04-06T09:33:59.705000Z</time>
      </trkpt>
      <trkpt lat="38.818615" lon="121.1476">
        <ele>37.92314</ele>
        <time>2014-04-06T09:34:03.434000Z</time>
      </trkpt>
      <trkpt lat="38.818527" lon="121.14756">
        <ele>38.313976</ele>
        <time>2014-04-06T09:34:07.163000Z</time>
      </trkpt>
      <trkpt lat="38.81844" lon="121.14754">
        <ele>38.18704</ele>
        <time>2014-04-06T09:34:10.892000Z</time>
      </trkpt>
      <trkpt lat="38.81834" lon="121.147514">
        <ele>36.60303</ele>
        <time>2014-04-06T09:34:14.621000Z</time>
      </trkpt>
      <trkpt lat="38.818237" lon="121.14748">
        <ele>33.63438</ele>
        <time>2014-04-06T09:34:18.350000Z</time>
      </trkpt>
      <trkpt lat="38.818134" lon="121.14743">
        <ele>31.30167</ele>
        <time>2014-04-06T09:34:22.079000Z</time>
      </trkpt>
      <trkpt lat="38.81803" lon="121.147415">
        <ele>31.14335</ele>
        <time>2014-04-06T09:34:25.808000Z</time>
      </trkpt>
      <trkpt lat="38.817924" lon="121.14741">
        <ele>33.006714</ele>
        <time>2014-04-06T09:34:29.537000Z</time>
      </trkpt>
      <trkpt lat="38.817818" lon="121.147385">
        <ele>35.798405</ele>
        <time>2014-04-06T09:34:33.266000Z</time>
      </trkpt>
      <trkpt lat="38.81772" lon="121.14737">
        <ele>37.97038</ele>
        <time>2014-04-06T09:34:36.995000Z</time>
      </trkpt>
      <trkpt lat="38.81762" lon="121.14736">
        <ele>38.76407</ele>
        <time>2014-04-06T09:34:40.724000Z</time>
      </trkpt>
      <trkpt lat="38.81751" lon="121.14736">
        <ele>38.41963</ele>
        <time>2014-04-06T09:34:44.453000Z</time>
      </trkpt>
      <trkpt lat="38.8174" lon="121.14737">
        <ele>37.464787</ele>
        <time>2014-04-06T09:34:48.182000Z</time>
      </trkpt>
      <trkpt lat="38.817314" lon="121.14742">
        <ele>36.913692</ele>
        <time>2014-04-06T09:34:51.911000Z</time>
      </trkpt>
      <trkpt lat="38.81725" lon="121.147514">
        <ele>37.315983</ele>
        <time>2014-04-06T09:34:55.640000Z</time>
      </trkpt>
      <trkpt lat="38.81722" lon="121.14765">
        <ele>37.28746</ele>
        <time>2014-04-06T09:34:59.369000Z</time>
      </trkpt>
      <trkpt lat="38.817204" lon="121.147766">
        <ele>35.03754</ele>
        <time>2014-04-06T09:35:03.098000Z</time>
      </trkpt>
      <trkpt lat="38.817207" lon="121.14791">
        <ele>31.320408</ele>
        <time>2014-04-06T09:35:06.827000Z</time>
      </trkpt>
      <trkpt lat="38.817238" lon="121.14802">
        <ele>28.484802</ele>
        <time>2014-04-06T09:35:10.556000Z</time>
      </trkpt>
      <trkpt lat="38.817295" lon="121.14813">
        <ele>28.17579</ele>
        <time>2014-04-06T09:35:14.285000Z</time>
      </trkpt>
      <trkpt lat="38.817368" lon="121.148224">
        <ele>30.47357</ele>
        <time>2014-04-06T09:35:18.014000Z</time>
      </trkpt>
      <trkpt lat="38.81747" lon="121.148254">
        <ele>33.625755</ele>
        <time>2014-04-06T09:35:21.743000Z</time>
      </trkpt>
      <trkpt lat="38.817574" lon="121.14825">
        <ele>35.659103</ele>
        <time>2014-04-06T09:35:25.472000Z</time>
      </trkpt>
      <trkpt lat="38.81767" lon="121.14825">
        <ele>36.54591</ele>
        <time>2014-04-06T09:35:29.201000Z</time>
      </trkpt>
      <trkpt lat="38.817776" lon="121.14825">
        <ele>37.281914</ele>
        <time>2014-04-06T09:35:32.930000Z</time>
      </trkpt>
      <trkpt lat="38.817867" lon="121.14825">
        <ele>38.16165</ele>
        <time>2014-04-06T09:35:36.659000Z</time>
      </trkpt>
      <trkpt lat="38.817974" lon="121.148254">
        <ele>38.78785</ele>
        <time>2014-04-06T09:35:40.388000Z</time>
      </trkpt>
      <trkpt lat="38.818066" lon="121.14826">
        <ele>38.442867</ele>
        <time>2014-04-06T09:35:44.117000Z</time>
      </trkpt>
      <trkpt lat="38.818165" lon="121.14826">
        <ele>36.946053</ele>
        <time>2014-04-06T09:35:47.846000Z</time>
      </trkpt>
      <trkpt lat="38.818256" lon="121.14826">
        <ele>35.320736</ele>
        <time>2014-04-06T09:35:51.575000Z</time>
      </trkpt>
      <trkpt lat="38.818356" lon="121.14826">
        <ele>34.503906</ele>
        <time>2014-04-06T09:35:55.304000Z</time>
      </trkpt>
      <trkpt lat="38.81846" lon="121.148224">
        <ele>34.96162</ele>
        <time>2014-04-06T09:35:59.033000Z</time>
      </trkpt>
      <trkpt lat="38.81855" lon="121.14814">
        <ele>36.660213</ele>
        <time>2014-04-06T09:36:02.762000Z</time>
      </trkpt>
      <trkpt lat="38.818592" lon="121.14803">
        <ele>38.40671</ele>
        <time>2014-04-06T09:36:06.491000Z</time>
      </trkpt>
      <trkpt lat="38.818634" lon="121.14791">
        <ele>38.99667</ele>
        <time>2014-04-06T09:36:10.220000Z</time>
      </trkpt>
      <trkpt lat="38.818645" lon="121.14777">
        <ele>38.34559</ele>
        <time>2014-04-06T09:36:13.949000Z</time>
      </trkpt>
      <trkpt lat="38.81862" lon="121.14764">
        <ele>37.16393</ele>
        <time>2014-04-06T09:36:17.678000Z</time>
      </trkpt>
      <trkpt lat="38.818546" lon="121.147545">
        <ele>36.000668</ele>
        <time>2014-04-06T09:36:21.407000Z</time>
      </trkpt>
      <trkpt lat="38.81846" lon="121.14752">
        <ele>34.373566</ele>
        <time>2014-04-06T09:36:25.136000Z</time>
      </trkpt>
      <trkpt lat="38.818363" lon="121.14748">
        <ele>32.20956</ele>
        <time>2014-04-06T09:36:28.865000Z</time>
      </trkpt>
      <trkpt lat="38.818268" lon="121.14744">
        <ele>31.144402</ele>
        <time>2014-04-06T09:36:32.594000Z</time>
      </trkpt>
      <trkpt lat="38.81817" lon="121.147415">
        <ele>32.213844</ele>
        <time>2014-04-06T09:36:36.323000Z</time>
      </trkpt>
      <trkpt lat="38.818066" lon="121.1474">
        <ele>34.364716</ele>
        <time>2014-04-06T09:36:40.052000Z</time>
      </trkpt>
      <trkpt lat="38.817966" lon="121.14738">
        <ele>36.575172</ele>
        <time>2014-04-06T09:36:43.781000Z</time>
      </trkpt>
      <trkpt lat="38.81786" lon="121.14736">
        <ele>38.36312</ele>
        <time>2014-04-06T09:36:47.510000Z</time>
      </trkpt>
      <trkpt lat="38.81777" lon="121.14735">
        <ele>39.670273</ele>
        <time>2014-04-06T09:36:51.239000Z</time>
      </trkpt>
      <trkpt lat="38.81767" lon="121.14734">
        <ele>40.43454</ele>
        <time>2014-04-06T09:36:54.968000Z</time>
      </trkpt>
      <trkpt lat="38.81756" lon="121.14734">
        <ele>40.061775</ele>
        <time>2014-04-06T09:36:58.697000Z</time>
      </trkpt>
      <trkpt lat="38.81745" lon="121.14734">
        <ele>38.81537</ele>
        <time>2014-04-06T09:37:02.426000Z</time>
      </trkpt>
      <trkpt lat="38.817356" lon="121.14738">
        <ele>37.70545</ele>
        <time>2014-04-06T09:37:06.155000Z</time>
      </trkpt>
      <trkpt lat="38.817284" lon="121.14747">
        <ele>36.91074</ele>
        <time>2014-04-06T09:37:09.884000Z</time>
      </trkpt>
      <trkpt lat="38.81724" lon="121.1476">
        <ele>36.459236</ele>
        <time>2014-04-06T09:37:13.613000Z</time>
      </trkpt>
      <trkpt lat="38.81724" lon="121.14773">
        <ele>36.382317</ele>
        <time>2014-04-06T09:37:17.342000Z</time>
      </trkpt>
      <trkpt lat="38.81724" lon="121.14785">
        <ele>36.552757</ele>
        <time>2014-04-06T09:37:21.071000Z</time>
      </trkpt>
      <trkpt lat="38.81727" lon="121.14799">
        <ele>37.01777</ele>
        <time>2014-04-06T09:37:24.800000Z</time>
      </trkpt>
      <trkpt lat="38.81731" lon="121.14811">
        <ele>37.755947</ele>
        <time>2014-04-06T09:37:28.529000Z</time>
      </trkpt>
      <trkpt lat="38.817394" lon="121.1482">
        <ele>38.298637</ele>
        <time>2014-04-06T09:37:32.258000Z</time>
      </trkpt>
      <trkpt lat="38.817486" lon="121.14823">
        <ele>38.314457</ele>
        <time>2014-04-06T09:37:35.987000Z</time>
      </trkpt>
      <trkpt lat="38.81759" lon="121.14824">
        <ele>38.073517</ele>
        <time>2014-04-06T09:37:39.716000Z</time>
      </trkpt>
      <trkpt lat="38.817684" lon="121.14823">
        <ele>37.46613</ele>
        <time>2014-04-06T09:37:43.445000Z</time>
      </trkpt>
      <trkpt lat="38.81779" lon="121.14823">
        <ele>36.296803</ele>
        <time>2014-04-06T09:37:47.174000Z</time>
      </trkpt>
      <trkpt lat="38.817883" lon="121.14823">
        <ele>35.665905</ele>
        <time>2014-04-06T09:37:50.903000Z</time>
      </trkpt>
      <trkpt lat="38.81799" lon="121.14823">
        <ele>36.445465</ele>
        <time>2014-04-06T09:37:54.632000Z</time>
      </trkpt>
      <trkpt lat="38.8181" lon="121.14825">
        <ele>37.575382</ele>
        <time>2014-04-06T09:37:58.361000Z</time>
      </trkpt>
      <trkpt lat="38.818207" lon="121.14826">
        <ele>37.87784</ele>
        <time>2014-04-06T09:38:02.090000Z</time>
      </trkpt>
      <trkpt lat="38.818306" lon="121.14828">
        <ele>37.411522</ele>
        <time>2014-04-06T09:38:05.819000Z</time>
      </trkpt>
      <trkpt lat="38.818405" lon="121.14828">
        <ele>36.723423</ele>
        <time>2014-04-06T09:38:09.548000Z</time>
      </trkpt>
      <trkpt lat="38.818497" lon="121.148224">
        <ele>36.13652</ele>
        <time>2014-04-06T09:38:13.277000Z</time>
      </trkpt>
      <trkpt lat="38.81858" lon="121.14814">
        <ele>35.689125</ele>
        <time>2014-04-06T09:38:17.006000Z</time>
      </trkpt>
      <trkpt lat="38.818626" lon="121.14803">
        <ele>35.336723</ele>
        <time>2014-04-06T09:38:20.735000Z</time>
      </trkpt>
      <trkpt lat="38.81865" lon="121.147896">
        <ele>34.77399</ele>
        <time>2014-04-06T09:38:24.464000Z</time>
      </trkpt>
      <trkpt lat="38.818665" lon="121.14776">
        <ele>33.82043</ele>
        <time>2014-04-06T09:38:28.193000Z</time>
      </trkpt>
      <trkpt lat="38.818634" lon="121.14763">
        <ele>32.932625</ele>
        <time>2014-04-06T09:38:31.922000Z</time>
      </trkpt>
      <trkpt lat="38.818573" lon="121.147545">
        <ele>32.079403</ele>
        <time>2014-04-06T09:38:35.651000Z</time>
      </trkpt>
      <trkpt lat="38.81848" lon="121.14752">
        <ele>30.886719</ele>
        <time>2014-04-06T09:38:39.380000Z</time>
      </trkpt>
      <trkpt lat="38.81838" lon="121.14748">
        <ele>30.068504</ele>
        <time>2014-04-06T09:38:43.109000Z</time>
      </trkpt>
      <trkpt lat="38.818275" lon="121.14745">
        <ele>31.020496</ele>
        <time>2014-04-06T09:38:46.838000Z</time>
      </trkpt>
      <trkpt lat="38.81818" lon="121.14744">
        <ele>33.587852</ele>
        <time>2014-04-06T09:38:50.567000Z</time>
      </trkpt>
      <trkpt lat="38.818085" lon="121.147415">
        <ele>36.104923</ele>
        <time>2014-04-06T09:38:54.296000Z</time>
      </trkpt>
      <trkpt lat="38.81797" lon="121.14739">
        <ele>37.93234</ele>
        <time>2014-04-06T09:38:58.025000Z</time>
      </trkpt>
      <trkpt lat="38.817863" lon="121.14738">
        <ele>40.015205</ele>
        <time>2014-04-06T09:39:01.754000Z</time>
      </trkpt>
      <trkpt lat="38.817757" lon="121.14736">
        <ele>42.426254</ele>
        <time>2014-04-06T09:39:05.483000Z</time>
      </trkpt>
      <trkpt lat="38.817657" lon="121.14736">
        <ele>44.019306</ele>
        <time>2014-04-06T09:39:09.212000Z</time>
      </trkpt>
      <trkpt lat="38.81756" lon="121.14736">
        <ele>42.995636</ele>
        <time>2014-04-06T09:39:12.941000Z</time>
      </trkpt>
      <trkpt lat="38.81745" lon="121.147354">
        <ele>39.254066</ele>
        <time>2014-04-06T09:39:16.670000Z</time>
      </trkpt>
      <trkpt lat="38.817356" lon="121.14739">
        <ele>36.467728</ele>
        <time>2014-04-06T09:39:20.399000Z</time>
      </trkpt>
      <trkpt lat="38.81728" lon="121.14747">
        <ele>37.33284</ele>
        <time>2014-04-06T09:39:24.128000Z</time>
      </trkpt>
      <trkpt lat="38.817234" lon="121.14759">
        <ele>39.248177</ele>
        <time>2014-04-06T09:39:27.857000Z</time>
      </trkpt>
      <trkpt lat="38.81722" lon="121.147736">
        <ele>39.14887</ele>
        <time>2014-04-06T09:39:31.586000Z</time>
      </trkpt>
      <trkpt lat="38.817223" lon="121.14788">
        <ele>37.474422</ele>
        <time>2014-04-06T09:39:35.315000Z</time>
      </trkpt>
      <trkpt lat="38.817257" lon="121.14801">
        <ele>36.023228</ele>
        <time>2014-04-06T09:39:39.044000Z</time>
      </trkpt>
      <trkpt lat="38.817318" lon="121.14812">
        <ele>35.691612</ele>
        <time>2014-04-06T09:39:42.773000Z</time>
      </trkpt>
      <trkpt lat="38.8174" lon="121.1482">
        <ele>36.508358</ele>
        <time>2014-04-06T09:39:46.502000Z</time>
      </trkpt>
      <trkpt lat="38.81749" lon="121.14825">
        <ele>38.67383</ele>
        <time>2014-04-06T09:39:50.231000Z</time>
      </trkpt>
      <trkpt lat="38.81749" lon="121.14825">
        <ele>41.804478</ele>
        <time>2014-04-06T09:39:53.960000Z</time>
      </trkpt>
      <trkpt lat="38.817593" lon="121.14827">
        <ele>43.475384</ele>
        <time>2014-04-06T09:39:57.689000Z</time>
      </trkpt>
      <trkpt lat="38.817688" lon="121.14828">
        <ele>42.235004</ele>
        <time>2014-04-06T09:40:01.418000Z</time>
      </trkpt>
      <trkpt lat="38.81778" lon="121.14828">
        <ele>40.042126</ele>
        <time>2014-04-06T09:40:05.147000Z</time>
      </trkpt>
      <trkpt lat="38.81787" lon="121.148285">
        <ele>38.799305</ele>
        <time>2014-04-06T09:40:08.876000Z</time>
      </trkpt>
      <trkpt lat="38.81797" lon="121.14829">
        <ele>39.141766</ele>
        <time>2014-04-06T09:40:12.605000Z</time>
      </trkpt>
      <trkpt lat="38.818077" lon="121.1483">
        <ele>39.84511</ele>
        <time>2014-04-06T09:40:16.334000Z</time>
      </trkpt>
      <trkpt lat="38.818184" lon="121.14829">
        <ele>41.64259</ele>
        <time>2014-04-06T09:40:20.063000Z</time>
      </trkpt>
      <trkpt lat="38.818287" lon="121.1483">
        <ele>44.705086</ele>
        <time>2014-04-06T09:40:23.792000Z</time>
      </trkpt>
      <trkpt lat="38.818386" lon="121.14829">
        <ele>47.440655</ele>
        <time>2014-04-06T09:40:27.521000Z</time>
      </trkpt>
      <trkpt lat="38.81849" lon="121.14825">
        <ele>47.93968</ele>
        <time>2014-04-06T09:40:31.250000Z</time>
      </trkpt>
      <trkpt lat="38.818565" lon="121.14817">
        <ele>46.347324</ele>
        <time>2014-04-06T09:40:34.979000Z</time>
      </trkpt>
      <trkpt lat="38.818626" lon="121.148056">
        <ele>44.292618</ele>
        <time>2014-04-06T09:40:38.708000Z</time>
      </trkpt>
      <trkpt lat="38.818665" lon="121.14794">
        <ele>42.794773</ele>
        <time>2014-04-06T09:40:42.437000Z</time>
      </trkpt>
      <trkpt lat="38.818684" lon="121.147804">
        <ele>41.369354</ele>
        <time>2014-04-06T09:40:46.166000Z</time>
      </trkpt>
      <trkpt lat="38.81866" lon="121.14768">
        <ele>39.676563</ele>
        <time>2014-04-06T09:40:49.895000Z</time>
      </trkpt>
      <trkpt lat="38.818596" lon="121.14756">
        <ele>38.483994</ele>
        <time>2014-04-06T09:40:53.624000Z</time>
      </trkpt>
      <trkpt lat="38.81852" lon="121.14749">
        <ele>38.384876</ele>
        <time>2014-04-06T09:40:57.353000Z</time>
      </trkpt>
      <trkpt lat="38.818417" lon="121.147446">
        <ele>38.340992</ele>
        <time>2014-04-06T09:41:01.082000Z</time>
      </trkpt>
      <trkpt lat="38.818317" lon="121.14742">
        <ele>37.405903</ele>
        <time>2014-04-06T09:41:04.811000Z</time>
      </trkpt>
      <trkpt lat="38.818222" lon="121.14742">
        <ele>36.199852</ele>
        <time>2014-04-06T09:41:08.540000Z</time>
      </trkpt>
      <trkpt lat="38.818123" lon="121.147415">
        <ele>35.750343</ele>
        <time>2014-04-06T09:41:12.269000Z</time>
      </trkpt>
      <trkpt lat="38.81803" lon="121.14741">
        <ele>36.085255</ele>
        <time>2014-04-06T09:41:15.998000Z</time>
      </trkpt>
      <trkpt lat="38.81794" lon="121.147415">
        <ele>36.61133</ele>
        <time>2014-04-06T09:41:19.727000Z</time>
      </trkpt>
      <trkpt lat="38.81785" lon="121.1474">
        <ele>36.89522</ele>
        <time>2014-04-06T09:41:23.456000Z</time>
      </trkpt>
      <trkpt lat="38.817753" lon="121.147385">
        <ele>37.161766</ele>
        <time>2014-04-06T09:41:27.185000Z</time>
      </trkpt>
      <trkpt lat="38.817646" lon="121.14737">
        <ele>37.757374</ele>
        <time>2014-04-06T09:41:30.914000Z</time>
      </trkpt>
      <trkpt lat="38.817547" lon="121.14736">
        <ele>38.703247</ele>
        <time>2014-04-06T09:41:34.643000Z</time>
      </trkpt>
      <trkpt lat="38.817448" lon="121.14738">
        <ele>39.712017</ele>
        <time>2014-04-06T09:41:38.372000Z</time>
      </trkpt>
      <trkpt lat="38.817352" lon="121.14744">
        <ele>40.296715</ele>
        <time>2014-04-06T09:41:42.101000Z</time>
      </trkpt>
      <trkpt lat="38.817284" lon="121.14753">
        <ele>40.14092</ele>
        <time>2014-04-06T09:41:45.830000Z</time>
      </trkpt>
      <trkpt lat="38.817238" lon="121.14765">
        <ele>39.63405</ele>
        <time>2014-04-06T09:41:49.559000Z</time>
      </trkpt>
      <trkpt lat="38.81721" lon="121.1478">
        <ele>39.337826</ele>
        <time>2014-04-06T09:41:53.288000Z</time>
      </trkpt>
      <trkpt lat="38.817215" lon="121.147934">
        <ele>39.56203</ele>
        <time>2014-04-06T09:41:57.017000Z</time>
      </trkpt>
      <trkpt lat="38.81725" lon="121.148056">
        <ele>40.44968</ele>
        <time>2014-04-06T09:42:00.746000Z</time>
      </trkpt>
      <trkpt lat="38.817307" lon="121.14815">
        <ele>41.54162</ele>
        <time>2014-04-06T09:42:04.475000Z</time>
      </trkpt>
      <trkpt lat="38.81739" lon="121.14823">
        <ele>42.20826</ele>
        <time>2014-04-06T09:42:08.204000Z</time>
      </trkpt>
      <trkpt lat="38.81748" lon="121.14828">
        <ele>42.40891</ele>
        <time>2014-04-06T09:42:11.933000Z</time>
      </trkpt>
      <trkpt lat="38.81759" lon="121.14828">
        <ele>42.309002</ele>
        <time>2014-04-06T09:42:15.662000Z</time>
      </trkpt>
      <trkpt lat="38.8177" lon="121.14826">
        <ele>41.28308</ele>
        <time>2014-04-06T09:42:19.391000Z</time>
      </trkpt>
      <trkpt lat="38.81781" lon="121.148254">
        <ele>39.083927</ele>
        <time>2014-04-06T09:42:23.120000Z</time>
      </trkpt>
      <trkpt lat="38.81791" lon="121.148254">
        <ele>36.746452</ele>
        <time>2014-04-06T09:42:26.849000Z</time>
      </trkpt>
      <trkpt lat="38.818024" lon="121.148254">
        <ele>35.790222</ele>
        <time>2014-04-06T09:42:30.578000Z</time>
      </trkpt>
      <trkpt lat="38.81811" lon="121.14827">
        <ele>36.90063</ele>
        <time>2014-04-06T09:42:34.307000Z</time>
      </trkpt>
      <trkpt lat="38.818214" lon="121.14828">
        <ele>39.40309</ele>
        <time>2014-04-06T09:42:38.036000Z</time>
      </trkpt>
      <trkpt lat="38.81831" lon="121.14828">
        <ele>41.659138</ele>
        <time>2014-04-06T09:42:41.765000Z</time>
      </trkpt>
      <trkpt lat="38.8184" lon="121.14828">
        <ele>42.320023</ele>
        <time>2014-04-06T09:42:45.494000Z</time>
      </trkpt>
      <trkpt lat="38.81849" lon="121.14825">
        <ele>41.263115</ele>
        <time>2014-04-06T09:42:49.223000Z</time>
      </trkpt>
      <trkpt lat="38.818584" lon="121.14817">
        <ele>39.92829</ele>
        <time>2014-04-06T09:42:52.952000Z</time>
      </trkpt>
      <trkpt lat="38.818638" lon="121.148056">
        <ele>39.957485</ele>
        <time>2014-04-06T09:42:56.681000Z</time>
      </trkpt>
      <trkpt lat="38.81867" lon="121.147934">
        <ele>41.37493</ele>
        <time>2014-04-06T09:43:00.410000Z</time>
      </trkpt>
      <trkpt lat="38.818676" lon="121.14782">
        <ele>42.600452</ele>
        <time>2014-04-06T09:43:04.139000Z</time>
      </trkpt>
      <trkpt lat="38.818657" lon="121.147705">
        <ele>42.469486</ele>
        <time>2014-04-06T09:43:07.868000Z</time>
      </trkpt>
      <trkpt lat="38.81861" lon="121.14759">
        <ele>41.452755</ele>
        <time>2014-04-06T09:43:11.597000Z</time>
      </trkpt>
      <trkpt lat="38.818546" lon="121.14749">
        <ele>39.925728</ele>
        <time>2014-04-06T09:43:15.326000Z</time>
      </trkpt>
      <trkpt lat="38.818462" lon="121.147446">
        <ele>38.004467</ele>
        <time>2014-04-06T09:43:19.055000Z</time>
      </trkpt>
      <trkpt lat="38.818375" lon="121.147415">
        <ele>36.634174</ele>
        <time>2014-04-06T09:43:22.784000Z</time>
      </trkpt>
      <trkpt lat="38.818264" lon="121.1474">
        <ele>36.474888</ele>
        <time>2014-04-06T09:43:26.513000Z</time>
      </trkpt>
      <trkpt lat="38.818157" lon="121.14739">
        <ele>37.229633</ele>
        <time>2014-04-06T09:43:30.242000Z</time>
      </trkpt>
      <trkpt lat="38.818058" lon="121.147385">
        <ele>38.362755</ele>
        <time>2014-04-06T09:43:33.971000Z</time>
      </trkpt>
      <trkpt lat="38.81795" lon="121.147385">
        <ele>39.063766</ele>
        <time>2014-04-06T09:43:37.700000Z</time>
      </trkpt>
      <trkpt lat="38.81784" lon="121.14737">
        <ele>38.903366</ele>
        <time>2014-04-06T09:43:41.429000Z</time>
      </trkpt>
      <trkpt lat="38.81774" lon="121.14736">
        <ele>38.814167</ele>
        <time>2014-04-06T09:43:45.158000Z</time>
      </trkpt>
      <trkpt lat="38.817635" lon="121.147354">
        <ele>39.585693</ele>
        <time>2014-04-06T09:43:48.887000Z</time>
      </trkpt>
      <trkpt lat="38.81753" lon="121.147354">
        <ele>40.68848</ele>
        <time>2014-04-06T09:43:52.616000Z</time>
      </trkpt>
      <trkpt lat="38.81743" lon="121.14738">
        <ele>41.564114</ele>
        <time>2014-04-06T09:43:56.345000Z</time>
      </trkpt>
      <trkpt lat="38.817337" lon="121.14744">
        <ele>42.233192</ele>
        <time>2014-04-06T09:44:00.074000Z</time>
      </trkpt>
      <trkpt lat="38.81727" lon="121.14755">
        <ele>42.666004</ele>
        <time>2014-04-06T09:44:03.803000Z</time>
      </trkpt>
      <trkpt lat="38.817223" lon="121.14768">
        <ele>42.834984</ele>
        <time>2014-04-06T09:44:07.532000Z</time>
      </trkpt>
      <trkpt lat="38.817207" lon="121.147804">
        <ele>42.843983</ele>
        <time>2014-04-06T09:44:11.261000Z</time>
      </trkpt>
      <trkpt lat="38.817223" lon="121.14793">
        <ele>42.79639</ele>
        <time>2014-04-06T09:44:14.990000Z</time>
      </trkpt>
      <trkpt lat="38.817257" lon="121.14804">
        <ele>43.041595</ele>
        <time>2014-04-06T09:44:18.719000Z</time>
      </trkpt>
      <trkpt lat="38.81732" lon="121.14814">
        <ele>43.604</ele>
        <time>2014-04-06T09:44:22.448000Z</time>
      </trkpt>
      <trkpt lat="38.817413" lon="121.14821">
        <ele>43.93327</ele>
        <time>2014-04-06T09:44:26.177000Z</time>
      </trkpt>
      <trkpt lat="38.81751" lon="121.14825">
        <ele>43.69103</ele>
        <time>2014-04-06T09:44:29.906000Z</time>
      </trkpt>
      <trkpt lat="38.81761" lon="121.148254">
        <ele>42.94201</ele>
        <time>2014-04-06T09:44:33.635000Z</time>
      </trkpt>
      <trkpt lat="38.817726" lon="121.14826">
        <ele>41.92242</ele>
        <time>2014-04-06T09:44:37.364000Z</time>
      </trkpt>
      <trkpt lat="38.817825" lon="121.148254">
        <ele>41.08753</ele>
        <time>2014-04-06T09:44:41.093000Z</time>
      </trkpt>
      <trkpt lat="38.817924" lon="121.14826">
        <ele>40.705498</ele>
        <time>2014-04-06T09:44:44.822000Z</time>
      </trkpt>
      <trkpt lat="38.818027" lon="121.14827">
        <ele>40.5758</ele>
        <time>2014-04-06T09:44:48.551000Z</time>
      </trkpt>
      <trkpt lat="38.81813" lon="121.148285">
        <ele>40.35267</ele>
        <time>2014-04-06T09:44:52.280000Z</time>
      </trkpt>
      <trkpt lat="38.818233" lon="121.14829">
        <ele>40.05267</ele>
        <time>2014-04-06T09:44:56.009000Z</time>
      </trkpt>
      <trkpt lat="38.818333" lon="121.1483">
        <ele>40.168873</ele>
        <time>2014-04-06T09:44:59.738000Z</time>
      </trkpt>
      <trkpt lat="38.818424" lon="121.14828">
        <ele>40.844204</ele>
        <time>2014-04-06T09:45:03.467000Z</time>
      </trkpt>
      <trkpt lat="38.81851" lon="121.14823">
        <ele>41.590153</ele>
        <time>2014-04-06T09:45:07.196000Z</time>
      </trkpt>
      <trkpt lat="38.81859" lon="121.14814">
        <ele>42.00757</ele>
        <time>2014-04-06T09:45:10.925000Z</time>
      </trkpt>
      <trkpt lat="38.81865" lon="121.14803">
        <ele>42.64803</ele>
        <time>2014-04-06T09:45:14.654000Z</time>
      </trkpt>
      <trkpt lat="38.818687" lon="121.1479">
        <ele>43.89052</ele>
        <time>2014-04-06T09:45:18.383000Z</time>
      </trkpt>
      <trkpt lat="38.818695" lon="121.14779">
        <ele>44.440132</ele>
        <time>2014-04-06T09:45:22.112000Z</time>
      </trkpt>
      <trkpt lat="38.81867" lon="121.14766">
        <ele>43.049232</ele>
        <time>2014-04-06T09:45:25.841000Z</time>
      </trkpt>
      <trkpt lat="38.818615" lon="121.14757">
        <ele>40.651386</ele>
        <time>2014-04-06T09:45:29.570000Z</time>
      </trkpt>
      <trkpt lat="38.818546" lon="121.14749">
        <ele>38.83064</ele>
        <time>2014-04-06T09:45:33.299000Z</time>
      </trkpt>
      <trkpt lat="38.818478" lon="121.147415">
        <ele>38.05331</ele>
        <time>2014-04-06T09:45:37.028000Z</time>
      </trkpt>
      <trkpt lat="38.818424" lon="121.147255">
        <ele>38.690254</ele>
        <time>2014-04-06T09:45:40.757000Z</time>
      </trkpt>
      <trkpt lat="38.818424" lon="121.147255">
        <ele>38.725754</ele>
        <time>2014-04-06T09:45:44.486000Z</time>
      </trkpt>
      <trkpt lat="38.818424" lon="121.147255">
        <ele>38.764442</ele>
        <time>2014-04-06T09:45:48.215000Z</time>
      </trkpt>
      <trkpt lat="38.818325" lon="121.1473">
        <ele>38.737167</ele>
        <time>2014-04-06T09:45:51.944000Z</time>
      </trkpt>
      <trkpt lat="38.81822" lon="121.14731">
        <ele>39.634563</ele>
        <time>2014-04-06T09:45:55.673000Z</time>
      </trkpt>
      <trkpt lat="38.818115" lon="121.14728">
        <ele>42.084328</ele>
        <time>2014-04-06T09:45:59.402000Z</time>
      </trkpt>
      <trkpt lat="38.818012" lon="121.147255">
        <ele>44.089054</ele>
        <time>2014-04-06T09:46:03.131000Z</time>
      </trkpt>
      <trkpt lat="38.817913" lon="121.14724">
        <ele>43.440258</ele>
        <time>2014-04-06T09:46:06.860000Z</time>
      </trkpt>
      <trkpt lat="38.817814" lon="121.14722">
        <ele>43.818832</ele>
        <time>2014-04-06T09:46:10.589000Z</time>
      </trkpt>
      <trkpt lat="38.81769" lon="121.1472">
        <ele>44.927258</ele>
        <time>2014-04-06T09:46:14.318000Z</time>
      </trkpt>
      <trkpt lat="38.817596" lon="121.1472">
        <ele>46.440723</ele>
        <time>2014-04-06T09:46:18.047000Z</time>
      </trkpt>
      <trkpt lat="38.817486" lon="121.147194">
        <ele>48.682796</ele>
        <time>2014-04-06T09:46:21.776000Z</time>
      </trkpt>
      <trkpt lat="38.81738" lon="121.14722">
        <ele>51.148277</ele>
        <time>2014-04-06T09:46:25.505000Z</time>
      </trkpt>
      <trkpt lat="38.817284" lon="121.14727">
        <ele>52.777454</ele>
        <time>2014-04-06T09:46:29.234000Z</time>
      </trkpt>
      <trkpt lat="38.81722" lon="121.14737">
        <ele>53.230274</ele>
        <time>2014-04-06T09:46:32.963000Z</time>
      </trkpt>
      <trkpt lat="38.81716" lon="121.14747">
        <ele>52.079933</ele>
        <time>2014-04-06T09:46:36.692000Z</time>
      </trkpt>
      <trkpt lat="38.817123" lon="121.14761">
        <ele>48.24556</ele>
        <time>2014-04-06T09:46:40.421000Z</time>
      </trkpt>
      <trkpt lat="38.81712" lon="121.14774">
        <ele>42.354366</ele>
        <time>2014-04-06T09:46:44.150000Z</time>
      </trkpt>
      <trkpt lat="38.81713" lon="121.147865">
        <ele>36.95337</ele>
        <time>2014-04-06T09:46:47.879000Z</time>
      </trkpt>
      <trkpt lat="38.817154" lon="121.14798">
        <ele>33.720123</ele>
        <time>2014-04-06T09:46:51.608000Z</time>
      </trkpt>
      <trkpt lat="38.817204" lon="121.14811">
        <ele>33.22676</ele>
        <time>2014-04-06T09:46:55.337000Z</time>
      </trkpt>
      <trkpt lat="38.81727" lon="121.14821">
        <ele>34.994423</ele>
        <time>2014-04-06T09:46:59.066000Z</time>
      </trkpt>
      <trkpt lat="38.81737" lon="121.148285">
        <ele>37.133774</ele>
        <time>2014-04-06T09:47:02.795000Z</time>
      </trkpt>
      <trkpt lat="38.81747" lon="121.14832">
        <ele>38.2483</ele>
        <time>2014-04-06T09:47:06.524000Z</time>
      </trkpt>
      <trkpt lat="38.817577" lon="121.148346">
        <ele>38.63864</ele>
        <time>2014-04-06T09:47:10.253000Z</time>
      </trkpt>
      <trkpt lat="38.81768" lon="121.14836">
        <ele>38.914383</ele>
        <time>2014-04-06T09:47:13.982000Z</time>
      </trkpt>
      <trkpt lat="38.81779" lon="121.14838">
        <ele>39.089676</ele>
        <time>2014-04-06T09:47:17.711000Z</time>
      </trkpt>
      <trkpt lat="38.8179" lon="121.148384">
        <ele>38.989815</ele>
        <time>2014-04-06T09:47:21.440000Z</time>
      </trkpt>
      <trkpt lat="38.818005" lon="121.14839">
        <ele>38.814518</ele>
        <time>2014-04-06T09:47:25.169000Z</time>
      </trkpt>
      <trkpt lat="38.818115" lon="121.14839">
        <ele>38.81228</ele>
        <time>2014-04-06T09:47:28.898000Z</time>
      </trkpt>
      <trkpt lat="38.81823" lon="121.1484">
        <ele>39.203545</ele>
        <time>2014-04-06T09:47:32.627000Z</time>
      </trkpt>
      <trkpt lat="38.818348" lon="121.148415">
        <ele>40.042</ele>
        <time>2014-04-06T09:47:36.356000Z</time>
      </trkpt>
      <trkpt lat="38.818443" lon="121.14841">
        <ele>41.3551</ele>
        <time>2014-04-06T09:47:40.085000Z</time>
      </trkpt>
      <trkpt lat="38.81853" lon="121.14835">
        <ele>43.343815</ele>
        <time>2014-04-06T09:47:43.814000Z</time>
      </trkpt>
      <trkpt lat="38.818607" lon="121.148285">
        <ele>46.048515</ele>
        <time>2014-04-06T09:47:47.543000Z</time>
      </trkpt>
      <trkpt lat="38.818672" lon="121.14818">
        <ele>49.187344</ele>
        <time>2014-04-06T09:47:51.272000Z</time>
      </trkpt>
      <trkpt lat="38.81871" lon="121.14806">
        <ele>52.056385</ele>
        <time>2014-04-06T09:47:55.001000Z</time>
      </trkpt>
      <trkpt lat="38.818745" lon="121.14795">
        <ele>53.138027</ele>
        <time>2014-04-06T09:47:58.730000Z</time>
      </trkpt>
      <trkpt lat="38.81876" lon="121.147835">
        <ele>50.833725</ele>
        <time>2014-04-06T09:48:02.459000Z</time>
      </trkpt>
      <trkpt lat="38.81875" lon="121.14769">
        <ele>46.04053</ele>
        <time>2014-04-06T09:48:06.188000Z</time>
      </trkpt>
      <trkpt lat="38.818703" lon="121.14755">
        <ele>41.728104</ele>
        <time>2014-04-06T09:48:09.917000Z</time>
      </trkpt>
      <trkpt lat="38.818623" lon="121.14744">
        <ele>39.297</ele>
        <time>2014-04-06T09:48:13.646000Z</time>
      </trkpt>
      <trkpt lat="38.81855" lon="121.14737">
        <ele>38.191643</ele>
        <time>2014-04-06T09:48:17.375000Z</time>
      </trkpt>
      <trkpt lat="38.81845" lon="121.14734">
        <ele>37.98026</ele>
        <time>2014-04-06T09:48:21.104000Z</time>
      </trkpt>
      <trkpt lat="38.81836" lon="121.14733">
        <ele>38.29323</ele>
        <time>2014-04-06T09:48:24.833000Z</time>
      </trkpt>
      <trkpt lat="38.818245" lon="121.14734">
        <ele>38.306923</ele>
        <time>2014-04-06T09:48:28.562000Z</time>
      </trkpt>
      <trkpt lat="38.818134" lon="121.14734">
        <ele>37.32281</ele>
        <time>2014-04-06T09:48:32.291000Z</time>
      </trkpt>
      <trkpt lat="38.81804" lon="121.14733">
        <ele>35.79351</ele>
        <time>2014-04-06T09:48:36.020000Z</time>
      </trkpt>
      <trkpt lat="38.81792" lon="121.147316">
        <ele>34.73079</ele>
        <time>2014-04-06T09:48:39.749000Z</time>
      </trkpt>
      <trkpt lat="38.817818" lon="121.147285">
        <ele>34.831913</ele>
        <time>2014-04-06T09:48:43.478000Z</time>
      </trkpt>
      <trkpt lat="38.81771" lon="121.14728">
        <ele>35.991272</ele>
        <time>2014-04-06T09:48:47.207000Z</time>
      </trkpt>
      <trkpt lat="38.817608" lon="121.14726">
        <ele>37.84764</ele>
        <time>2014-04-06T09:48:50.936000Z</time>
      </trkpt>
      <trkpt lat="38.817513" lon="121.14725">
        <ele>40.112247</ele>
        <time>2014-04-06T09:48:54.665000Z</time>
      </trkpt>
      <trkpt lat="38.81741" lon="121.14725">
        <ele>42.06163</ele>
        <time>2014-04-06T09:48:58.394000Z</time>
      </trkpt>
      <trkpt lat="38.81732" lon="121.14731">
        <ele>43.125164</ele>
        <time>2014-04-06T09:49:02.123000Z</time>
      </trkpt>
      <trkpt lat="38.817257" lon="121.14739">
        <ele>43.495937</ele>
        <time>2014-04-06T09:49:05.852000Z</time>
      </trkpt>
      <trkpt lat="38.81719" lon="121.14749">
        <ele>42.98203</ele>
        <time>2014-04-06T09:49:09.581000Z</time>
      </trkpt>
      <trkpt lat="38.81715" lon="121.1476">
        <ele>41.63868</ele>
        <time>2014-04-06T09:49:13.310000Z</time>
      </trkpt>
      <trkpt lat="38.817116" lon="121.14772">
        <ele>40.34467</ele>
        <time>2014-04-06T09:49:17.039000Z</time>
      </trkpt>
      <trkpt lat="38.817112" lon="121.14786">
        <ele>39.48633</ele>
        <time>2014-04-06T09:49:20.768000Z</time>
      </trkpt>
      <trkpt lat="38.81715" lon="121.14798">
        <ele>38.773003</ele>
        <time>2014-04-06T09:49:24.497000Z</time>
      </trkpt>
      <trkpt lat="38.817196" lon="121.14809">
        <ele>38.060757</ele>
        <time>2014-04-06T09:49:28.226000Z</time>
      </trkpt>
      <trkpt lat="38.817257" lon="121.148186">
        <ele>37.605896</ele>
        <time>2014-04-06T09:49:31.955000Z</time>
      </trkpt>
      <trkpt lat="38.817356" lon="121.14828">
        <ele>37.78195</ele>
        <time>2014-04-06T09:49:35.684000Z</time>
      </trkpt>
      <trkpt lat="38.81747" lon="121.14832">
        <ele>38.7508</ele>
        <time>2014-04-06T09:49:39.413000Z</time>
      </trkpt>
      <trkpt lat="38.81758" lon="121.14835">
        <ele>40.13417</ele>
        <time>2014-04-06T09:49:43.142000Z</time>
      </trkpt>
      <trkpt lat="38.81768" lon="121.14837">
        <ele>40.79893</ele>
        <time>2014-04-06T09:49:46.871000Z</time>
      </trkpt>
      <trkpt lat="38.817776" lon="121.14838">
        <ele>39.958046</ele>
        <time>2014-04-06T09:49:50.600000Z</time>
      </trkpt>
      <trkpt lat="38.817867" lon="121.14839">
        <ele>38.52207</ele>
        <time>2014-04-06T09:49:54.329000Z</time>
      </trkpt>
      <trkpt lat="38.817966" lon="121.1484">
        <ele>37.665913</ele>
        <time>2014-04-06T09:49:58.058000Z</time>
      </trkpt>
      <trkpt lat="38.818077" lon="121.14841">
        <ele>37.488766</ele>
        <time>2014-04-06T09:50:01.787000Z</time>
      </trkpt>
      <trkpt lat="38.818188" lon="121.14842">
        <ele>37.76465</ele>
        <time>2014-04-06T09:50:05.516000Z</time>
      </trkpt>
      <trkpt lat="38.8183" lon="121.148445">
        <ele>38.107224</ele>
        <time>2014-04-06T09:50:09.245000Z</time>
      </trkpt>
      <trkpt lat="38.818398" lon="121.14845">
        <ele>38.114414</ele>
        <time>2014-04-06T09:50:12.974000Z</time>
      </trkpt>
      <trkpt lat="38.8185" lon="121.148415">
        <ele>37.936234</ele>
        <time>2014-04-06T09:50:16.703000Z</time>
      </trkpt>
      <trkpt lat="38.818592" lon="121.148315">
        <ele>38.771053</ele>
        <time>2014-04-06T09:50:20.432000Z</time>
      </trkpt>
      <trkpt lat="38.818653" lon="121.1482">
        <ele>41.17073</ele>
        <time>2014-04-06T09:50:24.161000Z</time>
      </trkpt>
      <trkpt lat="38.818707" lon="121.14809">
        <ele>43.74242</ele>
        <time>2014-04-06T09:50:27.890000Z</time>
      </trkpt>
      <trkpt lat="38.818745" lon="121.14797">
        <ele>44.693905</ele>
        <time>2014-04-06T09:50:31.619000Z</time>
      </trkpt>
      <trkpt lat="38.818768" lon="121.147835">
        <ele>43.825394</ele>
        <time>2014-04-06T09:50:35.348000Z</time>
      </trkpt>
      <trkpt lat="38.81876" lon="121.1477">
        <ele>42.109833</ele>
        <time>2014-04-06T09:50:39.077000Z</time>
      </trkpt>
      <trkpt lat="38.818733" lon="121.14758">
        <ele>40.69639</ele>
        <time>2014-04-06T09:50:42.806000Z</time>
      </trkpt>
      <trkpt lat="38.81867" lon="121.14747">
        <ele>39.97914</ele>
        <time>2014-04-06T09:50:46.535000Z</time>
      </trkpt>
      <trkpt lat="38.818584" lon="121.147385">
        <ele>39.71776</ele>
        <time>2014-04-06T09:50:50.264000Z</time>
      </trkpt>
      <trkpt lat="38.818478" lon="121.14733">
        <ele>39.114944</ele>
        <time>2014-04-06T09:50:53.993000Z</time>
      </trkpt>
      <trkpt lat="38.81836" lon="121.14732">
        <ele>37.805687</ele>
        <time>2014-04-06T09:50:57.722000Z</time>
      </trkpt>
      <trkpt lat="38.81824" lon="121.147316">
        <ele>36.519737</ele>
        <time>2014-04-06T09:51:01.451000Z</time>
      </trkpt>
      <trkpt lat="38.818142" lon="121.147316">
        <ele>36.139477</ele>
        <time>2014-04-06T09:51:05.180000Z</time>
      </trkpt>
      <trkpt lat="38.81804" lon="121.14731">
        <ele>36.965294</ele>
        <time>2014-04-06T09:51:08.909000Z</time>
      </trkpt>
      <trkpt lat="38.817944" lon="121.14731">
        <ele>38.199684</ele>
        <time>2014-04-06T09:51:12.638000Z</time>
      </trkpt>
      <trkpt lat="38.817844" lon="121.1473">
        <ele>38.225315</ele>
        <time>2014-04-06T09:51:16.367000Z</time>
      </trkpt>
      <trkpt lat="38.817734" lon="121.1473">
        <ele>36.548096</ele>
        <time>2014-04-06T09:51:20.096000Z</time>
      </trkpt>
      <trkpt lat="38.817623" lon="121.1473">
        <ele>34.35872</ele>
        <time>2014-04-06T09:51:23.825000Z</time>
      </trkpt>
      <trkpt lat="38.817524" lon="121.147316">
        <ele>32.92869</ele>
        <time>2014-04-06T09:51:27.554000Z</time>
      </trkpt>
      <trkpt lat="38.81741" lon="121.14735">
        <ele>33.08071</ele>
        <time>2014-04-06T09:51:31.283000Z</time>
      </trkpt>
      <trkpt lat="38.817314" lon="121.1474">
        <ele>34.870846</ele>
        <time>2014-04-06T09:51:35.012000Z</time>
      </trkpt>
      <trkpt lat="38.81723" lon="121.1475">
        <ele>37.226044</ele>
        <time>2014-04-06T09:51:38.741000Z</time>
      </trkpt>
      <trkpt lat="38.817165" lon="121.14763">
        <ele>38.89972</ele>
        <time>2014-04-06T09:51:42.470000Z</time>
      </trkpt>
      <trkpt lat="38.81715" lon="121.14778">
        <ele>39.763603</ele>
        <time>2014-04-06T09:51:46.199000Z</time>
      </trkpt>
      <trkpt lat="38.81716" lon="121.1479">
        <ele>39.912678</ele>
        <time>2014-04-06T09:51:49.928000Z</time>
      </trkpt>
      <trkpt lat="38.817204" lon="121.148056">
        <ele>39.66872</ele>
        <time>2014-04-06T09:51:53.657000Z</time>
      </trkpt>
      <trkpt lat="38.81726" lon="121.148155">
        <ele>39.761517</ele>
        <time>2014-04-06T09:51:57.386000Z</time>
      </trkpt>
      <trkpt lat="38.817352" lon="121.148254">
        <ele>40.336636</ele>
        <time>2014-04-06T09:52:01.115000Z</time>
      </trkpt>
      <trkpt lat="38.81745" lon="121.1483">
        <ele>40.843544</ele>
        <time>2014-04-06T09:52:04.844000Z</time>
      </trkpt>
      <trkpt lat="38.81755" lon="121.148315">
        <ele>41.086193</ele>
        <time>2014-04-06T09:52:08.573000Z</time>
      </trkpt>
      <trkpt lat="38.817665" lon="121.14833">
        <ele>41.44246</ele>
        <time>2014-04-06T09:52:12.302000Z</time>
      </trkpt>
      <trkpt lat="38.817772" lon="121.14836">
        <ele>42.23078</ele>
        <time>2014-04-06T09:52:16.031000Z</time>
      </trkpt>
      <trkpt lat="38.817875" lon="121.14837">
        <ele>43.003925</ele>
        <time>2014-04-06T09:52:19.760000Z</time>
      </trkpt>
      <trkpt lat="38.817993" lon="121.14838">
        <ele>42.947773</ele>
        <time>2014-04-06T09:52:23.489000Z</time>
      </trkpt>
      <trkpt lat="38.818092" lon="121.14838">
        <ele>42.00874</ele>
        <time>2014-04-06T09:52:27.218000Z</time>
      </trkpt>
      <trkpt lat="38.8182" lon="121.148384">
        <ele>40.807255</ele>
        <time>2014-04-06T09:52:30.947000Z</time>
      </trkpt>
      <trkpt lat="38.818306" lon="121.1484">
        <ele>39.485485</ele>
        <time>2014-04-06T09:52:34.676000Z</time>
      </trkpt>
      <trkpt lat="38.818413" lon="121.14839">
        <ele>37.96506</ele>
        <time>2014-04-06T09:52:38.405000Z</time>
      </trkpt>
      <trkpt lat="38.818516" lon="121.148346">
        <ele>36.818413</ele>
        <time>2014-04-06T09:52:42.134000Z</time>
      </trkpt>
      <trkpt lat="38.818592" lon="121.14825">
        <ele>37.4547</ele>
        <time>2014-04-06T09:52:45.863000Z</time>
      </trkpt>
      <trkpt lat="38.818665" lon="121.14813">
        <ele>40.286793</ele>
        <time>2014-04-06T09:52:49.592000Z</time>
      </trkpt>
      <trkpt lat="38.818714" lon="121.148026">
        <ele>43.399548</ele>
        <time>2014-04-06T09:52:53.321000Z</time>
      </trkpt>
      <trkpt lat="38.818745" lon="121.14791">
        <ele>44.333572</ele>
        <time>2014-04-06T09:52:57.050000Z</time>
      </trkpt>
      <trkpt lat="38.81876" lon="121.147766">
        <ele>42.929825</ele>
        <time>2014-04-06T09:53:00.779000Z</time>
      </trkpt>
      <trkpt lat="38.818756" lon="121.147644">
        <ele>40.933426</ele>
        <time>2014-04-06T09:53:04.508000Z</time>
      </trkpt>
      <trkpt lat="38.818714" lon="121.147514">
        <ele>39.812565</ele>
        <time>2014-04-06T09:53:08.237000Z</time>
      </trkpt>
      <trkpt lat="38.818634" lon="121.14742">
        <ele>39.532158</ele>
        <time>2014-04-06T09:53:11.966000Z</time>
      </trkpt>
      <trkpt lat="38.81855" lon="121.14734">
        <ele>39.89883</ele>
        <time>2014-04-06T09:53:15.695000Z</time>
      </trkpt>
      <trkpt lat="38.818443" lon="121.147316">
        <ele>40.732746</ele>
        <time>2014-04-06T09:53:19.424000Z</time>
      </trkpt>
      <trkpt lat="38.81833" lon="121.14729">
        <ele>41.05535</ele>
        <time>2014-04-06T09:53:23.153000Z</time>
      </trkpt>
      <trkpt lat="38.818237" lon="121.14729">
        <ele>39.922153</ele>
        <time>2014-04-06T09:53:26.882000Z</time>
      </trkpt>
      <trkpt lat="38.818146" lon="121.14729">
        <ele>37.983826</ele>
        <time>2014-04-06T09:53:30.611000Z</time>
      </trkpt>
      <trkpt lat="38.818024" lon="121.1473">
        <ele>36.926094</ele>
        <time>2014-04-06T09:53:34.340000Z</time>
      </trkpt>
      <trkpt lat="38.817905" lon="121.147285">
        <ele>37.36165</ele>
        <time>2014-04-06T09:53:38.069000Z</time>
      </trkpt>
      <trkpt lat="38.817814" lon="121.14728">
        <ele>38.356876</ele>
        <time>2014-04-06T09:53:41.798000Z</time>
      </trkpt>
      <trkpt lat="38.817696" lon="121.14727">
        <ele>39.212543</ele>
        <time>2014-04-06T09:53:45.527000Z</time>
      </trkpt>
      <trkpt lat="38.817585" lon="121.14725">
        <ele>40.244328</ele>
        <time>2014-04-06T09:53:49.256000Z</time>
      </trkpt>
      <trkpt lat="38.817474" lon="121.14723">
        <ele>42.410614</ele>
        <time>2014-04-06T09:53:52.985000Z</time>
      </trkpt>
      <trkpt lat="38.81736" lon="121.14725">
        <ele>46.260284</ele>
        <time>2014-04-06T09:53:56.714000Z</time>
      </trkpt>
      <trkpt lat="38.81728" lon="121.14731">
        <ele>50.430058</ele>
        <time>2014-04-06T09:54:00.443000Z</time>
      </trkpt>
      <trkpt lat="38.81721" lon="121.14739">
        <ele>52.846237</ele>
        <time>2014-04-06T09:54:04.172000Z</time>
      </trkpt>
      <trkpt lat="38.81716" lon="121.14753">
        <ele>52.668613</ele>
        <time>2014-04-06T09:54:07.901000Z</time>
      </trkpt>
      <trkpt lat="38.817135" lon="121.147675">
        <ele>49.59192</ele>
        <time>2014-04-06T09:54:11.630000Z</time>
      </trkpt>
      <trkpt lat="38.81713" lon="121.147804">
        <ele>44.76871</ele>
        <time>2014-04-06T09:54:15.359000Z</time>
      </trkpt>
      <trkpt lat="38.817146" lon="121.14792">
        <ele>40.90321</ele>
        <time>2014-04-06T09:54:19.088000Z</time>
      </trkpt>
      <trkpt lat="38.8172" lon="121.14806">
        <ele>38.763187</ele>
        <time>2014-04-06T09:54:22.817000Z</time>
      </trkpt>
      <trkpt lat="38.817257" lon="121.14816">
        <ele>36.856403</ele>
        <time>2014-04-06T09:54:26.546000Z</time>
      </trkpt>
      <trkpt lat="38.817345" lon="121.14825">
        <ele>34.81564</ele>
        <time>2014-04-06T09:54:30.275000Z</time>
      </trkpt>
      <trkpt lat="38.817444" lon="121.14829">
        <ele>34.068394</ele>
        <time>2014-04-06T09:54:34.004000Z</time>
      </trkpt>
      <trkpt lat="38.81753" lon="121.14833">
        <ele>35.427612</ele>
        <time>2014-04-06T09:54:37.733000Z</time>
      </trkpt>
      <trkpt lat="38.81765" lon="121.14835">
        <ele>37.657154</ele>
        <time>2014-04-06T09:54:41.462000Z</time>
      </trkpt>
      <trkpt lat="38.81774" lon="121.14837">
        <ele>38.990124</ele>
        <time>2014-04-06T09:54:45.191000Z</time>
      </trkpt>
      <trkpt lat="38.817844" lon="121.14838">
        <ele>39.055164</ele>
        <time>2014-04-06T09:54:48.920000Z</time>
      </trkpt>
      <trkpt lat="38.81794" lon="121.148384">
        <ele>38.561234</ele>
        <time>2014-04-06T09:54:52.649000Z</time>
      </trkpt>
      <trkpt lat="38.818035" lon="121.148415">
        <ele>37.647266</ele>
        <time>2014-04-06T09:54:56.378000Z</time>
      </trkpt>
      <trkpt lat="38.818127" lon="121.14843">
        <ele>36.05304</ele>
        <time>2014-04-06T09:55:00.107000Z</time>
      </trkpt>
      <trkpt lat="38.81824" lon="121.148445">
        <ele>34.448154</ele>
        <time>2014-04-06T09:55:03.836000Z</time>
      </trkpt>
      <trkpt lat="38.81834" lon="121.14845">
        <ele>34.268116</ele>
        <time>2014-04-06T09:55:07.565000Z</time>
      </trkpt>
      <trkpt lat="38.818428" lon="121.14844">
        <ele>35.793175</ele>
        <time>2014-04-06T09:55:11.293000Z</time>
      </trkpt>
      <trkpt lat="38.818542" lon="121.148384">
        <ele>37.953712</ele>
        <time>2014-04-06T09:55:15.021000Z</time>
      </trkpt>
      <trkpt lat="38.81861" lon="121.1483">
        <ele>40.137936</ele>
        <time>2014-04-06T09:55:18.749000Z</time>
      </trkpt>
      <trkpt lat="38.818684" lon="121.14818">
        <ele>42.24522</ele>
        <time>2014-04-06T09:55:22.477000Z</time>
      </trkpt>
      <trkpt lat="38.818733" lon="121.14803">
        <ele>43.263405</ele>
        <time>2014-04-06T09:55:26.205000Z</time>
      </trkpt>
      <trkpt lat="38.818752" lon="121.14792">
        <ele>42.44774</ele>
        <time>2014-04-06T09:55:29.933000Z</time>
      </trkpt>
      <trkpt lat="38.818768" lon="121.14779">
        <ele>40.321503</ele>
        <time>2014-04-06T09:55:33.661000Z</time>
      </trkpt>
      <trkpt lat="38.81875" lon="121.14764">
        <ele>38.076797</ele>
        <time>2014-04-06T09:55:37.389000Z</time>
      </trkpt>
      <trkpt lat="38.818703" lon="121.14752">
        <ele>36.470753</ele>
        <time>2014-04-06T09:55:41.117000Z</time>
      </trkpt>
      <trkpt lat="38.818638" lon="121.14743">
        <ele>35.719925</ele>
        <time>2014-04-06T09:55:44.845000Z</time>
      </trkpt>
      <trkpt lat="38.818546" lon="121.147354">
        <ele>36.184822</ele>
        <time>2014-04-06T09:55:48.573000Z</time>
      </trkpt>
      <trkpt lat="38.818447" lon="121.147316">
        <ele>37.88366</ele>
        <time>2014-04-06T09:55:52.301000Z</time>
      </trkpt>
      <trkpt lat="38.81835" lon="121.14731">
        <ele>39.775978</ele>
        <time>2014-04-06T09:55:56.029000Z</time>
      </trkpt>
      <trkpt lat="38.818256" lon="121.14731">
        <ele>40.631504</ele>
        <time>2014-04-06T09:55:59.757000Z</time>
      </trkpt>
      <trkpt lat="38.818165" lon="121.1473">
        <ele>40.1287</ele>
        <time>2014-04-06T09:56:03.485000Z</time>
      </trkpt>
      <trkpt lat="38.81806" lon="121.1473">
        <ele>38.433773</ele>
        <time>2014-04-06T09:56:07.213000Z</time>
      </trkpt>
      <trkpt lat="38.81797" lon="121.14729">
        <ele>35.987442</ele>
        <time>2014-04-06T09:56:10.941000Z</time>
      </trkpt>
      <trkpt lat="38.81786" lon="121.147285">
        <ele>33.67664</ele>
        <time>2014-04-06T09:56:14.669000Z</time>
      </trkpt>
      <trkpt lat="38.817764" lon="121.147285">
        <ele>32.36572</ele>
        <time>2014-04-06T09:56:18.397000Z</time>
      </trkpt>
      <trkpt lat="38.817657" lon="121.147285">
        <ele>32.133938</ele>
        <time>2014-04-06T09:56:22.125000Z</time>
      </trkpt>
      <trkpt lat="38.817554" lon="121.14728">
        <ele>32.640057</ele>
        <time>2014-04-06T09:56:25.853000Z</time>
      </trkpt>
      <trkpt lat="38.81746" lon="121.14728">
        <ele>34.100563</ele>
        <time>2014-04-06T09:56:29.581000Z</time>
      </trkpt>
      <trkpt lat="38.81735" lon="121.14732">
        <ele>36.52124</ele>
        <time>2014-04-06T09:56:33.309000Z</time>
      </trkpt>
      <trkpt lat="38.817272" lon="121.1474">
        <ele>38.690296</ele>
        <time>2014-04-06T09:56:37.037000Z</time>
      </trkpt>
      <trkpt lat="38.817196" lon="121.147514">
        <ele>39.730064</ele>
        <time>2014-04-06T09:56:40.765000Z</time>
      </trkpt>
      <trkpt lat="38.817158" lon="121.14763">
        <ele>39.934845</ele>
        <time>2014-04-06T09:56:44.493000Z</time>
      </trkpt>
      <trkpt lat="38.817142" lon="121.14777">
        <ele>39.546078</ele>
        <time>2014-04-06T09:56:48.221000Z</time>
      </trkpt>
      <trkpt lat="38.817142" lon="121.1479">
        <ele>38.74123</ele>
        <time>2014-04-06T09:56:51.949000Z</time>
      </trkpt>
      <trkpt lat="38.817177" lon="121.14801">
        <ele>38.003956</ele>
        <time>2014-04-06T09:56:55.677000Z</time>
      </trkpt>
      <trkpt lat="38.817245" lon="121.1481">
        <ele>37.615585</ele>
        <time>2014-04-06T09:56:59.405000Z</time>
      </trkpt>
      <trkpt lat="38.817326" lon="121.14818">
        <ele>37.170006</ele>
        <time>2014-04-06T09:57:03.133000Z</time>
      </trkpt>
      <trkpt lat="38.81741" lon="121.14825">
        <ele>36.285267</ele>
        <time>2014-04-06T09:57:06.861000Z</time>
      </trkpt>
      <trkpt lat="38.81751" lon="121.14829">
        <ele>35.239994</ele>
        <time>2014-04-06T09:57:10.589000Z</time>
      </trkpt>
      <trkpt lat="38.8176" lon="121.14832">
        <ele>34.634922</ele>
        <time>2014-04-06T09:57:14.317000Z</time>
      </trkpt>
      <trkpt lat="38.817696" lon="121.14835">
        <ele>34.60653</ele>
        <time>2014-04-06T09:57:18.045000Z</time>
      </trkpt>
      <trkpt lat="38.8178" lon="121.14835">
        <ele>34.43551</ele>
        <time>2014-04-06T09:57:21.773000Z</time>
      </trkpt>
      <trkpt lat="38.817894" lon="121.14838">
        <ele>33.0446</ele>
        <time>2014-04-06T09:57:25.501000Z</time>
      </trkpt>
      <trkpt lat="38.818005" lon="121.14839">
        <ele>30.646255</ele>
        <time>2014-04-06T09:57:29.229000Z</time>
      </trkpt>
      <trkpt lat="38.8181" lon="121.148415">
        <ele>29.121914</ele>
        <time>2014-04-06T09:57:32.957000Z</time>
      </trkpt>
      <trkpt lat="38.818203" lon="121.14843">
        <ele>29.7721</ele>
        <time>2014-04-06T09:57:36.685000Z</time>
      </trkpt>
      <trkpt lat="38.818325" lon="121.14843">
        <ele>31.796055</ele>
        <time>2014-04-06T09:57:40.413000Z</time>
      </trkpt>
      <trkpt lat="38.818428" lon="121.14842">
        <ele>33.76138</ele>
        <time>2014-04-06T09:57:44.141000Z</time>
      </trkpt>
      <trkpt lat="38.81852" lon="121.148384">
        <ele>35.112377</ele>
        <time>2014-04-06T09:57:47.869000Z</time>
      </trkpt>
      <trkpt lat="38.818607" lon="121.148285">
        <ele>36.67667</ele>
        <time>2014-04-06T09:57:51.597000Z</time>
      </trkpt>
      <trkpt lat="38.81868" lon="121.14816">
        <ele>39.04847</ele>
        <time>2014-04-06T09:57:55.325000Z</time>
      </trkpt>
      <trkpt lat="38.818726" lon="121.14806">
        <ele>41.05399</ele>
        <time>2014-04-06T09:57:59.053000Z</time>
      </trkpt>
      <trkpt lat="38.81875" lon="121.14794">
        <ele>41.243385</ele>
        <time>2014-04-06T09:58:02.781000Z</time>
      </trkpt>
      <trkpt lat="38.818756" lon="121.14781">
        <ele>39.980667</ele>
        <time>2014-04-06T09:58:06.509000Z</time>
      </trkpt>
      <trkpt lat="38.818737" lon="121.147675">
        <ele>38.56204</ele>
        <time>2014-04-06T09:58:10.237000Z</time>
      </trkpt>
      <trkpt lat="38.818687" lon="121.14755">
        <ele>37.942963</ele>
        <time>2014-04-06T09:58:13.965000Z</time>
      </trkpt>
      <trkpt lat="38.818615" lon="121.14745">
        <ele>38.152523</ele>
        <time>2014-04-06T09:58:17.693000Z</time>
      </trkpt>
      <trkpt lat="38.81851" lon="121.14737">
        <ele>38.65669</ele>
        <time>2014-04-06T09:58:21.421000Z</time>
      </trkpt>
      <trkpt lat="38.818405" lon="121.14735">
        <ele>38.724403</ele>
        <time>2014-04-06T09:58:25.149000Z</time>
      </trkpt>
      <trkpt lat="38.818283" lon="121.14732">
        <ele>37.506714</ele>
        <time>2014-04-06T09:58:28.877000Z</time>
      </trkpt>
      <trkpt lat="38.818176" lon="121.14732">
        <ele>34.777866</ele>
        <time>2014-04-06T09:58:32.605000Z</time>
      </trkpt>
      <trkpt lat="38.81806" lon="121.147316">
        <ele>31.797287</ele>
        <time>2014-04-06T09:58:36.333000Z</time>
      </trkpt>
      <trkpt lat="38.817966" lon="121.14729">
        <ele>29.973728</ele>
        <time>2014-04-06T09:58:40.061000Z</time>
      </trkpt>
      <trkpt lat="38.817875" lon="121.147285">
        <ele>29.579718</ele>
        <time>2014-04-06T09:58:43.789000Z</time>
      </trkpt>
      <trkpt lat="38.81776" lon="121.14728">
        <ele>30.07799</ele>
        <time>2014-04-06T09:58:47.517000Z</time>
      </trkpt>
      <trkpt lat="38.817654" lon="121.14728">
        <ele>30.713364</ele>
        <time>2014-04-06T09:58:51.245000Z</time>
      </trkpt>
      <trkpt lat="38.81754" lon="121.147285">
        <ele>31.140228</ele>
        <time>2014-04-06T09:58:54.973000Z</time>
      </trkpt>
      <trkpt lat="38.817413" lon="121.14728">
        <ele>32.565727</ele>
        <time>2014-04-06T09:58:58.701000Z</time>
      </trkpt>
      <trkpt lat="38.81731" lon="121.14734">
        <ele>35.960644</ele>
        <time>2014-04-06T09:59:02.429000Z</time>
      </trkpt>
      <trkpt lat="38.817223" lon="121.14744">
        <ele>39.751225</ele>
        <time>2014-04-06T09:59:06.157000Z</time>
      </trkpt>
      <trkpt lat="38.81717" lon="121.14755">
        <ele>40.84874</ele>
        <time>2014-04-06T09:59:09.885000Z</time>
      </trkpt>
      <trkpt lat="38.81713" lon="121.14771">
        <ele>38.611637</ele>
        <time>2014-04-06T09:59:13.613000Z</time>
      </trkpt>
      <trkpt lat="38.81713" lon="121.147865">
        <ele>36.064598</ele>
        <time>2014-04-06T09:59:17.341000Z</time>
      </trkpt>
      <trkpt lat="38.817146" lon="121.14798">
        <ele>35.754753</ele>
        <time>2014-04-06T09:59:21.069000Z</time>
      </trkpt>
      <trkpt lat="38.8172" lon="121.14811">
        <ele>36.772655</ele>
        <time>2014-04-06T09:59:24.797000Z</time>
      </trkpt>
      <trkpt lat="38.81728" lon="121.14822">
        <ele>37.455193</ele>
        <time>2014-04-06T09:59:28.525000Z</time>
      </trkpt>
      <trkpt lat="38.817394" lon="121.14829">
        <ele>37.36621</ele>
        <time>2014-04-06T09:59:32.253000Z</time>
      </trkpt>
      <trkpt lat="38.81752" lon="121.14834">
        <ele>37.6719</ele>
        <time>2014-04-06T09:59:35.981000Z</time>
      </trkpt>
      <trkpt lat="38.817642" lon="121.14836">
        <ele>39.28139</ele>
        <time>2014-04-06T09:59:39.709000Z</time>
      </trkpt>
      <trkpt lat="38.81776" lon="121.148384">
        <ele>40.98435</ele>
        <time>2014-04-06T09:59:43.437000Z</time>
      </trkpt>
      <trkpt lat="38.81788" lon="121.14841">
        <ele>40.99446</ele>
        <time>2014-04-06T09:59:47.165000Z</time>
      </trkpt>
      <trkpt lat="38.818" lon="121.14842">
        <ele>39.380596</ele>
        <time>2014-04-06T09:59:50.893000Z</time>
      </trkpt>
      <trkpt lat="38.81812" lon="121.14844">
        <ele>37.746326</ele>
        <time>2014-04-06T09:59:54.621000Z</time>
      </trkpt>
      <trkpt lat="38.818233" lon="121.14845">
        <ele>37.188225</ele>
        <time>2014-04-06T09:59:58.349000Z</time>
      </trkpt>
      <trkpt lat="38.81834" lon="121.14846">
        <ele>37.248085</ele>
        <time>2014-04-06T10:00:02.077000Z</time>
      </trkpt>
      <trkpt lat="38.818436" lon="121.148476">
        <ele>36.872757</ele>
        <time>2014-04-06T10:00:05.805000Z</time>
      </trkpt>
      <trkpt lat="38.81854" lon="121.14844">
        <ele>36.13746</ele>
        <time>2014-04-06T10:00:09.533000Z</time>
      </trkpt>
      <trkpt lat="38.818638" lon="121.14836">
        <ele>36.2486</ele>
        <time>2014-04-06T10:00:13.261000Z</time>
      </trkpt>
      <trkpt lat="38.818737" lon="121.148186">
        <ele>37.345406</ele>
        <time>2014-04-06T10:00:16.989000Z</time>
      </trkpt>
      <trkpt lat="38.818775" lon="121.14807">
        <ele>38.153873</ele>
        <time>2014-04-06T10:00:20.717000Z</time>
      </trkpt>
      <trkpt lat="38.818798" lon="121.147865">
        <ele>38.06818</ele>
        <time>2014-04-06T10:00:24.445000Z</time>
      </trkpt>
      <trkpt lat="38.818783" lon="121.147705">
        <ele>37.36169</ele>
        <time>2014-04-06T10:00:28.173000Z</time>
      </trkpt>
      <trkpt lat="38.81874" lon="121.147545">
        <ele>36.77943</ele>
        <time>2014-04-06T10:00:31.901000Z</time>
      </trkpt>
      <trkpt lat="38.818653" lon="121.147415">
        <ele>36.9041</ele>
        <time>2014-04-06T10:00:35.629000Z</time>
      </trkpt>
      <trkpt lat="38.818565" lon="121.147354">
        <ele>38.2312</ele>
        <time>2014-04-06T10:00:39.357000Z</time>
      </trkpt>
      <trkpt lat="38.81847" lon="121.147316">
        <ele>40.604</ele>
        <time>2014-04-06T10:00:43.085000Z</time>
      </trkpt>
      <trkpt lat="38.81838" lon="121.14729">
        <ele>41.997658</ele>
        <time>2014-04-06T10:00:46.813000Z</time>
      </trkpt>
      <trkpt lat="38.818283" lon="121.147285">
        <ele>40.92206</ele>
        <time>2014-04-06T10:00:50.541000Z</time>
      </trkpt>
      <trkpt lat="38.81815" lon="121.14726">
        <ele>38.930428</ele>
        <time>2014-04-06T10:00:54.269000Z</time>
      </trkpt>
      <trkpt lat="38.818027" lon="121.14725">
        <ele>37.794773</ele>
        <time>2014-04-06T10:00:57.997000Z</time>
      </trkpt>
      <trkpt lat="38.81792" lon="121.14724">
        <ele>38.022255</ele>
        <time>2014-04-06T10:01:01.725000Z</time>
      </trkpt>
      <trkpt lat="38.81779" lon="121.147224">
        <ele>40.062286</ele>
        <time>2014-04-06T10:01:05.453000Z</time>
      </trkpt>
      <trkpt lat="38.817665" lon="121.14721">
        <ele>43.583015</ele>
        <time>2014-04-06T10:01:09.181000Z</time>
      </trkpt>
      <trkpt lat="38.817535" lon="121.1472">
        <ele>47.455097</ele>
        <time>2014-04-06T10:01:12.909000Z</time>
      </trkpt>
      <trkpt lat="38.817432" lon="121.1472">
        <ele>50.663113</ele>
        <time>2014-04-06T10:01:16.637000Z</time>
      </trkpt>
      <trkpt lat="38.817345" lon="121.14725">
        <ele>52.36548</ele>
        <time>2014-04-06T10:01:20.365000Z</time>
      </trkpt>
      <trkpt lat="38.817265" lon="121.147316">
        <ele>52.41636</ele>
        <time>2014-04-06T10:01:24.093000Z</time>
      </trkpt>
      <trkpt lat="38.817173" lon="121.14746">
        <ele>51.458893</ele>
        <time>2014-04-06T10:01:27.821000Z</time>
      </trkpt>
      <trkpt lat="38.817135" lon="121.14758">
        <ele>49.05559</ele>
        <time>2014-04-06T10:01:31.549000Z</time>
      </trkpt>
      <trkpt lat="38.81711" lon="121.14777">
        <ele>45.10577</ele>
        <time>2014-04-06T10:01:35.277000Z</time>
      </trkpt>
      <trkpt lat="38.817123" lon="121.14794">
        <ele>41.562572</ele>
        <time>2014-04-06T10:01:39.005000Z</time>
      </trkpt>
      <trkpt lat="38.817154" lon="121.14806">
        <ele>39.939</ele>
        <time>2014-04-06T10:01:42.733000Z</time>
      </trkpt>
      <trkpt lat="38.817234" lon="121.14821">
        <ele>39.73162</ele>
        <time>2014-04-06T10:01:46.461000Z</time>
      </trkpt>
      <trkpt lat="38.81731" lon="121.1483">
        <ele>40.063652</ele>
        <time>2014-04-06T10:01:50.189000Z</time>
      </trkpt>
      <trkpt lat="38.817398" lon="121.14835">
        <ele>41.181175</ele>
        <time>2014-04-06T10:01:53.917000Z</time>
      </trkpt>
      <trkpt lat="38.817535" lon="121.14836">
        <ele>43.369423</ele>
        <time>2014-04-06T10:01:57.645000Z</time>
      </trkpt>
      <trkpt lat="38.817684" lon="121.14838">
        <ele>44.662315</ele>
        <time>2014-04-06T10:02:01.373000Z</time>
      </trkpt>
      <trkpt lat="38.81781" lon="121.148384">
        <ele>43.225636</ele>
        <time>2014-04-06T10:02:05.101000Z</time>
      </trkpt>
      <trkpt lat="38.81794" lon="121.14838">
        <ele>40.29264</ele>
        <time>2014-04-06T10:02:08.829000Z</time>
      </trkpt>
      <trkpt lat="38.81803" lon="121.14838">
        <ele>37.751163</ele>
        <time>2014-04-06T10:02:12.557000Z</time>
      </trkpt>
      <trkpt lat="38.818153" lon="121.14839">
        <ele>36.18298</ele>
        <time>2014-04-06T10:02:16.285000Z</time>
      </trkpt>
      <trkpt lat="38.818283" lon="121.1484">
        <ele>35.925804</ele>
        <time>2014-04-06T10:02:20.013000Z</time>
      </trkpt>
      <trkpt lat="38.81838" lon="121.14841">
        <ele>36.88841</ele>
        <time>2014-04-06T10:02:23.741000Z</time>
      </trkpt>
      <trkpt lat="38.818485" lon="121.14839">
        <ele>38.110195</ele>
        <time>2014-04-06T10:02:27.469000Z</time>
      </trkpt>
      <trkpt lat="38.818584" lon="121.14835">
        <ele>39.08872</ele>
        <time>2014-04-06T10:02:31.197000Z</time>
      </trkpt>
      <trkpt lat="38.8187" lon="121.1482">
        <ele>40.576893</ele>
        <time>2014-04-06T10:02:34.925000Z</time>
      </trkpt>
      <trkpt lat="38.81877" lon="121.14803">
        <ele>42.75448</ele>
        <time>2014-04-06T10:02:38.653000Z</time>
      </trkpt>
      <trkpt lat="38.81879" lon="121.147865">
        <ele>43.952206</ele>
        <time>2014-04-06T10:02:42.381000Z</time>
      </trkpt>
      <trkpt lat="38.818787" lon="121.14774">
        <ele>43.122456</ele>
        <time>2014-04-06T10:02:46.109000Z</time>
      </trkpt>
      <trkpt lat="38.818752" lon="121.14756">
        <ele>41.701206</ele>
        <time>2014-04-06T10:02:49.837000Z</time>
      </trkpt>
      <trkpt lat="38.818676" lon="121.14744">
        <ele>41.13398</ele>
        <time>2014-04-06T10:02:53.565000Z</time>
      </trkpt>
      <trkpt lat="38.81857" lon="121.14735">
        <ele>41.158924</ele>
        <time>2014-04-06T10:02:57.293000Z</time>
      </trkpt>
      <trkpt lat="38.818436" lon="121.14729">
        <ele>40.683475</ele>
        <time>2014-04-06T10:03:01.021000Z</time>
      </trkpt>
      <trkpt lat="38.818314" lon="121.14728">
        <ele>39.33871</ele>
        <time>2014-04-06T10:03:04.749000Z</time>
      </trkpt>
      <trkpt lat="38.818176" lon="121.14725">
        <ele>37.986015</ele>
        <time>2014-04-06T10:03:08.477000Z</time>
      </trkpt>
      <trkpt lat="38.818047" lon="121.14723">
        <ele>37.409374</ele>
        <time>2014-04-06T10:03:12.205000Z</time>
      </trkpt>
      <trkpt lat="38.817924" lon="121.14721">
        <ele>38.730854</ele>
        <time>2014-04-06T10:03:15.933000Z</time>
      </trkpt>
      <trkpt lat="38.81779" lon="121.1472">
        <ele>42.716618</ele>
        <time>2014-04-06T10:03:19.661000Z</time>
      </trkpt>
      <trkpt lat="38.817646" lon="121.14719">
        <ele>47.68068</ele>
        <time>2014-04-06T10:03:23.389000Z</time>
      </trkpt>
      <trkpt lat="38.81754" lon="121.1472">
        <time>2014-04-06T10:03:27.117000Z</time>
      </trkpt>
    </trkseg>
  </trk>
</gpx>