<?xml version="1.0" encoding="UTF-8"?>
<gpx xmlns="http://www.topografix.com/GPX/1/1" xmlns:gpxtpx="http://www.garmin.com/xmlschemas/TrackPointExtension/v1" xmlns:xsi="http://www.w3.org/2001/XMLSchema-instance" xsi:schemaLocation="http://www.topografix.com/GPX/1/1 http://www.topografix.com/GPX/1/1/gpx.xsd" version="1.1" creator="gpx.py -- https://github.com/tkrajina/gpxpy">
  <trk>
    <trkseg>
      <trkpt lat="38.818363" lon="121.147385">
        <ele>58.67857</ele>
        <time>2014-03-31T09:28:31.010000Z</time>
      </trkpt>
      <trkpt lat="38.818348" lon="121.147385">
        <ele>57.11392</ele>
        <time>2014-03-31T09:28:34.124000Z</time>
      </trkpt>
      <trkpt lat="38.81824" lon="121.14736">
        <ele>56.119034</ele>
        <time>2014-03-31T09:28:37.238000Z</time>
      </trkpt>
      <trkpt lat="38.818142" lon="121.14735">
        <ele>54.683758</ele>
        <time>2014-03-31T09:28:40.352000Z</time>
      </trkpt>
      <trkpt lat="38.818047" lon="121.14733">
        <ele>55.033543</ele>
        <time>2014-03-31T09:28:43.466000Z</time>
      </trkpt>
      <trkpt lat="38.81794" lon="121.14732">
        <ele>55.631386</ele>
        <time>2014-03-31T09:28:46.580000Z</time>
      </trkpt>
      <trkpt lat="38.817833" lon="121.14733">
        <ele>55.851974</ele>
        <time>2014-03-31T09:28:49.694000Z</time>
      </trkpt>
      <trkpt lat="38.817722" lon="121.14732">
        <ele>54.552746</ele>
        <time>2014-03-31T09:28:52.808000Z</time>
      </trkpt>
      <trkpt lat="38.817616" lon="121.14733">
        <ele>51.209873</ele>
        <time>2014-03-31T09:28:55.922000Z</time>
      </trkpt>
      <trkpt lat="38.817513" lon="121.14732">
        <ele>47.719704</ele>
        <time>2014-03-31T09:28:59.036000Z</time>
      </trkpt>
      <trkpt lat="38.81739" lon="121.14733">
        <ele>46.27491</ele>
        <time>2014-03-31T09:29:02.150000Z</time>
      </trkpt>
      <trkpt lat="38.817287" lon="121.147385">
        <ele>47.42543</ele>
        <time>2014-03-31T09:29:05.264000Z</time>
      </trkpt>
      <trkpt lat="38.81721" lon="121.147514">
        <ele>50.215572</ele>
        <time>2014-03-31T09:29:08.378000Z</time>
      </trkpt>
      <trkpt lat="38.817173" lon="121.14766">
        <ele>53.244366</ele>
        <time>2014-03-31T09:29:11.492000Z</time>
      </trkpt>
      <trkpt lat="38.817154" lon="121.147804">
        <ele>55.528885</ele>
        <time>2014-03-31T09:29:14.606000Z</time>
      </trkpt>
      <trkpt lat="38.81715" lon="121.14794">
        <ele>56.43016</ele>
        <time>2014-03-31T09:29:17.720000Z</time>
      </trkpt>
      <trkpt lat="38.817173" lon="121.14809">
        <ele>56.168045</ele>
        <time>2014-03-31T09:29:20.834000Z</time>
      </trkpt>
      <trkpt lat="38.817245" lon="121.14823">
        <ele>55.723057</ele>
        <time>2014-03-31T09:29:23.948000Z</time>
      </trkpt>
      <trkpt lat="38.817337" lon="121.14834">
        <ele>55.479343</ele>
        <time>2014-03-31T09:29:27.062000Z</time>
      </trkpt>
      <trkpt lat="38.817444" lon="121.14838">
        <ele>55.417892</ele>
        <time>2014-03-31T09:29:30.176000Z</time>
      </trkpt>
      <trkpt lat="38.817547" lon="121.14839">
        <ele>55.2675</ele>
        <time>2014-03-31T09:29:33.290000Z</time>
      </trkpt>
      <trkpt lat="38.81764" lon="121.14839">
        <ele>54.72264</ele>
        <time>2014-03-31T09:29:36.404000Z</time>
      </trkpt>
      <trkpt lat="38.817738" lon="121.14839">
        <ele>53.616543</ele>
        <time>2014-03-31T09:29:39.518000Z</time>
      </trkpt>
      <trkpt lat="38.817833" lon="121.1484">
        <ele>52.25953</ele>
        <time>2014-03-31T09:29:42.632000Z</time>
      </trkpt>
      <trkpt lat="38.817924" lon="121.148384">
        <ele>51.04344</ele>
        <time>2014-03-31T09:29:45.746000Z</time>
      </trkpt>
      <trkpt lat="38.81803" lon="121.148384">
        <ele>50.109394</ele>
        <time>2014-03-31T09:29:48.860000Z</time>
      </trkpt>
      <trkpt lat="38.81814" lon="121.148384">
        <ele>49.509212</ele>
        <time>2014-03-31T09:29:51.974000Z</time>
      </trkpt>
      <trkpt lat="38.818233" lon="121.14838">
        <ele>49.021664</ele>
        <time>2014-03-31T09:29:55.088000Z</time>
      </trkpt>
      <trkpt lat="38.81835" lon="121.148346">
        <ele>48.31266</ele>
        <time>2014-03-31T09:29:58.202000Z</time>
      </trkpt>
      <trkpt lat="38.818443" lon="121.14831">
        <ele>47.54144</ele>
        <time>2014-03-31T09:30:01.316000Z</time>
      </trkpt>
      <trkpt lat="38.818535" lon="121.148224">
        <ele>46.841774</ele>
        <time>2014-03-31T09:30:04.430000Z</time>
      </trkpt>
      <trkpt lat="38.818604" lon="121.148125">
        <ele>45.681915</ele>
        <time>2014-03-31T09:30:07.544000Z</time>
      </trkpt>
      <trkpt lat="38.818653" lon="121.14801">
        <ele>43.899204</ele>
        <time>2014-03-31T09:30:10.658000Z</time>
      </trkpt>
      <trkpt lat="38.818687" lon="121.14787">
        <ele>42.372932</ele>
        <time>2014-03-31T09:30:13.772000Z</time>
      </trkpt>
      <trkpt lat="38.81871" lon="121.14775">
        <ele>42.124687</ele>
        <time>2014-03-31T09:30:16.886000Z</time>
      </trkpt>
      <trkpt lat="38.818703" lon="121.14763">
        <ele>43.232296</ele>
        <time>2014-03-31T09:30:20Z</time>
      </trkpt>
      <trkpt lat="38.818623" lon="121.14753">
        <ele>45.0946</ele>
        <time>2014-03-31T09:30:23.114000Z</time>
      </trkpt>
      <trkpt lat="38.818512" lon="121.14748">
        <ele>46.912148</ele>
        <time>2014-03-31T09:30:26.228000Z</time>
      </trkpt>
      <trkpt lat="38.81841" lon="121.147446">
        <ele>47.82873</ele>
        <time>2014-03-31T09:30:29.342000Z</time>
      </trkpt>
      <trkpt lat="38.818287" lon="121.14742">
        <ele>47.412476</ele>
        <time>2014-03-31T09:30:32.456000Z</time>
      </trkpt>
      <trkpt lat="38.818165" lon="121.14741">
        <ele>45.938904</ele>
        <time>2014-03-31T09:30:35.570000Z</time>
      </trkpt>
      <trkpt lat="38.81805" lon="121.14739">
        <ele>43.899906</ele>
        <time>2014-03-31T09:30:38.684000Z</time>
      </trkpt>
      <trkpt lat="38.81795" lon="121.147385">
        <ele>42.036163</ele>
        <time>2014-03-31T09:30:41.798000Z</time>
      </trkpt>
      <trkpt lat="38.817825" lon="121.147354">
        <ele>41.606762</ele>
        <time>2014-03-31T09:30:44.912000Z</time>
      </trkpt>
      <trkpt lat="38.8177" lon="121.14734">
        <ele>42.95676</ele>
        <time>2014-03-31T09:30:48.026000Z</time>
      </trkpt>
      <trkpt lat="38.81759" lon="121.14732">
        <ele>45.02546</ele>
        <time>2014-03-31T09:30:51.140000Z</time>
      </trkpt>
      <trkpt lat="38.81745" lon="121.14732">
        <ele>46.73422</ele>
        <time>2014-03-31T09:30:54.254000Z</time>
      </trkpt>
      <trkpt lat="38.817345" lon="121.14733">
        <ele>47.9021</ele>
        <time>2014-03-31T09:30:57.368000Z</time>
      </trkpt>
      <trkpt lat="38.817257" lon="121.14744">
        <ele>49.0989</ele>
        <time>2014-03-31T09:31:00.482000Z</time>
      </trkpt>
      <trkpt lat="38.817207" lon="121.147545">
        <ele>51.020443</ele>
        <time>2014-03-31T09:31:03.596000Z</time>
      </trkpt>
      <trkpt lat="38.817158" lon="121.14773">
        <ele>53.202972</ele>
        <time>2014-03-31T09:31:06.710000Z</time>
      </trkpt>
      <trkpt lat="38.817154" lon="121.14787">
        <ele>54.03288</ele>
        <time>2014-03-31T09:31:09.824000Z</time>
      </trkpt>
      <trkpt lat="38.81717" lon="121.14803">
        <ele>52.9042</ele>
        <time>2014-03-31T09:31:12.938000Z</time>
      </trkpt>
      <trkpt lat="38.81722" lon="121.14817">
        <ele>51.594627</ele>
        <time>2014-03-31T09:31:16.052000Z</time>
      </trkpt>
      <trkpt lat="38.81729" lon="121.14829">
        <ele>51.78652</ele>
        <time>2014-03-31T09:31:19.166000Z</time>
      </trkpt>
      <trkpt lat="38.81739" lon="121.14835">
        <ele>53.043587</ele>
        <time>2014-03-31T09:31:22.280000Z</time>
      </trkpt>
      <trkpt lat="38.8175" lon="121.14838">
        <ele>54.249073</ele>
        <time>2014-03-31T09:31:25.394000Z</time>
      </trkpt>
      <trkpt lat="38.81762" lon="121.14838">
        <ele>54.865986</ele>
        <time>2014-03-31T09:31:28.508000Z</time>
      </trkpt>
      <trkpt lat="38.817734" lon="121.148384">
        <ele>54.66569</ele>
        <time>2014-03-31T09:31:31.622000Z</time>
      </trkpt>
      <trkpt lat="38.817852" lon="121.14838">
        <ele>53.70504</ele>
        <time>2014-03-31T09:31:34.736000Z</time>
      </trkpt>
      <trkpt lat="38.817966" lon="121.14838">
        <ele>52.350876</ele>
        <time>2014-03-31T09:31:37.850000Z</time>
      </trkpt>
      <trkpt lat="38.818092" lon="121.14838">
        <ele>51.08612</ele>
        <time>2014-03-31T09:31:40.964000Z</time>
      </trkpt>
      <trkpt lat="38.818222" lon="121.14838">
        <ele>50.42149</ele>
        <time>2014-03-31T09:31:44.078000Z</time>
      </trkpt>
      <trkpt lat="38.818325" lon="121.14836">
        <ele>50.515026</ele>
        <time>2014-03-31T09:31:47.192000Z</time>
      </trkpt>
      <trkpt lat="38.81842" lon="121.14831">
        <ele>50.725147</ele>
        <time>2014-03-31T09:31:50.306000Z</time>
      </trkpt>
      <trkpt lat="38.81854" lon="121.14825">
        <ele>50.326088</ele>
        <time>2014-03-31T09:31:53.420000Z</time>
      </trkpt>
      <trkpt lat="38.818623" lon="121.14814">
        <ele>48.65146</ele>
        <time>2014-03-31T09:31:56.534000Z</time>
      </trkpt>
      <trkpt lat="38.81868" lon="121.148">
        <ele>45.89518</ele>
        <time>2014-03-31T09:31:59.648000Z</time>
      </trkpt>
      <trkpt lat="38.818718" lon="121.14786">
        <ele>44.245205</ele>
        <time>2014-03-31T09:32:02.762000Z</time>
      </trkpt>
      <trkpt lat="38.818726" lon="121.14772">
        <ele>45.436386</ele>
        <time>2014-03-31T09:32:05.876000Z</time>
      </trkpt>
      <trkpt lat="38.818695" lon="121.147575">
        <ele>48.14054</ele>
        <time>2014-03-31T09:32:08.990000Z</time>
      </trkpt>
      <trkpt lat="38.818615" lon="121.14751">
        <ele>49.963062</ele>
        <time>2014-03-31T09:32:12.104000Z</time>
      </trkpt>
      <trkpt lat="38.818504" lon="121.14748">
        <ele>49.394764</ele>
        <time>2014-03-31T09:32:15.218000Z</time>
      </trkpt>
      <trkpt lat="38.818405" lon="121.14746">
        <ele>46.804058</ele>
        <time>2014-03-31T09:32:18.332000Z</time>
      </trkpt>
      <trkpt lat="38.818306" lon="121.14744">
        <ele>44.35432</ele>
        <time>2014-03-31T09:32:21.446000Z</time>
      </trkpt>
      <trkpt lat="38.81819" lon="121.14742">
        <ele>43.63623</ele>
        <time>2014-03-31T09:32:24.560000Z</time>
      </trkpt>
      <trkpt lat="38.818085" lon="121.14741">
        <ele>44.656437</ele>
        <time>2014-03-31T09:32:27.674000Z</time>
      </trkpt>
      <trkpt lat="38.817974" lon="121.14737">
        <ele>46.63959</ele>
        <time>2014-03-31T09:32:30.788000Z</time>
      </trkpt>
      <trkpt lat="38.817856" lon="121.14733">
        <ele>48.371418</ele>
        <time>2014-03-31T09:32:33.902000Z</time>
      </trkpt>
      <trkpt lat="38.817745" lon="121.147316">
        <ele>49.092754</ele>
        <time>2014-03-31T09:32:37.016000Z</time>
      </trkpt>
      <trkpt lat="38.81764" lon="121.14729">
        <ele>48.94764</ele>
        <time>2014-03-31T09:32:40.130000Z</time>
      </trkpt>
      <trkpt lat="38.817547" lon="121.14728">
        <ele>48.21546</ele>
        <time>2014-03-31T09:32:43.244000Z</time>
      </trkpt>
      <trkpt lat="38.817432" lon="121.147285">
        <ele>47.190514</ele>
        <time>2014-03-31T09:32:46.358000Z</time>
      </trkpt>
      <trkpt lat="38.81732" lon="121.14731">
        <ele>46.38573</ele>
        <time>2014-03-31T09:32:49.472000Z</time>
      </trkpt>
      <trkpt lat="38.81723" lon="121.14736">
        <ele>46.57711</ele>
        <time>2014-03-31T09:32:52.586000Z</time>
      </trkpt>
      <trkpt lat="38.817158" lon="121.147514">
        <ele>48.631905</ele>
        <time>2014-03-31T09:32:55.700000Z</time>
      </trkpt>
      <trkpt lat="38.81713" lon="121.14764">
        <ele>52.041794</ele>
        <time>2014-03-31T09:32:58.814000Z</time>
      </trkpt>
      <trkpt lat="38.81712" lon="121.1478">
        <ele>54.430145</ele>
        <time>2014-03-31T09:33:01.928000Z</time>
      </trkpt>
      <trkpt lat="38.817127" lon="121.14794">
        <ele>54.543877</ele>
        <time>2014-03-31T09:33:05.042000Z</time>
      </trkpt>
      <trkpt lat="38.817165" lon="121.14807">
        <ele>53.52165</ele>
        <time>2014-03-31T09:33:08.156000Z</time>
      </trkpt>
      <trkpt lat="38.817223" lon="121.148186">
        <ele>53.038517</ele>
        <time>2014-03-31T09:33:11.270000Z</time>
      </trkpt>
      <trkpt lat="38.817295" lon="121.148285">
        <ele>53.617092</ele>
        <time>2014-03-31T09:33:14.384000Z</time>
      </trkpt>
      <trkpt lat="38.81739" lon="121.14834">
        <ele>54.033978</ele>
        <time>2014-03-31T09:33:17.498000Z</time>
      </trkpt>
      <trkpt lat="38.817505" lon="121.14836">
        <ele>53.243282</ele>
        <time>2014-03-31T09:33:20.612000Z</time>
      </trkpt>
      <trkpt lat="38.817623" lon="121.14836">
        <ele>52.14248</ele>
        <time>2014-03-31T09:33:23.726000Z</time>
      </trkpt>
      <trkpt lat="38.817726" lon="121.14837">
        <ele>51.812412</ele>
        <time>2014-03-31T09:33:26.840000Z</time>
      </trkpt>
      <trkpt lat="38.817825" lon="121.14837">
        <ele>52.040806</ele>
        <time>2014-03-31T09:33:29.954000Z</time>
      </trkpt>
      <trkpt lat="38.81792" lon="121.14837">
        <ele>51.45439</ele>
        <time>2014-03-31T09:33:33.068000Z</time>
      </trkpt>
      <trkpt lat="38.818012" lon="121.14833">
        <ele>49.399033</ele>
        <time>2014-03-31T09:33:36.182000Z</time>
      </trkpt>
      <trkpt lat="38.81812" lon="121.14831">
        <ele>47.39272</ele>
        <time>2014-03-31T09:33:39.296000Z</time>
      </trkpt>
      <trkpt lat="38.818226" lon="121.14832">
        <ele>47.149246</ele>
        <time>2014-03-31T09:33:42.410000Z</time>
      </trkpt>
      <trkpt lat="38.818333" lon="121.14832">
        <ele>48.75742</ele>
        <time>2014-03-31T09:33:45.524000Z</time>
      </trkpt>
      <trkpt lat="38.818462" lon="121.1483">
        <ele>51.122948</ele>
        <time>2014-03-31T09:33:48.638000Z</time>
      </trkpt>
      <trkpt lat="38.818554" lon="121.14823">
        <ele>52.43236</ele>
        <time>2014-03-31T09:33:51.752000Z</time>
      </trkpt>
      <trkpt lat="38.818657" lon="121.148125">
        <ele>51.23999</ele>
        <time>2014-03-31T09:33:54.866000Z</time>
      </trkpt>
      <trkpt lat="38.818718" lon="121.147995">
        <ele>47.829906</ele>
        <time>2014-03-31T09:33:57.980000Z</time>
      </trkpt>
      <trkpt lat="38.818752" lon="121.147865">
        <ele>44.183548</ele>
        <time>2014-03-31T09:34:01.094000Z</time>
      </trkpt>
      <trkpt lat="38.81876" lon="121.147736">
        <ele>42.02022</ele>
        <time>2014-03-31T09:34:04.208000Z</time>
      </trkpt>
      <trkpt lat="38.818726" lon="121.14758">
        <ele>41.415485</ele>
        <time>2014-03-31T09:34:07.322000Z</time>
      </trkpt>
      <trkpt lat="38.81864" lon="121.14749">
        <ele>41.72887</ele>
        <time>2014-03-31T09:34:10.436000Z</time>
      </trkpt>
      <trkpt lat="38.81852" lon="121.14745">
        <ele>42.884365</ele>
        <time>2014-03-31T09:34:13.550000Z</time>
      </trkpt>
      <trkpt lat="38.818386" lon="121.14742">
        <ele>44.68502</ele>
        <time>2014-03-31T09:34:16.664000Z</time>
      </trkpt>
      <trkpt lat="38.818275" lon="121.1474">
        <ele>46.18103</ele>
        <time>2014-03-31T09:34:19.778000Z</time>
      </trkpt>
      <trkpt lat="38.818172" lon="121.14733">
        <ele>46.695667</ele>
        <time>2014-03-31T09:34:22.892000Z</time>
      </trkpt>
      <trkpt lat="38.81806" lon="121.14732">
        <ele>46.20515</ele>
        <time>2014-03-31T09:34:26.006000Z</time>
      </trkpt>
      <trkpt lat="38.81794" lon="121.1473">
        <ele>45.020493</ele>
        <time>2014-03-31T09:34:29.120000Z</time>
      </trkpt>
      <trkpt lat="38.81782" lon="121.14728">
        <ele>43.85792</ele>
        <time>2014-03-31T09:34:32.234000Z</time>
      </trkpt>
      <trkpt lat="38.817684" lon="121.14726">
        <ele>43.230698</ele>
        <time>2014-03-31T09:34:35.348000Z</time>
      </trkpt>
      <trkpt lat="38.817577" lon="121.14725">
        <ele>43.56596</ele>
        <time>2014-03-31T09:34:38.462000Z</time>
      </trkpt>
      <trkpt lat="38.81746" lon="121.14725">
        <ele>45.125973</ele>
        <time>2014-03-31T09:34:41.576000Z</time>
      </trkpt>
      <trkpt lat="38.817356" lon="121.14726">
        <ele>47.435757</ele>
        <time>2014-03-31T09:34:44.690000Z</time>
      </trkpt>
      <trkpt lat="38.81724" lon="121.1473">
        <ele>50.02197</ele>
        <time>2014-03-31T09:34:47.804000Z</time>
      </trkpt>
      <trkpt lat="38.817177" lon="121.14743">
        <ele>52.95207</ele>
        <time>2014-03-31T09:34:50.918000Z</time>
      </trkpt>
      <trkpt lat="38.817142" lon="121.147545">
        <ele>55.72986</ele>
        <time>2014-03-31T09:34:54.032000Z</time>
      </trkpt>
      <trkpt lat="38.817123" lon="121.14768">
        <ele>57.24045</ele>
        <time>2014-03-31T09:34:57.146000Z</time>
      </trkpt>
      <trkpt lat="38.817127" lon="121.147865">
        <ele>56.94192</ele>
        <time>2014-03-31T09:35:00.260000Z</time>
      </trkpt>
      <trkpt lat="38.81714" lon="121.14801">
        <ele>55.76803</ele>
        <time>2014-03-31T09:35:03.374000Z</time>
      </trkpt>
      <trkpt lat="38.81719" lon="121.14816">
        <ele>54.856293</ele>
        <time>2014-03-31T09:35:06.488000Z</time>
      </trkpt>
      <trkpt lat="38.817253" lon="121.148285">
        <ele>53.854862</ele>
        <time>2014-03-31T09:35:09.602000Z</time>
      </trkpt>
      <trkpt lat="38.81734" lon="121.14837">
        <ele>51.586365</ele>
        <time>2014-03-31T09:35:12.716000Z</time>
      </trkpt>
      <trkpt lat="38.817455" lon="121.14839">
        <ele>48.293373</ele>
        <time>2014-03-31T09:35:15.830000Z</time>
      </trkpt>
      <trkpt lat="38.81757" lon="121.14838">
        <ele>45.555138</ele>
        <time>2014-03-31T09:35:18.944000Z</time>
      </trkpt>
      <trkpt lat="38.81767" lon="121.148384">
        <ele>44.898228</ele>
        <time>2014-03-31T09:35:22.058000Z</time>
      </trkpt>
      <trkpt lat="38.81779" lon="121.148384">
        <ele>46.273937</ele>
        <time>2014-03-31T09:35:25.172000Z</time>
      </trkpt>
      <trkpt lat="38.817917" lon="121.148384">
        <ele>48.059807</ele>
        <time>2014-03-31T09:35:28.286000Z</time>
      </trkpt>
      <trkpt lat="38.81802" lon="121.14837">
        <ele>48.44674</ele>
        <time>2014-03-31T09:35:31.400000Z</time>
      </trkpt>
      <trkpt lat="38.81813" lon="121.148346">
        <ele>46.821323</ele>
        <time>2014-03-31T09:35:34.514000Z</time>
      </trkpt>
      <trkpt lat="38.81823" lon="121.14833">
        <ele>44.045113</ele>
        <time>2014-03-31T09:35:37.628000Z</time>
      </trkpt>
      <trkpt lat="38.818344" lon="121.14834">
        <ele>41.73223</ele>
        <time>2014-03-31T09:35:40.741000Z</time>
      </trkpt>
      <trkpt lat="38.818455" lon="121.14831">
        <ele>40.59872</ele>
        <time>2014-03-31T09:35:43.854000Z</time>
      </trkpt>
      <trkpt lat="38.81853" lon="121.148224">
        <ele>40.329697</ele>
        <time>2014-03-31T09:35:46.967000Z</time>
      </trkpt>
      <trkpt lat="38.81859" lon="121.14811">
        <ele>40.657417</ele>
        <time>2014-03-31T09:35:50.080000Z</time>
      </trkpt>
      <trkpt lat="38.818626" lon="121.14799">
        <ele>41.43975</ele>
        <time>2014-03-31T09:35:53.193000Z</time>
      </trkpt>
      <trkpt lat="38.81866" lon="121.147865">
        <ele>41.643852</ele>
        <time>2014-03-31T09:35:56.306000Z</time>
      </trkpt>
      <trkpt lat="38.81868" lon="121.147736">
        <ele>40.32362</ele>
        <time>2014-03-31T09:35:59.419000Z</time>
      </trkpt>
      <trkpt lat="38.818684" lon="121.14759">
        <ele>38.265644</ele>
        <time>2014-03-31T09:36:02.532000Z</time>
      </trkpt>
      <trkpt lat="38.81862" lon="121.14748">
        <ele>37.28526</ele>
        <time>2014-03-31T09:36:05.645000Z</time>
      </trkpt>
      <trkpt lat="38.818523" lon="121.14745">
        <ele>38.247482</ele>
        <time>2014-03-31T09:36:08.758000Z</time>
      </trkpt>
      <trkpt lat="38.818394" lon="121.14743">
        <ele>40.53307</ele>
        <time>2014-03-31T09:36:11.871000Z</time>
      </trkpt>
      <trkpt lat="38.81829" lon="121.14742">
        <ele>42.824184</ele>
        <time>2014-03-31T09:36:14.984000Z</time>
      </trkpt>
      <trkpt lat="38.81818" lon="121.14734">
        <ele>44.213383</ele>
        <time>2014-03-31T09:36:18.097000Z</time>
      </trkpt>
      <trkpt lat="38.818054" lon="121.147285">
        <ele>45.0521</ele>
        <time>2014-03-31T09:36:21.210000Z</time>
      </trkpt>
      <trkpt lat="38.817947" lon="121.14725">
        <ele>46.07194</ele>
        <time>2014-03-31T09:36:24.323000Z</time>
      </trkpt>
      <trkpt lat="38.81784" lon="121.14724">
        <ele>46.77605</ele>
        <time>2014-03-31T09:36:27.436000Z</time>
      </trkpt>
      <trkpt lat="38.817726" lon="121.14723">
        <ele>46.574036</ele>
        <time>2014-03-31T09:36:30.549000Z</time>
      </trkpt>
      <trkpt lat="38.81762" lon="121.14723">
        <ele>46.2892</ele>
        <time>2014-03-31T09:36:33.662000Z</time>
      </trkpt>
      <trkpt lat="38.8175" lon="121.14723">
        <ele>46.69888</ele>
        <time>2014-03-31T09:36:36.775000Z</time>
      </trkpt>
      <trkpt lat="38.81739" lon="121.14727">
        <ele>47.393787</ele>
        <time>2014-03-31T09:36:39.888000Z</time>
      </trkpt>
      <trkpt lat="38.8173" lon="121.14731">
        <ele>48.079136</ele>
        <time>2014-03-31T09:36:43.001000Z</time>
      </trkpt>
      <trkpt lat="38.817226" lon="121.14741">
        <ele>49.503082</ele>
        <time>2014-03-31T09:36:46.114000Z</time>
      </trkpt>
      <trkpt lat="38.817184" lon="121.14751">
        <ele>51.945526</ele>
        <time>2014-03-31T09:36:49.227000Z</time>
      </trkpt>
      <trkpt lat="38.81715" lon="121.14762">
        <ele>54.329666</ele>
        <time>2014-03-31T09:36:52.340000Z</time>
      </trkpt>
      <trkpt lat="38.81713" lon="121.14779">
        <ele>55.467186</ele>
        <time>2014-03-31T09:36:55.453000Z</time>
      </trkpt>
      <trkpt lat="38.817142" lon="121.14795">
        <ele>55.04672</ele>
        <time>2014-03-31T09:36:58.566000Z</time>
      </trkpt>
      <trkpt lat="38.81717" lon="121.14809">
        <ele>53.52311</ele>
        <time>2014-03-31T09:37:01.679000Z</time>
      </trkpt>
      <trkpt lat="38.81712" lon="121.14819">
        <ele>47.406086</ele>
        <time>2014-03-31T09:37:04.792000Z</time>
      </trkpt>
      <trkpt lat="38.81712" lon="121.14819">
        <ele>47.33102</ele>
        <time>2014-03-31T09:37:07.905000Z</time>
      </trkpt>
      <trkpt lat="38.81712" lon="121.14819">
        <ele>47.30584</ele>
        <time>2014-03-31T09:37:11.018000Z</time>
      </trkpt>
      <trkpt lat="38.817238" lon="121.148186">
        <ele>47.32302</ele>
        <time>2014-03-31T09:37:14.131000Z</time>
      </trkpt>
      <trkpt lat="38.817326" lon="121.148224">
        <ele>47.343113</ele>
        <time>2014-03-31T09:37:17.244000Z</time>
      </trkpt>
      <trkpt lat="38.81742" lon="121.14829">
        <ele>47.209286</ele>
        <time>2014-03-31T09:37:20.357000Z</time>
      </trkpt>
      <trkpt lat="38.81742" lon="121.14829">
        <ele>46.83608</ele>
        <time>2014-03-31T09:37:23.470000Z</time>
      </trkpt>
      <trkpt lat="38.817513" lon="121.14832">
        <ele>46.48331</ele>
        <time>2014-03-31T09:37:26.583000Z</time>
      </trkpt>
      <trkpt lat="38.817608" lon="121.14834">
        <ele>46.38696</ele>
        <time>2014-03-31T09:37:29.696000Z</time>
      </trkpt>
      <trkpt lat="38.817703" lon="121.148346">
        <ele>46.299816</ele>
        <time>2014-03-31T09:37:32.809000Z</time>
      </trkpt>
      <trkpt lat="38.8178" lon="121.14833">
        <ele>45.626415</ele>
        <time>2014-03-31T09:37:35.922000Z</time>
      </trkpt>
      <trkpt lat="38.817898" lon="121.14834">
        <ele>44.330208</ele>
        <time>2014-03-31T09:37:39.035000Z</time>
      </trkpt>
      <trkpt lat="38.817997" lon="121.14831">
        <ele>43.14971</ele>
        <time>2014-03-31T09:37:42.148000Z</time>
      </trkpt>
      <trkpt lat="38.818092" lon="121.148315">
        <ele>42.58092</ele>
        <time>2014-03-31T09:37:45.261000Z</time>
      </trkpt>
      <trkpt lat="38.818184" lon="121.14831">
        <ele>42.46878</ele>
        <time>2014-03-31T09:37:48.374000Z</time>
      </trkpt>
      <trkpt lat="38.818295" lon="121.1483">
        <ele>42.401207</ele>
        <time>2014-03-31T09:37:51.487000Z</time>
      </trkpt>
      <trkpt lat="38.81841" lon="121.14827">
        <ele>42.125065</ele>
        <time>2014-03-31T09:37:54.600000Z</time>
      </trkpt>
      <trkpt lat="38.81852" lon="121.14824">
        <ele>41.808914</ele>
        <time>2014-03-31T09:37:57.713000Z</time>
      </trkpt>
      <trkpt lat="38.818607" lon="121.14821">
        <ele>41.632366</ele>
        <time>2014-03-31T09:38:00.826000Z</time>
      </trkpt>
      <trkpt lat="38.818676" lon="121.148094">
        <ele>41.55728</ele>
        <time>2014-03-31T09:38:03.939000Z</time>
      </trkpt>
      <trkpt lat="38.818703" lon="121.14797">
        <ele>41.533634</ele>
        <time>2014-03-31T09:38:07.052000Z</time>
      </trkpt>
      <trkpt lat="38.818718" lon="121.14785">
        <ele>41.201126</ele>
        <time>2014-03-31T09:38:10.165000Z</time>
      </trkpt>
      <trkpt lat="38.818718" lon="121.14773">
        <ele>40.335136</ele>
        <time>2014-03-31T09:38:13.278000Z</time>
      </trkpt>
      <trkpt lat="38.818687" lon="121.14758">
        <ele>39.442562</ele>
        <time>2014-03-31T09:38:16.391000Z</time>
      </trkpt>
      <trkpt lat="38.818607" lon="121.14747">
        <ele>39.020866</ele>
        <time>2014-03-31T09:38:19.504000Z</time>
      </trkpt>
      <trkpt lat="38.81852" lon="121.147415">
        <ele>38.71573</ele>
        <time>2014-03-31T09:38:22.617000Z</time>
      </trkpt>
      <trkpt lat="38.818424" lon="121.1474">
        <ele>38.30838</ele>
        <time>2014-03-31T09:38:25.730000Z</time>
      </trkpt>
      <trkpt lat="38.81832" lon="121.14738">
        <ele>38.11846</ele>
        <time>2014-03-31T09:38:28.843000Z</time>
      </trkpt>
      <trkpt lat="38.81822" lon="121.14736">
        <ele>38.233406</ele>
        <time>2014-03-31T09:38:31.956000Z</time>
      </trkpt>
      <trkpt lat="38.81811" lon="121.14734">
        <ele>38.3812</ele>
        <time>2014-03-31T09:38:35.069000Z</time>
      </trkpt>
      <trkpt lat="38.817993" lon="121.14732">
        <ele>38.896835</ele>
        <time>2014-03-31T09:38:38.182000Z</time>
      </trkpt>
      <trkpt lat="38.817867" lon="121.14731">
        <ele>40.030144</ele>
        <time>2014-03-31T09:38:41.295000Z</time>
      </trkpt>
      <trkpt lat="38.81777" lon="121.1473">
        <ele>41.140892</ele>
        <time>2014-03-31T09:38:44.408000Z</time>
      </trkpt>
      <trkpt lat="38.817665" lon="121.1473">
        <ele>41.579575</ele>
        <time>2014-03-31T09:38:47.521000Z</time>
      </trkpt>
      <trkpt lat="38.81757" lon="121.1473">
        <ele>41.286724</ele>
        <time>2014-03-31T09:38:50.634000Z</time>
      </trkpt>
      <trkpt lat="38.81747" lon="121.14729">
        <ele>40.500965</ele>
        <time>2014-03-31T09:38:53.747000Z</time>
      </trkpt>
      <trkpt lat="38.81737" lon="121.14731">
        <ele>39.798172</ele>
        <time>2014-03-31T09:38:56.860000Z</time>
      </trkpt>
      <trkpt lat="38.817287" lon="121.14738">
        <ele>40.24762</ele>
        <time>2014-03-31T09:38:59.973000Z</time>
      </trkpt>
      <trkpt lat="38.81724" lon="121.14748">
        <ele>42.128296</ele>
        <time>2014-03-31T09:39:03.086000Z</time>
      </trkpt>
      <trkpt lat="38.81722" lon="121.14761">
        <ele>43.97899</ele>
        <time>2014-03-31T09:39:06.199000Z</time>
      </trkpt>
      <trkpt lat="38.817207" lon="121.14776">
        <ele>44.56061</ele>
        <time>2014-03-31T09:39:09.312000Z</time>
      </trkpt>
      <trkpt lat="38.817196" lon="121.14789">
        <ele>44.939724</ele>
        <time>2014-03-31T09:39:12.425000Z</time>
      </trkpt>
      <trkpt lat="38.817196" lon="121.14803">
        <ele>46.20224</ele>
        <time>2014-03-31T09:39:15.538000Z</time>
      </trkpt>
      <trkpt lat="38.817226" lon="121.14816">
        <ele>47.240063</ele>
        <time>2014-03-31T09:39:18.651000Z</time>
      </trkpt>
      <trkpt lat="38.817295" lon="121.14825">
        <ele>46.881584</ele>
        <time>2014-03-31T09:39:21.764000Z</time>
      </trkpt>
      <trkpt lat="38.817394" lon="121.14831">
        <ele>45.846874</ele>
        <time>2014-03-31T09:39:24.877000Z</time>
      </trkpt>
      <trkpt lat="38.817497" lon="121.148315">
        <ele>45.08044</ele>
        <time>2014-03-31T09:39:27.990000Z</time>
      </trkpt>
      <trkpt lat="38.81762" lon="121.14831">
        <ele>44.061077</ele>
        <time>2014-03-31T09:39:31.103000Z</time>
      </trkpt>
      <trkpt lat="38.81772" lon="121.14831">
        <ele>42.236534</ele>
        <time>2014-03-31T09:39:34.216000Z</time>
      </trkpt>
      <trkpt lat="38.817814" lon="121.148315">
        <ele>40.338642</ele>
        <time>2014-03-31T09:39:37.329000Z</time>
      </trkpt>
      <trkpt lat="38.817924" lon="121.14834">
        <ele>39.083168</ele>
        <time>2014-03-31T09:39:40.442000Z</time>
      </trkpt>
      <trkpt lat="38.818035" lon="121.148346">
        <ele>38.28663</ele>
        <time>2014-03-31T09:39:43.555000Z</time>
      </trkpt>
      <trkpt lat="38.818123" lon="121.14835">
        <ele>37.82584</ele>
        <time>2014-03-31T09:39:46.668000Z</time>
      </trkpt>
      <trkpt lat="38.818233" lon="121.148384">
        <ele>37.77086</ele>
        <time>2014-03-31T09:39:49.781000Z</time>
      </trkpt>
      <trkpt lat="38.818344" lon="121.14839">
        <ele>38.08771</ele>
        <time>2014-03-31T09:39:52.894000Z</time>
      </trkpt>
      <trkpt lat="38.818436" lon="121.14836">
        <ele>38.481033</ele>
        <time>2014-03-31T09:39:56.007000Z</time>
      </trkpt>
      <trkpt lat="38.818527" lon="121.14829">
        <ele>39.12676</ele>
        <time>2014-03-31T09:39:59.120000Z</time>
      </trkpt>
      <trkpt lat="38.818615" lon="121.1482">
        <ele>40.422882</ele>
        <time>2014-03-31T09:40:02.233000Z</time>
      </trkpt>
      <trkpt lat="38.818684" lon="121.148094">
        <ele>41.752323</ele>
        <time>2014-03-31T09:40:05.346000Z</time>
      </trkpt>
      <trkpt lat="38.81872" lon="121.14797">
        <ele>42.51123</ele>
        <time>2014-03-31T09:40:08.459000Z</time>
      </trkpt>
      <trkpt lat="38.81873" lon="121.14783">
        <ele>43.018463</ele>
        <time>2014-03-31T09:40:11.572000Z</time>
      </trkpt>
      <trkpt lat="38.81873" lon="121.147705">
        <ele>43.487793</ele>
        <time>2014-03-31T09:40:14.685000Z</time>
      </trkpt>
      <trkpt lat="38.818695" lon="121.14758">
        <ele>43.799633</ele>
        <time>2014-03-31T09:40:17.798000Z</time>
      </trkpt>
      <trkpt lat="38.818638" lon="121.14749">
        <ele>43.949677</ele>
        <time>2014-03-31T09:40:20.911000Z</time>
      </trkpt>
      <trkpt lat="38.81855" lon="121.147415">
        <ele>43.961494</ele>
        <time>2014-03-31T09:40:24.024000Z</time>
      </trkpt>
      <trkpt lat="38.818447" lon="121.147385">
        <ele>43.925648</ele>
        <time>2014-03-31T09:40:27.137000Z</time>
      </trkpt>
      <trkpt lat="38.818348" lon="121.14736">
        <ele>43.90381</ele>
        <time>2014-03-31T09:40:30.250000Z</time>
      </trkpt>
      <trkpt lat="38.818245" lon="121.147354">
        <ele>43.900925</ele>
        <time>2014-03-31T09:40:33.363000Z</time>
      </trkpt>
      <trkpt lat="38.818134" lon="121.14735">
        <ele>43.743816</ele>
        <time>2014-03-31T09:40:36.476000Z</time>
      </trkpt>
      <trkpt lat="38.818016" lon="121.14733">
        <ele>43.330982</ele>
        <time>2014-03-31T09:40:39.589000Z</time>
      </trkpt>
      <trkpt lat="38.81793" lon="121.147316">
        <ele>42.91263</ele>
        <time>2014-03-31T09:40:42.702000Z</time>
      </trkpt>
      <trkpt lat="38.81783" lon="121.147285">
        <ele>42.784237</ele>
        <time>2014-03-31T09:40:45.815000Z</time>
      </trkpt>
      <trkpt lat="38.817738" lon="121.14727">
        <ele>42.861782</ele>
        <time>2014-03-31T09:40:48.928000Z</time>
      </trkpt>
      <trkpt lat="38.817646" lon="121.147255">
        <ele>42.77942</ele>
        <time>2014-03-31T09:40:52.041000Z</time>
      </trkpt>
      <trkpt lat="38.81755" lon="121.14724">
        <ele>42.361458</ele>
        <time>2014-03-31T09:40:55.154000Z</time>
      </trkpt>
      <trkpt lat="38.817425" lon="121.14728">
        <ele>41.484844</ele>
        <time>2014-03-31T09:40:58.267000Z</time>
      </trkpt>
      <trkpt lat="38.817337" lon="121.14736">
        <ele>40.191666</ele>
        <time>2014-03-31T09:41:01.380000Z</time>
      </trkpt>
      <trkpt lat="38.817257" lon="121.14745">
        <ele>39.47948</ele>
        <time>2014-03-31T09:41:04.493000Z</time>
      </trkpt>
      <trkpt lat="38.81719" lon="121.14756">
        <ele>40.046204</ele>
        <time>2014-03-31T09:41:07.606000Z</time>
      </trkpt>
      <trkpt lat="38.81715" lon="121.147675">
        <ele>41.026443</ele>
        <time>2014-03-31T09:41:10.719000Z</time>
      </trkpt>
      <trkpt lat="38.81714" lon="121.1478">
        <ele>41.37905</ele>
        <time>2014-03-31T09:41:13.832000Z</time>
      </trkpt>
      <trkpt lat="38.81715" lon="121.14793">
        <ele>41.061012</ele>
        <time>2014-03-31T09:41:16.945000Z</time>
      </trkpt>
      <trkpt lat="38.81719" lon="121.14809">
        <ele>41.17346</ele>
        <time>2014-03-31T09:41:20.058000Z</time>
      </trkpt>
      <trkpt lat="38.817245" lon="121.14819">
        <ele>42.445065</ele>
        <time>2014-03-31T09:41:23.171000Z</time>
      </trkpt>
      <trkpt lat="38.817326" lon="121.14828">
        <ele>43.96107</ele>
        <time>2014-03-31T09:41:26.284000Z</time>
      </trkpt>
      <trkpt lat="38.817436" lon="121.14834">
        <ele>44.646725</ele>
        <time>2014-03-31T09:41:29.397000Z</time>
      </trkpt>
      <trkpt lat="38.817528" lon="121.148346">
        <ele>44.900322</ele>
        <time>2014-03-31T09:41:32.510000Z</time>
      </trkpt>
      <trkpt lat="38.817623" lon="121.14835">
        <ele>45.434334</ele>
        <time>2014-03-31T09:41:35.623000Z</time>
      </trkpt>
      <trkpt lat="38.81774" lon="121.148346">
        <ele>46.104076</ele>
        <time>2014-03-31T09:41:38.736000Z</time>
      </trkpt>
      <trkpt lat="38.817856" lon="121.14835">
        <ele>46.438488</ele>
        <time>2014-03-31T09:41:41.849000Z</time>
      </trkpt>
      <trkpt lat="38.817963" lon="121.14838">
        <ele>46.03199</ele>
        <time>2014-03-31T09:41:44.962000Z</time>
      </trkpt>
      <trkpt lat="38.81807" lon="121.14838">
        <ele>44.756702</ele>
        <time>2014-03-31T09:41:48.075000Z</time>
      </trkpt>
      <trkpt lat="38.81816" lon="121.148384">
        <ele>43.43504</ele>
        <time>2014-03-31T09:41:51.188000Z</time>
      </trkpt>
      <trkpt lat="38.818264" lon="121.148384">
        <ele>42.85905</ele>
        <time>2014-03-31T09:41:54.301000Z</time>
      </trkpt>
      <trkpt lat="38.81837" lon="121.148384">
        <ele>42.87426</ele>
        <time>2014-03-31T09:41:57.414000Z</time>
      </trkpt>
      <trkpt lat="38.818466" lon="121.14834">
        <ele>43.202953</ele>
        <time>2014-03-31T09:42:00.527000Z</time>
      </trkpt>
      <trkpt lat="38.81856" lon="121.14828">
        <ele>43.56104</ele>
        <time>2014-03-31T09:42:03.640000Z</time>
      </trkpt>
      <trkpt lat="38.81864" lon="121.1482">
        <ele>43.976376</ele>
        <time>2014-03-31T09:42:06.753000Z</time>
      </trkpt>
      <trkpt lat="38.818695" lon="121.14807">
        <ele>44.456867</ele>
        <time>2014-03-31T09:42:09.866000Z</time>
      </trkpt>
      <trkpt lat="38.818737" lon="121.14793">
        <ele>44.888813</ele>
        <time>2014-03-31T09:42:12.979000Z</time>
      </trkpt>
      <trkpt lat="38.81875" lon="121.14778">
        <ele>45.34239</ele>
        <time>2014-03-31T09:42:16.092000Z</time>
      </trkpt>
      <trkpt lat="38.818737" lon="121.14765">
        <ele>46.023903</ele>
        <time>2014-03-31T09:42:19.205000Z</time>
      </trkpt>
      <trkpt lat="38.81869" lon="121.14753">
        <ele>46.8754</ele>
        <time>2014-03-31T09:42:22.318000Z</time>
      </trkpt>
      <trkpt lat="38.81861" lon="121.1474">
        <ele>47.801586</ele>
        <time>2014-03-31T09:42:25.431000Z</time>
      </trkpt>
      <trkpt lat="38.818523" lon="121.14734">
        <ele>48.789482</ele>
        <time>2014-03-31T09:42:28.544000Z</time>
      </trkpt>
      <trkpt lat="38.818428" lon="121.147316">
        <ele>49.866734</ele>
        <time>2014-03-31T09:42:31.657000Z</time>
      </trkpt>
      <trkpt lat="38.818302" lon="121.1473">
        <ele>50.15509</ele>
        <time>2014-03-31T09:42:34.770000Z</time>
      </trkpt>
      <trkpt lat="38.818195" lon="121.147285">
        <ele>49.064537</ele>
        <time>2014-03-31T09:42:37.883000Z</time>
      </trkpt>
      <trkpt lat="38.818096" lon="121.14728">
        <ele>47.478798</ele>
        <time>2014-03-31T09:42:40.996000Z</time>
      </trkpt>
      <trkpt lat="38.818005" lon="121.14728">
        <ele>46.42493</ele>
        <time>2014-03-31T09:42:44.109000Z</time>
      </trkpt>
      <trkpt lat="38.817913" lon="121.147285">
        <ele>46.287056</ele>
        <time>2014-03-31T09:42:47.222000Z</time>
      </trkpt>
      <trkpt lat="38.81781" lon="121.14728">
        <ele>47.038013</ele>
        <time>2014-03-31T09:42:50.335000Z</time>
      </trkpt>
      <trkpt lat="38.817707" lon="121.14727">
        <ele>48.290432</ele>
        <time>2014-03-31T09:42:53.448000Z</time>
      </trkpt>
      <trkpt lat="38.817616" lon="121.14727">
        <ele>49.3074</ele>
        <time>2014-03-31T09:42:56.561000Z</time>
      </trkpt>
      <trkpt lat="38.81751" lon="121.14728">
        <ele>49.535656</ele>
        <time>2014-03-31T09:42:59.674000Z</time>
      </trkpt>
      <trkpt lat="38.817413" lon="121.1473">
        <ele>49.173588</ele>
        <time>2014-03-31T09:43:02.787000Z</time>
      </trkpt>
      <trkpt lat="38.817326" lon="121.14736">
        <ele>48.764896</ele>
        <time>2014-03-31T09:43:05.900000Z</time>
      </trkpt>
      <trkpt lat="38.817253" lon="121.14746">
        <ele>48.18125</ele>
        <time>2014-03-31T09:43:09.013000Z</time>
      </trkpt>
      <trkpt lat="38.817196" lon="121.14758">
        <ele>47.13977</ele>
        <time>2014-03-31T09:43:12.126000Z</time>
      </trkpt>
      <trkpt lat="38.817177" lon="121.14773">
        <ele>45.854122</ele>
        <time>2014-03-31T09:43:15.239000Z</time>
      </trkpt>
      <trkpt lat="38.817177" lon="121.147865">
        <ele>44.843193</ele>
        <time>2014-03-31T09:43:18.352000Z</time>
      </trkpt>
      <trkpt lat="38.817196" lon="121.14801">
        <ele>44.45876</ele>
        <time>2014-03-31T09:43:21.465000Z</time>
      </trkpt>
      <trkpt lat="38.817245" lon="121.14814">
        <ele>44.995827</ele>
        <time>2014-03-31T09:43:24.578000Z</time>
      </trkpt>
      <trkpt lat="38.817303" lon="121.14824">
        <ele>46.199726</ele>
        <time>2014-03-31T09:43:27.691000Z</time>
      </trkpt>
      <trkpt lat="38.817375" lon="121.14831">
        <ele>47.148777</ele>
        <time>2014-03-31T09:43:30.804000Z</time>
      </trkpt>
      <trkpt lat="38.81747" lon="121.14835">
        <ele>47.154366</ele>
        <time>2014-03-31T09:43:33.917000Z</time>
      </trkpt>
      <trkpt lat="38.81758" lon="121.14835">
        <ele>46.267307</ele>
        <time>2014-03-31T09:43:37.030000Z</time>
      </trkpt>
      <trkpt lat="38.81768" lon="121.14836">
        <ele>44.84602</ele>
        <time>2014-03-31T09:43:40.143000Z</time>
      </trkpt>
      <trkpt lat="38.81778" lon="121.148384">
        <ele>43.41916</ele>
        <time>2014-03-31T09:43:43.256000Z</time>
      </trkpt>
      <trkpt lat="38.817898" lon="121.14839">
        <ele>42.390045</ele>
        <time>2014-03-31T09:43:46.369000Z</time>
      </trkpt>
      <trkpt lat="38.818005" lon="121.1484">
        <ele>41.79464</ele>
        <time>2014-03-31T09:43:49.482000Z</time>
      </trkpt>
      <trkpt lat="38.818104" lon="121.1484">
        <ele>41.541756</ele>
        <time>2014-03-31T09:43:52.595000Z</time>
      </trkpt>
      <trkpt lat="38.818203" lon="121.1484">
        <ele>41.930187</ele>
        <time>2014-03-31T09:43:55.708000Z</time>
      </trkpt>
      <trkpt lat="38.81832" lon="121.14839">
        <ele>43.02582</ele>
        <time>2014-03-31T09:43:58.821000Z</time>
      </trkpt>
      <trkpt lat="38.81842" lon="121.14839">
        <ele>44.14998</ele>
        <time>2014-03-31T09:44:01.934000Z</time>
      </trkpt>
      <trkpt lat="38.81854" lon="121.14832">
        <ele>44.854877</ele>
        <time>2014-03-31T09:44:05.047000Z</time>
      </trkpt>
      <trkpt lat="38.818623" lon="121.14826">
        <ele>45.34731</ele>
        <time>2014-03-31T09:44:08.160000Z</time>
      </trkpt>
      <trkpt lat="38.818707" lon="121.14817">
        <ele>45.663082</ele>
        <time>2014-03-31T09:44:11.273000Z</time>
      </trkpt>
      <trkpt lat="38.818764" lon="121.14803">
        <ele>45.842453</ele>
        <time>2014-03-31T09:44:14.386000Z</time>
      </trkpt>
      <trkpt lat="38.818783" lon="121.147896">
        <ele>46.049976</ele>
        <time>2014-03-31T09:44:17.499000Z</time>
      </trkpt>
      <trkpt lat="38.81878" lon="121.14774">
        <ele>46.314026</ele>
        <time>2014-03-31T09:44:20.612000Z</time>
      </trkpt>
      <trkpt lat="38.818745" lon="121.14762">
        <ele>46.56782</ele>
        <time>2014-03-31T09:44:23.725000Z</time>
      </trkpt>
      <trkpt lat="38.818687" lon="121.14751">
        <ele>46.36588</ele>
        <time>2014-03-31T09:44:26.838000Z</time>
      </trkpt>
      <trkpt lat="38.818604" lon="121.1474">
        <ele>45.40889</ele>
        <time>2014-03-31T09:44:29.951000Z</time>
      </trkpt>
      <trkpt lat="38.818512" lon="121.14736">
        <ele>44.311657</ele>
        <time>2014-03-31T09:44:33.064000Z</time>
      </trkpt>
      <trkpt lat="38.818417" lon="121.14734">
        <ele>43.50736</ele>
        <time>2014-03-31T09:44:36.177000Z</time>
      </trkpt>
      <trkpt lat="38.818314" lon="121.14733">
        <ele>43.040897</ele>
        <time>2014-03-31T09:44:39.290000Z</time>
      </trkpt>
      <trkpt lat="38.81822" lon="121.14732">
        <ele>42.94854</ele>
        <time>2014-03-31T09:44:42.403000Z</time>
      </trkpt>
      <trkpt lat="38.818123" lon="121.14732">
        <ele>43.19044</ele>
        <time>2014-03-31T09:44:45.516000Z</time>
      </trkpt>
      <trkpt lat="38.818024" lon="121.14731">
        <ele>43.5097</ele>
        <time>2014-03-31T09:44:48.629000Z</time>
      </trkpt>
      <trkpt lat="38.817924" lon="121.14729">
        <ele>43.767815</ele>
        <time>2014-03-31T09:44:51.742000Z</time>
      </trkpt>
      <trkpt lat="38.817825" lon="121.147285">
        <ele>43.882275</ele>
        <time>2014-03-31T09:44:54.855000Z</time>
      </trkpt>
      <trkpt lat="38.81773" lon="121.14728">
        <ele>44.019363</ele>
        <time>2014-03-31T09:44:57.968000Z</time>
      </trkpt>
      <trkpt lat="38.817616" lon="121.14726">
        <ele>44.404427</ele>
        <time>2014-03-31T09:45:01.081000Z</time>
      </trkpt>
      <trkpt lat="38.817493" lon="121.14727">
        <ele>45.08568</ele>
        <time>2014-03-31T09:45:04.194000Z</time>
      </trkpt>
      <trkpt lat="38.81738" lon="121.1473">
        <ele>46.101353</ele>
        <time>2014-03-31T09:45:07.307000Z</time>
      </trkpt>
      <trkpt lat="38.817272" lon="121.14738">
        <ele>47.501396</ele>
        <time>2014-03-31T09:45:10.420000Z</time>
      </trkpt>
      <trkpt lat="38.81721" lon="121.14747">
        <ele>48.196552</ele>
        <time>2014-03-31T09:45:13.533000Z</time>
      </trkpt>
      <trkpt lat="38.81717" lon="121.14759">
        <ele>47.279533</ele>
        <time>2014-03-31T09:45:16.646000Z</time>
      </trkpt>
      <trkpt lat="38.817165" lon="121.14774">
        <ele>45.629417</ele>
        <time>2014-03-31T09:45:19.759000Z</time>
      </trkpt>
      <trkpt lat="38.8172" lon="121.14787">
        <ele>44.24792</ele>
        <time>2014-03-31T09:45:22.872000Z</time>
      </trkpt>
      <trkpt lat="38.817226" lon="121.14801">
        <ele>43.071873</ele>
        <time>2014-03-31T09:45:25.985000Z</time>
      </trkpt>
      <trkpt lat="38.81726" lon="121.14814">
        <ele>42.07416</ele>
        <time>2014-03-31T09:45:29.098000Z</time>
      </trkpt>
      <trkpt lat="38.81733" lon="121.14823">
        <ele>41.60544</ele>
        <time>2014-03-31T09:45:32.211000Z</time>
      </trkpt>
      <trkpt lat="38.817417" lon="121.1483">
        <ele>41.70729</ele>
        <time>2014-03-31T09:45:35.324000Z</time>
      </trkpt>
      <trkpt lat="38.817505" lon="121.14833">
        <ele>42.018055</ele>
        <time>2014-03-31T09:45:38.437000Z</time>
      </trkpt>
      <trkpt lat="38.817616" lon="121.14833">
        <ele>42.18882</ele>
        <time>2014-03-31T09:45:41.550000Z</time>
      </trkpt>
      <trkpt lat="38.817738" lon="121.14834">
        <ele>41.717884</ele>
        <time>2014-03-31T09:45:44.663000Z</time>
      </trkpt>
      <trkpt lat="38.81783" lon="121.14834">
        <ele>40.44498</ele>
        <time>2014-03-31T09:45:47.776000Z</time>
      </trkpt>
      <trkpt lat="38.81794" lon="121.14833">
        <ele>39.157593</ele>
        <time>2014-03-31T09:45:50.889000Z</time>
      </trkpt>
      <trkpt lat="38.81803" lon="121.14833">
        <ele>39.05039</ele>
        <time>2014-03-31T09:45:54.002000Z</time>
      </trkpt>
      <trkpt lat="38.81815" lon="121.148346">
        <ele>40.5489</ele>
        <time>2014-03-31T09:45:57.115000Z</time>
      </trkpt>
      <trkpt lat="38.818275" lon="121.148315">
        <ele>42.511066</ele>
        <time>2014-03-31T09:46:00.228000Z</time>
      </trkpt>
      <trkpt lat="38.818375" lon="121.1483">
        <ele>43.4238</ele>
        <time>2014-03-31T09:46:03.341000Z</time>
      </trkpt>
      <trkpt lat="38.818485" lon="121.148254">
        <ele>43.32158</ele>
        <time>2014-03-31T09:46:06.454000Z</time>
      </trkpt>
      <trkpt lat="38.818573" lon="121.148186">
        <ele>43.338947</ele>
        <time>2014-03-31T09:46:09.567000Z</time>
      </trkpt>
      <trkpt lat="38.818645" lon="121.14809">
        <ele>44.34767</ele>
        <time>2014-03-31T09:46:12.680000Z</time>
      </trkpt>
      <trkpt lat="38.818687" lon="121.147964">
        <ele>45.719994</ele>
        <time>2014-03-31T09:46:15.793000Z</time>
      </trkpt>
      <trkpt lat="38.818718" lon="121.14783">
        <ele>45.51904</ele>
        <time>2014-03-31T09:46:18.906000Z</time>
      </trkpt>
      <trkpt lat="38.818726" lon="121.14769">
        <ele>43.405067</ele>
        <time>2014-03-31T09:46:22.019000Z</time>
      </trkpt>
      <trkpt lat="38.818676" lon="121.14754">
        <ele>41.33861</ele>
        <time>2014-03-31T09:46:25.132000Z</time>
      </trkpt>
      <trkpt lat="38.818604" lon="121.14744">
        <ele>40.94515</ele>
        <time>2014-03-31T09:46:28.245000Z</time>
      </trkpt>
      <trkpt lat="38.81852" lon="121.147385">
        <ele>41.914604</ele>
        <time>2014-03-31T09:46:31.358000Z</time>
      </trkpt>
      <trkpt lat="38.81842" lon="121.14736">
        <ele>42.97887</ele>
        <time>2014-03-31T09:46:34.471000Z</time>
      </trkpt>
      <trkpt lat="38.818317" lon="121.14735">
        <ele>43.201023</ele>
        <time>2014-03-31T09:46:37.584000Z</time>
      </trkpt>
      <trkpt lat="38.818214" lon="121.14733">
        <ele>42.657993</ele>
        <time>2014-03-31T09:46:40.697000Z</time>
      </trkpt>
      <trkpt lat="38.81812" lon="121.14732">
        <ele>42.381275</ele>
        <time>2014-03-31T09:46:43.810000Z</time>
      </trkpt>
      <trkpt lat="38.817997" lon="121.14731">
        <ele>43.17728</ele>
        <time>2014-03-31T09:46:46.923000Z</time>
      </trkpt>
      <trkpt lat="38.817894" lon="121.1473">
        <ele>44.529022</ele>
        <time>2014-03-31T09:46:50.036000Z</time>
      </trkpt>
      <trkpt lat="38.817806" lon="121.14729">
        <ele>45.48552</ele>
        <time>2014-03-31T09:46:53.149000Z</time>
      </trkpt>
      <trkpt lat="38.81771" lon="121.147285">
        <ele>45.52555</ele>
        <time>2014-03-31T09:46:56.262000Z</time>
      </trkpt>
      <trkpt lat="38.8176" lon="121.14726">
        <ele>44.615356</ele>
        <time>2014-03-31T09:46:59.375000Z</time>
      </trkpt>
      <trkpt lat="38.817482" lon="121.147255">
        <ele>43.39175</ele>
        <time>2014-03-31T09:47:02.488000Z</time>
      </trkpt>
      <trkpt lat="38.817387" lon="121.14728">
        <ele>42.8907</ele>
        <time>2014-03-31T09:47:05.601000Z</time>
      </trkpt>
      <trkpt lat="38.81729" lon="121.147354">
        <ele>43.414864</ele>
        <time>2014-03-31T09:47:08.714000Z</time>
      </trkpt>
      <trkpt lat="38.817215" lon="121.147446">
        <ele>44.2499</ele>
        <time>2014-03-31T09:47:11.827000Z</time>
      </trkpt>
      <trkpt lat="38.817165" lon="121.14756">
        <ele>44.508385</ele>
        <time>2014-03-31T09:47:14.940000Z</time>
      </trkpt>
      <trkpt lat="38.817146" lon="121.147705">
        <ele>43.96704</ele>
        <time>2014-03-31T09:47:18.053000Z</time>
      </trkpt>
      <trkpt lat="38.817173" lon="121.14786">
        <ele>43.03426</ele>
        <time>2014-03-31T09:47:21.166000Z</time>
      </trkpt>
      <trkpt lat="38.817223" lon="121.147995">
        <ele>41.996525</ele>
        <time>2014-03-31T09:47:24.279000Z</time>
      </trkpt>
      <trkpt lat="38.817276" lon="121.148125">
        <ele>40.89841</ele>
        <time>2014-03-31T09:47:27.392000Z</time>
      </trkpt>
      <trkpt lat="38.817345" lon="121.14825">
        <ele>40.132275</ele>
        <time>2014-03-31T09:47:30.505000Z</time>
      </trkpt>
      <trkpt lat="38.817425" lon="121.14831">
        <ele>40.1096</ele>
        <time>2014-03-31T09:47:33.618000Z</time>
      </trkpt>
      <trkpt lat="38.81753" lon="121.14835">
        <ele>41.00244</ele>
        <time>2014-03-31T09:47:36.731000Z</time>
      </trkpt>
      <trkpt lat="38.817627" lon="121.14837">
        <ele>42.858204</ele>
        <time>2014-03-31T09:47:39.844000Z</time>
      </trkpt>
      <trkpt lat="38.817745" lon="121.14839">
        <ele>45.253872</ele>
        <time>2014-03-31T09:47:42.957000Z</time>
      </trkpt>
      <trkpt lat="38.817837" lon="121.14839">
        <ele>47.30883</ele>
        <time>2014-03-31T09:47:46.070000Z</time>
      </trkpt>
      <trkpt lat="38.817955" lon="121.14839">
        <ele>47.797752</ele>
        <time>2014-03-31T09:47:49.183000Z</time>
      </trkpt>
      <trkpt lat="38.81806" lon="121.148384">
        <ele>46.13143</ele>
        <time>2014-03-31T09:47:52.296000Z</time>
      </trkpt>
      <trkpt lat="38.818172" lon="121.14838">
        <ele>43.51164</ele>
        <time>2014-03-31T09:47:55.409000Z</time>
      </trkpt>
      <trkpt lat="38.818264" lon="121.14837">
        <ele>41.265556</ele>
        <time>2014-03-31T09:47:58.522000Z</time>
      </trkpt>
      <trkpt lat="38.818382" lon="121.14835">
        <ele>40.032116</ele>
        <time>2014-03-31T09:48:01.635000Z</time>
      </trkpt>
      <trkpt lat="38.818493" lon="121.1483">
        <ele>39.710335</ele>
        <time>2014-03-31T09:48:04.748000Z</time>
      </trkpt>
      <trkpt lat="38.818577" lon="121.14823">
        <ele>39.868263</ele>
        <time>2014-03-31T09:48:07.861000Z</time>
      </trkpt>
      <trkpt lat="38.81866" lon="121.14815">
        <ele>40.515976</ele>
        <time>2014-03-31T09:48:10.974000Z</time>
      </trkpt>
      <trkpt lat="38.818707" lon="121.14804">
        <ele>41.62944</ele>
        <time>2014-03-31T09:48:14.087000Z</time>
      </trkpt>
      <trkpt lat="38.818737" lon="121.14791">
        <ele>42.572113</ele>
        <time>2014-03-31T09:48:17.200000Z</time>
      </trkpt>
      <trkpt lat="38.818718" lon="121.14778">
        <ele>42.523067</ele>
        <time>2014-03-31T09:48:20.313000Z</time>
      </trkpt>
      <trkpt lat="38.81871" lon="121.14763">
        <ele>41.125732</ele>
        <time>2014-03-31T09:48:23.426000Z</time>
      </trkpt>
      <trkpt lat="38.81866" lon="121.14751">
        <ele>39.810055</ele>
        <time>2014-03-31T09:48:26.539000Z</time>
      </trkpt>
      <trkpt lat="38.818565" lon="121.14742">
        <ele>39.993393</ele>
        <time>2014-03-31T09:48:29.652000Z</time>
      </trkpt>
      <trkpt lat="38.81847" lon="121.1474">
        <ele>41.18596</ele>
        <time>2014-03-31T09:48:32.765000Z</time>
      </trkpt>
      <trkpt lat="38.81838" lon="121.14737">
        <ele>42.423622</ele>
        <time>2014-03-31T09:48:35.878000Z</time>
      </trkpt>
      <trkpt lat="38.818264" lon="121.14735">
        <ele>43.11223</ele>
        <time>2014-03-31T09:48:38.991000Z</time>
      </trkpt>
      <trkpt lat="38.818165" lon="121.14734">
        <ele>43.35878</ele>
        <time>2014-03-31T09:48:42.104000Z</time>
      </trkpt>
      <trkpt lat="38.818043" lon="121.14731">
        <ele>43.77513</ele>
        <time>2014-03-31T09:48:45.217000Z</time>
      </trkpt>
      <trkpt lat="38.817936" lon="121.14729">
        <ele>44.924175</ele>
        <time>2014-03-31T09:48:48.330000Z</time>
      </trkpt>
      <trkpt lat="38.81784" lon="121.147285">
        <ele>46.660053</ele>
        <time>2014-03-31T09:48:51.443000Z</time>
      </trkpt>
      <trkpt lat="38.81772" lon="121.14726">
        <ele>47.66535</ele>
        <time>2014-03-31T09:48:54.556000Z</time>
      </trkpt>
      <trkpt lat="38.81763" lon="121.14724">
        <ele>46.986946</ele>
        <time>2014-03-31T09:48:57.669000Z</time>
      </trkpt>
      <trkpt lat="38.817524" lon="121.14723">
        <ele>45.904472</ele>
        <time>2014-03-31T09:49:00.782000Z</time>
      </trkpt>
      <trkpt lat="38.81743" lon="121.14724">
        <ele>45.925896</ele>
        <time>2014-03-31T09:49:03.895000Z</time>
      </trkpt>
      <trkpt lat="38.817333" lon="121.147285">
        <ele>46.901627</ele>
        <time>2014-03-31T09:49:07.008000Z</time>
      </trkpt>
      <trkpt lat="38.817257" lon="121.14737">
        <ele>47.82605</ele>
        <time>2014-03-31T09:49:10.121000Z</time>
      </trkpt>
      <trkpt lat="38.817196" lon="121.147484">
        <ele>47.903587</ele>
        <time>2014-03-31T09:49:13.234000Z</time>
      </trkpt>
      <trkpt lat="38.817154" lon="121.14762">
        <ele>46.821953</ele>
        <time>2014-03-31T09:49:16.347000Z</time>
      </trkpt>
      <trkpt lat="38.817142" lon="121.14776">
        <ele>45.21089</ele>
        <time>2014-03-31T09:49:19.460000Z</time>
      </trkpt>
      <trkpt lat="38.817177" lon="121.14789">
        <ele>44.01407</ele>
        <time>2014-03-31T09:49:22.573000Z</time>
      </trkpt>
      <trkpt lat="38.81721" lon="121.148026">
        <ele>43.364765</ele>
        <time>2014-03-31T09:49:25.686000Z</time>
      </trkpt>
      <trkpt lat="38.81726" lon="121.14818">
        <ele>43.04256</ele>
        <time>2014-03-31T09:49:28.799000Z</time>
      </trkpt>
      <trkpt lat="38.81732" lon="121.14827">
        <ele>42.86175</ele>
        <time>2014-03-31T09:49:31.912000Z</time>
      </trkpt>
      <trkpt lat="38.817406" lon="121.14832">
        <ele>42.856693</ele>
        <time>2014-03-31T09:49:35.025000Z</time>
      </trkpt>
      <trkpt lat="38.817497" lon="121.148346">
        <ele>43.56304</ele>
        <time>2014-03-31T09:49:38.138000Z</time>
      </trkpt>
      <trkpt lat="38.81759" lon="121.14837">
        <ele>45.082985</ele>
        <time>2014-03-31T09:49:41.251000Z</time>
      </trkpt>
      <trkpt lat="38.81768" lon="121.14838">
        <ele>46.662422</ele>
        <time>2014-03-31T09:49:44.364000Z</time>
      </trkpt>
      <trkpt lat="38.81778" lon="121.148384">
        <ele>47.249504</ele>
        <time>2014-03-31T09:49:47.477000Z</time>
      </trkpt>
      <trkpt lat="38.81789" lon="121.14838">
        <ele>46.53096</ele>
        <time>2014-03-31T09:49:50.590000Z</time>
      </trkpt>
      <trkpt lat="38.817986" lon="121.148384">
        <ele>45.425213</ele>
        <time>2014-03-31T09:49:53.703000Z</time>
      </trkpt>
      <trkpt lat="38.818104" lon="121.148384">
        <ele>45.334545</ele>
        <time>2014-03-31T09:49:56.816000Z</time>
      </trkpt>
      <trkpt lat="38.818207" lon="121.14839">
        <ele>46.54696</ele>
        <time>2014-03-31T09:49:59.929000Z</time>
      </trkpt>
      <trkpt lat="38.8183" lon="121.148384">
        <ele>47.686707</ele>
        <time>2014-03-31T09:50:03.042000Z</time>
      </trkpt>
      <trkpt lat="38.818405" lon="121.14838">
        <ele>47.65508</ele>
        <time>2014-03-31T09:50:06.155000Z</time>
      </trkpt>
      <trkpt lat="38.818497" lon="121.14834">
        <ele>47.141087</ele>
        <time>2014-03-31T09:50:09.268000Z</time>
      </trkpt>
      <trkpt lat="38.818592" lon="121.14827">
        <ele>47.37807</ele>
        <time>2014-03-31T09:50:12.381000Z</time>
      </trkpt>
      <trkpt lat="38.818665" lon="121.14816">
        <ele>48.535286</ele>
        <time>2014-03-31T09:50:15.494000Z</time>
      </trkpt>
      <trkpt lat="38.81871" lon="121.148056">
        <ele>49.896774</ele>
        <time>2014-03-31T09:50:18.607000Z</time>
      </trkpt>
      <trkpt lat="38.818733" lon="121.14793">
        <ele>50.742355</ele>
        <time>2014-03-31T09:50:21.720000Z</time>
      </trkpt>
      <trkpt lat="38.81872" lon="121.14779">
        <ele>50.533028</ele>
        <time>2014-03-31T09:50:24.833000Z</time>
      </trkpt>
      <trkpt lat="38.818707" lon="121.14764">
        <ele>49.29589</ele>
        <time>2014-03-31T09:50:27.946000Z</time>
      </trkpt>
      <trkpt lat="38.818672" lon="121.14753">
        <ele>47.945393</ele>
        <time>2014-03-31T09:50:31.059000Z</time>
      </trkpt>
      <trkpt lat="38.818604" lon="121.14743">
        <ele>47.10935</ele>
        <time>2014-03-31T09:50:34.172000Z</time>
      </trkpt>
      <trkpt lat="38.81851" lon="121.14737">
        <ele>46.86029</ele>
        <time>2014-03-31T09:50:37.285000Z</time>
      </trkpt>
      <trkpt lat="38.818413" lon="121.14734">
        <ele>46.95415</ele>
        <time>2014-03-31T09:50:40.398000Z</time>
      </trkpt>
      <trkpt lat="38.81831" lon="121.14732">
        <ele>46.513546</ele>
        <time>2014-03-31T09:50:43.511000Z</time>
      </trkpt>
      <trkpt lat="38.818195" lon="121.14729">
        <ele>45.16171</ele>
        <time>2014-03-31T09:50:46.624000Z</time>
      </trkpt>
      <trkpt lat="38.818077" lon="121.14728">
        <ele>43.688267</ele>
        <time>2014-03-31T09:50:49.737000Z</time>
      </trkpt>
      <trkpt lat="38.817944" lon="121.14727">
        <ele>43.07262</ele>
        <time>2014-03-31T09:50:52.850000Z</time>
      </trkpt>
      <trkpt lat="38.81783" lon="121.147255">
        <ele>43.978024</ele>
        <time>2014-03-31T09:50:55.963000Z</time>
      </trkpt>
      <trkpt lat="38.817715" lon="121.14723">
        <ele>46.044853</ele>
        <time>2014-03-31T09:50:59.076000Z</time>
      </trkpt>
      <trkpt lat="38.817608" lon="121.14721">
        <ele>47.9261</ele>
        <time>2014-03-31T09:51:02.189000Z</time>
      </trkpt>
      <trkpt lat="38.817505" lon="121.14721">
        <ele>49.004837</ele>
        <time>2014-03-31T09:51:05.302000Z</time>
      </trkpt>
      <trkpt lat="38.817383" lon="121.14724">
        <ele>49.6535</ele>
        <time>2014-03-31T09:51:08.415000Z</time>
      </trkpt>
      <trkpt lat="38.81729" lon="121.147316">
        <ele>50.29884</ele>
        <time>2014-03-31T09:51:11.528000Z</time>
      </trkpt>
      <trkpt lat="38.8172" lon="121.147446">
        <ele>50.834442</ele>
        <time>2014-03-31T09:51:14.641000Z</time>
      </trkpt>
      <trkpt lat="38.817154" lon="121.14761">
        <ele>50.202854</ele>
        <time>2014-03-31T09:51:17.754000Z</time>
      </trkpt>
      <trkpt lat="38.817146" lon="121.14778">
        <ele>47.828194</ele>
        <time>2014-03-31T09:51:20.867000Z</time>
      </trkpt>
      <trkpt lat="38.817165" lon="121.14796">
        <ele>45.024914</ele>
        <time>2014-03-31T09:51:23.980000Z</time>
      </trkpt>
      <trkpt lat="38.817223" lon="121.14811">
        <ele>43.392536</ele>
        <time>2014-03-31T09:51:27.093000Z</time>
      </trkpt>
      <trkpt lat="38.817307" lon="121.14822">
        <ele>43.58536</ele>
        <time>2014-03-31T09:51:30.206000Z</time>
      </trkpt>
      <trkpt lat="38.81741" lon="121.14829">
        <ele>45.23179</ele>
        <time>2014-03-31T09:51:33.319000Z</time>
      </trkpt>
      <trkpt lat="38.817513" lon="121.14833">
        <ele>46.499763</ele>
        <time>2014-03-31T09:51:36.432000Z</time>
      </trkpt>
      <trkpt lat="38.817604" lon="121.14835">
        <ele>45.98137</ele>
        <time>2014-03-31T09:51:39.545000Z</time>
      </trkpt>
      <trkpt lat="38.817722" lon="121.14838">
        <ele>44.46446</ele>
        <time>2014-03-31T09:51:42.658000Z</time>
      </trkpt>
      <trkpt lat="38.81785" lon="121.14839">
        <ele>43.63723</ele>
        <time>2014-03-31T09:51:45.771000Z</time>
      </trkpt>
      <trkpt lat="38.81797" lon="121.1484">
        <ele>44.086754</ele>
        <time>2014-03-31T09:51:48.884000Z</time>
      </trkpt>
      <trkpt lat="38.81808" lon="121.14841">
        <ele>45.010437</ele>
        <time>2014-03-31T09:51:51.997000Z</time>
      </trkpt>
      <trkpt lat="38.81819" lon="121.14841">
        <ele>45.59358</ele>
        <time>2014-03-31T09:51:55.110000Z</time>
      </trkpt>
      <trkpt lat="38.8183" lon="121.14838">
        <ele>45.75845</ele>
        <time>2014-03-31T09:51:58.223000Z</time>
      </trkpt>
      <trkpt lat="38.818417" lon="121.14834">
        <ele>45.703262</ele>
        <time>2014-03-31T09:52:01.336000Z</time>
      </trkpt>
      <trkpt lat="38.818523" lon="121.14828">
        <ele>45.607384</ele>
        <time>2014-03-31T09:52:04.449000Z</time>
      </trkpt>
      <trkpt lat="38.818615" lon="121.14815">
        <ele>45.967094</ele>
        <time>2014-03-31T09:52:07.562000Z</time>
      </trkpt>
      <trkpt lat="38.818665" lon="121.14799">
        <ele>46.75845</ele>
        <time>2014-03-31T09:52:10.675000Z</time>
      </trkpt>
      <trkpt lat="38.81869" lon="121.147835">
        <ele>47.142303</ele>
        <time>2014-03-31T09:52:13.788000Z</time>
      </trkpt>
      <trkpt lat="38.818687" lon="121.14767">
        <ele>46.568863</ele>
        <time>2014-03-31T09:52:16.901000Z</time>
      </trkpt>
      <trkpt lat="38.818638" lon="121.14754">
        <ele>45.416553</ele>
        <time>2014-03-31T09:52:20.014000Z</time>
      </trkpt>
      <trkpt lat="38.818546" lon="121.14743">
        <ele>44.43976</ele>
        <time>2014-03-31T09:52:23.127000Z</time>
      </trkpt>
      <trkpt lat="38.81844" lon="121.147385">
        <ele>44.13827</ele>
        <time>2014-03-31T09:52:26.240000Z</time>
      </trkpt>
      <trkpt lat="38.818317" lon="121.14738">
        <ele>44.619648</ele>
        <time>2014-03-31T09:52:29.353000Z</time>
      </trkpt>
      <trkpt lat="38.81817" lon="121.147354">
        <ele>45.848927</ele>
        <time>2014-03-31T09:52:32.466000Z</time>
      </trkpt>
      <trkpt lat="38.81807" lon="121.14732">
        <ele>47.255424</ele>
        <time>2014-03-31T09:52:35.579000Z</time>
      </trkpt>
      <trkpt lat="38.81791" lon="121.1473">
        <ele>48.120464</ele>
        <time>2014-03-31T09:52:38.692000Z</time>
      </trkpt>
      <trkpt lat="38.81778" lon="121.14729">
        <ele>48.12675</ele>
        <time>2014-03-31T09:52:41.805000Z</time>
      </trkpt>
      <trkpt lat="38.817616" lon="121.14727">
        <ele>47.45705</ele>
        <time>2014-03-31T09:52:44.918000Z</time>
      </trkpt>
      <trkpt lat="38.817513" lon="121.14727">
        <ele>46.421406</ele>
        <time>2014-03-31T09:52:48.031000Z</time>
      </trkpt>
      <trkpt lat="38.817375" lon="121.1473">
        <ele>45.155552</ele>
        <time>2014-03-31T09:52:51.144000Z</time>
      </trkpt>
      <trkpt lat="38.817272" lon="121.14741">
        <ele>44.04416</ele>
        <time>2014-03-31T09:52:54.257000Z</time>
      </trkpt>
      <trkpt lat="38.81719" lon="121.14758">
        <ele>43.47808</ele>
        <time>2014-03-31T09:52:57.370000Z</time>
      </trkpt>
      <trkpt lat="38.81716" lon="121.147705">
        <ele>43.573135</ele>
        <time>2014-03-31T09:53:00.483000Z</time>
      </trkpt>
      <trkpt lat="38.817165" lon="121.14791">
        <ele>43.848457</ele>
        <time>2014-03-31T09:53:03.596000Z</time>
      </trkpt>
      <trkpt lat="38.81721" lon="121.14808">
        <ele>43.943336</ele>
        <time>2014-03-31T09:53:06.709000Z</time>
      </trkpt>
      <trkpt lat="38.817265" lon="121.14818">
        <ele>44.11957</ele>
        <time>2014-03-31T09:53:09.822000Z</time>
      </trkpt>
      <trkpt lat="38.817265" lon="121.14818">
        <time>2014-03-31T09:53:12.935000Z</time>
      </trkpt>
    </trkseg>
  </trk>
</gpx>