<?xml version="1.0" encoding="UTF-8"?>
<gpx xmlns="http://www.topografix.com/GPX/1/1" xmlns:gpxtpx="http://www.garmin.com/xmlschemas/TrackPointExtension/v1" xmlns:xsi="http://www.w3.org/2001/XMLSchema-instance" xsi:schemaLocation="http://www.topografix.com/GPX/1/1 http://www.topografix.com/GPX/1/1/gpx.xsd" version="1.1" creator="gpx.py -- https://github.com/tkrajina/gpxpy">
  <trk>
    <trkseg>
      <trkpt lat="38.81836" lon="121.14737">
        <ele>48.542423</ele>
        <time>2014-04-24T09:37:12.028000Z</time>
      </trkpt>
      <trkpt lat="38.81835" lon="121.14737">
        <ele>48.5303</ele>
        <time>2014-04-24T09:37:15.705000Z</time>
      </trkpt>
      <trkpt lat="38.81835" lon="121.14737">
        <ele>47.995926</ele>
        <time>2014-04-24T09:37:19.382000Z</time>
      </trkpt>
      <trkpt lat="38.81826" lon="121.14738">
        <ele>47.349083</ele>
        <time>2014-04-24T09:37:23.059000Z</time>
      </trkpt>
      <trkpt lat="38.818165" lon="121.14739">
        <ele>46.7138</ele>
        <time>2014-04-24T09:37:26.736000Z</time>
      </trkpt>
      <trkpt lat="38.81807" lon="121.147354">
        <ele>45.862507</ele>
        <time>2014-04-24T09:37:30.413000Z</time>
      </trkpt>
      <trkpt lat="38.81798" lon="121.14733">
        <ele>45.169353</ele>
        <time>2014-04-24T09:37:34.090000Z</time>
      </trkpt>
      <trkpt lat="38.817883" lon="121.147316">
        <ele>45.01501</ele>
        <time>2014-04-24T09:37:37.767000Z</time>
      </trkpt>
      <trkpt lat="38.81778" lon="121.147316">
        <ele>44.67408</ele>
        <time>2014-04-24T09:37:41.444000Z</time>
      </trkpt>
      <trkpt lat="38.81768" lon="121.147316">
        <ele>43.55488</ele>
        <time>2014-04-24T09:37:45.121000Z</time>
      </trkpt>
      <trkpt lat="38.81759" lon="121.147316">
        <ele>42.455093</ele>
        <time>2014-04-24T09:37:48.798000Z</time>
      </trkpt>
      <trkpt lat="38.817486" lon="121.147354">
        <ele>42.195515</ele>
        <time>2014-04-24T09:37:52.475000Z</time>
      </trkpt>
      <trkpt lat="38.8174" lon="121.14741">
        <ele>42.547455</ele>
        <time>2014-04-24T09:37:56.152000Z</time>
      </trkpt>
      <trkpt lat="38.81732" lon="121.14748">
        <ele>43.329376</ele>
        <time>2014-04-24T09:37:59.829000Z</time>
      </trkpt>
      <trkpt lat="38.817253" lon="121.14757">
        <ele>44.964375</ele>
        <time>2014-04-24T09:38:03.506000Z</time>
      </trkpt>
      <trkpt lat="38.81721" lon="121.14768">
        <ele>47.59255</ele>
        <time>2014-04-24T09:38:07.183000Z</time>
      </trkpt>
      <trkpt lat="38.81721" lon="121.14783">
        <ele>50.55551</ele>
        <time>2014-04-24T09:38:10.860000Z</time>
      </trkpt>
      <trkpt lat="38.81724" lon="121.147964">
        <ele>52.609016</ele>
        <time>2014-04-24T09:38:14.537000Z</time>
      </trkpt>
      <trkpt lat="38.817287" lon="121.148094">
        <ele>52.71331</ele>
        <time>2014-04-24T09:38:18.214000Z</time>
      </trkpt>
      <trkpt lat="38.817368" lon="121.148186">
        <ele>51.22481</ele>
        <time>2014-04-24T09:38:21.891000Z</time>
      </trkpt>
      <trkpt lat="38.81745" lon="121.14824">
        <ele>49.2428</ele>
        <time>2014-04-24T09:38:25.568000Z</time>
      </trkpt>
      <trkpt lat="38.817547" lon="121.14827">
        <ele>47.388157</ele>
        <time>2014-04-24T09:38:29.245000Z</time>
      </trkpt>
      <trkpt lat="38.817654" lon="121.14827">
        <ele>46.164032</ele>
        <time>2014-04-24T09:38:32.922000Z</time>
      </trkpt>
      <trkpt lat="38.817757" lon="121.148254">
        <ele>45.860416</ele>
        <time>2014-04-24T09:38:36.599000Z</time>
      </trkpt>
      <trkpt lat="38.817856" lon="121.148254">
        <ele>46.14477</ele>
        <time>2014-04-24T09:38:40.276000Z</time>
      </trkpt>
      <trkpt lat="38.81796" lon="121.14827">
        <ele>46.71078</ele>
        <time>2014-04-24T09:38:43.953000Z</time>
      </trkpt>
      <trkpt lat="38.818066" lon="121.14828">
        <ele>47.168</ele>
        <time>2014-04-24T09:38:47.630000Z</time>
      </trkpt>
      <trkpt lat="38.818172" lon="121.148285">
        <ele>47.05705</ele>
        <time>2014-04-24T09:38:51.307000Z</time>
      </trkpt>
      <trkpt lat="38.818268" lon="121.14829">
        <ele>46.48124</ele>
        <time>2014-04-24T09:38:54.984000Z</time>
      </trkpt>
      <trkpt lat="38.818363" lon="121.14829">
        <ele>45.996243</ele>
        <time>2014-04-24T09:38:58.661000Z</time>
      </trkpt>
      <trkpt lat="38.81846" lon="121.148254">
        <ele>45.87186</ele>
        <time>2014-04-24T09:39:02.338000Z</time>
      </trkpt>
      <trkpt lat="38.81854" lon="121.1482">
        <ele>46.165607</ele>
        <time>2014-04-24T09:39:06.015000Z</time>
      </trkpt>
      <trkpt lat="38.81861" lon="121.14811">
        <ele>46.920628</ele>
        <time>2014-04-24T09:39:09.692000Z</time>
      </trkpt>
      <trkpt lat="38.818676" lon="121.147995">
        <ele>48.122368</ele>
        <time>2014-04-24T09:39:13.369000Z</time>
      </trkpt>
      <trkpt lat="38.8187" lon="121.14786">
        <ele>49.920444</ele>
        <time>2014-04-24T09:39:17.046000Z</time>
      </trkpt>
      <trkpt lat="38.81869" lon="121.14773">
        <ele>52.105305</ele>
        <time>2014-04-24T09:39:20.723000Z</time>
      </trkpt>
      <trkpt lat="38.818645" lon="121.1476">
        <ele>53.386127</ele>
        <time>2014-04-24T09:39:24.400000Z</time>
      </trkpt>
      <trkpt lat="38.81858" lon="121.14749">
        <ele>52.94676</ele>
        <time>2014-04-24T09:39:28.077000Z</time>
      </trkpt>
      <trkpt lat="38.8185" lon="121.147415">
        <ele>51.806046</ele>
        <time>2014-04-24T09:39:31.754000Z</time>
      </trkpt>
      <trkpt lat="38.818413" lon="121.14737">
        <ele>50.92196</ele>
        <time>2014-04-24T09:39:35.431000Z</time>
      </trkpt>
      <trkpt lat="38.818317" lon="121.14735">
        <ele>50.26039</ele>
        <time>2014-04-24T09:39:39.108000Z</time>
      </trkpt>
      <trkpt lat="38.818214" lon="121.147354">
        <ele>49.804344</ele>
        <time>2014-04-24T09:39:42.785000Z</time>
      </trkpt>
      <trkpt lat="38.81812" lon="121.14735">
        <ele>49.653908</ele>
        <time>2014-04-24T09:39:46.462000Z</time>
      </trkpt>
      <trkpt lat="38.81802" lon="121.14736">
        <ele>49.542774</ele>
        <time>2014-04-24T09:39:50.139000Z</time>
      </trkpt>
      <trkpt lat="38.817932" lon="121.147354">
        <ele>49.205315</ele>
        <time>2014-04-24T09:39:53.816000Z</time>
      </trkpt>
      <trkpt lat="38.817825" lon="121.14735">
        <ele>48.804363</ele>
        <time>2014-04-24T09:39:57.493000Z</time>
      </trkpt>
      <trkpt lat="38.817734" lon="121.14734">
        <ele>48.488182</ele>
        <time>2014-04-24T09:40:01.170000Z</time>
      </trkpt>
      <trkpt lat="38.817627" lon="121.14734">
        <ele>48.124744</ele>
        <time>2014-04-24T09:40:04.847000Z</time>
      </trkpt>
      <trkpt lat="38.817535" lon="121.14735">
        <ele>47.75992</ele>
        <time>2014-04-24T09:40:08.524000Z</time>
      </trkpt>
      <trkpt lat="38.81742" lon="121.14736">
        <ele>47.5523</ele>
        <time>2014-04-24T09:40:12.201000Z</time>
      </trkpt>
      <trkpt lat="38.817333" lon="121.14744">
        <ele>47.513958</ele>
        <time>2014-04-24T09:40:15.878000Z</time>
      </trkpt>
      <trkpt lat="38.817265" lon="121.14754">
        <ele>47.96357</ele>
        <time>2014-04-24T09:40:19.555000Z</time>
      </trkpt>
      <trkpt lat="38.817215" lon="121.14767">
        <ele>48.758003</ele>
        <time>2014-04-24T09:40:23.232000Z</time>
      </trkpt>
      <trkpt lat="38.817196" lon="121.14778">
        <ele>49.122173</ele>
        <time>2014-04-24T09:40:26.909000Z</time>
      </trkpt>
      <trkpt lat="38.81721" lon="121.1479">
        <ele>48.74959</ele>
        <time>2014-04-24T09:40:30.586000Z</time>
      </trkpt>
      <trkpt lat="38.817238" lon="121.14802">
        <ele>47.81205</ele>
        <time>2014-04-24T09:40:34.263000Z</time>
      </trkpt>
      <trkpt lat="38.817295" lon="121.14812">
        <ele>46.52631</ele>
        <time>2014-04-24T09:40:37.940000Z</time>
      </trkpt>
      <trkpt lat="38.817368" lon="121.14819">
        <ele>45.447563</ele>
        <time>2014-04-24T09:40:41.617000Z</time>
      </trkpt>
      <trkpt lat="38.81747" lon="121.14824">
        <ele>45.040325</ele>
        <time>2014-04-24T09:40:45.294000Z</time>
      </trkpt>
      <trkpt lat="38.81757" lon="121.14826">
        <ele>45.25286</ele>
        <time>2014-04-24T09:40:48.971000Z</time>
      </trkpt>
      <trkpt lat="38.81767" lon="121.148254">
        <ele>45.806957</ele>
        <time>2014-04-24T09:40:52.648000Z</time>
      </trkpt>
      <trkpt lat="38.81776" lon="121.14826">
        <ele>46.521984</ele>
        <time>2014-04-24T09:40:56.325000Z</time>
      </trkpt>
      <trkpt lat="38.817875" lon="121.14826">
        <ele>47.16753</ele>
        <time>2014-04-24T09:41:00.002000Z</time>
      </trkpt>
      <trkpt lat="38.81797" lon="121.14828">
        <ele>47.50408</ele>
        <time>2014-04-24T09:41:03.679000Z</time>
      </trkpt>
      <trkpt lat="38.81807" lon="121.148285">
        <ele>47.570133</ele>
        <time>2014-04-24T09:41:07.356000Z</time>
      </trkpt>
      <trkpt lat="38.818165" lon="121.148285">
        <ele>47.51818</ele>
        <time>2014-04-24T09:41:11.033000Z</time>
      </trkpt>
      <trkpt lat="38.818256" lon="121.14829">
        <ele>47.457203</ele>
        <time>2014-04-24T09:41:14.710000Z</time>
      </trkpt>
      <trkpt lat="38.818356" lon="121.148285">
        <ele>47.379772</ele>
        <time>2014-04-24T09:41:18.387000Z</time>
      </trkpt>
      <trkpt lat="38.818455" lon="121.14827">
        <ele>47.38741</ele>
        <time>2014-04-24T09:41:22.064000Z</time>
      </trkpt>
      <trkpt lat="38.81855" lon="121.14821">
        <ele>47.456493</ele>
        <time>2014-04-24T09:41:25.741000Z</time>
      </trkpt>
      <trkpt lat="38.81863" lon="121.14811">
        <ele>47.31748</ele>
        <time>2014-04-24T09:41:29.418000Z</time>
      </trkpt>
      <trkpt lat="38.818684" lon="121.14799">
        <ele>46.986916</ele>
        <time>2014-04-24T09:41:33.095000Z</time>
      </trkpt>
      <trkpt lat="38.818703" lon="121.14786">
        <ele>46.706486</ele>
        <time>2014-04-24T09:41:36.772000Z</time>
      </trkpt>
      <trkpt lat="38.818703" lon="121.14773">
        <ele>46.914406</ele>
        <time>2014-04-24T09:41:40.449000Z</time>
      </trkpt>
      <trkpt lat="38.818665" lon="121.147606">
        <ele>47.728058</ele>
        <time>2014-04-24T09:41:44.126000Z</time>
      </trkpt>
      <trkpt lat="38.818604" lon="121.14751">
        <ele>48.48949</ele>
        <time>2014-04-24T09:41:47.803000Z</time>
      </trkpt>
      <trkpt lat="38.818516" lon="121.147415">
        <ele>48.737392</ele>
        <time>2014-04-24T09:41:51.480000Z</time>
      </trkpt>
      <trkpt lat="38.818413" lon="121.14738">
        <ele>48.61107</ele>
        <time>2014-04-24T09:41:55.157000Z</time>
      </trkpt>
      <trkpt lat="38.81832" lon="121.14736">
        <ele>48.049866</ele>
        <time>2014-04-24T09:41:58.834000Z</time>
      </trkpt>
      <trkpt lat="38.818226" lon="121.147354">
        <ele>47.152092</ele>
        <time>2014-04-24T09:42:02.511000Z</time>
      </trkpt>
      <trkpt lat="38.81813" lon="121.14736">
        <ele>46.797905</ele>
        <time>2014-04-24T09:42:06.188000Z</time>
      </trkpt>
      <trkpt lat="38.818016" lon="121.14737">
        <ele>47.547478</ele>
        <time>2014-04-24T09:42:09.865000Z</time>
      </trkpt>
      <trkpt lat="38.817924" lon="121.14737">
        <ele>48.55351</ele>
        <time>2014-04-24T09:42:13.542000Z</time>
      </trkpt>
      <trkpt lat="38.81782" lon="121.14738">
        <ele>48.96892</ele>
        <time>2014-04-24T09:42:17.219000Z</time>
      </trkpt>
      <trkpt lat="38.81773" lon="121.14739">
        <ele>48.995823</ele>
        <time>2014-04-24T09:42:20.896000Z</time>
      </trkpt>
      <trkpt lat="38.817635" lon="121.14738">
        <ele>49.02737</ele>
        <time>2014-04-24T09:42:24.573000Z</time>
      </trkpt>
      <trkpt lat="38.817528" lon="121.147385">
        <ele>49.140377</ele>
        <time>2014-04-24T09:42:28.250000Z</time>
      </trkpt>
      <trkpt lat="38.817413" lon="121.147415">
        <ele>49.20262</ele>
        <time>2014-04-24T09:42:31.927000Z</time>
      </trkpt>
      <trkpt lat="38.81734" lon="121.147484">
        <ele>49.127377</ele>
        <time>2014-04-24T09:42:35.604000Z</time>
      </trkpt>
      <trkpt lat="38.817265" lon="121.1476">
        <ele>48.991524</ele>
        <time>2014-04-24T09:42:39.281000Z</time>
      </trkpt>
      <trkpt lat="38.81723" lon="121.14771">
        <ele>49.0508</ele>
        <time>2014-04-24T09:42:42.958000Z</time>
      </trkpt>
      <trkpt lat="38.81723" lon="121.14783">
        <ele>49.40887</ele>
        <time>2014-04-24T09:42:46.635000Z</time>
      </trkpt>
      <trkpt lat="38.817257" lon="121.14795">
        <ele>49.83262</ele>
        <time>2014-04-24T09:42:50.312000Z</time>
      </trkpt>
      <trkpt lat="38.817307" lon="121.148056">
        <ele>49.838562</ele>
        <time>2014-04-24T09:42:53.989000Z</time>
      </trkpt>
      <trkpt lat="38.817383" lon="121.14816">
        <ele>48.958755</ele>
        <time>2014-04-24T09:42:57.666000Z</time>
      </trkpt>
      <trkpt lat="38.81747" lon="121.14822">
        <ele>47.316746</ele>
        <time>2014-04-24T09:43:01.343000Z</time>
      </trkpt>
      <trkpt lat="38.81757" lon="121.14825">
        <ele>45.770943</ele>
        <time>2014-04-24T09:43:05.020000Z</time>
      </trkpt>
      <trkpt lat="38.81766" lon="121.148254">
        <ele>45.268288</ele>
        <time>2014-04-24T09:43:08.697000Z</time>
      </trkpt>
      <trkpt lat="38.817757" lon="121.148254">
        <ele>46.02546</ele>
        <time>2014-04-24T09:43:12.374000Z</time>
      </trkpt>
      <trkpt lat="38.817875" lon="121.14825">
        <ele>47.26818</ele>
        <time>2014-04-24T09:43:16.051000Z</time>
      </trkpt>
      <trkpt lat="38.81797" lon="121.148254">
        <ele>48.143513</ele>
        <time>2014-04-24T09:43:19.728000Z</time>
      </trkpt>
      <trkpt lat="38.81807" lon="121.14826">
        <ele>48.8039</ele>
        <time>2014-04-24T09:43:23.405000Z</time>
      </trkpt>
      <trkpt lat="38.818165" lon="121.14827">
        <ele>49.617672</ele>
        <time>2014-04-24T09:43:27.082000Z</time>
      </trkpt>
      <trkpt lat="38.818264" lon="121.14828">
        <ele>50.144844</ele>
        <time>2014-04-24T09:43:30.759000Z</time>
      </trkpt>
      <trkpt lat="38.818356" lon="121.14828">
        <ele>49.722126</ele>
        <time>2014-04-24T09:43:34.436000Z</time>
      </trkpt>
      <trkpt lat="38.818466" lon="121.148254">
        <ele>48.556557</ele>
        <time>2014-04-24T09:43:38.113000Z</time>
      </trkpt>
      <trkpt lat="38.818558" lon="121.14818">
        <ele>47.39396</ele>
        <time>2014-04-24T09:43:41.790000Z</time>
      </trkpt>
      <trkpt lat="38.81863" lon="121.1481">
        <ele>46.68803</ele>
        <time>2014-04-24T09:43:45.467000Z</time>
      </trkpt>
      <trkpt lat="38.818676" lon="121.14799">
        <ele>46.40704</ele>
        <time>2014-04-24T09:43:49.144000Z</time>
      </trkpt>
      <trkpt lat="38.818695" lon="121.14786">
        <ele>46.602364</ele>
        <time>2014-04-24T09:43:52.821000Z</time>
      </trkpt>
      <trkpt lat="38.81868" lon="121.14771">
        <ele>47.13471</ele>
        <time>2014-04-24T09:43:56.498000Z</time>
      </trkpt>
      <trkpt lat="38.818626" lon="121.14759">
        <ele>47.526722</ele>
        <time>2014-04-24T09:44:00.175000Z</time>
      </trkpt>
      <trkpt lat="38.818565" lon="121.14749">
        <ele>47.575108</ele>
        <time>2014-04-24T09:44:03.852000Z</time>
      </trkpt>
      <trkpt lat="38.818478" lon="121.147415">
        <ele>47.505157</ele>
        <time>2014-04-24T09:44:07.529000Z</time>
      </trkpt>
      <trkpt lat="38.81839" lon="121.147385">
        <ele>47.505013</ele>
        <time>2014-04-24T09:44:11.206000Z</time>
      </trkpt>
      <trkpt lat="38.818287" lon="121.14736">
        <ele>47.67161</ele>
        <time>2014-04-24T09:44:14.883000Z</time>
      </trkpt>
      <trkpt lat="38.81818" lon="121.147354">
        <ele>48.178795</ele>
        <time>2014-04-24T09:44:18.560000Z</time>
      </trkpt>
      <trkpt lat="38.818092" lon="121.14737">
        <ele>49.04513</ele>
        <time>2014-04-24T09:44:22.237000Z</time>
      </trkpt>
      <trkpt lat="38.817993" lon="121.14737">
        <ele>49.79767</ele>
        <time>2014-04-24T09:44:25.914000Z</time>
      </trkpt>
      <trkpt lat="38.81789" lon="121.14738">
        <ele>49.998367</ele>
        <time>2014-04-24T09:44:29.591000Z</time>
      </trkpt>
      <trkpt lat="38.81778" lon="121.147385">
        <ele>49.625675</ele>
        <time>2014-04-24T09:44:33.268000Z</time>
      </trkpt>
      <trkpt lat="38.817684" lon="121.14737">
        <ele>48.86592</ele>
        <time>2014-04-24T09:44:36.945000Z</time>
      </trkpt>
      <trkpt lat="38.817574" lon="121.14736">
        <ele>48.13541</ele>
        <time>2014-04-24T09:44:40.622000Z</time>
      </trkpt>
      <trkpt lat="38.817474" lon="121.147385">
        <ele>47.658585</ele>
        <time>2014-04-24T09:44:44.299000Z</time>
      </trkpt>
      <trkpt lat="38.817383" lon="121.147446">
        <ele>47.350964</ele>
        <time>2014-04-24T09:44:47.976000Z</time>
      </trkpt>
      <trkpt lat="38.8173" lon="121.147545">
        <ele>47.18763</ele>
        <time>2014-04-24T09:44:51.653000Z</time>
      </trkpt>
      <trkpt lat="38.817257" lon="121.147675">
        <ele>47.180035</ele>
        <time>2014-04-24T09:44:55.330000Z</time>
      </trkpt>
      <trkpt lat="38.81724" lon="121.147804">
        <ele>47.477062</ele>
        <time>2014-04-24T09:44:59.007000Z</time>
      </trkpt>
      <trkpt lat="38.817257" lon="121.14794">
        <ele>47.87568</ele>
        <time>2014-04-24T09:45:02.684000Z</time>
      </trkpt>
      <trkpt lat="38.817307" lon="121.148056">
        <ele>47.788387</ele>
        <time>2014-04-24T09:45:06.361000Z</time>
      </trkpt>
      <trkpt lat="38.81739" lon="121.14816">
        <ele>47.279953</ele>
        <time>2014-04-24T09:45:10.038000Z</time>
      </trkpt>
      <trkpt lat="38.817482" lon="121.14821">
        <ele>46.688232</ele>
        <time>2014-04-24T09:45:13.715000Z</time>
      </trkpt>
      <trkpt lat="38.817574" lon="121.148224">
        <ele>46.021507</ele>
        <time>2014-04-24T09:45:17.392000Z</time>
      </trkpt>
      <trkpt lat="38.817665" lon="121.14824">
        <ele>45.44726</ele>
        <time>2014-04-24T09:45:21.069000Z</time>
      </trkpt>
      <trkpt lat="38.817776" lon="121.14824">
        <ele>45.42106</ele>
        <time>2014-04-24T09:45:24.746000Z</time>
      </trkpt>
      <trkpt lat="38.817867" lon="121.14825">
        <ele>46.106808</ele>
        <time>2014-04-24T09:45:28.423000Z</time>
      </trkpt>
      <trkpt lat="38.81798" lon="121.148254">
        <ele>46.954006</ele>
        <time>2014-04-24T09:45:32.100000Z</time>
      </trkpt>
      <trkpt lat="38.818073" lon="121.148254">
        <ele>47.334827</ele>
        <time>2014-04-24T09:45:35.777000Z</time>
      </trkpt>
      <trkpt lat="38.818184" lon="121.14825">
        <ele>47.267063</ele>
        <time>2014-04-24T09:45:39.454000Z</time>
      </trkpt>
      <trkpt lat="38.81829" lon="121.14826">
        <ele>47.1423</ele>
        <time>2014-04-24T09:45:43.131000Z</time>
      </trkpt>
      <trkpt lat="38.818398" lon="121.14826">
        <ele>47.44719</ele>
        <time>2014-04-24T09:45:46.808000Z</time>
      </trkpt>
      <trkpt lat="38.81849" lon="121.14821">
        <ele>48.16873</ele>
        <time>2014-04-24T09:45:50.485000Z</time>
      </trkpt>
      <trkpt lat="38.818577" lon="121.14813">
        <ele>48.801334</ele>
        <time>2014-04-24T09:45:54.162000Z</time>
      </trkpt>
      <trkpt lat="38.81864" lon="121.148026">
        <ele>49.057693</ele>
        <time>2014-04-24T09:45:57.839000Z</time>
      </trkpt>
      <trkpt lat="38.818684" lon="121.14791">
        <ele>49.215992</ele>
        <time>2014-04-24T09:46:01.516000Z</time>
      </trkpt>
      <trkpt lat="38.818684" lon="121.14779">
        <ele>49.590134</ele>
        <time>2014-04-24T09:46:05.193000Z</time>
      </trkpt>
      <trkpt lat="38.818665" lon="121.14766">
        <ele>50.459705</ele>
        <time>2014-04-24T09:46:08.870000Z</time>
      </trkpt>
      <trkpt lat="38.818626" lon="121.14754">
        <ele>51.768982</ele>
        <time>2014-04-24T09:46:12.547000Z</time>
      </trkpt>
      <trkpt lat="38.818554" lon="121.14745">
        <ele>52.63261</ele>
        <time>2014-04-24T09:46:16.224000Z</time>
      </trkpt>
      <trkpt lat="38.818455" lon="121.14739">
        <ele>52.178307</ele>
        <time>2014-04-24T09:46:19.901000Z</time>
      </trkpt>
      <trkpt lat="38.818363" lon="121.14736">
        <ele>50.852516</ele>
        <time>2014-04-24T09:46:23.578000Z</time>
      </trkpt>
      <trkpt lat="38.81827" lon="121.14736">
        <ele>49.851818</ele>
        <time>2014-04-24T09:46:27.255000Z</time>
      </trkpt>
      <trkpt lat="38.81817" lon="121.147354">
        <ele>49.715355</ele>
        <time>2014-04-24T09:46:30.932000Z</time>
      </trkpt>
      <trkpt lat="38.818077" lon="121.14737">
        <ele>49.744526</ele>
        <time>2014-04-24T09:46:34.609000Z</time>
      </trkpt>
      <trkpt lat="38.81798" lon="121.14737">
        <ele>49.28301</ele>
        <time>2014-04-24T09:46:38.286000Z</time>
      </trkpt>
      <trkpt lat="38.817886" lon="121.14736">
        <ele>48.6457</ele>
        <time>2014-04-24T09:46:41.963000Z</time>
      </trkpt>
      <trkpt lat="38.817776" lon="121.147354">
        <ele>48.034485</ele>
        <time>2014-04-24T09:46:45.640000Z</time>
      </trkpt>
      <trkpt lat="38.81768" lon="121.14735">
        <ele>47.268337</ele>
        <time>2014-04-24T09:46:49.317000Z</time>
      </trkpt>
      <trkpt lat="38.817574" lon="121.14735">
        <ele>46.651405</ele>
        <time>2014-04-24T09:46:52.994000Z</time>
      </trkpt>
      <trkpt lat="38.817463" lon="121.14736">
        <ele>46.573265</ele>
        <time>2014-04-24T09:46:56.671000Z</time>
      </trkpt>
      <trkpt lat="38.817368" lon="121.14743">
        <ele>46.882565</ele>
        <time>2014-04-24T09:47:00.348000Z</time>
      </trkpt>
      <trkpt lat="38.817303" lon="121.147514">
        <ele>47.215015</ele>
        <time>2014-04-24T09:47:04.025000Z</time>
      </trkpt>
      <trkpt lat="38.817245" lon="121.14763">
        <ele>47.497757</ele>
        <time>2014-04-24T09:47:07.702000Z</time>
      </trkpt>
      <trkpt lat="38.817223" lon="121.147766">
        <ele>47.928146</ele>
        <time>2014-04-24T09:47:11.379000Z</time>
      </trkpt>
      <trkpt lat="38.817238" lon="121.14789">
        <ele>48.36761</ele>
        <time>2014-04-24T09:47:15.056000Z</time>
      </trkpt>
      <trkpt lat="38.817276" lon="121.14802">
        <ele>48.41289</ele>
        <time>2014-04-24T09:47:18.733000Z</time>
      </trkpt>
      <trkpt lat="38.81734" lon="121.148125">
        <ele>48.050537</ele>
        <time>2014-04-24T09:47:22.410000Z</time>
      </trkpt>
      <trkpt lat="38.817436" lon="121.14819">
        <ele>47.63853</ele>
        <time>2014-04-24T09:47:26.087000Z</time>
      </trkpt>
      <trkpt lat="38.817535" lon="121.14823">
        <ele>47.41059</ele>
        <time>2014-04-24T09:47:29.764000Z</time>
      </trkpt>
      <trkpt lat="38.81764" lon="121.14823">
        <ele>47.600845</ele>
        <time>2014-04-24T09:47:33.441000Z</time>
      </trkpt>
      <trkpt lat="38.81774" lon="121.148254">
        <ele>47.909203</ele>
        <time>2014-04-24T09:47:37.118000Z</time>
      </trkpt>
      <trkpt lat="38.817844" lon="121.14826">
        <ele>47.67869</ele>
        <time>2014-04-24T09:47:40.795000Z</time>
      </trkpt>
      <trkpt lat="38.817947" lon="121.14826">
        <ele>47.065315</ele>
        <time>2014-04-24T09:47:44.472000Z</time>
      </trkpt>
      <trkpt lat="38.818043" lon="121.14827">
        <ele>47.043255</ele>
        <time>2014-04-24T09:47:48.149000Z</time>
      </trkpt>
      <trkpt lat="38.818142" lon="121.14827">
        <ele>47.89338</ele>
        <time>2014-04-24T09:47:51.826000Z</time>
      </trkpt>
      <trkpt lat="38.818253" lon="121.14828">
        <ele>48.6537</ele>
        <time>2014-04-24T09:47:55.503000Z</time>
      </trkpt>
      <trkpt lat="38.81835" lon="121.14828">
        <ele>48.372566</ele>
        <time>2014-04-24T09:47:59.180000Z</time>
      </trkpt>
      <trkpt lat="38.818443" lon="121.14826">
        <ele>47.57383</ele>
        <time>2014-04-24T09:48:02.857000Z</time>
      </trkpt>
      <trkpt lat="38.818535" lon="121.14821">
        <ele>47.039284</ele>
        <time>2014-04-24T09:48:06.534000Z</time>
      </trkpt>
      <trkpt lat="38.81862" lon="121.1481">
        <ele>47.067333</ele>
        <time>2014-04-24T09:48:10.211000Z</time>
      </trkpt>
      <trkpt lat="38.818665" lon="121.147995">
        <ele>48.055527</ele>
        <time>2014-04-24T09:48:13.888000Z</time>
      </trkpt>
      <trkpt lat="38.818695" lon="121.14787">
        <ele>49.79292</ele>
        <time>2014-04-24T09:48:17.565000Z</time>
      </trkpt>
      <trkpt lat="38.81869" lon="121.14776">
        <ele>51.176605</ele>
        <time>2014-04-24T09:48:21.242000Z</time>
      </trkpt>
      <trkpt lat="38.818657" lon="121.14762">
        <ele>51.46924</ele>
        <time>2014-04-24T09:48:24.919000Z</time>
      </trkpt>
      <trkpt lat="38.818596" lon="121.14751">
        <ele>50.765907</ele>
        <time>2014-04-24T09:48:28.596000Z</time>
      </trkpt>
      <trkpt lat="38.81852" lon="121.14743">
        <ele>49.725098</ele>
        <time>2014-04-24T09:48:32.273000Z</time>
      </trkpt>
      <trkpt lat="38.81842" lon="121.147385">
        <ele>48.675816</ele>
        <time>2014-04-24T09:48:35.950000Z</time>
      </trkpt>
      <trkpt lat="38.818314" lon="121.14737">
        <ele>47.549545</ele>
        <time>2014-04-24T09:48:39.627000Z</time>
      </trkpt>
      <trkpt lat="38.81822" lon="121.14737">
        <ele>46.62057</ele>
        <time>2014-04-24T09:48:43.304000Z</time>
      </trkpt>
      <trkpt lat="38.818115" lon="121.14738">
        <ele>46.238956</ele>
        <time>2014-04-24T09:48:46.981000Z</time>
      </trkpt>
      <trkpt lat="38.818012" lon="121.14737">
        <ele>46.24078</ele>
        <time>2014-04-24T09:48:50.658000Z</time>
      </trkpt>
      <trkpt lat="38.81791" lon="121.14736">
        <ele>46.295452</ele>
        <time>2014-04-24T09:48:54.335000Z</time>
      </trkpt>
      <trkpt lat="38.817814" lon="121.147354">
        <ele>46.281967</ele>
        <time>2014-04-24T09:48:58.011000Z</time>
      </trkpt>
      <trkpt lat="38.817715" lon="121.14735">
        <ele>46.511616</ele>
        <time>2014-04-24T09:49:01.687000Z</time>
      </trkpt>
      <trkpt lat="38.817596" lon="121.14735">
        <ele>47.356125</ele>
        <time>2014-04-24T09:49:05.363000Z</time>
      </trkpt>
      <trkpt lat="38.817493" lon="121.14736">
        <ele>48.58125</ele>
        <time>2014-04-24T09:49:09.039000Z</time>
      </trkpt>
      <trkpt lat="38.8174" lon="121.1474">
        <ele>49.495132</ele>
        <time>2014-04-24T09:49:12.715000Z</time>
      </trkpt>
      <trkpt lat="38.817326" lon="121.14746">
        <ele>49.90138</ele>
        <time>2014-04-24T09:49:16.391000Z</time>
      </trkpt>
      <trkpt lat="38.81726" lon="121.147545">
        <ele>50.071964</ele>
        <time>2014-04-24T09:49:20.067000Z</time>
      </trkpt>
      <trkpt lat="38.81722" lon="121.14768">
        <ele>50.330814</ele>
        <time>2014-04-24T09:49:23.743000Z</time>
      </trkpt>
      <trkpt lat="38.817215" lon="121.1478">
        <ele>50.78738</ele>
        <time>2014-04-24T09:49:27.419000Z</time>
      </trkpt>
      <trkpt lat="38.817238" lon="121.147934">
        <ele>50.848995</ele>
        <time>2014-04-24T09:49:31.095000Z</time>
      </trkpt>
      <trkpt lat="38.817307" lon="121.148026">
        <ele>50.08963</ele>
        <time>2014-04-24T09:49:34.771000Z</time>
      </trkpt>
      <trkpt lat="38.81739" lon="121.14812">
        <ele>49.170822</ele>
        <time>2014-04-24T09:49:38.447000Z</time>
      </trkpt>
      <trkpt lat="38.81747" lon="121.14817">
        <ele>48.982174</ele>
        <time>2014-04-24T09:49:42.123000Z</time>
      </trkpt>
      <trkpt lat="38.817562" lon="121.14822">
        <ele>49.682365</ele>
        <time>2014-04-24T09:49:45.799000Z</time>
      </trkpt>
      <trkpt lat="38.81767" lon="121.14823">
        <ele>50.860638</ele>
        <time>2014-04-24T09:49:49.475000Z</time>
      </trkpt>
      <trkpt lat="38.81778" lon="121.14825">
        <ele>51.91675</ele>
        <time>2014-04-24T09:49:53.151000Z</time>
      </trkpt>
      <trkpt lat="38.817898" lon="121.148254">
        <ele>52.269638</ele>
        <time>2014-04-24T09:49:56.827000Z</time>
      </trkpt>
      <trkpt lat="38.817997" lon="121.14827">
        <ele>51.681892</ele>
        <time>2014-04-24T09:50:00.503000Z</time>
      </trkpt>
      <trkpt lat="38.818108" lon="121.14827">
        <ele>50.379574</ele>
        <time>2014-04-24T09:50:04.179000Z</time>
      </trkpt>
      <trkpt lat="38.8182" lon="121.14827">
        <ele>48.79684</ele>
        <time>2014-04-24T09:50:07.855000Z</time>
      </trkpt>
      <trkpt lat="38.818306" lon="121.14827">
        <ele>47.509903</ele>
        <time>2014-04-24T09:50:11.531000Z</time>
      </trkpt>
      <trkpt lat="38.818413" lon="121.14827">
        <ele>46.909</ele>
        <time>2014-04-24T09:50:15.207000Z</time>
      </trkpt>
      <trkpt lat="38.818504" lon="121.148224">
        <ele>46.85531</ele>
        <time>2014-04-24T09:50:18.883000Z</time>
      </trkpt>
      <trkpt lat="38.818592" lon="121.14815">
        <ele>47.060932</ele>
        <time>2014-04-24T09:50:22.559000Z</time>
      </trkpt>
      <trkpt lat="38.818657" lon="121.14802">
        <ele>47.365795</ele>
        <time>2014-04-24T09:50:26.235000Z</time>
      </trkpt>
      <trkpt lat="38.818687" lon="121.147896">
        <ele>47.71034</ele>
        <time>2014-04-24T09:50:29.911000Z</time>
      </trkpt>
      <trkpt lat="38.81869" lon="121.14777">
        <ele>48.00691</ele>
        <time>2014-04-24T09:50:33.587000Z</time>
      </trkpt>
      <trkpt lat="38.81867" lon="121.14764">
        <ele>48.16693</ele>
        <time>2014-04-24T09:50:37.263000Z</time>
      </trkpt>
      <trkpt lat="38.818596" lon="121.14753">
        <ele>48.163654</ele>
        <time>2014-04-24T09:50:40.939000Z</time>
      </trkpt>
      <trkpt lat="38.818504" lon="121.147446">
        <ele>48.04314</ele>
        <time>2014-04-24T09:50:44.615000Z</time>
      </trkpt>
      <trkpt lat="38.818405" lon="121.1474">
        <ele>47.675034</ele>
        <time>2014-04-24T09:50:48.291000Z</time>
      </trkpt>
      <trkpt lat="38.81831" lon="121.147385">
        <ele>47.382618</ele>
        <time>2014-04-24T09:50:51.967000Z</time>
      </trkpt>
      <trkpt lat="38.818203" lon="121.14738">
        <ele>47.7688</ele>
        <time>2014-04-24T09:50:55.643000Z</time>
      </trkpt>
      <trkpt lat="38.818096" lon="121.14738">
        <ele>48.557606</ele>
        <time>2014-04-24T09:50:59.319000Z</time>
      </trkpt>
      <trkpt lat="38.817978" lon="121.147385">
        <ele>49.052452</ele>
        <time>2014-04-24T09:51:02.995000Z</time>
      </trkpt>
      <trkpt lat="38.817867" lon="121.14738">
        <ele>49.255516</ele>
        <time>2014-04-24T09:51:06.671000Z</time>
      </trkpt>
      <trkpt lat="38.81777" lon="121.14738">
        <ele>49.370422</ele>
        <time>2014-04-24T09:51:10.347000Z</time>
      </trkpt>
      <trkpt lat="38.81767" lon="121.14737">
        <ele>49.482838</ele>
        <time>2014-04-24T09:51:14.023000Z</time>
      </trkpt>
      <trkpt lat="38.817562" lon="121.14737">
        <ele>49.586792</ele>
        <time>2014-04-24T09:51:17.699000Z</time>
      </trkpt>
      <trkpt lat="38.817463" lon="121.14737">
        <ele>49.661095</ele>
        <time>2014-04-24T09:51:21.375000Z</time>
      </trkpt>
      <trkpt lat="38.81738" lon="121.14742">
        <ele>49.817753</ele>
        <time>2014-04-24T09:51:25.051000Z</time>
      </trkpt>
      <trkpt lat="38.817287" lon="121.14752">
        <ele>49.907013</ele>
        <time>2014-04-24T09:51:28.727000Z</time>
      </trkpt>
      <trkpt lat="38.817238" lon="121.14762">
        <ele>50.114708</ele>
        <time>2014-04-24T09:51:32.403000Z</time>
      </trkpt>
      <trkpt lat="38.817207" lon="121.147736">
        <ele>50.761223</ele>
        <time>2014-04-24T09:51:36.079000Z</time>
      </trkpt>
      <trkpt lat="38.817215" lon="121.14786">
        <ele>51.62162</ele>
        <time>2014-04-24T09:51:39.755000Z</time>
      </trkpt>
      <trkpt lat="38.817265" lon="121.147995">
        <ele>52.396507</ele>
        <time>2014-04-24T09:51:43.431000Z</time>
      </trkpt>
      <trkpt lat="38.817314" lon="121.1481">
        <ele>53.005753</ele>
        <time>2014-04-24T09:51:47.107000Z</time>
      </trkpt>
      <trkpt lat="38.817383" lon="121.148186">
        <ele>53.202427</ele>
        <time>2014-04-24T09:51:50.783000Z</time>
      </trkpt>
      <trkpt lat="38.817467" lon="121.14824">
        <ele>52.36164</ele>
        <time>2014-04-24T09:51:54.459000Z</time>
      </trkpt>
      <trkpt lat="38.817574" lon="121.14825">
        <ele>50.262257</ele>
        <time>2014-04-24T09:51:58.135000Z</time>
      </trkpt>
      <trkpt lat="38.817688" lon="121.14825">
        <ele>48.436455</ele>
        <time>2014-04-24T09:52:01.811000Z</time>
      </trkpt>
      <trkpt lat="38.8178" lon="121.148254">
        <ele>48.13045</ele>
        <time>2014-04-24T09:52:05.487000Z</time>
      </trkpt>
      <trkpt lat="38.8179" lon="121.14825">
        <ele>48.590084</ele>
        <time>2014-04-24T09:52:09.163000Z</time>
      </trkpt>
      <trkpt lat="38.818012" lon="121.14825">
        <ele>48.868183</ele>
        <time>2014-04-24T09:52:12.839000Z</time>
      </trkpt>
      <trkpt lat="38.818134" lon="121.14824">
        <ele>49.036896</ele>
        <time>2014-04-24T09:52:16.515000Z</time>
      </trkpt>
      <trkpt lat="38.81823" lon="121.148254">
        <ele>49.678898</ele>
        <time>2014-04-24T09:52:20.191000Z</time>
      </trkpt>
      <trkpt lat="38.818336" lon="121.148254">
        <ele>50.6709</ele>
        <time>2014-04-24T09:52:23.867000Z</time>
      </trkpt>
      <trkpt lat="38.818436" lon="121.14824">
        <ele>51.282616</ele>
        <time>2014-04-24T09:52:27.543000Z</time>
      </trkpt>
      <trkpt lat="38.818542" lon="121.14818">
        <ele>51.122902</ele>
        <time>2014-04-24T09:52:31.219000Z</time>
      </trkpt>
      <trkpt lat="38.81862" lon="121.14808">
        <ele>50.427296</ele>
        <time>2014-04-24T09:52:34.895000Z</time>
      </trkpt>
      <trkpt lat="38.81868" lon="121.14795">
        <ele>49.64053</ele>
        <time>2014-04-24T09:52:38.571000Z</time>
      </trkpt>
      <trkpt lat="38.8187" lon="121.147804">
        <ele>49.075493</ele>
        <time>2014-04-24T09:52:42.247000Z</time>
      </trkpt>
      <trkpt lat="38.818676" lon="121.14768">
        <ele>48.555496</ele>
        <time>2014-04-24T09:52:45.923000Z</time>
      </trkpt>
      <trkpt lat="38.818626" lon="121.14756">
        <ele>47.82287</ele>
        <time>2014-04-24T09:52:49.599000Z</time>
      </trkpt>
      <trkpt lat="38.818542" lon="121.14745">
        <ele>46.87318</ele>
        <time>2014-04-24T09:52:53.275000Z</time>
      </trkpt>
      <trkpt lat="38.818447" lon="121.147415">
        <ele>46.14265</ele>
        <time>2014-04-24T09:52:56.951000Z</time>
      </trkpt>
      <trkpt lat="38.818348" lon="121.1474">
        <ele>45.81838</ele>
        <time>2014-04-24T09:53:00.627000Z</time>
      </trkpt>
      <trkpt lat="38.818237" lon="121.1474">
        <ele>45.91184</ele>
        <time>2014-04-24T09:53:04.303000Z</time>
      </trkpt>
      <trkpt lat="38.81813" lon="121.147385">
        <ele>46.460674</ele>
        <time>2014-04-24T09:53:07.979000Z</time>
      </trkpt>
      <trkpt lat="38.818005" lon="121.147385">
        <ele>47.15641</ele>
        <time>2014-04-24T09:53:11.655000Z</time>
      </trkpt>
      <trkpt lat="38.817917" lon="121.1474">
        <ele>47.648746</ele>
        <time>2014-04-24T09:53:15.331000Z</time>
      </trkpt>
      <trkpt lat="38.817802" lon="121.14741">
        <ele>48.052876</ele>
        <time>2014-04-24T09:53:19.007000Z</time>
      </trkpt>
      <trkpt lat="38.817703" lon="121.14739">
        <ele>48.34138</ele>
        <time>2014-04-24T09:53:22.683000Z</time>
      </trkpt>
      <trkpt lat="38.817593" lon="121.147385">
        <ele>48.40983</ele>
        <time>2014-04-24T09:53:26.359000Z</time>
      </trkpt>
      <trkpt lat="38.81748" lon="121.14739">
        <ele>48.3173</ele>
        <time>2014-04-24T09:53:30.035000Z</time>
      </trkpt>
      <trkpt lat="38.81738" lon="121.14744">
        <ele>48.194862</ele>
        <time>2014-04-24T09:53:33.711000Z</time>
      </trkpt>
      <trkpt lat="38.817276" lon="121.147514">
        <ele>48.445156</ele>
        <time>2014-04-24T09:53:37.387000Z</time>
      </trkpt>
      <trkpt lat="38.817234" lon="121.14764">
        <ele>49.253666</ele>
        <time>2014-04-24T09:53:41.063000Z</time>
      </trkpt>
      <trkpt lat="38.817215" lon="121.14776">
        <ele>49.988724</ele>
        <time>2014-04-24T09:53:44.739000Z</time>
      </trkpt>
      <trkpt lat="38.817238" lon="121.147896">
        <ele>50.09324</ele>
        <time>2014-04-24T09:53:48.415000Z</time>
      </trkpt>
      <trkpt lat="38.817287" lon="121.148026">
        <ele>50.36554</ele>
        <time>2014-04-24T09:53:52.091000Z</time>
      </trkpt>
      <trkpt lat="38.817368" lon="121.148125">
        <ele>51.505238</ele>
        <time>2014-04-24T09:53:55.767000Z</time>
      </trkpt>
      <trkpt lat="38.81745" lon="121.148186">
        <ele>52.53575</ele>
        <time>2014-04-24T09:53:59.443000Z</time>
      </trkpt>
      <trkpt lat="38.81754" lon="121.14822">
        <ele>52.48638</ele>
        <time>2014-04-24T09:54:03.119000Z</time>
      </trkpt>
      <trkpt lat="38.81764" lon="121.14824">
        <ele>51.839592</ele>
        <time>2014-04-24T09:54:06.795000Z</time>
      </trkpt>
      <trkpt lat="38.817745" lon="121.14823">
        <ele>51.43568</ele>
        <time>2014-04-24T09:54:10.471000Z</time>
      </trkpt>
      <trkpt lat="38.817852" lon="121.14825">
        <ele>51.55576</ele>
        <time>2014-04-24T09:54:14.147000Z</time>
      </trkpt>
      <trkpt lat="38.81795" lon="121.14825">
        <ele>51.91547</ele>
        <time>2014-04-24T09:54:17.823000Z</time>
      </trkpt>
      <trkpt lat="38.818054" lon="121.148254">
        <ele>51.949524</ele>
        <time>2014-04-24T09:54:21.499000Z</time>
      </trkpt>
      <trkpt lat="38.818165" lon="121.14827">
        <ele>51.498005</ele>
        <time>2014-04-24T09:54:25.175000Z</time>
      </trkpt>
      <trkpt lat="38.81827" lon="121.14828">
        <ele>51.394203</ele>
        <time>2014-04-24T09:54:28.851000Z</time>
      </trkpt>
      <trkpt lat="38.818386" lon="121.14827">
        <ele>52.274105</ele>
        <time>2014-04-24T09:54:32.527000Z</time>
      </trkpt>
      <trkpt lat="38.818493" lon="121.14824">
        <ele>53.319637</ele>
        <time>2014-04-24T09:54:36.203000Z</time>
      </trkpt>
      <trkpt lat="38.818565" lon="121.14817">
        <ele>53.31055</ele>
        <time>2014-04-24T09:54:39.879000Z</time>
      </trkpt>
      <trkpt lat="38.818634" lon="121.14808">
        <ele>52.19948</ele>
        <time>2014-04-24T09:54:43.555000Z</time>
      </trkpt>
      <trkpt lat="38.818684" lon="121.147934">
        <ele>50.85923</ele>
        <time>2014-04-24T09:54:47.231000Z</time>
      </trkpt>
      <trkpt lat="38.818703" lon="121.14779">
        <ele>49.97614</ele>
        <time>2014-04-24T09:54:50.907000Z</time>
      </trkpt>
      <trkpt lat="38.81868" lon="121.14765">
        <ele>49.62249</ele>
        <time>2014-04-24T09:54:54.583000Z</time>
      </trkpt>
      <trkpt lat="38.818615" lon="121.147545">
        <ele>49.71584</ele>
        <time>2014-04-24T09:54:58.259000Z</time>
      </trkpt>
      <trkpt lat="38.818527" lon="121.14746">
        <ele>50.040367</ele>
        <time>2014-04-24T09:55:01.935000Z</time>
      </trkpt>
      <trkpt lat="38.818424" lon="121.1474">
        <ele>50.293995</ele>
        <time>2014-04-24T09:55:05.611000Z</time>
      </trkpt>
      <trkpt lat="38.818314" lon="121.14739">
        <ele>50.196453</ele>
        <time>2014-04-24T09:55:09.287000Z</time>
      </trkpt>
      <trkpt lat="38.81821" lon="121.14739">
        <ele>49.718258</ele>
        <time>2014-04-24T09:55:12.963000Z</time>
      </trkpt>
      <trkpt lat="38.818096" lon="121.14738">
        <ele>48.91038</ele>
        <time>2014-04-24T09:55:16.639000Z</time>
      </trkpt>
      <trkpt lat="38.817986" lon="121.14736">
        <ele>47.832813</ele>
        <time>2014-04-24T09:55:20.315000Z</time>
      </trkpt>
      <trkpt lat="38.817883" lon="121.14737">
        <ele>46.79827</ele>
        <time>2014-04-24T09:55:23.991000Z</time>
      </trkpt>
      <trkpt lat="38.81778" lon="121.147354">
        <ele>46.20441</ele>
        <time>2014-04-24T09:55:27.667000Z</time>
      </trkpt>
      <trkpt lat="38.817673" lon="121.14735">
        <ele>46.19997</ele>
        <time>2014-04-24T09:55:31.343000Z</time>
      </trkpt>
      <trkpt lat="38.81757" lon="121.14735">
        <ele>46.70727</ele>
        <time>2014-04-24T09:55:35.019000Z</time>
      </trkpt>
      <trkpt lat="38.81748" lon="121.14737">
        <ele>47.413914</ele>
        <time>2014-04-24T09:55:38.695000Z</time>
      </trkpt>
      <trkpt lat="38.817387" lon="121.14743">
        <ele>48.07702</ele>
        <time>2014-04-24T09:55:42.371000Z</time>
      </trkpt>
      <trkpt lat="38.817314" lon="121.14751">
        <ele>48.65518</ele>
        <time>2014-04-24T09:55:46.047000Z</time>
      </trkpt>
      <trkpt lat="38.817257" lon="121.1476">
        <ele>49.13944</ele>
        <time>2014-04-24T09:55:49.723000Z</time>
      </trkpt>
      <trkpt lat="38.81723" lon="121.14772">
        <ele>49.7608</ele>
        <time>2014-04-24T09:55:53.399000Z</time>
      </trkpt>
      <trkpt lat="38.817238" lon="121.147865">
        <ele>50.63982</ele>
        <time>2014-04-24T09:55:57.075000Z</time>
      </trkpt>
      <trkpt lat="38.817295" lon="121.14801">
        <ele>51.380775</ele>
        <time>2014-04-24T09:56:00.751000Z</time>
      </trkpt>
      <trkpt lat="38.817368" lon="121.148125">
        <ele>51.690777</ele>
        <time>2014-04-24T09:56:04.427000Z</time>
      </trkpt>
      <trkpt lat="38.81745" lon="121.14821">
        <ele>51.761944</ele>
        <time>2014-04-24T09:56:08.103000Z</time>
      </trkpt>
      <trkpt lat="38.817554" lon="121.14823">
        <ele>51.9767</ele>
        <time>2014-04-24T09:56:11.779000Z</time>
      </trkpt>
      <trkpt lat="38.81766" lon="121.148224">
        <ele>52.638107</ele>
        <time>2014-04-24T09:56:15.455000Z</time>
      </trkpt>
      <trkpt lat="38.817776" lon="121.14823">
        <ele>53.39328</ele>
        <time>2014-04-24T09:56:19.131000Z</time>
      </trkpt>
      <trkpt lat="38.817875" lon="121.14824">
        <ele>53.698223</ele>
        <time>2014-04-24T09:56:22.807000Z</time>
      </trkpt>
      <trkpt lat="38.817974" lon="121.148254">
        <ele>53.651005</ele>
        <time>2014-04-24T09:56:26.483000Z</time>
      </trkpt>
      <trkpt lat="38.81808" lon="121.14826">
        <ele>53.673744</ele>
        <time>2014-04-24T09:56:30.159000Z</time>
      </trkpt>
      <trkpt lat="38.818176" lon="121.14826">
        <ele>53.93515</ele>
        <time>2014-04-24T09:56:33.835000Z</time>
      </trkpt>
      <trkpt lat="38.818283" lon="121.14826">
        <ele>54.268833</ele>
        <time>2014-04-24T09:56:37.511000Z</time>
      </trkpt>
      <trkpt lat="38.81838" lon="121.14827">
        <ele>54.363274</ele>
        <time>2014-04-24T09:56:41.187000Z</time>
      </trkpt>
      <trkpt lat="38.81848" lon="121.148224">
        <ele>53.90582</ele>
        <time>2014-04-24T09:56:44.863000Z</time>
      </trkpt>
      <trkpt lat="38.818558" lon="121.14816">
        <ele>52.84779</ele>
        <time>2014-04-24T09:56:48.539000Z</time>
      </trkpt>
      <trkpt lat="38.818638" lon="121.14807">
        <ele>51.354546</ele>
        <time>2014-04-24T09:56:52.215000Z</time>
      </trkpt>
      <trkpt lat="38.818687" lon="121.14795">
        <ele>49.566624</ele>
        <time>2014-04-24T09:56:55.891000Z</time>
      </trkpt>
      <trkpt lat="38.8187" lon="121.14782">
        <ele>47.914364</ele>
        <time>2014-04-24T09:56:59.567000Z</time>
      </trkpt>
      <trkpt lat="38.818684" lon="121.147705">
        <ele>47.17933</ele>
        <time>2014-04-24T09:57:03.243000Z</time>
      </trkpt>
      <trkpt lat="38.818653" lon="121.1476">
        <ele>47.49523</ele>
        <time>2014-04-24T09:57:06.919000Z</time>
      </trkpt>
      <trkpt lat="38.818573" lon="121.147484">
        <ele>48.172455</ele>
        <time>2014-04-24T09:57:10.595000Z</time>
      </trkpt>
      <trkpt lat="38.81849" lon="121.147415">
        <ele>48.447845</ele>
        <time>2014-04-24T09:57:14.271000Z</time>
      </trkpt>
      <trkpt lat="38.818398" lon="121.14738">
        <ele>48.200314</ele>
        <time>2014-04-24T09:57:17.947000Z</time>
      </trkpt>
      <trkpt lat="38.81828" lon="121.14737">
        <ele>47.664295</ele>
        <time>2014-04-24T09:57:21.623000Z</time>
      </trkpt>
      <trkpt lat="38.818176" lon="121.14736">
        <ele>47.07522</ele>
        <time>2014-04-24T09:57:25.299000Z</time>
      </trkpt>
      <trkpt lat="38.818085" lon="121.147354">
        <ele>46.65938</ele>
        <time>2014-04-24T09:57:28.975000Z</time>
      </trkpt>
      <trkpt lat="38.817993" lon="121.147354">
        <ele>46.336918</ele>
        <time>2014-04-24T09:57:32.651000Z</time>
      </trkpt>
      <trkpt lat="38.8179" lon="121.147354">
        <ele>46.030582</ele>
        <time>2014-04-24T09:57:36.327000Z</time>
      </trkpt>
      <trkpt lat="38.817802" lon="121.147354">
        <ele>45.986267</ele>
        <time>2014-04-24T09:57:40.003000Z</time>
      </trkpt>
      <trkpt lat="38.81771" lon="121.14735">
        <ele>46.312572</ele>
        <time>2014-04-24T09:57:43.679000Z</time>
      </trkpt>
      <trkpt lat="38.817596" lon="121.14734">
        <ele>46.803337</ele>
        <time>2014-04-24T09:57:47.355000Z</time>
      </trkpt>
      <trkpt lat="38.81747" lon="121.14737">
        <ele>46.682064</ele>
        <time>2014-04-24T09:57:51.031000Z</time>
      </trkpt>
      <trkpt lat="38.81737" lon="121.14744">
        <ele>45.482155</ele>
        <time>2014-04-24T09:57:54.707000Z</time>
      </trkpt>
      <trkpt lat="38.817295" lon="121.14753">
        <ele>44.32111</ele>
        <time>2014-04-24T09:57:58.383000Z</time>
      </trkpt>
      <trkpt lat="38.817238" lon="121.14764">
        <ele>44.832256</ele>
        <time>2014-04-24T09:58:02.059000Z</time>
      </trkpt>
      <trkpt lat="38.817215" lon="121.14777">
        <ele>47.157795</ele>
        <time>2014-04-24T09:58:05.735000Z</time>
      </trkpt>
      <trkpt lat="38.81723" lon="121.14789">
        <ele>49.580593</ele>
        <time>2014-04-24T09:58:09.411000Z</time>
      </trkpt>
      <trkpt lat="38.817265" lon="121.147995">
        <ele>50.486755</ele>
        <time>2014-04-24T09:58:13.087000Z</time>
      </trkpt>
      <trkpt lat="38.817318" lon="121.1481">
        <ele>50.123577</ele>
        <time>2014-04-24T09:58:16.763000Z</time>
      </trkpt>
      <trkpt lat="38.817413" lon="121.14818">
        <ele>49.522224</ele>
        <time>2014-04-24T09:58:20.439000Z</time>
      </trkpt>
      <trkpt lat="38.8175" lon="121.148224">
        <ele>49.220066</ele>
        <time>2014-04-24T09:58:24.115000Z</time>
      </trkpt>
      <trkpt lat="38.8176" lon="121.14823">
        <ele>49.39869</ele>
        <time>2014-04-24T09:58:27.791000Z</time>
      </trkpt>
      <trkpt lat="38.817703" lon="121.14823">
        <ele>49.783707</ele>
        <time>2014-04-24T09:58:31.467000Z</time>
      </trkpt>
      <trkpt lat="38.81782" lon="121.14823">
        <ele>50.01265</ele>
        <time>2014-04-24T09:58:35.143000Z</time>
      </trkpt>
      <trkpt lat="38.817944" lon="121.14824">
        <ele>50.133877</ele>
        <time>2014-04-24T09:58:38.819000Z</time>
      </trkpt>
      <trkpt lat="38.818058" lon="121.148254">
        <ele>50.27351</ele>
        <time>2014-04-24T09:58:42.495000Z</time>
      </trkpt>
      <trkpt lat="38.818203" lon="121.14827">
        <ele>50.583584</ele>
        <time>2014-04-24T09:58:46.171000Z</time>
      </trkpt>
      <trkpt lat="38.81835" lon="121.14826">
        <ele>51.211025</ele>
        <time>2014-04-24T09:58:49.847000Z</time>
      </trkpt>
      <trkpt lat="38.818443" lon="121.14823">
        <ele>51.521374</ele>
        <time>2014-04-24T09:58:53.523000Z</time>
      </trkpt>
      <trkpt lat="38.81853" lon="121.148186">
        <ele>50.937115</ele>
        <time>2014-04-24T09:58:57.199000Z</time>
      </trkpt>
      <trkpt lat="38.818626" lon="121.14807">
        <ele>49.951103</ele>
        <time>2014-04-24T09:59:00.875000Z</time>
      </trkpt>
      <trkpt lat="38.818676" lon="121.147964">
        <ele>49.258144</ele>
        <time>2014-04-24T09:59:04.551000Z</time>
      </trkpt>
      <trkpt lat="38.818707" lon="121.1478">
        <ele>48.733967</ele>
        <time>2014-04-24T09:59:08.227000Z</time>
      </trkpt>
      <trkpt lat="38.81868" lon="121.147644">
        <ele>47.95454</ele>
        <time>2014-04-24T09:59:11.903000Z</time>
      </trkpt>
      <trkpt lat="38.81858" lon="121.14749">
        <ele>47.045227</ele>
        <time>2014-04-24T09:59:15.579000Z</time>
      </trkpt>
      <trkpt lat="38.818455" lon="121.147415">
        <ele>46.3719</ele>
        <time>2014-04-24T09:59:19.255000Z</time>
      </trkpt>
      <trkpt lat="38.818356" lon="121.147385">
        <ele>46.141933</ele>
        <time>2014-04-24T09:59:22.931000Z</time>
      </trkpt>
      <trkpt lat="38.818226" lon="121.147354">
        <ele>46.299397</ele>
        <time>2014-04-24T09:59:26.607000Z</time>
      </trkpt>
      <trkpt lat="38.818134" lon="121.14734">
        <ele>46.50844</ele>
        <time>2014-04-24T09:59:30.283000Z</time>
      </trkpt>
      <trkpt lat="38.818005" lon="121.14729">
        <ele>46.57046</ele>
        <time>2014-04-24T09:59:33.959000Z</time>
      </trkpt>
      <trkpt lat="38.817883" lon="121.14726">
        <ele>46.5756</ele>
        <time>2014-04-24T09:59:37.635000Z</time>
      </trkpt>
      <trkpt lat="38.81789" lon="121.14723">
        <ele>43.676247</ele>
        <time>2014-04-24T09:59:41.311000Z</time>
      </trkpt>
      <trkpt lat="38.81789" lon="121.14723">
        <ele>43.975307</ele>
        <time>2014-04-24T09:59:44.987000Z</time>
      </trkpt>
      <trkpt lat="38.817806" lon="121.14729">
        <ele>44.954998</ele>
        <time>2014-04-24T09:59:48.663000Z</time>
      </trkpt>
      <trkpt lat="38.817783" lon="121.1473">
        <ele>47.192036</ele>
        <time>2014-04-24T09:59:52.339000Z</time>
      </trkpt>
      <trkpt lat="38.817684" lon="121.14733">
        <ele>50.232742</ele>
        <time>2014-04-24T09:59:56.015000Z</time>
      </trkpt>
      <trkpt lat="38.817577" lon="121.14736">
        <ele>52.551216</ele>
        <time>2014-04-24T09:59:59.691000Z</time>
      </trkpt>
      <trkpt lat="38.817482" lon="121.14737">
        <ele>53.46458</ele>
        <time>2014-04-24T10:00:03.367000Z</time>
      </trkpt>
      <trkpt lat="38.817394" lon="121.1474">
        <ele>53.235626</ele>
        <time>2014-04-24T10:00:07.043000Z</time>
      </trkpt>
      <trkpt lat="38.817318" lon="121.14747">
        <ele>53.080765</ele>
        <time>2014-04-24T10:00:10.719000Z</time>
      </trkpt>
      <trkpt lat="38.817257" lon="121.14756">
        <ele>52.939667</ele>
        <time>2014-04-24T10:00:14.395000Z</time>
      </trkpt>
      <trkpt lat="38.817226" lon="121.147675">
        <ele>52.59236</ele>
        <time>2014-04-24T10:00:18.071000Z</time>
      </trkpt>
      <trkpt lat="38.817215" lon="121.147804">
        <ele>51.70841</ele>
        <time>2014-04-24T10:00:21.747000Z</time>
      </trkpt>
      <trkpt lat="38.81723" lon="121.147934">
        <ele>50.611835</ele>
        <time>2014-04-24T10:00:25.423000Z</time>
      </trkpt>
      <trkpt lat="38.817284" lon="121.148056">
        <ele>50.051987</ele>
        <time>2014-04-24T10:00:29.099000Z</time>
      </trkpt>
      <trkpt lat="38.817356" lon="121.148155">
        <ele>50.8025</ele>
        <time>2014-04-24T10:00:32.775000Z</time>
      </trkpt>
      <trkpt lat="38.817444" lon="121.14821">
        <ele>52.718037</ele>
        <time>2014-04-24T10:00:36.451000Z</time>
      </trkpt>
      <trkpt lat="38.81754" lon="121.14825">
        <ele>54.141758</ele>
        <time>2014-04-24T10:00:40.127000Z</time>
      </trkpt>
      <trkpt lat="38.817646" lon="121.148254">
        <ele>53.73845</ele>
        <time>2014-04-24T10:00:43.803000Z</time>
      </trkpt>
      <trkpt lat="38.817757" lon="121.148254">
        <ele>52.23458</ele>
        <time>2014-04-24T10:00:47.479000Z</time>
      </trkpt>
      <trkpt lat="38.817856" lon="121.14826">
        <ele>50.56202</ele>
        <time>2014-04-24T10:00:51.155000Z</time>
      </trkpt>
      <trkpt lat="38.81795" lon="121.14828">
        <ele>49.35266</ele>
        <time>2014-04-24T10:00:54.831000Z</time>
      </trkpt>
      <trkpt lat="38.818043" lon="121.14827">
        <ele>49.422245</ele>
        <time>2014-04-24T10:00:58.507000Z</time>
      </trkpt>
      <trkpt lat="38.818142" lon="121.14827">
        <ele>50.60064</ele>
        <time>2014-04-24T10:01:02.183000Z</time>
      </trkpt>
      <trkpt lat="38.818237" lon="121.14829">
        <ele>51.626663</ele>
        <time>2014-04-24T10:01:05.859000Z</time>
      </trkpt>
      <trkpt lat="38.818344" lon="121.14829">
        <ele>51.83451</ele>
        <time>2014-04-24T10:01:09.535000Z</time>
      </trkpt>
      <trkpt lat="38.818447" lon="121.14828">
        <ele>51.640457</ele>
        <time>2014-04-24T10:01:13.211000Z</time>
      </trkpt>
      <trkpt lat="38.818527" lon="121.148224">
        <ele>51.55578</ele>
        <time>2014-04-24T10:01:16.887000Z</time>
      </trkpt>
      <trkpt lat="38.818604" lon="121.14813">
        <ele>51.61242</ele>
        <time>2014-04-24T10:01:20.563000Z</time>
      </trkpt>
      <trkpt lat="38.818672" lon="121.148026">
        <ele>51.53123</ele>
        <time>2014-04-24T10:01:24.239000Z</time>
      </trkpt>
      <trkpt lat="38.818707" lon="121.1479">
        <ele>51.003036</ele>
        <time>2014-04-24T10:01:27.915000Z</time>
      </trkpt>
      <trkpt lat="38.818703" lon="121.14776">
        <ele>50.15317</ele>
        <time>2014-04-24T10:01:31.591000Z</time>
      </trkpt>
      <trkpt lat="38.81868" lon="121.14764">
        <ele>49.569565</ele>
        <time>2014-04-24T10:01:35.267000Z</time>
      </trkpt>
      <trkpt lat="38.818623" lon="121.14752">
        <ele>49.524696</ele>
        <time>2014-04-24T10:01:38.943000Z</time>
      </trkpt>
      <trkpt lat="38.818542" lon="121.14744">
        <ele>49.7392</ele>
        <time>2014-04-24T10:01:42.619000Z</time>
      </trkpt>
      <trkpt lat="38.81843" lon="121.147385">
        <ele>50.147545</ele>
        <time>2014-04-24T10:01:46.295000Z</time>
      </trkpt>
      <trkpt lat="38.818333" lon="121.14737">
        <ele>50.82748</ele>
        <time>2014-04-24T10:01:49.971000Z</time>
      </trkpt>
      <trkpt lat="38.81823" lon="121.14736">
        <ele>51.456684</ele>
        <time>2014-04-24T10:01:53.647000Z</time>
      </trkpt>
      <trkpt lat="38.818127" lon="121.147354">
        <ele>51.76664</ele>
        <time>2014-04-24T10:01:57.323000Z</time>
      </trkpt>
      <trkpt lat="38.81803" lon="121.14737">
        <ele>51.87703</ele>
        <time>2014-04-24T10:02:00.999000Z</time>
      </trkpt>
      <trkpt lat="38.817932" lon="121.14737">
        <ele>51.817207</ele>
        <time>2014-04-24T10:02:04.675000Z</time>
      </trkpt>
      <trkpt lat="38.817833" lon="121.14736">
        <ele>51.49124</ele>
        <time>2014-04-24T10:02:08.351000Z</time>
      </trkpt>
      <trkpt lat="38.817734" lon="121.14736">
        <ele>50.849354</ele>
        <time>2014-04-24T10:02:12.027000Z</time>
      </trkpt>
      <trkpt lat="38.817623" lon="121.14735">
        <ele>49.85764</ele>
        <time>2014-04-24T10:02:15.703000Z</time>
      </trkpt>
      <trkpt lat="38.817516" lon="121.14734">
        <ele>48.635857</ele>
        <time>2014-04-24T10:02:19.379000Z</time>
      </trkpt>
      <trkpt lat="38.817417" lon="121.14738">
        <ele>47.59891</ele>
        <time>2014-04-24T10:02:23.055000Z</time>
      </trkpt>
      <trkpt lat="38.817333" lon="121.14744">
        <ele>47.373165</ele>
        <time>2014-04-24T10:02:26.731000Z</time>
      </trkpt>
      <trkpt lat="38.817257" lon="121.14755">
        <ele>48.411636</ele>
        <time>2014-04-24T10:02:30.407000Z</time>
      </trkpt>
      <trkpt lat="38.81721" lon="121.14768">
        <ele>50.205166</ele>
        <time>2014-04-24T10:02:34.083000Z</time>
      </trkpt>
      <trkpt lat="38.8172" lon="121.1478">
        <ele>51.311905</ele>
        <time>2014-04-24T10:02:37.759000Z</time>
      </trkpt>
      <trkpt lat="38.817207" lon="121.14791">
        <ele>50.97089</ele>
        <time>2014-04-24T10:02:41.435000Z</time>
      </trkpt>
      <trkpt lat="38.817245" lon="121.14802">
        <ele>49.875652</ele>
        <time>2014-04-24T10:02:45.111000Z</time>
      </trkpt>
      <trkpt lat="38.81732" lon="121.148125">
        <ele>49.02191</ele>
        <time>2014-04-24T10:02:48.787000Z</time>
      </trkpt>
      <trkpt lat="38.817383" lon="121.14821">
        <ele>49.09103</ele>
        <time>2014-04-24T10:02:52.463000Z</time>
      </trkpt>
      <trkpt lat="38.817482" lon="121.148254">
        <ele>50.120018</ele>
        <time>2014-04-24T10:02:56.139000Z</time>
      </trkpt>
      <trkpt lat="38.817574" lon="121.14827">
        <ele>50.998043</ele>
        <time>2014-04-24T10:02:59.815000Z</time>
      </trkpt>
      <trkpt lat="38.81767" lon="121.14827">
        <ele>50.7433</ele>
        <time>2014-04-24T10:03:03.491000Z</time>
      </trkpt>
      <trkpt lat="38.817783" lon="121.14828">
        <ele>49.798965</ele>
        <time>2014-04-24T10:03:07.167000Z</time>
      </trkpt>
      <trkpt lat="38.817886" lon="121.148285">
        <ele>49.16077</ele>
        <time>2014-04-24T10:03:10.843000Z</time>
      </trkpt>
      <trkpt lat="38.818" lon="121.14829">
        <ele>49.34338</ele>
        <time>2014-04-24T10:03:14.519000Z</time>
      </trkpt>
      <trkpt lat="38.8181" lon="121.14829">
        <ele>50.08373</ele>
        <time>2014-04-24T10:03:18.195000Z</time>
      </trkpt>
      <trkpt lat="38.8182" lon="121.1483">
        <ele>50.47836</ele>
        <time>2014-04-24T10:03:21.871000Z</time>
      </trkpt>
      <trkpt lat="38.818325" lon="121.148315">
        <ele>50.06558</ele>
        <time>2014-04-24T10:03:25.547000Z</time>
      </trkpt>
      <trkpt lat="38.818417" lon="121.14831">
        <ele>49.73701</ele>
        <time>2014-04-24T10:03:29.223000Z</time>
      </trkpt>
      <trkpt lat="38.818516" lon="121.148254">
        <ele>50.28076</ele>
        <time>2014-04-24T10:03:32.899000Z</time>
      </trkpt>
      <trkpt lat="38.818604" lon="121.14815">
        <ele>50.874855</ele>
        <time>2014-04-24T10:03:36.575000Z</time>
      </trkpt>
      <trkpt lat="38.818665" lon="121.14802">
        <ele>50.32956</ele>
        <time>2014-04-24T10:03:40.251000Z</time>
      </trkpt>
      <trkpt lat="38.8187" lon="121.14788">
        <ele>48.74</ele>
        <time>2014-04-24T10:03:43.927000Z</time>
      </trkpt>
      <trkpt lat="38.81869" lon="121.147766">
        <ele>47.257843</ele>
        <time>2014-04-24T10:03:47.603000Z</time>
      </trkpt>
      <trkpt lat="38.818657" lon="121.14761">
        <ele>46.631676</ele>
        <time>2014-04-24T10:03:51.279000Z</time>
      </trkpt>
      <trkpt lat="38.818584" lon="121.14749">
        <ele>46.649708</ele>
        <time>2014-04-24T10:03:54.955000Z</time>
      </trkpt>
      <trkpt lat="38.8185" lon="121.147415">
        <ele>47.04998</ele>
        <time>2014-04-24T10:03:58.631000Z</time>
      </trkpt>
      <trkpt lat="38.818394" lon="121.14737">
        <ele>47.716587</ele>
        <time>2014-04-24T10:04:02.307000Z</time>
      </trkpt>
      <trkpt lat="38.81827" lon="121.147354">
        <ele>48.395515</ele>
        <time>2014-04-24T10:04:05.983000Z</time>
      </trkpt>
      <trkpt lat="38.818142" lon="121.14736">
        <ele>49.415466</ele>
        <time>2014-04-24T10:04:09.659000Z</time>
      </trkpt>
      <trkpt lat="38.81802" lon="121.14737">
        <ele>51.715466</ele>
        <time>2014-04-24T10:04:13.335000Z</time>
      </trkpt>
      <trkpt lat="38.81791" lon="121.147354">
        <ele>55.02052</ele>
        <time>2014-04-24T10:04:17.011000Z</time>
      </trkpt>
      <trkpt lat="38.817795" lon="121.14735">
        <ele>57.608597</ele>
        <time>2014-04-24T10:04:20.687000Z</time>
      </trkpt>
      <trkpt lat="38.81769" lon="121.14735">
        <ele>58.348873</ele>
        <time>2014-04-24T10:04:24.363000Z</time>
      </trkpt>
      <trkpt lat="38.817577" lon="121.14735">
        <ele>57.617176</ele>
        <time>2014-04-24T10:04:28.039000Z</time>
      </trkpt>
      <trkpt lat="38.81746" lon="121.14736">
        <ele>56.463856</ele>
        <time>2014-04-24T10:04:31.715000Z</time>
      </trkpt>
      <trkpt lat="38.817356" lon="121.1474">
        <ele>55.825417</ele>
        <time>2014-04-24T10:04:35.391000Z</time>
      </trkpt>
      <trkpt lat="38.817272" lon="121.14749">
        <ele>55.9347</ele>
        <time>2014-04-24T10:04:39.067000Z</time>
      </trkpt>
      <trkpt lat="38.81722" lon="121.14759">
        <ele>56.352367</ele>
        <time>2014-04-24T10:04:42.743000Z</time>
      </trkpt>
      <trkpt lat="38.817196" lon="121.147736">
        <ele>56.486515</ele>
        <time>2014-04-24T10:04:46.419000Z</time>
      </trkpt>
      <trkpt lat="38.8172" lon="121.14788">
        <ele>55.7346</ele>
        <time>2014-04-24T10:04:50.095000Z</time>
      </trkpt>
      <trkpt lat="38.817245" lon="121.14804">
        <ele>53.94576</ele>
        <time>2014-04-24T10:04:53.771000Z</time>
      </trkpt>
      <trkpt lat="38.817318" lon="121.14817">
        <ele>52.00207</ele>
        <time>2014-04-24T10:04:57.447000Z</time>
      </trkpt>
      <trkpt lat="38.817413" lon="121.14825">
        <ele>50.929077</ele>
        <time>2014-04-24T10:05:01.123000Z</time>
      </trkpt>
      <trkpt lat="38.8175" lon="121.148285">
        <ele>50.819435</ele>
        <time>2014-04-24T10:05:04.799000Z</time>
      </trkpt>
      <trkpt lat="38.817646" lon="121.14831">
        <ele>51.168526</ele>
        <time>2014-04-24T10:05:08.475000Z</time>
      </trkpt>
      <trkpt lat="38.81776" lon="121.148315">
        <ele>51.655525</ele>
        <time>2014-04-24T10:05:12.151000Z</time>
      </trkpt>
      <trkpt lat="38.817894" lon="121.148315">
        <ele>52.252144</ele>
        <time>2014-04-24T10:05:15.827000Z</time>
      </trkpt>
      <trkpt lat="38.81801" lon="121.14831">
        <ele>53.055183</ele>
        <time>2014-04-24T10:05:19.503000Z</time>
      </trkpt>
      <trkpt lat="38.818127" lon="121.148315">
        <ele>54.164806</ele>
        <time>2014-04-24T10:05:23.179000Z</time>
      </trkpt>
      <trkpt lat="38.818253" lon="121.14832">
        <ele>55.160255</ele>
        <time>2014-04-24T10:05:26.855000Z</time>
      </trkpt>
      <trkpt lat="38.81837" lon="121.14832">
        <ele>55.63145</ele>
        <time>2014-04-24T10:05:30.531000Z</time>
      </trkpt>
      <trkpt lat="38.81849" lon="121.14829">
        <ele>55.588615</ele>
        <time>2014-04-24T10:05:34.207000Z</time>
      </trkpt>
      <trkpt lat="38.81859" lon="121.148224">
        <ele>55.084404</ele>
        <time>2014-04-24T10:05:37.883000Z</time>
      </trkpt>
      <trkpt lat="38.81866" lon="121.1481">
        <ele>54.16146</ele>
        <time>2014-04-24T10:05:41.559000Z</time>
      </trkpt>
      <trkpt lat="38.81871" lon="121.14796">
        <ele>52.62073</ele>
        <time>2014-04-24T10:05:45.235000Z</time>
      </trkpt>
      <trkpt lat="38.818726" lon="121.147835">
        <ele>50.57371</ele>
        <time>2014-04-24T10:05:48.911000Z</time>
      </trkpt>
      <trkpt lat="38.818718" lon="121.14766">
        <ele>49.0029</ele>
        <time>2014-04-24T10:05:52.587000Z</time>
      </trkpt>
      <trkpt lat="38.81867" lon="121.14751">
        <ele>48.88066</ele>
        <time>2014-04-24T10:05:56.263000Z</time>
      </trkpt>
      <trkpt lat="38.818584" lon="121.14741">
        <ele>50.15937</ele>
        <time>2014-04-24T10:05:59.939000Z</time>
      </trkpt>
      <trkpt lat="38.818466" lon="121.14734">
        <ele>51.710434</ele>
        <time>2014-04-24T10:06:03.615000Z</time>
      </trkpt>
      <trkpt lat="38.818375" lon="121.14732">
        <ele>52.666256</ele>
        <time>2014-04-24T10:06:07.291000Z</time>
      </trkpt>
      <trkpt lat="38.818256" lon="121.1473">
        <ele>53.199398</ele>
        <time>2014-04-24T10:06:10.967000Z</time>
      </trkpt>
      <trkpt lat="38.81814" lon="121.1473">
        <ele>53.93342</ele>
        <time>2014-04-24T10:06:14.643000Z</time>
      </trkpt>
      <trkpt lat="38.818012" lon="121.14731">
        <ele>55.128525</ele>
        <time>2014-04-24T10:06:18.319000Z</time>
      </trkpt>
      <trkpt lat="38.817898" lon="121.147316">
        <ele>56.220062</ele>
        <time>2014-04-24T10:06:21.995000Z</time>
      </trkpt>
      <trkpt lat="38.817787" lon="121.14732">
        <ele>56.49682</ele>
        <time>2014-04-24T10:06:25.671000Z</time>
      </trkpt>
      <trkpt lat="38.81766" lon="121.14733">
        <ele>55.979782</ele>
        <time>2014-04-24T10:06:29.347000Z</time>
      </trkpt>
      <trkpt lat="38.817554" lon="121.14734">
        <ele>55.02441</ele>
        <time>2014-04-24T10:06:33.023000Z</time>
      </trkpt>
      <trkpt lat="38.817432" lon="121.14736">
        <ele>54.01522</ele>
        <time>2014-04-24T10:06:36.699000Z</time>
      </trkpt>
      <trkpt lat="38.817318" lon="121.14743">
        <ele>53.204098</ele>
        <time>2014-04-24T10:06:40.375000Z</time>
      </trkpt>
      <trkpt lat="38.817245" lon="121.147545">
        <ele>52.655823</ele>
        <time>2014-04-24T10:06:44.051000Z</time>
      </trkpt>
      <trkpt lat="38.8172" lon="121.147675">
        <ele>52.32696</ele>
        <time>2014-04-24T10:06:47.727000Z</time>
      </trkpt>
      <trkpt lat="38.817192" lon="121.14782">
        <ele>52.185665</ele>
        <time>2014-04-24T10:06:51.403000Z</time>
      </trkpt>
      <trkpt lat="38.817234" lon="121.14797">
        <ele>51.621933</ele>
        <time>2014-04-24T10:06:55.079000Z</time>
      </trkpt>
      <trkpt lat="38.817307" lon="121.14811">
        <ele>50.047653</ele>
        <time>2014-04-24T10:06:58.755000Z</time>
      </trkpt>
      <trkpt lat="38.81739" lon="121.14821">
        <ele>48.078094</ele>
        <time>2014-04-24T10:07:02.431000Z</time>
      </trkpt>
      <trkpt lat="38.817493" lon="121.14828">
        <ele>46.950302</ele>
        <time>2014-04-24T10:07:06.107000Z</time>
      </trkpt>
      <trkpt lat="38.81758" lon="121.14829">
        <ele>47.302998</ele>
        <time>2014-04-24T10:07:09.783000Z</time>
      </trkpt>
      <trkpt lat="38.817707" lon="121.1483">
        <ele>48.78443</ele>
        <time>2014-04-24T10:07:13.459000Z</time>
      </trkpt>
      <trkpt lat="38.81782" lon="121.1483">
        <ele>50.427593</ele>
        <time>2014-04-24T10:07:17.135000Z</time>
      </trkpt>
      <trkpt lat="38.817963" lon="121.1483">
        <ele>51.55906</ele>
        <time>2014-04-24T10:07:20.811000Z</time>
      </trkpt>
      <trkpt lat="38.818085" lon="121.148315">
        <ele>52.029236</ele>
        <time>2014-04-24T10:07:24.487000Z</time>
      </trkpt>
      <trkpt lat="38.81821" lon="121.148315">
        <ele>51.976025</ele>
        <time>2014-04-24T10:07:28.163000Z</time>
      </trkpt>
      <trkpt lat="38.818317" lon="121.148315">
        <ele>52.004265</ele>
        <time>2014-04-24T10:07:31.839000Z</time>
      </trkpt>
      <trkpt lat="38.81843" lon="121.148315">
        <ele>52.499683</ele>
        <time>2014-04-24T10:07:35.515000Z</time>
      </trkpt>
      <trkpt lat="38.818546" lon="121.14827">
        <ele>52.63379</ele>
        <time>2014-04-24T10:07:39.191000Z</time>
      </trkpt>
      <trkpt lat="38.818645" lon="121.14816">
        <ele>51.52615</ele>
        <time>2014-04-24T10:07:42.867000Z</time>
      </trkpt>
      <trkpt lat="38.8187" lon="121.14803">
        <ele>49.76711</ele>
        <time>2014-04-24T10:07:46.543000Z</time>
      </trkpt>
      <trkpt lat="38.81873" lon="121.14789">
        <ele>48.442257</ele>
        <time>2014-04-24T10:07:50.219000Z</time>
      </trkpt>
      <trkpt lat="38.818726" lon="121.147736">
        <ele>48.070354</ele>
        <time>2014-04-24T10:07:53.895000Z</time>
      </trkpt>
      <trkpt lat="38.818687" lon="121.147606">
        <ele>48.801376</ele>
        <time>2014-04-24T10:07:57.571000Z</time>
      </trkpt>
      <trkpt lat="38.81862" lon="121.147484">
        <ele>50.42429</ele>
        <time>2014-04-24T10:08:01.247000Z</time>
      </trkpt>
      <trkpt lat="38.818512" lon="121.147385">
        <ele>52.21075</ele>
        <time>2014-04-24T10:08:04.923000Z</time>
      </trkpt>
      <trkpt lat="38.81839" lon="121.14732">
        <ele>53.385525</ele>
        <time>2014-04-24T10:08:08.599000Z</time>
      </trkpt>
      <trkpt lat="38.818256" lon="121.1473">
        <ele>53.79774</ele>
        <time>2014-04-24T10:08:12.275000Z</time>
      </trkpt>
      <trkpt lat="38.818142" lon="121.14731">
        <ele>53.83765</ele>
        <time>2014-04-24T10:08:15.951000Z</time>
      </trkpt>
      <trkpt lat="38.818012" lon="121.1473">
        <ele>53.796947</ele>
        <time>2014-04-24T10:08:19.627000Z</time>
      </trkpt>
      <trkpt lat="38.8179" lon="121.1473">
        <ele>53.824024</ele>
        <time>2014-04-24T10:08:23.303000Z</time>
      </trkpt>
      <trkpt lat="38.81778" lon="121.147316">
        <ele>53.897625</ele>
        <time>2014-04-24T10:08:26.979000Z</time>
      </trkpt>
      <trkpt lat="38.81766" lon="121.14731">
        <ele>53.80728</ele>
        <time>2014-04-24T10:08:30.655000Z</time>
      </trkpt>
      <trkpt lat="38.817528" lon="121.14732">
        <ele>53.51544</ele>
        <time>2014-04-24T10:08:34.331000Z</time>
      </trkpt>
      <trkpt lat="38.8174" lon="121.14736">
        <ele>53.261265</ele>
        <time>2014-04-24T10:08:38.007000Z</time>
      </trkpt>
      <trkpt lat="38.817295" lon="121.14743">
        <ele>53.238262</ele>
        <time>2014-04-24T10:08:41.683000Z</time>
      </trkpt>
      <trkpt lat="38.81723" lon="121.14752">
        <ele>53.563805</ele>
        <time>2014-04-24T10:08:45.359000Z</time>
      </trkpt>
      <trkpt lat="38.817173" lon="121.14767">
        <ele>54.109467</ele>
        <time>2014-04-24T10:08:49.035000Z</time>
      </trkpt>
      <trkpt lat="38.817165" lon="121.14781">
        <ele>54.502605</ele>
        <time>2014-04-24T10:08:52.711000Z</time>
      </trkpt>
      <trkpt lat="38.817184" lon="121.14797">
        <ele>53.913307</ele>
        <time>2014-04-24T10:08:56.387000Z</time>
      </trkpt>
      <trkpt lat="38.81724" lon="121.14811">
        <ele>51.84187</ele>
        <time>2014-04-24T10:09:00.063000Z</time>
      </trkpt>
      <trkpt lat="38.81734" lon="121.14823">
        <ele>49.38879</ele>
        <time>2014-04-24T10:09:03.739000Z</time>
      </trkpt>
      <trkpt lat="38.81745" lon="121.1483">
        <ele>47.917484</ele>
        <time>2014-04-24T10:09:07.415000Z</time>
      </trkpt>
      <trkpt lat="38.817574" lon="121.14832">
        <ele>47.502254</ele>
        <time>2014-04-24T10:09:11.091000Z</time>
      </trkpt>
      <trkpt lat="38.81768" lon="121.14832">
        <ele>47.938972</ele>
        <time>2014-04-24T10:09:14.767000Z</time>
      </trkpt>
      <trkpt lat="38.81783" lon="121.14832">
        <ele>49.002472</ele>
        <time>2014-04-24T10:09:18.443000Z</time>
      </trkpt>
      <trkpt lat="38.817947" lon="121.14833">
        <ele>50.03883</ele>
        <time>2014-04-24T10:09:22.119000Z</time>
      </trkpt>
      <trkpt lat="38.818058" lon="121.14834">
        <ele>50.467392</ele>
        <time>2014-04-24T10:09:25.795000Z</time>
      </trkpt>
      <trkpt lat="38.818176" lon="121.14836">
        <ele>49.814617</ele>
        <time>2014-04-24T10:09:29.471000Z</time>
      </trkpt>
      <trkpt lat="38.8183" lon="121.14836">
        <ele>48.202854</ele>
        <time>2014-04-24T10:09:33.147000Z</time>
      </trkpt>
      <trkpt lat="38.818436" lon="121.14833">
        <ele>46.743835</ele>
        <time>2014-04-24T10:09:36.823000Z</time>
      </trkpt>
      <trkpt lat="38.81856" lon="121.14826">
        <ele>47.045288</ele>
        <time>2014-04-24T10:09:40.499000Z</time>
      </trkpt>
      <trkpt lat="38.81865" lon="121.148155">
        <ele>49.31048</ele>
        <time>2014-04-24T10:09:44.175000Z</time>
      </trkpt>
      <trkpt lat="38.818718" lon="121.14799">
        <ele>51.417843</ele>
        <time>2014-04-24T10:09:47.851000Z</time>
      </trkpt>
      <trkpt lat="38.818745" lon="121.147835">
        <ele>51.66671</ele>
        <time>2014-04-24T10:09:51.527000Z</time>
      </trkpt>
      <trkpt lat="38.818726" lon="121.14768">
        <ele>50.7981</ele>
        <time>2014-04-24T10:09:55.203000Z</time>
      </trkpt>
      <trkpt lat="38.81866" lon="121.14752">
        <ele>50.00635</ele>
        <time>2014-04-24T10:09:58.879000Z</time>
      </trkpt>
      <trkpt lat="38.81856" lon="121.14742">
        <ele>49.87722</ele>
        <time>2014-04-24T10:10:02.555000Z</time>
      </trkpt>
      <trkpt lat="38.81846" lon="121.14737">
        <time>2014-04-24T10:10:06.231000Z</time>
      </trkpt>
    </trkseg>
  </trk>
</gpx>