<?xml version="1.0" encoding="UTF-8"?>
<gpx xmlns="http://www.topografix.com/GPX/1/1" xmlns:gpxtpx="http://www.garmin.com/xmlschemas/TrackPointExtension/v1" xmlns:xsi="http://www.w3.org/2001/XMLSchema-instance" xsi:schemaLocation="http://www.topografix.com/GPX/1/1 http://www.topografix.com/GPX/1/1/gpx.xsd" version="1.1" creator="gpx.py -- https://github.com/tkrajina/gpxpy">
  <trk>
    <trkseg>
      <trkpt lat="38.817165" lon="121.148224">
        <ele>49.33988</ele>
        <time>2014-04-26T09:06:25.740000Z</time>
      </trkpt>
      <trkpt lat="38.817173" lon="121.14823">
        <ele>49.56381</ele>
        <time>2014-04-26T09:06:29.705000Z</time>
      </trkpt>
      <trkpt lat="38.817265" lon="121.14831">
        <ele>50.201115</ele>
        <time>2014-04-26T09:06:33.670000Z</time>
      </trkpt>
      <trkpt lat="38.817352" lon="121.14834">
        <ele>50.522594</ele>
        <time>2014-04-26T09:06:37.635000Z</time>
      </trkpt>
      <trkpt lat="38.817448" lon="121.148346">
        <ele>49.826744</ele>
        <time>2014-04-26T09:06:41.600000Z</time>
      </trkpt>
      <trkpt lat="38.817554" lon="121.14835">
        <ele>48.80258</ele>
        <time>2014-04-26T09:06:45.565000Z</time>
      </trkpt>
      <trkpt lat="38.81766" lon="121.14835">
        <ele>47.84499</ele>
        <time>2014-04-26T09:06:49.530000Z</time>
      </trkpt>
      <trkpt lat="38.817764" lon="121.148384">
        <ele>46.55695</ele>
        <time>2014-04-26T09:06:53.495000Z</time>
      </trkpt>
      <trkpt lat="38.817867" lon="121.14839">
        <ele>45.10728</ele>
        <time>2014-04-26T09:06:57.460000Z</time>
      </trkpt>
      <trkpt lat="38.81796" lon="121.14841">
        <ele>43.840435</ele>
        <time>2014-04-26T09:07:01.425000Z</time>
      </trkpt>
      <trkpt lat="38.818058" lon="121.14842">
        <ele>42.801506</ele>
        <time>2014-04-26T09:07:05.390000Z</time>
      </trkpt>
      <trkpt lat="38.81816" lon="121.14844">
        <ele>41.72906</ele>
        <time>2014-04-26T09:07:09.355000Z</time>
      </trkpt>
      <trkpt lat="38.818268" lon="121.14847">
        <ele>40.298973</ele>
        <time>2014-04-26T09:07:13.320000Z</time>
      </trkpt>
      <trkpt lat="38.81838" lon="121.14848">
        <ele>38.55672</ele>
        <time>2014-04-26T09:07:17.285000Z</time>
      </trkpt>
      <trkpt lat="38.818485" lon="121.14848">
        <ele>36.93666</ele>
        <time>2014-04-26T09:07:21.250000Z</time>
      </trkpt>
      <trkpt lat="38.818592" lon="121.1485">
        <ele>35.783627</ele>
        <time>2014-04-26T09:07:25.215000Z</time>
      </trkpt>
      <trkpt lat="38.818676" lon="121.148415">
        <ele>35.4775</ele>
        <time>2014-04-26T09:07:29.180000Z</time>
      </trkpt>
      <trkpt lat="38.81875" lon="121.14832">
        <ele>35.721916</ele>
        <time>2014-04-26T09:07:33.145000Z</time>
      </trkpt>
      <trkpt lat="38.818794" lon="121.1482">
        <ele>36.10019</ele>
        <time>2014-04-26T09:07:37.110000Z</time>
      </trkpt>
      <trkpt lat="38.818813" lon="121.14807">
        <ele>36.685013</ele>
        <time>2014-04-26T09:07:41.075000Z</time>
      </trkpt>
      <trkpt lat="38.81883" lon="121.14795">
        <ele>37.929108</ele>
        <time>2014-04-26T09:07:45.040000Z</time>
      </trkpt>
      <trkpt lat="38.818832" lon="121.14783">
        <ele>39.72212</ele>
        <time>2014-04-26T09:07:49.005000Z</time>
      </trkpt>
      <trkpt lat="38.818836" lon="121.147705">
        <ele>41.010216</ele>
        <time>2014-04-26T09:07:52.970000Z</time>
      </trkpt>
      <trkpt lat="38.818832" lon="121.14759">
        <ele>40.989017</ele>
        <time>2014-04-26T09:07:56.935000Z</time>
      </trkpt>
      <trkpt lat="38.818794" lon="121.14747">
        <ele>40.274765</ele>
        <time>2014-04-26T09:08:00.900000Z</time>
      </trkpt>
      <trkpt lat="38.81872" lon="121.147385">
        <ele>39.317944</ele>
        <time>2014-04-26T09:08:04.865000Z</time>
      </trkpt>
      <trkpt lat="38.818623" lon="121.147354">
        <ele>37.71862</ele>
        <time>2014-04-26T09:08:08.830000Z</time>
      </trkpt>
      <trkpt lat="38.818527" lon="121.14733">
        <ele>35.742607</ele>
        <time>2014-04-26T09:08:12.795000Z</time>
      </trkpt>
      <trkpt lat="38.81844" lon="121.147285">
        <ele>34.460495</ele>
        <time>2014-04-26T09:08:16.760000Z</time>
      </trkpt>
      <trkpt lat="38.818344" lon="121.14726">
        <ele>35.940437</ele>
        <time>2014-04-26T09:08:20.725000Z</time>
      </trkpt>
      <trkpt lat="38.81823" lon="121.14724">
        <ele>40.96489</ele>
        <time>2014-04-26T09:08:24.690000Z</time>
      </trkpt>
      <trkpt lat="38.81814" lon="121.14724">
        <ele>46.634426</ele>
        <time>2014-04-26T09:08:28.655000Z</time>
      </trkpt>
      <trkpt lat="38.818024" lon="121.14723">
        <ele>50.144226</ele>
        <time>2014-04-26T09:08:32.620000Z</time>
      </trkpt>
      <trkpt lat="38.817917" lon="121.147224">
        <ele>51.831326</ele>
        <time>2014-04-26T09:08:36.585000Z</time>
      </trkpt>
      <trkpt lat="38.817825" lon="121.14723">
        <ele>52.200565</ele>
        <time>2014-04-26T09:08:40.550000Z</time>
      </trkpt>
      <trkpt lat="38.817715" lon="121.147224">
        <ele>51.310745</ele>
        <time>2014-04-26T09:08:44.515000Z</time>
      </trkpt>
      <trkpt lat="38.817604" lon="121.14723">
        <ele>49.79864</ele>
        <time>2014-04-26T09:08:48.480000Z</time>
      </trkpt>
      <trkpt lat="38.8175" lon="121.147224">
        <ele>48.63073</ele>
        <time>2014-04-26T09:08:52.445000Z</time>
      </trkpt>
      <trkpt lat="38.8174" lon="121.14722">
        <ele>48.17559</ele>
        <time>2014-04-26T09:08:56.410000Z</time>
      </trkpt>
      <trkpt lat="38.817287" lon="121.14723">
        <ele>48.010983</ele>
        <time>2014-04-26T09:09:00.375000Z</time>
      </trkpt>
      <trkpt lat="38.817204" lon="121.147285">
        <ele>47.56003</ele>
        <time>2014-04-26T09:09:04.340000Z</time>
      </trkpt>
      <trkpt lat="38.817142" lon="121.14739">
        <ele>46.78714</ele>
        <time>2014-04-26T09:09:08.305000Z</time>
      </trkpt>
      <trkpt lat="38.817127" lon="121.14752">
        <ele>46.366436</ele>
        <time>2014-04-26T09:09:12.270000Z</time>
      </trkpt>
      <trkpt lat="38.817112" lon="121.147644">
        <ele>46.699944</ele>
        <time>2014-04-26T09:09:16.235000Z</time>
      </trkpt>
      <trkpt lat="38.817112" lon="121.14779">
        <ele>46.943653</ele>
        <time>2014-04-26T09:09:20.200000Z</time>
      </trkpt>
      <trkpt lat="38.817104" lon="121.147934">
        <ele>46.367073</ele>
        <time>2014-04-26T09:09:24.165000Z</time>
      </trkpt>
      <trkpt lat="38.8171" lon="121.14807">
        <ele>45.429276</ele>
        <time>2014-04-26T09:09:28.130000Z</time>
      </trkpt>
      <trkpt lat="38.817146" lon="121.1482">
        <ele>44.7477</ele>
        <time>2014-04-26T09:09:32.095000Z</time>
      </trkpt>
      <trkpt lat="38.817238" lon="121.14828">
        <ele>44.42645</ele>
        <time>2014-04-26T09:09:36.060000Z</time>
      </trkpt>
      <trkpt lat="38.817337" lon="121.1483">
        <ele>44.373993</ele>
        <time>2014-04-26T09:09:40.025000Z</time>
      </trkpt>
      <trkpt lat="38.817432" lon="121.14833">
        <ele>44.416668</ele>
        <time>2014-04-26T09:09:43.990000Z</time>
      </trkpt>
      <trkpt lat="38.817524" lon="121.148346">
        <ele>44.42361</ele>
        <time>2014-04-26T09:09:47.955000Z</time>
      </trkpt>
      <trkpt lat="38.81762" lon="121.14835">
        <ele>43.842903</ele>
        <time>2014-04-26T09:09:51.920000Z</time>
      </trkpt>
      <trkpt lat="38.81772" lon="121.14836">
        <ele>42.935345</ele>
        <time>2014-04-26T09:09:55.885000Z</time>
      </trkpt>
      <trkpt lat="38.81782" lon="121.14837">
        <ele>42.17999</ele>
        <time>2014-04-26T09:09:59.850000Z</time>
      </trkpt>
      <trkpt lat="38.817917" lon="121.14839">
        <ele>41.533455</ele>
        <time>2014-04-26T09:10:03.815000Z</time>
      </trkpt>
      <trkpt lat="38.818024" lon="121.1484">
        <ele>40.93076</ele>
        <time>2014-04-26T09:10:07.780000Z</time>
      </trkpt>
      <trkpt lat="38.818115" lon="121.1484">
        <ele>40.72064</ele>
        <time>2014-04-26T09:10:11.745000Z</time>
      </trkpt>
      <trkpt lat="38.818214" lon="121.148415">
        <ele>40.618313</ele>
        <time>2014-04-26T09:10:15.710000Z</time>
      </trkpt>
      <trkpt lat="38.818314" lon="121.14842">
        <ele>40.012775</ele>
        <time>2014-04-26T09:10:19.675000Z</time>
      </trkpt>
      <trkpt lat="38.818417" lon="121.14842">
        <ele>38.866898</ele>
        <time>2014-04-26T09:10:23.640000Z</time>
      </trkpt>
      <trkpt lat="38.818512" lon="121.14843">
        <ele>38.20287</ele>
        <time>2014-04-26T09:10:27.605000Z</time>
      </trkpt>
      <trkpt lat="38.818604" lon="121.14843">
        <ele>38.339657</ele>
        <time>2014-04-26T09:10:31.570000Z</time>
      </trkpt>
      <trkpt lat="38.81869" lon="121.148346">
        <ele>38.349922</ele>
        <time>2014-04-26T09:10:35.535000Z</time>
      </trkpt>
      <trkpt lat="38.81875" lon="121.148224">
        <ele>37.487</ele>
        <time>2014-04-26T09:10:39.500000Z</time>
      </trkpt>
      <trkpt lat="38.81877" lon="121.14811">
        <ele>36.140797</ele>
        <time>2014-04-26T09:10:43.465000Z</time>
      </trkpt>
      <trkpt lat="38.818787" lon="121.14799">
        <ele>35.269493</ele>
        <time>2014-04-26T09:10:47.430000Z</time>
      </trkpt>
      <trkpt lat="38.818798" lon="121.147865">
        <ele>35.089962</ele>
        <time>2014-04-26T09:10:51.395000Z</time>
      </trkpt>
      <trkpt lat="38.81881" lon="121.14775">
        <ele>35.30223</ele>
        <time>2014-04-26T09:10:55.360000Z</time>
      </trkpt>
      <trkpt lat="38.818813" lon="121.14762">
        <ele>35.83724</ele>
        <time>2014-04-26T09:10:59.325000Z</time>
      </trkpt>
      <trkpt lat="38.81877" lon="121.14749">
        <ele>36.74162</ele>
        <time>2014-04-26T09:11:03.290000Z</time>
      </trkpt>
      <trkpt lat="38.818687" lon="121.1474">
        <ele>37.628536</ele>
        <time>2014-04-26T09:11:07.255000Z</time>
      </trkpt>
      <trkpt lat="38.818592" lon="121.14736">
        <ele>37.753433</ele>
        <time>2014-04-26T09:11:11.220000Z</time>
      </trkpt>
      <trkpt lat="38.818485" lon="121.147354">
        <ele>36.27751</ele>
        <time>2014-04-26T09:11:15.185000Z</time>
      </trkpt>
      <trkpt lat="38.818382" lon="121.14735">
        <ele>33.811195</ele>
        <time>2014-04-26T09:11:19.150000Z</time>
      </trkpt>
      <trkpt lat="38.818283" lon="121.14732">
        <ele>32.224323</ele>
        <time>2014-04-26T09:11:23.115000Z</time>
      </trkpt>
      <trkpt lat="38.818184" lon="121.147316">
        <ele>32.354256</ele>
        <time>2014-04-26T09:11:27.080000Z</time>
      </trkpt>
      <trkpt lat="38.818085" lon="121.14729">
        <ele>33.313023</ele>
        <time>2014-04-26T09:11:31.045000Z</time>
      </trkpt>
      <trkpt lat="38.817997" lon="121.14727">
        <ele>35.23091</ele>
        <time>2014-04-26T09:11:35.010000Z</time>
      </trkpt>
      <trkpt lat="38.817886" lon="121.14725">
        <ele>38.878273</ele>
        <time>2014-04-26T09:11:38.975000Z</time>
      </trkpt>
      <trkpt lat="38.817795" lon="121.147224">
        <ele>42.89516</ele>
        <time>2014-04-26T09:11:42.940000Z</time>
      </trkpt>
      <trkpt lat="38.817688" lon="121.1472">
        <ele>45.888676</ele>
        <time>2014-04-26T09:11:46.905000Z</time>
      </trkpt>
      <trkpt lat="38.81759" lon="121.1472">
        <ele>48.09466</ele>
        <time>2014-04-26T09:11:50.870000Z</time>
      </trkpt>
      <trkpt lat="38.81749" lon="121.1472">
        <ele>49.544914</ele>
        <time>2014-04-26T09:11:54.835000Z</time>
      </trkpt>
      <trkpt lat="38.817387" lon="121.147194">
        <ele>50.120296</ele>
        <time>2014-04-26T09:11:58.800000Z</time>
      </trkpt>
      <trkpt lat="38.817276" lon="121.14721">
        <ele>50.12216</ele>
        <time>2014-04-26T09:12:02.765000Z</time>
      </trkpt>
      <trkpt lat="38.817184" lon="121.147285">
        <ele>49.482685</ele>
        <time>2014-04-26T09:12:06.730000Z</time>
      </trkpt>
      <trkpt lat="38.81713" lon="121.14739">
        <ele>48.2289</ele>
        <time>2014-04-26T09:12:10.695000Z</time>
      </trkpt>
      <trkpt lat="38.817123" lon="121.14752">
        <ele>47.300922</ele>
        <time>2014-04-26T09:12:14.660000Z</time>
      </trkpt>
      <trkpt lat="38.81712" lon="121.14765">
        <ele>47.422657</ele>
        <time>2014-04-26T09:12:18.625000Z</time>
      </trkpt>
      <trkpt lat="38.817112" lon="121.14777">
        <ele>48.028145</ele>
        <time>2014-04-26T09:12:22.590000Z</time>
      </trkpt>
      <trkpt lat="38.817104" lon="121.14791">
        <ele>48.51415</ele>
        <time>2014-04-26T09:12:26.555000Z</time>
      </trkpt>
      <trkpt lat="38.817116" lon="121.148056">
        <ele>48.86896</ele>
        <time>2014-04-26T09:12:30.520000Z</time>
      </trkpt>
      <trkpt lat="38.817173" lon="121.14817">
        <ele>49.09742</ele>
        <time>2014-04-26T09:12:34.485000Z</time>
      </trkpt>
      <trkpt lat="38.81726" lon="121.148254">
        <ele>49.17412</ele>
        <time>2014-04-26T09:12:38.450000Z</time>
      </trkpt>
      <trkpt lat="38.81735" lon="121.14828">
        <ele>49.005062</ele>
        <time>2014-04-26T09:12:42.415000Z</time>
      </trkpt>
      <trkpt lat="38.817436" lon="121.148315">
        <ele>48.089714</ele>
        <time>2014-04-26T09:12:46.380000Z</time>
      </trkpt>
      <trkpt lat="38.817547" lon="121.14833">
        <ele>46.431957</ele>
        <time>2014-04-26T09:12:50.345000Z</time>
      </trkpt>
      <trkpt lat="38.81766" lon="121.148346">
        <ele>45.023277</ele>
        <time>2014-04-26T09:12:54.310000Z</time>
      </trkpt>
      <trkpt lat="38.817753" lon="121.14836">
        <ele>44.474102</ele>
        <time>2014-04-26T09:12:58.275000Z</time>
      </trkpt>
      <trkpt lat="38.817863" lon="121.14837">
        <ele>44.223034</ele>
        <time>2014-04-26T09:13:02.240000Z</time>
      </trkpt>
      <trkpt lat="38.81797" lon="121.1484">
        <ele>43.449764</ele>
        <time>2014-04-26T09:13:06.205000Z</time>
      </trkpt>
      <trkpt lat="38.81806" lon="121.14842">
        <ele>41.606422</ele>
        <time>2014-04-26T09:13:10.170000Z</time>
      </trkpt>
      <trkpt lat="38.818176" lon="121.14843">
        <ele>39.082973</ele>
        <time>2014-04-26T09:13:14.135000Z</time>
      </trkpt>
      <trkpt lat="38.81828" lon="121.14843">
        <ele>37.196083</ele>
        <time>2014-04-26T09:13:18.100000Z</time>
      </trkpt>
      <trkpt lat="38.81839" lon="121.14843">
        <ele>37.141293</ele>
        <time>2014-04-26T09:13:22.065000Z</time>
      </trkpt>
      <trkpt lat="38.818485" lon="121.14843">
        <ele>39.109497</ele>
        <time>2014-04-26T09:13:26.030000Z</time>
      </trkpt>
      <trkpt lat="38.818596" lon="121.14845">
        <ele>41.989613</ele>
        <time>2014-04-26T09:13:29.995000Z</time>
      </trkpt>
      <trkpt lat="38.81869" lon="121.14841">
        <ele>44.07793</ele>
        <time>2014-04-26T09:13:33.960000Z</time>
      </trkpt>
      <trkpt lat="38.818756" lon="121.14829">
        <ele>44.20847</ele>
        <time>2014-04-26T09:13:37.925000Z</time>
      </trkpt>
      <trkpt lat="38.818794" lon="121.148155">
        <ele>42.57572</ele>
        <time>2014-04-26T09:13:41.890000Z</time>
      </trkpt>
      <trkpt lat="38.818806" lon="121.14803">
        <ele>40.708145</ele>
        <time>2014-04-26T09:13:45.855000Z</time>
      </trkpt>
      <trkpt lat="38.81881" lon="121.1479">
        <ele>39.769127</ele>
        <time>2014-04-26T09:13:49.820000Z</time>
      </trkpt>
      <trkpt lat="38.818817" lon="121.14777">
        <ele>39.38474</ele>
        <time>2014-04-26T09:13:53.785000Z</time>
      </trkpt>
      <trkpt lat="38.818817" lon="121.14764">
        <ele>38.967606</ele>
        <time>2014-04-26T09:13:57.750000Z</time>
      </trkpt>
      <trkpt lat="38.81878" lon="121.147514">
        <ele>38.22151</ele>
        <time>2014-04-26T09:14:01.715000Z</time>
      </trkpt>
      <trkpt lat="38.8187" lon="121.14742">
        <ele>37.179123</ele>
        <time>2014-04-26T09:14:05.680000Z</time>
      </trkpt>
      <trkpt lat="38.818638" lon="121.14734">
        <ele>36.474438</ele>
        <time>2014-04-26T09:14:09.645000Z</time>
      </trkpt>
      <trkpt lat="38.818542" lon="121.14728">
        <ele>38.48847</ele>
        <time>2014-04-26T09:14:13.610000Z</time>
      </trkpt>
      <trkpt lat="38.818443" lon="121.147255">
        <ele>43.91043</ele>
        <time>2014-04-26T09:14:17.575000Z</time>
      </trkpt>
      <trkpt lat="38.81834" lon="121.14724">
        <ele>49.030396</ele>
        <time>2014-04-26T09:14:21.540000Z</time>
      </trkpt>
      <trkpt lat="38.818245" lon="121.14723">
        <ele>50.811398</ele>
        <time>2014-04-26T09:14:25.505000Z</time>
      </trkpt>
      <trkpt lat="38.81814" lon="121.14722">
        <ele>50.60794</ele>
        <time>2014-04-26T09:14:29.470000Z</time>
      </trkpt>
      <trkpt lat="38.818047" lon="121.147224">
        <ele>50.316235</ele>
        <time>2014-04-26T09:14:33.435000Z</time>
      </trkpt>
      <trkpt lat="38.817947" lon="121.14723">
        <ele>49.703423</ele>
        <time>2014-04-26T09:14:37.400000Z</time>
      </trkpt>
      <trkpt lat="38.81785" lon="121.14722">
        <ele>48.120667</ele>
        <time>2014-04-26T09:14:41.365000Z</time>
      </trkpt>
      <trkpt lat="38.817757" lon="121.1472">
        <ele>46.595764</ele>
        <time>2014-04-26T09:14:45.330000Z</time>
      </trkpt>
      <trkpt lat="38.817654" lon="121.147194">
        <ele>46.385284</ele>
        <time>2014-04-26T09:14:49.295000Z</time>
      </trkpt>
      <trkpt lat="38.81755" lon="121.147194">
        <ele>47.217163</ele>
        <time>2014-04-26T09:14:53.260000Z</time>
      </trkpt>
      <trkpt lat="38.817444" lon="121.147194">
        <ele>47.975563</ele>
        <time>2014-04-26T09:14:57.225000Z</time>
      </trkpt>
      <trkpt lat="38.81734" lon="121.1472">
        <ele>47.964848</ele>
        <time>2014-04-26T09:15:01.190000Z</time>
      </trkpt>
      <trkpt lat="38.817253" lon="121.14723">
        <ele>47.423607</ele>
        <time>2014-04-26T09:15:05.155000Z</time>
      </trkpt>
      <trkpt lat="38.81717" lon="121.14734">
        <ele>46.61373</ele>
        <time>2014-04-26T09:15:09.120000Z</time>
      </trkpt>
      <trkpt lat="38.817142" lon="121.14748">
        <ele>45.563972</ele>
        <time>2014-04-26T09:15:13.085000Z</time>
      </trkpt>
      <trkpt lat="38.817146" lon="121.147606">
        <ele>44.60946</ele>
        <time>2014-04-26T09:15:17.050000Z</time>
      </trkpt>
      <trkpt lat="38.817158" lon="121.14774">
        <ele>44.613262</ele>
        <time>2014-04-26T09:15:21.015000Z</time>
      </trkpt>
      <trkpt lat="38.817165" lon="121.147865">
        <ele>45.998703</ele>
        <time>2014-04-26T09:15:24.980000Z</time>
      </trkpt>
      <trkpt lat="38.81716" lon="121.14799">
        <ele>47.942905</ele>
        <time>2014-04-26T09:15:28.945000Z</time>
      </trkpt>
      <trkpt lat="38.817204" lon="121.1481">
        <ele>49.30565</ele>
        <time>2014-04-26T09:15:32.910000Z</time>
      </trkpt>
      <trkpt lat="38.817287" lon="121.14819">
        <ele>49.64168</ele>
        <time>2014-04-26T09:15:36.875000Z</time>
      </trkpt>
      <trkpt lat="38.81738" lon="121.148254">
        <ele>49.14782</ele>
        <time>2014-04-26T09:15:40.840000Z</time>
      </trkpt>
      <trkpt lat="38.817474" lon="121.148285">
        <ele>48.68423</ele>
        <time>2014-04-26T09:15:44.805000Z</time>
      </trkpt>
      <trkpt lat="38.81757" lon="121.14829">
        <ele>48.841125</ele>
        <time>2014-04-26T09:15:48.770000Z</time>
      </trkpt>
      <trkpt lat="38.817673" lon="121.14831">
        <ele>49.2881</ele>
        <time>2014-04-26T09:15:52.735000Z</time>
      </trkpt>
      <trkpt lat="38.817776" lon="121.14832">
        <ele>49.33134</ele>
        <time>2014-04-26T09:15:56.700000Z</time>
      </trkpt>
      <trkpt lat="38.817867" lon="121.14834">
        <ele>48.736225</ele>
        <time>2014-04-26T09:16:00.665000Z</time>
      </trkpt>
      <trkpt lat="38.81797" lon="121.148346">
        <ele>47.50962</ele>
        <time>2014-04-26T09:16:04.630000Z</time>
      </trkpt>
      <trkpt lat="38.818077" lon="121.14836">
        <ele>45.894627</ele>
        <time>2014-04-26T09:16:08.595000Z</time>
      </trkpt>
      <trkpt lat="38.818188" lon="121.14837">
        <ele>44.645264</ele>
        <time>2014-04-26T09:16:12.560000Z</time>
      </trkpt>
      <trkpt lat="38.818287" lon="121.14837">
        <ele>44.30482</ele>
        <time>2014-04-26T09:16:16.525000Z</time>
      </trkpt>
      <trkpt lat="38.818386" lon="121.14838">
        <ele>44.75654</ele>
        <time>2014-04-26T09:16:20.490000Z</time>
      </trkpt>
      <trkpt lat="38.818478" lon="121.148384">
        <ele>45.66381</ele>
        <time>2014-04-26T09:16:24.455000Z</time>
      </trkpt>
      <trkpt lat="38.818584" lon="121.14839">
        <ele>46.073563</ele>
        <time>2014-04-26T09:16:28.420000Z</time>
      </trkpt>
      <trkpt lat="38.818676" lon="121.14835">
        <ele>45.415638</ele>
        <time>2014-04-26T09:16:32.385000Z</time>
      </trkpt>
      <trkpt lat="38.818752" lon="121.14826">
        <ele>44.772392</ele>
        <time>2014-04-26T09:16:36.350000Z</time>
      </trkpt>
      <trkpt lat="38.81879" lon="121.14814">
        <ele>45.124866</ele>
        <time>2014-04-26T09:16:40.315000Z</time>
      </trkpt>
      <trkpt lat="38.818798" lon="121.14801">
        <ele>45.351097</ele>
        <time>2014-04-26T09:16:44.280000Z</time>
      </trkpt>
      <trkpt lat="38.818806" lon="121.14789">
        <ele>44.213768</ele>
        <time>2014-04-26T09:16:48.245000Z</time>
      </trkpt>
      <trkpt lat="38.818817" lon="121.14775">
        <ele>42.49376</ele>
        <time>2014-04-26T09:16:52.210000Z</time>
      </trkpt>
      <trkpt lat="38.818825" lon="121.14763">
        <ele>41.391785</ele>
        <time>2014-04-26T09:16:56.175000Z</time>
      </trkpt>
      <trkpt lat="38.818806" lon="121.14751">
        <ele>40.916683</ele>
        <time>2014-04-26T09:17:00.140000Z</time>
      </trkpt>
      <trkpt lat="38.818737" lon="121.1474">
        <ele>40.58708</ele>
        <time>2014-04-26T09:17:04.105000Z</time>
      </trkpt>
      <trkpt lat="38.818653" lon="121.14734">
        <ele>40.320225</ele>
        <time>2014-04-26T09:17:08.070000Z</time>
      </trkpt>
      <trkpt lat="38.81856" lon="121.14729">
        <ele>40.460064</ele>
        <time>2014-04-26T09:17:12.035000Z</time>
      </trkpt>
      <trkpt lat="38.81845" lon="121.14726">
        <ele>41.830074</ele>
        <time>2014-04-26T09:17:16Z</time>
      </trkpt>
      <trkpt lat="38.818348" lon="121.147255">
        <ele>44.53486</ele>
        <time>2014-04-26T09:17:19.965000Z</time>
      </trkpt>
      <trkpt lat="38.818245" lon="121.14725">
        <ele>47.26192</ele>
        <time>2014-04-26T09:17:23.930000Z</time>
      </trkpt>
      <trkpt lat="38.818146" lon="121.14724">
        <ele>48.88199</ele>
        <time>2014-04-26T09:17:27.895000Z</time>
      </trkpt>
      <trkpt lat="38.818047" lon="121.14723">
        <ele>49.467323</ele>
        <time>2014-04-26T09:17:31.860000Z</time>
      </trkpt>
      <trkpt lat="38.817947" lon="121.14723">
        <ele>49.27345</ele>
        <time>2014-04-26T09:17:35.825000Z</time>
      </trkpt>
      <trkpt lat="38.817844" lon="121.147224">
        <ele>48.654545</ele>
        <time>2014-04-26T09:17:39.790000Z</time>
      </trkpt>
      <trkpt lat="38.817734" lon="121.14721">
        <ele>48.025074</ele>
        <time>2014-04-26T09:17:43.755000Z</time>
      </trkpt>
      <trkpt lat="38.817627" lon="121.1472">
        <ele>47.668236</ele>
        <time>2014-04-26T09:17:47.720000Z</time>
      </trkpt>
      <trkpt lat="38.817524" lon="121.1472">
        <ele>47.411472</ele>
        <time>2014-04-26T09:17:51.685000Z</time>
      </trkpt>
      <trkpt lat="38.81742" lon="121.147194">
        <ele>46.952457</ele>
        <time>2014-04-26T09:17:55.650000Z</time>
      </trkpt>
      <trkpt lat="38.817318" lon="121.14721">
        <ele>46.087547</ele>
        <time>2014-04-26T09:17:59.615000Z</time>
      </trkpt>
      <trkpt lat="38.817223" lon="121.14728">
        <ele>44.938244</ele>
        <time>2014-04-26T09:18:03.580000Z</time>
      </trkpt>
      <trkpt lat="38.81717" lon="121.14737">
        <ele>44.105995</ele>
        <time>2014-04-26T09:18:07.545000Z</time>
      </trkpt>
      <trkpt lat="38.81717" lon="121.14737">
        <ele>44.01328</ele>
        <time>2014-04-26T09:18:11.510000Z</time>
      </trkpt>
      <trkpt lat="38.81716" lon="121.1475">
        <ele>44.88907</ele>
        <time>2014-04-26T09:18:15.475000Z</time>
      </trkpt>
      <trkpt lat="38.81718" lon="121.14763">
        <ele>46.987274</ele>
        <time>2014-04-26T09:18:19.440000Z</time>
      </trkpt>
      <trkpt lat="38.817184" lon="121.14777">
        <ele>49.53274</ele>
        <time>2014-04-26T09:18:23.405000Z</time>
      </trkpt>
      <trkpt lat="38.817192" lon="121.14791">
        <ele>51.251846</ele>
        <time>2014-04-26T09:18:27.370000Z</time>
      </trkpt>
      <trkpt lat="38.817215" lon="121.148056">
        <ele>51.865845</ele>
        <time>2014-04-26T09:18:31.335000Z</time>
      </trkpt>
      <trkpt lat="38.817272" lon="121.14815">
        <ele>51.172405</ele>
        <time>2014-04-26T09:18:35.300000Z</time>
      </trkpt>
      <trkpt lat="38.817368" lon="121.14819">
        <ele>49.256615</ele>
        <time>2014-04-26T09:18:39.265000Z</time>
      </trkpt>
      <trkpt lat="38.81748" lon="121.14824">
        <ele>48.14486</ele>
        <time>2014-04-26T09:18:43.230000Z</time>
      </trkpt>
      <trkpt lat="38.817585" lon="121.148254">
        <ele>49.31188</ele>
        <time>2014-04-26T09:18:47.195000Z</time>
      </trkpt>
      <trkpt lat="38.81768" lon="121.148285">
        <ele>50.903774</ele>
        <time>2014-04-26T09:18:51.160000Z</time>
      </trkpt>
      <trkpt lat="38.817783" lon="121.14832">
        <ele>50.776806</ele>
        <time>2014-04-26T09:18:55.125000Z</time>
      </trkpt>
      <trkpt lat="38.81789" lon="121.14834">
        <ele>49.336983</ele>
        <time>2014-04-26T09:18:59.090000Z</time>
      </trkpt>
      <trkpt lat="38.817993" lon="121.148346">
        <ele>47.610638</ele>
        <time>2014-04-26T09:19:03.055000Z</time>
      </trkpt>
      <trkpt lat="38.818096" lon="121.14836">
        <ele>45.965096</ele>
        <time>2014-04-26T09:19:07.020000Z</time>
      </trkpt>
      <trkpt lat="38.818203" lon="121.14839">
        <ele>44.810616</ele>
        <time>2014-04-26T09:19:10.985000Z</time>
      </trkpt>
      <trkpt lat="38.81831" lon="121.14841">
        <ele>44.863327</ele>
        <time>2014-04-26T09:19:14.950000Z</time>
      </trkpt>
      <trkpt lat="38.81841" lon="121.14841">
        <ele>46.12508</ele>
        <time>2014-04-26T09:19:18.915000Z</time>
      </trkpt>
      <trkpt lat="38.81852" lon="121.14841">
        <ele>47.614277</ele>
        <time>2014-04-26T09:19:22.880000Z</time>
      </trkpt>
      <trkpt lat="38.818623" lon="121.148415">
        <ele>48.291782</ele>
        <time>2014-04-26T09:19:26.845000Z</time>
      </trkpt>
      <trkpt lat="38.818718" lon="121.14832">
        <ele>48.113327</ele>
        <time>2014-04-26T09:19:30.810000Z</time>
      </trkpt>
      <trkpt lat="38.818783" lon="121.14822">
        <ele>47.45381</ele>
        <time>2014-04-26T09:19:34.775000Z</time>
      </trkpt>
      <trkpt lat="38.818806" lon="121.14809">
        <ele>46.364765</ele>
        <time>2014-04-26T09:19:38.740000Z</time>
      </trkpt>
      <trkpt lat="38.818813" lon="121.14796">
        <ele>44.91398</ele>
        <time>2014-04-26T09:19:42.705000Z</time>
      </trkpt>
      <trkpt lat="38.81881" lon="121.14781">
        <ele>43.48858</ele>
        <time>2014-04-26T09:19:46.670000Z</time>
      </trkpt>
      <trkpt lat="38.818813" lon="121.14768">
        <ele>42.388603</ele>
        <time>2014-04-26T09:19:50.635000Z</time>
      </trkpt>
      <trkpt lat="38.818817" lon="121.14755">
        <ele>41.52299</ele>
        <time>2014-04-26T09:19:54.600000Z</time>
      </trkpt>
      <trkpt lat="38.818764" lon="121.147446">
        <ele>40.809296</ele>
        <time>2014-04-26T09:19:58.565000Z</time>
      </trkpt>
      <trkpt lat="38.81867" lon="121.14738">
        <ele>40.34303</ele>
        <time>2014-04-26T09:20:02.530000Z</time>
      </trkpt>
      <trkpt lat="38.818577" lon="121.14735">
        <ele>39.53359</ele>
        <time>2014-04-26T09:20:06.495000Z</time>
      </trkpt>
      <trkpt lat="38.818478" lon="121.147285">
        <ele>37.880756</ele>
        <time>2014-04-26T09:20:10.460000Z</time>
      </trkpt>
      <trkpt lat="38.818367" lon="121.147255">
        <ele>37.86693</ele>
        <time>2014-04-26T09:20:14.425000Z</time>
      </trkpt>
      <trkpt lat="38.818275" lon="121.14724">
        <ele>41.753418</ele>
        <time>2014-04-26T09:20:18.390000Z</time>
      </trkpt>
      <trkpt lat="38.818165" lon="121.147224">
        <ele>47.165966</ele>
        <time>2014-04-26T09:20:22.355000Z</time>
      </trkpt>
      <trkpt lat="38.818077" lon="121.14722">
        <ele>50.61375</ele>
        <time>2014-04-26T09:20:26.320000Z</time>
      </trkpt>
      <trkpt lat="38.817974" lon="121.147224">
        <ele>51.678997</ele>
        <time>2014-04-26T09:20:30.285000Z</time>
      </trkpt>
      <trkpt lat="38.817875" lon="121.147224">
        <ele>51.52507</ele>
        <time>2014-04-26T09:20:34.250000Z</time>
      </trkpt>
      <trkpt lat="38.817772" lon="121.14721">
        <ele>51.07774</ele>
        <time>2014-04-26T09:20:38.215000Z</time>
      </trkpt>
      <trkpt lat="38.817673" lon="121.14721">
        <ele>50.705833</ele>
        <time>2014-04-26T09:20:42.180000Z</time>
      </trkpt>
      <trkpt lat="38.81757" lon="121.14721">
        <ele>50.510777</ele>
        <time>2014-04-26T09:20:46.145000Z</time>
      </trkpt>
      <trkpt lat="38.817463" lon="121.14721">
        <ele>50.240253</ele>
        <time>2014-04-26T09:20:50.110000Z</time>
      </trkpt>
      <trkpt lat="38.817356" lon="121.1472">
        <ele>49.28844</ele>
        <time>2014-04-26T09:20:54.075000Z</time>
      </trkpt>
      <trkpt lat="38.817257" lon="121.14723">
        <ele>47.719273</ele>
        <time>2014-04-26T09:20:58.040000Z</time>
      </trkpt>
      <trkpt lat="38.81717" lon="121.147316">
        <ele>46.668972</ele>
        <time>2014-04-26T09:21:02.005000Z</time>
      </trkpt>
      <trkpt lat="38.817127" lon="121.147446">
        <ele>47.084213</ele>
        <time>2014-04-26T09:21:05.970000Z</time>
      </trkpt>
      <trkpt lat="38.81713" lon="121.14758">
        <ele>48.524185</ele>
        <time>2014-04-26T09:21:09.935000Z</time>
      </trkpt>
      <trkpt lat="38.817135" lon="121.14771">
        <ele>49.79807</ele>
        <time>2014-04-26T09:21:13.900000Z</time>
      </trkpt>
      <trkpt lat="38.817135" lon="121.14786">
        <ele>50.222393</ele>
        <time>2014-04-26T09:21:17.865000Z</time>
      </trkpt>
      <trkpt lat="38.81715" lon="121.147995">
        <ele>49.737656</ele>
        <time>2014-04-26T09:21:21.830000Z</time>
      </trkpt>
      <trkpt lat="38.817204" lon="121.14814">
        <ele>48.66223</ele>
        <time>2014-04-26T09:21:25.795000Z</time>
      </trkpt>
      <trkpt lat="38.81727" lon="121.14822">
        <ele>47.364624</ele>
        <time>2014-04-26T09:21:29.760000Z</time>
      </trkpt>
      <trkpt lat="38.81734" lon="121.148285">
        <ele>46.08563</ele>
        <time>2014-04-26T09:21:33.725000Z</time>
      </trkpt>
      <trkpt lat="38.817444" lon="121.14831">
        <ele>45.366356</ele>
        <time>2014-04-26T09:21:37.690000Z</time>
      </trkpt>
      <trkpt lat="38.817543" lon="121.14833">
        <ele>45.51729</ele>
        <time>2014-04-26T09:21:41.655000Z</time>
      </trkpt>
      <trkpt lat="38.817657" lon="121.148346">
        <ele>45.982803</ele>
        <time>2014-04-26T09:21:45.620000Z</time>
      </trkpt>
      <trkpt lat="38.817776" lon="121.148346">
        <ele>46.17949</ele>
        <time>2014-04-26T09:21:49.585000Z</time>
      </trkpt>
      <trkpt lat="38.81789" lon="121.148346">
        <ele>46.0455</ele>
        <time>2014-04-26T09:21:53.550000Z</time>
      </trkpt>
      <trkpt lat="38.818" lon="121.14835">
        <ele>45.801968</ele>
        <time>2014-04-26T09:21:57.515000Z</time>
      </trkpt>
      <trkpt lat="38.818108" lon="121.14835">
        <ele>46.357784</ele>
        <time>2014-04-26T09:22:01.480000Z</time>
      </trkpt>
      <trkpt lat="38.818226" lon="121.148384">
        <ele>48.17467</ele>
        <time>2014-04-26T09:22:05.445000Z</time>
      </trkpt>
      <trkpt lat="38.818333" lon="121.14839">
        <ele>49.09355</ele>
        <time>2014-04-26T09:22:09.410000Z</time>
      </trkpt>
      <trkpt lat="38.818443" lon="121.1484">
        <ele>47.40192</ele>
        <time>2014-04-26T09:22:13.375000Z</time>
      </trkpt>
      <trkpt lat="38.818554" lon="121.14841">
        <ele>44.898655</ele>
        <time>2014-04-26T09:22:17.340000Z</time>
      </trkpt>
      <trkpt lat="38.818657" lon="121.1484">
        <ele>43.696106</ele>
        <time>2014-04-26T09:22:21.305000Z</time>
      </trkpt>
      <trkpt lat="38.81873" lon="121.14833">
        <ele>43.652153</ele>
        <time>2014-04-26T09:22:25.270000Z</time>
      </trkpt>
      <trkpt lat="38.81878" lon="121.14823">
        <ele>43.90245</ele>
        <time>2014-04-26T09:22:29.235000Z</time>
      </trkpt>
      <trkpt lat="38.818806" lon="121.14809">
        <ele>43.984768</ele>
        <time>2014-04-26T09:22:33.200000Z</time>
      </trkpt>
      <trkpt lat="38.818813" lon="121.14795">
        <ele>43.954937</ele>
        <time>2014-04-26T09:22:37.165000Z</time>
      </trkpt>
      <trkpt lat="38.81881" lon="121.14783">
        <ele>44.171925</ele>
        <time>2014-04-26T09:22:41.130000Z</time>
      </trkpt>
      <trkpt lat="38.818813" lon="121.1477">
        <ele>44.782356</ele>
        <time>2014-04-26T09:22:45.095000Z</time>
      </trkpt>
      <trkpt lat="38.818825" lon="121.14756">
        <ele>44.750126</ele>
        <time>2014-04-26T09:22:49.060000Z</time>
      </trkpt>
      <trkpt lat="38.818783" lon="121.147446">
        <ele>43.400875</ele>
        <time>2014-04-26T09:22:53.025000Z</time>
      </trkpt>
      <trkpt lat="38.818695" lon="121.14737">
        <ele>42.262337</ele>
        <time>2014-04-26T09:22:56.990000Z</time>
      </trkpt>
      <trkpt lat="38.81859" lon="121.14732">
        <ele>43.045788</ele>
        <time>2014-04-26T09:23:00.955000Z</time>
      </trkpt>
      <trkpt lat="38.81848" lon="121.14729">
        <ele>45.165287</ele>
        <time>2014-04-26T09:23:04.920000Z</time>
      </trkpt>
      <trkpt lat="38.818382" lon="121.14726">
        <ele>47.302246</ele>
        <time>2014-04-26T09:23:08.885000Z</time>
      </trkpt>
      <trkpt lat="38.81828" lon="121.14725">
        <ele>48.688618</ele>
        <time>2014-04-26T09:23:12.850000Z</time>
      </trkpt>
      <trkpt lat="38.818165" lon="121.14724">
        <ele>49.216232</ele>
        <time>2014-04-26T09:23:16.815000Z</time>
      </trkpt>
      <trkpt lat="38.81806" lon="121.147224">
        <ele>49.179382</ele>
        <time>2014-04-26T09:23:20.780000Z</time>
      </trkpt>
      <trkpt lat="38.81796" lon="121.14723">
        <ele>48.803513</ele>
        <time>2014-04-26T09:23:24.745000Z</time>
      </trkpt>
      <trkpt lat="38.817867" lon="121.14723">
        <ele>48.28899</ele>
        <time>2014-04-26T09:23:28.710000Z</time>
      </trkpt>
      <trkpt lat="38.81776" lon="121.147224">
        <ele>48.102894</ele>
        <time>2014-04-26T09:23:32.675000Z</time>
      </trkpt>
      <trkpt lat="38.817657" lon="121.147224">
        <ele>48.328262</ele>
        <time>2014-04-26T09:23:36.640000Z</time>
      </trkpt>
      <trkpt lat="38.81755" lon="121.14722">
        <ele>48.69098</ele>
        <time>2014-04-26T09:23:40.605000Z</time>
      </trkpt>
      <trkpt lat="38.817448" lon="121.14721">
        <ele>48.690807</ele>
        <time>2014-04-26T09:23:44.570000Z</time>
      </trkpt>
      <trkpt lat="38.817337" lon="121.1472">
        <ele>48.169384</ele>
        <time>2014-04-26T09:23:48.535000Z</time>
      </trkpt>
      <trkpt lat="38.81724" lon="121.14724">
        <ele>47.568645</ele>
        <time>2014-04-26T09:23:52.500000Z</time>
      </trkpt>
      <trkpt lat="38.817173" lon="121.147316">
        <ele>47.63</ele>
        <time>2014-04-26T09:23:56.465000Z</time>
      </trkpt>
      <trkpt lat="38.817142" lon="121.14743">
        <ele>48.64663</ele>
        <time>2014-04-26T09:24:00.430000Z</time>
      </trkpt>
      <trkpt lat="38.81715" lon="121.14758">
        <ele>49.874588</ele>
        <time>2014-04-26T09:24:04.395000Z</time>
      </trkpt>
      <trkpt lat="38.817142" lon="121.14773">
        <ele>50.380405</ele>
        <time>2014-04-26T09:24:08.360000Z</time>
      </trkpt>
      <trkpt lat="38.81715" lon="121.14786">
        <ele>50.252697</ele>
        <time>2014-04-26T09:24:12.325000Z</time>
      </trkpt>
      <trkpt lat="38.817165" lon="121.14799">
        <ele>50.099503</ele>
        <time>2014-04-26T09:24:16.290000Z</time>
      </trkpt>
      <trkpt lat="38.817215" lon="121.14811">
        <ele>50.201553</ele>
        <time>2014-04-26T09:24:20.255000Z</time>
      </trkpt>
      <trkpt lat="38.81731" lon="121.14819">
        <ele>50.44554</ele>
        <time>2014-04-26T09:24:24.220000Z</time>
      </trkpt>
      <trkpt lat="38.817394" lon="121.14825">
        <ele>50.65024</ele>
        <time>2014-04-26T09:24:28.185000Z</time>
      </trkpt>
      <trkpt lat="38.81749" lon="121.14826">
        <ele>50.791206</ele>
        <time>2014-04-26T09:24:32.150000Z</time>
      </trkpt>
      <trkpt lat="38.817596" lon="121.14828">
        <ele>50.473213</ele>
        <time>2014-04-26T09:24:36.115000Z</time>
      </trkpt>
      <trkpt lat="38.817703" lon="121.148285">
        <ele>49.31468</ele>
        <time>2014-04-26T09:24:40.080000Z</time>
      </trkpt>
      <trkpt lat="38.81781" lon="121.14831">
        <ele>47.73151</ele>
        <time>2014-04-26T09:24:44.045000Z</time>
      </trkpt>
      <trkpt lat="38.817913" lon="121.148315">
        <ele>46.47151</ele>
        <time>2014-04-26T09:24:48.010000Z</time>
      </trkpt>
      <trkpt lat="38.818024" lon="121.14834">
        <ele>46.24943</ele>
        <time>2014-04-26T09:24:51.975000Z</time>
      </trkpt>
      <trkpt lat="38.818134" lon="121.14836">
        <ele>47.341385</ele>
        <time>2014-04-26T09:24:55.940000Z</time>
      </trkpt>
      <trkpt lat="38.818226" lon="121.14836">
        <ele>48.891975</ele>
        <time>2014-04-26T09:24:59.905000Z</time>
      </trkpt>
      <trkpt lat="38.81834" lon="121.14837">
        <ele>49.25941</ele>
        <time>2014-04-26T09:25:03.870000Z</time>
      </trkpt>
      <trkpt lat="38.81843" lon="121.14837">
        <ele>47.936314</ele>
        <time>2014-04-26T09:25:07.835000Z</time>
      </trkpt>
      <trkpt lat="38.81854" lon="121.148384">
        <ele>46.358982</ele>
        <time>2014-04-26T09:25:11.800000Z</time>
      </trkpt>
      <trkpt lat="38.81864" lon="121.14839">
        <ele>45.82244</ele>
        <time>2014-04-26T09:25:15.765000Z</time>
      </trkpt>
      <trkpt lat="38.818733" lon="121.148315">
        <ele>45.7236</ele>
        <time>2014-04-26T09:25:19.730000Z</time>
      </trkpt>
      <trkpt lat="38.818787" lon="121.14819">
        <ele>45.05038</ele>
        <time>2014-04-26T09:25:23.695000Z</time>
      </trkpt>
      <trkpt lat="38.818798" lon="121.148056">
        <ele>43.82095</ele>
        <time>2014-04-26T09:25:27.660000Z</time>
      </trkpt>
      <trkpt lat="38.818794" lon="121.14793">
        <ele>42.81881</ele>
        <time>2014-04-26T09:25:31.625000Z</time>
      </trkpt>
      <trkpt lat="38.8188" lon="121.1478">
        <ele>42.704926</ele>
        <time>2014-04-26T09:25:35.590000Z</time>
      </trkpt>
      <trkpt lat="38.8188" lon="121.14768">
        <ele>43.401173</ele>
        <time>2014-04-26T09:25:39.555000Z</time>
      </trkpt>
      <trkpt lat="38.818806" lon="121.147545">
        <ele>44.223495</ele>
        <time>2014-04-26T09:25:43.520000Z</time>
      </trkpt>
      <trkpt lat="38.81878" lon="121.14742">
        <ele>44.473278</ele>
        <time>2014-04-26T09:25:47.485000Z</time>
      </trkpt>
      <trkpt lat="38.818687" lon="121.147354">
        <ele>44.02525</ele>
        <time>2014-04-26T09:25:51.450000Z</time>
      </trkpt>
      <trkpt lat="38.818584" lon="121.14732">
        <ele>43.381283</ele>
        <time>2014-04-26T09:25:55.415000Z</time>
      </trkpt>
      <trkpt lat="38.818478" lon="121.1473">
        <ele>43.09826</ele>
        <time>2014-04-26T09:25:59.380000Z</time>
      </trkpt>
      <trkpt lat="38.818375" lon="121.14728">
        <ele>43.941856</ele>
        <time>2014-04-26T09:26:03.345000Z</time>
      </trkpt>
      <trkpt lat="38.818264" lon="121.147255">
        <ele>46.142277</ele>
        <time>2014-04-26T09:26:07.310000Z</time>
      </trkpt>
      <trkpt lat="38.818153" lon="121.14725">
        <ele>48.33341</ele>
        <time>2014-04-26T09:26:11.275000Z</time>
      </trkpt>
      <trkpt lat="38.818066" lon="121.14723">
        <ele>48.848415</ele>
        <time>2014-04-26T09:26:15.240000Z</time>
      </trkpt>
      <trkpt lat="38.817955" lon="121.147224">
        <ele>47.701847</ele>
        <time>2014-04-26T09:26:19.205000Z</time>
      </trkpt>
      <trkpt lat="38.817856" lon="121.14723">
        <ele>46.22742</ele>
        <time>2014-04-26T09:26:23.170000Z</time>
      </trkpt>
      <trkpt lat="38.81774" lon="121.14723">
        <ele>45.217373</ele>
        <time>2014-04-26T09:26:27.135000Z</time>
      </trkpt>
      <trkpt lat="38.817635" lon="121.147224">
        <ele>44.336666</ele>
        <time>2014-04-26T09:26:31.100000Z</time>
      </trkpt>
      <trkpt lat="38.81752" lon="121.14722">
        <ele>43.60968</ele>
        <time>2014-04-26T09:26:35.065000Z</time>
      </trkpt>
      <trkpt lat="38.817417" lon="121.14722">
        <ele>43.3724</ele>
        <time>2014-04-26T09:26:39.030000Z</time>
      </trkpt>
      <trkpt lat="38.817314" lon="121.147224">
        <ele>43.496822</ele>
        <time>2014-04-26T09:26:42.995000Z</time>
      </trkpt>
      <trkpt lat="38.817223" lon="121.14728">
        <ele>43.406376</ele>
        <time>2014-04-26T09:26:46.960000Z</time>
      </trkpt>
      <trkpt lat="38.817158" lon="121.14736">
        <ele>42.836773</ele>
        <time>2014-04-26T09:26:50.925000Z</time>
      </trkpt>
      <trkpt lat="38.817154" lon="121.14748">
        <ele>43.41135</ele>
        <time>2014-04-26T09:26:54.890000Z</time>
      </trkpt>
      <trkpt lat="38.817154" lon="121.14762">
        <ele>46.328106</ele>
        <time>2014-04-26T09:26:58.855000Z</time>
      </trkpt>
      <trkpt lat="38.81712" lon="121.14777">
        <ele>49.809402</ele>
        <time>2014-04-26T09:27:02.820000Z</time>
      </trkpt>
      <trkpt lat="38.81711" lon="121.147896">
        <ele>51.94263</ele>
        <time>2014-04-26T09:27:06.785000Z</time>
      </trkpt>
      <trkpt lat="38.81713" lon="121.14802">
        <ele>52.77659</ele>
        <time>2014-04-26T09:27:10.750000Z</time>
      </trkpt>
      <trkpt lat="38.81715" lon="121.14813">
        <ele>52.63294</ele>
        <time>2014-04-26T09:27:14.715000Z</time>
      </trkpt>
      <trkpt lat="38.81722" lon="121.14822">
        <ele>51.83666</ele>
        <time>2014-04-26T09:27:18.680000Z</time>
      </trkpt>
      <trkpt lat="38.817307" lon="121.14828">
        <ele>50.91159</ele>
        <time>2014-04-26T09:27:22.645000Z</time>
      </trkpt>
      <trkpt lat="38.81741" lon="121.1483">
        <ele>49.979122</ele>
        <time>2014-04-26T09:27:26.610000Z</time>
      </trkpt>
      <trkpt lat="38.817524" lon="121.14831">
        <ele>48.886013</ele>
        <time>2014-04-26T09:27:30.575000Z</time>
      </trkpt>
      <trkpt lat="38.81762" lon="121.148315">
        <ele>47.786674</ele>
        <time>2014-04-26T09:27:34.540000Z</time>
      </trkpt>
      <trkpt lat="38.817734" lon="121.14833">
        <ele>46.897957</ele>
        <time>2014-04-26T09:27:38.505000Z</time>
      </trkpt>
      <trkpt lat="38.81783" lon="121.14835">
        <ele>46.347347</ele>
        <time>2014-04-26T09:27:42.470000Z</time>
      </trkpt>
      <trkpt lat="38.817932" lon="121.14836">
        <ele>45.686012</ele>
        <time>2014-04-26T09:27:46.435000Z</time>
      </trkpt>
      <trkpt lat="38.81802" lon="121.14837">
        <ele>44.280033</ele>
        <time>2014-04-26T09:27:50.400000Z</time>
      </trkpt>
      <trkpt lat="38.818115" lon="121.14837">
        <ele>42.654465</ele>
        <time>2014-04-26T09:27:54.365000Z</time>
      </trkpt>
      <trkpt lat="38.818226" lon="121.148384">
        <ele>41.748096</ele>
        <time>2014-04-26T09:27:58.330000Z</time>
      </trkpt>
      <trkpt lat="38.818317" lon="121.14839">
        <ele>41.83332</ele>
        <time>2014-04-26T09:28:02.295000Z</time>
      </trkpt>
      <trkpt lat="38.81843" lon="121.14841">
        <ele>42.600525</ele>
        <time>2014-04-26T09:28:06.260000Z</time>
      </trkpt>
      <trkpt lat="38.818546" lon="121.14839">
        <ele>43.381393</ele>
        <time>2014-04-26T09:28:10.225000Z</time>
      </trkpt>
      <trkpt lat="38.81866" lon="121.14837">
        <ele>43.689835</ele>
        <time>2014-04-26T09:28:14.190000Z</time>
      </trkpt>
      <trkpt lat="38.818752" lon="121.14828">
        <ele>43.381332</ele>
        <time>2014-04-26T09:28:18.155000Z</time>
      </trkpt>
      <trkpt lat="38.8188" lon="121.14816">
        <ele>42.56545</ele>
        <time>2014-04-26T09:28:22.120000Z</time>
      </trkpt>
      <trkpt lat="38.818817" lon="121.148026">
        <ele>41.69091</ele>
        <time>2014-04-26T09:28:26.085000Z</time>
      </trkpt>
      <trkpt lat="38.818813" lon="121.14791">
        <ele>41.16386</ele>
        <time>2014-04-26T09:28:30.050000Z</time>
      </trkpt>
      <trkpt lat="38.81882" lon="121.14778">
        <ele>41.02731</ele>
        <time>2014-04-26T09:28:34.015000Z</time>
      </trkpt>
      <trkpt lat="38.81883" lon="121.14766">
        <ele>41.111366</ele>
        <time>2014-04-26T09:28:37.980000Z</time>
      </trkpt>
      <trkpt lat="38.818825" lon="121.14754">
        <ele>41.374737</ele>
        <time>2014-04-26T09:28:41.945000Z</time>
      </trkpt>
      <trkpt lat="38.818783" lon="121.14742">
        <ele>41.540737</ele>
        <time>2014-04-26T09:28:45.910000Z</time>
      </trkpt>
      <trkpt lat="38.818687" lon="121.147354">
        <ele>41.365395</ele>
        <time>2014-04-26T09:28:49.875000Z</time>
      </trkpt>
      <trkpt lat="38.818584" lon="121.147316">
        <ele>41.058514</ele>
        <time>2014-04-26T09:28:53.840000Z</time>
      </trkpt>
      <trkpt lat="38.81848" lon="121.14731">
        <ele>40.921543</ele>
        <time>2014-04-26T09:28:57.805000Z</time>
      </trkpt>
      <trkpt lat="38.818367" lon="121.14729">
        <ele>41.024975</ele>
        <time>2014-04-26T09:29:01.770000Z</time>
      </trkpt>
      <trkpt lat="38.81825" lon="121.14728">
        <ele>41.34355</ele>
        <time>2014-04-26T09:29:05.735000Z</time>
      </trkpt>
      <trkpt lat="38.81815" lon="121.14726">
        <ele>41.754215</ele>
        <time>2014-04-26T09:29:09.700000Z</time>
      </trkpt>
      <trkpt lat="38.818047" lon="121.14725">
        <ele>42.093983</ele>
        <time>2014-04-26T09:29:13.665000Z</time>
      </trkpt>
      <trkpt lat="38.81794" lon="121.14725">
        <ele>42.419693</ele>
        <time>2014-04-26T09:29:17.630000Z</time>
      </trkpt>
      <trkpt lat="38.817833" lon="121.14724">
        <ele>42.9684</ele>
        <time>2014-04-26T09:29:21.595000Z</time>
      </trkpt>
      <trkpt lat="38.817715" lon="121.147224">
        <ele>43.554512</ele>
        <time>2014-04-26T09:29:25.560000Z</time>
      </trkpt>
      <trkpt lat="38.817608" lon="121.14722">
        <ele>43.877567</ele>
        <time>2014-04-26T09:29:29.525000Z</time>
      </trkpt>
      <trkpt lat="38.81749" lon="121.14721">
        <ele>44.025116</ele>
        <time>2014-04-26T09:29:33.490000Z</time>
      </trkpt>
      <trkpt lat="38.81738" lon="121.1472">
        <ele>44.16978</ele>
        <time>2014-04-26T09:29:37.455000Z</time>
      </trkpt>
      <trkpt lat="38.817265" lon="121.147224">
        <ele>44.407944</ele>
        <time>2014-04-26T09:29:41.420000Z</time>
      </trkpt>
      <trkpt lat="38.817184" lon="121.1473">
        <ele>44.651546</ele>
        <time>2014-04-26T09:29:45.385000Z</time>
      </trkpt>
      <trkpt lat="38.817154" lon="121.14743">
        <ele>45.1905</ele>
        <time>2014-04-26T09:29:49.350000Z</time>
      </trkpt>
      <trkpt lat="38.81714" lon="121.14755">
        <ele>46.318813</ele>
        <time>2014-04-26T09:29:53.315000Z</time>
      </trkpt>
      <trkpt lat="38.817135" lon="121.147675">
        <ele>47.4785</ele>
        <time>2014-04-26T09:29:57.280000Z</time>
      </trkpt>
      <trkpt lat="38.817127" lon="121.147804">
        <ele>48.06006</ele>
        <time>2014-04-26T09:30:01.245000Z</time>
      </trkpt>
      <trkpt lat="38.817123" lon="121.14796">
        <ele>47.943863</ele>
        <time>2014-04-26T09:30:05.210000Z</time>
      </trkpt>
      <trkpt lat="38.81714" lon="121.1481">
        <ele>47.102654</ele>
        <time>2014-04-26T09:30:09.175000Z</time>
      </trkpt>
      <trkpt lat="38.8172" lon="121.14822">
        <ele>45.959293</ele>
        <time>2014-04-26T09:30:13.140000Z</time>
      </trkpt>
      <trkpt lat="38.817276" lon="121.14829">
        <ele>45.163353</ele>
        <time>2014-04-26T09:30:17.105000Z</time>
      </trkpt>
      <trkpt lat="38.817368" lon="121.148315">
        <ele>45.84441</ele>
        <time>2014-04-26T09:30:21.070000Z</time>
      </trkpt>
      <trkpt lat="38.81746" lon="121.14833">
        <ele>48.356052</ele>
        <time>2014-04-26T09:30:25.035000Z</time>
      </trkpt>
      <trkpt lat="38.817562" lon="121.14833">
        <ele>50.652237</ele>
        <time>2014-04-26T09:30:29Z</time>
      </trkpt>
      <trkpt lat="38.81766" lon="121.14834">
        <ele>50.971027</ele>
        <time>2014-04-26T09:30:32.965000Z</time>
      </trkpt>
      <trkpt lat="38.81778" lon="121.14834">
        <ele>50.17222</ele>
        <time>2014-04-26T09:30:36.930000Z</time>
      </trkpt>
      <trkpt lat="38.817875" lon="121.14835">
        <ele>49.57965</ele>
        <time>2014-04-26T09:30:40.895000Z</time>
      </trkpt>
      <trkpt lat="38.817978" lon="121.14836">
        <ele>49.52526</ele>
        <time>2014-04-26T09:30:44.860000Z</time>
      </trkpt>
      <trkpt lat="38.81807" lon="121.14837">
        <ele>49.273617</ele>
        <time>2014-04-26T09:30:48.825000Z</time>
      </trkpt>
      <trkpt lat="38.818176" lon="121.14838">
        <ele>48.26704</ele>
        <time>2014-04-26T09:30:52.790000Z</time>
      </trkpt>
      <trkpt lat="38.818268" lon="121.148384">
        <ele>47.154285</ele>
        <time>2014-04-26T09:30:56.755000Z</time>
      </trkpt>
      <trkpt lat="38.818363" lon="121.148384">
        <ele>46.645107</ele>
        <time>2014-04-26T09:31:00.720000Z</time>
      </trkpt>
      <trkpt lat="38.818455" lon="121.14839">
        <ele>46.622932</ele>
        <time>2014-04-26T09:31:04.685000Z</time>
      </trkpt>
      <trkpt lat="38.81857" lon="121.14839">
        <ele>46.791443</ele>
        <time>2014-04-26T09:31:08.650000Z</time>
      </trkpt>
      <trkpt lat="38.81867" lon="121.14835">
        <ele>47.44356</ele>
        <time>2014-04-26T09:31:12.615000Z</time>
      </trkpt>
      <trkpt lat="38.818752" lon="121.14826">
        <ele>48.831635</ele>
        <time>2014-04-26T09:31:16.580000Z</time>
      </trkpt>
      <trkpt lat="38.8188" lon="121.14816">
        <ele>50.47872</ele>
        <time>2014-04-26T09:31:20.545000Z</time>
      </trkpt>
      <trkpt lat="38.818817" lon="121.14804">
        <ele>51.556446</ele>
        <time>2014-04-26T09:31:24.510000Z</time>
      </trkpt>
      <trkpt lat="38.818825" lon="121.1479">
        <ele>50.846386</ele>
        <time>2014-04-26T09:31:28.475000Z</time>
      </trkpt>
      <trkpt lat="38.818825" lon="121.147766">
        <ele>47.949833</ele>
        <time>2014-04-26T09:31:32.440000Z</time>
      </trkpt>
      <trkpt lat="38.81882" lon="121.14762">
        <ele>44.56646</ele>
        <time>2014-04-26T09:31:36.405000Z</time>
      </trkpt>
      <trkpt lat="38.818817" lon="121.14751">
        <ele>42.509823</ele>
        <time>2014-04-26T09:31:40.370000Z</time>
      </trkpt>
      <trkpt lat="38.81876" lon="121.147385">
        <ele>41.91234</ele>
        <time>2014-04-26T09:31:44.335000Z</time>
      </trkpt>
      <trkpt lat="38.818657" lon="121.14732">
        <ele>42.04772</ele>
        <time>2014-04-26T09:31:48.300000Z</time>
      </trkpt>
      <trkpt lat="38.81857" lon="121.14729">
        <ele>42.264217</ele>
        <time>2014-04-26T09:31:52.265000Z</time>
      </trkpt>
      <trkpt lat="38.818462" lon="121.14728">
        <ele>42.37824</ele>
        <time>2014-04-26T09:31:56.230000Z</time>
      </trkpt>
      <trkpt lat="38.818356" lon="121.14725">
        <ele>42.91217</ele>
        <time>2014-04-26T09:32:00.195000Z</time>
      </trkpt>
      <trkpt lat="38.81825" lon="121.14723">
        <ele>44.220848</ele>
        <time>2014-04-26T09:32:04.160000Z</time>
      </trkpt>
      <trkpt lat="38.81814" lon="121.147224">
        <ele>45.68272</ele>
        <time>2014-04-26T09:32:08.125000Z</time>
      </trkpt>
      <trkpt lat="38.81803" lon="121.147224">
        <ele>46.923473</ele>
        <time>2014-04-26T09:32:12.090000Z</time>
      </trkpt>
      <trkpt lat="38.817913" lon="121.147224">
        <ele>48.027775</ele>
        <time>2014-04-26T09:32:16.055000Z</time>
      </trkpt>
      <trkpt lat="38.8178" lon="121.147224">
        <ele>48.56255</ele>
        <time>2014-04-26T09:32:20.020000Z</time>
      </trkpt>
      <trkpt lat="38.81771" lon="121.147224">
        <ele>48.020206</ele>
        <time>2014-04-26T09:32:23.985000Z</time>
      </trkpt>
      <trkpt lat="38.817608" lon="121.147224">
        <ele>46.786957</ele>
        <time>2014-04-26T09:32:27.950000Z</time>
      </trkpt>
      <trkpt lat="38.8175" lon="121.14722">
        <ele>45.62604</ele>
        <time>2014-04-26T09:32:31.915000Z</time>
      </trkpt>
      <trkpt lat="38.817398" lon="121.14722">
        <ele>44.66194</ele>
        <time>2014-04-26T09:32:35.880000Z</time>
      </trkpt>
      <trkpt lat="38.817287" lon="121.14723">
        <ele>43.774704</ele>
        <time>2014-04-26T09:32:39.845000Z</time>
      </trkpt>
      <trkpt lat="38.817196" lon="121.1473">
        <ele>43.081306</ele>
        <time>2014-04-26T09:32:43.810000Z</time>
      </trkpt>
      <trkpt lat="38.81715" lon="121.1474">
        <ele>42.61388</ele>
        <time>2014-04-26T09:32:47.775000Z</time>
      </trkpt>
      <trkpt lat="38.81715" lon="121.14755">
        <ele>43.23392</ele>
        <time>2014-04-26T09:32:51.740000Z</time>
      </trkpt>
      <trkpt lat="38.817142" lon="121.14768">
        <ele>46.079327</ele>
        <time>2014-04-26T09:32:55.705000Z</time>
      </trkpt>
      <trkpt lat="38.81714" lon="121.147804">
        <ele>50.05983</ele>
        <time>2014-04-26T09:32:59.670000Z</time>
      </trkpt>
      <trkpt lat="38.817142" lon="121.14794">
        <ele>52.57197</ele>
        <time>2014-04-26T09:33:03.634000Z</time>
      </trkpt>
      <trkpt lat="38.81717" lon="121.14808">
        <ele>52.771404</ele>
        <time>2014-04-26T09:33:07.598000Z</time>
      </trkpt>
      <trkpt lat="38.817207" lon="121.148186">
        <ele>51.720028</ele>
        <time>2014-04-26T09:33:11.562000Z</time>
      </trkpt>
      <trkpt lat="38.81728" lon="121.14826">
        <ele>50.44272</ele>
        <time>2014-04-26T09:33:15.526000Z</time>
      </trkpt>
      <trkpt lat="38.817375" lon="121.14829">
        <ele>49.396965</ele>
        <time>2014-04-26T09:33:19.490000Z</time>
      </trkpt>
      <trkpt lat="38.817482" lon="121.148315">
        <ele>48.845844</ele>
        <time>2014-04-26T09:33:23.454000Z</time>
      </trkpt>
      <trkpt lat="38.817585" lon="121.14832">
        <ele>48.81748</ele>
        <time>2014-04-26T09:33:27.418000Z</time>
      </trkpt>
      <trkpt lat="38.817684" lon="121.14832">
        <ele>49.116383</ele>
        <time>2014-04-26T09:33:31.382000Z</time>
      </trkpt>
      <trkpt lat="38.817787" lon="121.14834">
        <ele>49.298096</ele>
        <time>2014-04-26T09:33:35.346000Z</time>
      </trkpt>
      <trkpt lat="38.817875" lon="121.14835">
        <ele>49.091637</ele>
        <time>2014-04-26T09:33:39.310000Z</time>
      </trkpt>
      <trkpt lat="38.817978" lon="121.14838">
        <ele>48.74538</ele>
        <time>2014-04-26T09:33:43.274000Z</time>
      </trkpt>
      <trkpt lat="38.81809" lon="121.14839">
        <ele>48.394344</ele>
        <time>2014-04-26T09:33:47.238000Z</time>
      </trkpt>
      <trkpt lat="38.81818" lon="121.14839">
        <ele>47.764236</ele>
        <time>2014-04-26T09:33:51.202000Z</time>
      </trkpt>
      <trkpt lat="38.818287" lon="121.14839">
        <ele>47.080788</ele>
        <time>2014-04-26T09:33:55.166000Z</time>
      </trkpt>
      <trkpt lat="38.81838" lon="121.14839">
        <ele>47.041245</ele>
        <time>2014-04-26T09:33:59.130000Z</time>
      </trkpt>
      <trkpt lat="38.81848" lon="121.14839">
        <ele>47.754414</ele>
        <time>2014-04-26T09:34:03.094000Z</time>
      </trkpt>
      <trkpt lat="38.818577" lon="121.1484">
        <ele>49.091694</ele>
        <time>2014-04-26T09:34:07.058000Z</time>
      </trkpt>
      <trkpt lat="38.81868" lon="121.14838">
        <ele>50.83814</ele>
        <time>2014-04-26T09:34:11.022000Z</time>
      </trkpt>
      <trkpt lat="38.818745" lon="121.1483">
        <ele>51.95103</ele>
        <time>2014-04-26T09:34:14.986000Z</time>
      </trkpt>
      <trkpt lat="38.818794" lon="121.1482">
        <ele>51.357452</ele>
        <time>2014-04-26T09:34:18.950000Z</time>
      </trkpt>
      <trkpt lat="38.818813" lon="121.14808">
        <ele>49.45467</ele>
        <time>2014-04-26T09:34:22.914000Z</time>
      </trkpt>
      <trkpt lat="38.81882" lon="121.14793">
        <ele>47.35465</ele>
        <time>2014-04-26T09:34:26.878000Z</time>
      </trkpt>
      <trkpt lat="38.81882" lon="121.14779">
        <ele>45.491272</ele>
        <time>2014-04-26T09:34:30.842000Z</time>
      </trkpt>
      <trkpt lat="38.81883" lon="121.14764">
        <ele>43.965775</ele>
        <time>2014-04-26T09:34:34.806000Z</time>
      </trkpt>
      <trkpt lat="38.818825" lon="121.147514">
        <ele>43.186344</ele>
        <time>2014-04-26T09:34:38.770000Z</time>
      </trkpt>
      <trkpt lat="38.81877" lon="121.147385">
        <ele>43.393936</ele>
        <time>2014-04-26T09:34:42.734000Z</time>
      </trkpt>
      <trkpt lat="38.81868" lon="121.1473">
        <ele>44.256107</ele>
        <time>2014-04-26T09:34:46.698000Z</time>
      </trkpt>
      <trkpt lat="38.81857" lon="121.147285">
        <ele>44.78432</ele>
        <time>2014-04-26T09:34:50.662000Z</time>
      </trkpt>
      <trkpt lat="38.818474" lon="121.14728">
        <ele>44.278564</ele>
        <time>2014-04-26T09:34:54.626000Z</time>
      </trkpt>
      <trkpt lat="38.818382" lon="121.14728">
        <ele>43.21592</ele>
        <time>2014-04-26T09:34:58.590000Z</time>
      </trkpt>
      <trkpt lat="38.818287" lon="121.14727">
        <ele>42.473614</ele>
        <time>2014-04-26T09:35:02.554000Z</time>
      </trkpt>
      <trkpt lat="38.81817" lon="121.14726">
        <ele>42.39944</ele>
        <time>2014-04-26T09:35:06.518000Z</time>
      </trkpt>
      <trkpt lat="38.818066" lon="121.14726">
        <ele>43.0347</ele>
        <time>2014-04-26T09:35:10.482000Z</time>
      </trkpt>
      <trkpt lat="38.81796" lon="121.14725">
        <ele>44.107155</ele>
        <time>2014-04-26T09:35:14.446000Z</time>
      </trkpt>
      <trkpt lat="38.81784" lon="121.14725">
        <ele>44.962376</ele>
        <time>2014-04-26T09:35:18.410000Z</time>
      </trkpt>
      <trkpt lat="38.81773" lon="121.14725">
        <ele>45.242558</ele>
        <time>2014-04-26T09:35:22.374000Z</time>
      </trkpt>
      <trkpt lat="38.81761" lon="121.14723">
        <ele>45.159496</ele>
        <time>2014-04-26T09:35:26.338000Z</time>
      </trkpt>
      <trkpt lat="38.81752" lon="121.14722">
        <ele>45.001213</ele>
        <time>2014-04-26T09:35:30.302000Z</time>
      </trkpt>
      <trkpt lat="38.817417" lon="121.1472">
        <ele>45.01642</ele>
        <time>2014-04-26T09:35:34.266000Z</time>
      </trkpt>
      <trkpt lat="38.817318" lon="121.14722">
        <ele>45.268673</ele>
        <time>2014-04-26T09:35:38.230000Z</time>
      </trkpt>
      <trkpt lat="38.817226" lon="121.147255">
        <ele>45.538498</ele>
        <time>2014-04-26T09:35:42.194000Z</time>
      </trkpt>
      <trkpt lat="38.817158" lon="121.14733">
        <ele>45.645996</ele>
        <time>2014-04-26T09:35:46.158000Z</time>
      </trkpt>
      <trkpt lat="38.817127" lon="121.147446">
        <ele>45.90079</ele>
        <time>2014-04-26T09:35:50.122000Z</time>
      </trkpt>
      <trkpt lat="38.81712" lon="121.1476">
        <ele>47.10172</ele>
        <time>2014-04-26T09:35:54.086000Z</time>
      </trkpt>
      <trkpt lat="38.817127" lon="121.14772">
        <ele>49.217846</ele>
        <time>2014-04-26T09:35:58.050000Z</time>
      </trkpt>
      <trkpt lat="38.817123" lon="121.147865">
        <ele>50.90031</ele>
        <time>2014-04-26T09:36:02.014000Z</time>
      </trkpt>
      <trkpt lat="38.81713" lon="121.147995">
        <time>2014-04-26T09:36:05.978000Z</time>
      </trkpt>
    </trkseg>
  </trk>
</gpx>