<?xml version="1.0" encoding="UTF-8"?>
<gpx xmlns="http://www.topografix.com/GPX/1/1" xmlns:gpxtpx="http://www.garmin.com/xmlschemas/TrackPointExtension/v1" xmlns:xsi="http://www.w3.org/2001/XMLSchema-instance" xsi:schemaLocation="http://www.topografix.com/GPX/1/1 http://www.topografix.com/GPX/1/1/gpx.xsd" version="1.1" creator="gpx.py -- https://github.com/tkrajina/gpxpy">
  <trk>
    <trkseg>
      <trkpt lat="38.817963" lon="121.14738">
        <ele>54.39297</ele>
        <time>2014-05-08T09:36:52.504000Z</time>
      </trkpt>
      <trkpt lat="38.81795" lon="121.14738">
        <ele>55.8705</ele>
        <time>2014-05-08T09:36:56.235000Z</time>
      </trkpt>
      <trkpt lat="38.817856" lon="121.147354">
        <ele>56.07723</ele>
        <time>2014-05-08T09:36:59.966000Z</time>
      </trkpt>
      <trkpt lat="38.817764" lon="121.147354">
        <ele>55.709423</ele>
        <time>2014-05-08T09:37:03.697000Z</time>
      </trkpt>
      <trkpt lat="38.817764" lon="121.147354">
        <ele>55.395313</ele>
        <time>2014-05-08T09:37:07.428000Z</time>
      </trkpt>
      <trkpt lat="38.817673" lon="121.14734">
        <ele>55.47895</ele>
        <time>2014-05-08T09:37:11.159000Z</time>
      </trkpt>
      <trkpt lat="38.817562" lon="121.14732">
        <ele>55.880405</ele>
        <time>2014-05-08T09:37:14.890000Z</time>
      </trkpt>
      <trkpt lat="38.81745" lon="121.14734">
        <ele>56.259747</ele>
        <time>2014-05-08T09:37:18.621000Z</time>
      </trkpt>
      <trkpt lat="38.817356" lon="121.14738">
        <ele>56.07789</ele>
        <time>2014-05-08T09:37:22.352000Z</time>
      </trkpt>
      <trkpt lat="38.817272" lon="121.14746">
        <ele>55.179585</ele>
        <time>2014-05-08T09:37:26.083000Z</time>
      </trkpt>
      <trkpt lat="38.817207" lon="121.14757">
        <ele>54.76748</ele>
        <time>2014-05-08T09:37:29.814000Z</time>
      </trkpt>
      <trkpt lat="38.817173" lon="121.147675">
        <ele>55.758957</ele>
        <time>2014-05-08T09:37:33.545000Z</time>
      </trkpt>
      <trkpt lat="38.81717" lon="121.14782">
        <ele>56.2155</ele>
        <time>2014-05-08T09:37:37.276000Z</time>
      </trkpt>
      <trkpt lat="38.817184" lon="121.14796">
        <ele>54.47793</ele>
        <time>2014-05-08T09:37:41.007000Z</time>
      </trkpt>
      <trkpt lat="38.81723" lon="121.14808">
        <ele>52.00437</ele>
        <time>2014-05-08T09:37:44.738000Z</time>
      </trkpt>
      <trkpt lat="38.817307" lon="121.14817">
        <ele>50.770348</ele>
        <time>2014-05-08T09:37:48.469000Z</time>
      </trkpt>
      <trkpt lat="38.81739" lon="121.14823">
        <ele>50.985825</ele>
        <time>2014-05-08T09:37:52.200000Z</time>
      </trkpt>
      <trkpt lat="38.817486" lon="121.14828">
        <ele>51.81817</ele>
        <time>2014-05-08T09:37:55.931000Z</time>
      </trkpt>
      <trkpt lat="38.817577" lon="121.14829">
        <ele>52.338696</ele>
        <time>2014-05-08T09:37:59.662000Z</time>
      </trkpt>
      <trkpt lat="38.817688" lon="121.148315">
        <ele>52.346256</ele>
        <time>2014-05-08T09:38:03.393000Z</time>
      </trkpt>
      <trkpt lat="38.817787" lon="121.14832">
        <ele>52.124447</ele>
        <time>2014-05-08T09:38:07.124000Z</time>
      </trkpt>
      <trkpt lat="38.81788" lon="121.14835">
        <ele>51.661793</ele>
        <time>2014-05-08T09:38:10.855000Z</time>
      </trkpt>
      <trkpt lat="38.817978" lon="121.14832">
        <ele>50.832977</ele>
        <time>2014-05-08T09:38:14.586000Z</time>
      </trkpt>
      <trkpt lat="38.818085" lon="121.1483">
        <ele>50.291138</ele>
        <time>2014-05-08T09:38:18.317000Z</time>
      </trkpt>
      <trkpt lat="38.818184" lon="121.148315">
        <ele>50.570557</ele>
        <time>2014-05-08T09:38:22.048000Z</time>
      </trkpt>
      <trkpt lat="38.818295" lon="121.1483">
        <ele>50.839226</ele>
        <time>2014-05-08T09:38:25.779000Z</time>
      </trkpt>
      <trkpt lat="38.818295" lon="121.1483">
        <ele>50.33341</ele>
        <time>2014-05-08T09:38:29.510000Z</time>
      </trkpt>
      <trkpt lat="38.818405" lon="121.14829">
        <ele>49.768475</ele>
        <time>2014-05-08T09:38:33.241000Z</time>
      </trkpt>
      <trkpt lat="38.818485" lon="121.14824">
        <ele>49.91591</ele>
        <time>2014-05-08T09:38:36.972000Z</time>
      </trkpt>
      <trkpt lat="38.818485" lon="121.14824">
        <ele>50.291245</ele>
        <time>2014-05-08T09:38:40.703000Z</time>
      </trkpt>
      <trkpt lat="38.818573" lon="121.14818">
        <ele>50.017708</ele>
        <time>2014-05-08T09:38:44.434000Z</time>
      </trkpt>
      <trkpt lat="38.818638" lon="121.148094">
        <ele>49.063564</ele>
        <time>2014-05-08T09:38:48.165000Z</time>
      </trkpt>
      <trkpt lat="38.81868" lon="121.14797">
        <ele>47.714214</ele>
        <time>2014-05-08T09:38:51.896000Z</time>
      </trkpt>
      <trkpt lat="38.818703" lon="121.14786">
        <ele>46.17037</ele>
        <time>2014-05-08T09:38:55.627000Z</time>
      </trkpt>
      <trkpt lat="38.818687" lon="121.147736">
        <ele>44.965176</ele>
        <time>2014-05-08T09:38:59.358000Z</time>
      </trkpt>
      <trkpt lat="38.81865" lon="121.14761">
        <ele>44.746166</ele>
        <time>2014-05-08T09:39:03.089000Z</time>
      </trkpt>
      <trkpt lat="38.818592" lon="121.14752">
        <ele>45.295223</ele>
        <time>2014-05-08T09:39:06.820000Z</time>
      </trkpt>
      <trkpt lat="38.81851" lon="121.14744">
        <ele>45.86467</ele>
        <time>2014-05-08T09:39:10.551000Z</time>
      </trkpt>
      <trkpt lat="38.81842" lon="121.1474">
        <ele>46.057392</ele>
        <time>2014-05-08T09:39:14.282000Z</time>
      </trkpt>
      <trkpt lat="38.81833" lon="121.147385">
        <ele>46.38177</ele>
        <time>2014-05-08T09:39:18.013000Z</time>
      </trkpt>
      <trkpt lat="38.81823" lon="121.147385">
        <ele>47.203827</ele>
        <time>2014-05-08T09:39:21.744000Z</time>
      </trkpt>
      <trkpt lat="38.818127" lon="121.14738">
        <ele>47.93132</ele>
        <time>2014-05-08T09:39:25.475000Z</time>
      </trkpt>
      <trkpt lat="38.818024" lon="121.14737">
        <ele>47.984886</ele>
        <time>2014-05-08T09:39:29.206000Z</time>
      </trkpt>
      <trkpt lat="38.81793" lon="121.14736">
        <ele>47.94474</ele>
        <time>2014-05-08T09:39:32.937000Z</time>
      </trkpt>
      <trkpt lat="38.817818" lon="121.14736">
        <ele>48.393574</ele>
        <time>2014-05-08T09:39:36.668000Z</time>
      </trkpt>
      <trkpt lat="38.81772" lon="121.14736">
        <ele>49.198826</ele>
        <time>2014-05-08T09:39:40.399000Z</time>
      </trkpt>
      <trkpt lat="38.81761" lon="121.14736">
        <ele>49.804173</ele>
        <time>2014-05-08T09:39:44.130000Z</time>
      </trkpt>
      <trkpt lat="38.817516" lon="121.14737">
        <ele>49.71897</ele>
        <time>2014-05-08T09:39:47.861000Z</time>
      </trkpt>
      <trkpt lat="38.817413" lon="121.1474">
        <ele>48.73035</ele>
        <time>2014-05-08T09:39:51.592000Z</time>
      </trkpt>
      <trkpt lat="38.81733" lon="121.14748">
        <ele>47.242508</ele>
        <time>2014-05-08T09:39:55.323000Z</time>
      </trkpt>
      <trkpt lat="38.817265" lon="121.14758">
        <ele>46.563107</ele>
        <time>2014-05-08T09:39:59.054000Z</time>
      </trkpt>
      <trkpt lat="38.817223" lon="121.14768">
        <ele>47.450375</ele>
        <time>2014-05-08T09:40:02.785000Z</time>
      </trkpt>
      <trkpt lat="38.817215" lon="121.14782">
        <ele>48.751717</ele>
        <time>2014-05-08T09:40:06.516000Z</time>
      </trkpt>
      <trkpt lat="38.81724" lon="121.14794">
        <ele>49.03176</ele>
        <time>2014-05-08T09:40:10.247000Z</time>
      </trkpt>
      <trkpt lat="38.817284" lon="121.14806">
        <ele>48.2533</ele>
        <time>2014-05-08T09:40:13.978000Z</time>
      </trkpt>
      <trkpt lat="38.81736" lon="121.14817">
        <ele>47.588356</ele>
        <time>2014-05-08T09:40:17.709000Z</time>
      </trkpt>
      <trkpt lat="38.81744" lon="121.14824">
        <ele>48.490837</ele>
        <time>2014-05-08T09:40:21.440000Z</time>
      </trkpt>
      <trkpt lat="38.817535" lon="121.14828">
        <ele>50.84609</ele>
        <time>2014-05-08T09:40:25.171000Z</time>
      </trkpt>
      <trkpt lat="38.81764" lon="121.14828">
        <ele>52.58071</ele>
        <time>2014-05-08T09:40:28.902000Z</time>
      </trkpt>
      <trkpt lat="38.81773" lon="121.148285">
        <ele>52.423615</ele>
        <time>2014-05-08T09:40:32.633000Z</time>
      </trkpt>
      <trkpt lat="38.81782" lon="121.1483">
        <ele>51.43017</ele>
        <time>2014-05-08T09:40:36.364000Z</time>
      </trkpt>
      <trkpt lat="38.81792" lon="121.1483">
        <ele>50.812317</ele>
        <time>2014-05-08T09:40:40.095000Z</time>
      </trkpt>
      <trkpt lat="38.81803" lon="121.1483">
        <ele>50.67634</ele>
        <time>2014-05-08T09:40:43.826000Z</time>
      </trkpt>
      <trkpt lat="38.81814" lon="121.148285">
        <ele>51.21917</ele>
        <time>2014-05-08T09:40:47.557000Z</time>
      </trkpt>
      <trkpt lat="38.818245" lon="121.14828">
        <ele>52.53504</ele>
        <time>2014-05-08T09:40:51.288000Z</time>
      </trkpt>
      <trkpt lat="38.818344" lon="121.148285">
        <ele>53.819725</ele>
        <time>2014-05-08T09:40:55.019000Z</time>
      </trkpt>
      <trkpt lat="38.818455" lon="121.148254">
        <ele>54.375305</ele>
        <time>2014-05-08T09:40:58.750000Z</time>
      </trkpt>
      <trkpt lat="38.818546" lon="121.1482">
        <ele>54.40786</ele>
        <time>2014-05-08T09:41:02.481000Z</time>
      </trkpt>
      <trkpt lat="38.818626" lon="121.14811">
        <ele>53.461964</ele>
        <time>2014-05-08T09:41:06.212000Z</time>
      </trkpt>
      <trkpt lat="38.818672" lon="121.147995">
        <ele>51.23696</ele>
        <time>2014-05-08T09:41:09.943000Z</time>
      </trkpt>
      <trkpt lat="38.818695" lon="121.14787">
        <ele>49.02126</ele>
        <time>2014-05-08T09:41:13.674000Z</time>
      </trkpt>
      <trkpt lat="38.818684" lon="121.14773">
        <ele>48.188805</ele>
        <time>2014-05-08T09:41:17.405000Z</time>
      </trkpt>
      <trkpt lat="38.818653" lon="121.147606">
        <ele>48.646786</ele>
        <time>2014-05-08T09:41:21.136000Z</time>
      </trkpt>
      <trkpt lat="38.8186" lon="121.14751">
        <ele>49.581215</ele>
        <time>2014-05-08T09:41:24.867000Z</time>
      </trkpt>
      <trkpt lat="38.818512" lon="121.14742">
        <ele>50.23106</ele>
        <time>2014-05-08T09:41:28.598000Z</time>
      </trkpt>
      <trkpt lat="38.81841" lon="121.14738">
        <ele>50.44426</ele>
        <time>2014-05-08T09:41:32.329000Z</time>
      </trkpt>
      <trkpt lat="38.818306" lon="121.14736">
        <ele>50.84214</ele>
        <time>2014-05-08T09:41:36.060000Z</time>
      </trkpt>
      <trkpt lat="38.81821" lon="121.14736">
        <ele>51.872948</ele>
        <time>2014-05-08T09:41:39.791000Z</time>
      </trkpt>
      <trkpt lat="38.81811" lon="121.14737">
        <ele>52.58203</ele>
        <time>2014-05-08T09:41:43.522000Z</time>
      </trkpt>
      <trkpt lat="38.818012" lon="121.14737">
        <ele>52.116848</ele>
        <time>2014-05-08T09:41:47.253000Z</time>
      </trkpt>
      <trkpt lat="38.817917" lon="121.14736">
        <ele>51.417294</ele>
        <time>2014-05-08T09:41:50.984000Z</time>
      </trkpt>
      <trkpt lat="38.81782" lon="121.14737">
        <ele>51.72491</ele>
        <time>2014-05-08T09:41:54.715000Z</time>
      </trkpt>
      <trkpt lat="38.817722" lon="121.14736">
        <ele>52.88857</ele>
        <time>2014-05-08T09:41:58.446000Z</time>
      </trkpt>
      <trkpt lat="38.81762" lon="121.147354">
        <ele>53.7861</ele>
        <time>2014-05-08T09:42:02.177000Z</time>
      </trkpt>
      <trkpt lat="38.81751" lon="121.14736">
        <ele>53.815357</ele>
        <time>2014-05-08T09:42:05.908000Z</time>
      </trkpt>
      <trkpt lat="38.8174" lon="121.14739">
        <ele>53.28433</ele>
        <time>2014-05-08T09:42:09.639000Z</time>
      </trkpt>
      <trkpt lat="38.817326" lon="121.14746">
        <ele>52.665493</ele>
        <time>2014-05-08T09:42:13.370000Z</time>
      </trkpt>
      <trkpt lat="38.81726" lon="121.14756">
        <ele>52.34496</ele>
        <time>2014-05-08T09:42:17.101000Z</time>
      </trkpt>
      <trkpt lat="38.81722" lon="121.14767">
        <ele>52.541504</ele>
        <time>2014-05-08T09:42:20.832000Z</time>
      </trkpt>
      <trkpt lat="38.81722" lon="121.14781">
        <ele>53.02654</ele>
        <time>2014-05-08T09:42:24.563000Z</time>
      </trkpt>
      <trkpt lat="38.817245" lon="121.14795">
        <ele>53.188435</ele>
        <time>2014-05-08T09:42:28.294000Z</time>
      </trkpt>
      <trkpt lat="38.81729" lon="121.148056">
        <ele>52.286808</ele>
        <time>2014-05-08T09:42:32.025000Z</time>
      </trkpt>
      <trkpt lat="38.817356" lon="121.14816">
        <ele>50.9394</ele>
        <time>2014-05-08T09:42:35.756000Z</time>
      </trkpt>
      <trkpt lat="38.817448" lon="121.14824">
        <ele>50.381382</ele>
        <time>2014-05-08T09:42:39.487000Z</time>
      </trkpt>
      <trkpt lat="38.817554" lon="121.14827">
        <ele>50.679794</ele>
        <time>2014-05-08T09:42:43.218000Z</time>
      </trkpt>
      <trkpt lat="38.81766" lon="121.14827">
        <ele>51.19467</ele>
        <time>2014-05-08T09:42:46.949000Z</time>
      </trkpt>
      <trkpt lat="38.817764" lon="121.14826">
        <ele>51.728863</ele>
        <time>2014-05-08T09:42:50.680000Z</time>
      </trkpt>
      <trkpt lat="38.817856" lon="121.148254">
        <ele>52.35962</ele>
        <time>2014-05-08T09:42:54.411000Z</time>
      </trkpt>
      <trkpt lat="38.817955" lon="121.148254">
        <ele>53.277813</ele>
        <time>2014-05-08T09:42:58.142000Z</time>
      </trkpt>
      <trkpt lat="38.81806" lon="121.14828">
        <ele>54.32942</ele>
        <time>2014-05-08T09:43:01.873000Z</time>
      </trkpt>
      <trkpt lat="38.81816" lon="121.148285">
        <ele>55.20803</ele>
        <time>2014-05-08T09:43:05.604000Z</time>
      </trkpt>
      <trkpt lat="38.818256" lon="121.148285">
        <ele>55.231075</ele>
        <time>2014-05-08T09:43:09.335000Z</time>
      </trkpt>
      <trkpt lat="38.81836" lon="121.14829">
        <ele>54.198578</ele>
        <time>2014-05-08T09:43:13.066000Z</time>
      </trkpt>
      <trkpt lat="38.81846" lon="121.14826">
        <ele>52.902897</ele>
        <time>2014-05-08T09:43:16.797000Z</time>
      </trkpt>
      <trkpt lat="38.81855" lon="121.14821">
        <ele>52.072414</ele>
        <time>2014-05-08T09:43:20.528000Z</time>
      </trkpt>
      <trkpt lat="38.818623" lon="121.148125">
        <ele>51.735935</ele>
        <time>2014-05-08T09:43:24.259000Z</time>
      </trkpt>
      <trkpt lat="38.818665" lon="121.148026">
        <ele>51.803074</ele>
        <time>2014-05-08T09:43:27.990000Z</time>
      </trkpt>
      <trkpt lat="38.818695" lon="121.14791">
        <ele>52.1042</ele>
        <time>2014-05-08T09:43:31.721000Z</time>
      </trkpt>
      <trkpt lat="38.818703" lon="121.14778">
        <ele>52.42702</ele>
        <time>2014-05-08T09:43:35.452000Z</time>
      </trkpt>
      <trkpt lat="38.81868" lon="121.14765">
        <ele>52.430458</ele>
        <time>2014-05-08T09:43:39.183000Z</time>
      </trkpt>
      <trkpt lat="38.818623" lon="121.14753">
        <ele>52.337578</ele>
        <time>2014-05-08T09:43:42.914000Z</time>
      </trkpt>
      <trkpt lat="38.818546" lon="121.147446">
        <ele>52.359825</ele>
        <time>2014-05-08T09:43:46.645000Z</time>
      </trkpt>
      <trkpt lat="38.818455" lon="121.14739">
        <ele>51.98104</ele>
        <time>2014-05-08T09:43:50.376000Z</time>
      </trkpt>
      <trkpt lat="38.818363" lon="121.147385">
        <ele>51.116</ele>
        <time>2014-05-08T09:43:54.107000Z</time>
      </trkpt>
      <trkpt lat="38.81827" lon="121.14736">
        <ele>50.482746</ele>
        <time>2014-05-08T09:43:57.838000Z</time>
      </trkpt>
      <trkpt lat="38.818165" lon="121.14736">
        <ele>50.30017</ele>
        <time>2014-05-08T09:44:01.569000Z</time>
      </trkpt>
      <trkpt lat="38.818054" lon="121.14737">
        <ele>50.486248</ele>
        <time>2014-05-08T09:44:05.300000Z</time>
      </trkpt>
      <trkpt lat="38.817944" lon="121.14736">
        <ele>50.895863</ele>
        <time>2014-05-08T09:44:09.031000Z</time>
      </trkpt>
      <trkpt lat="38.817837" lon="121.14733">
        <ele>51.268356</ele>
        <time>2014-05-08T09:44:12.762000Z</time>
      </trkpt>
      <trkpt lat="38.817734" lon="121.14729">
        <ele>51.61181</ele>
        <time>2014-05-08T09:44:16.493000Z</time>
      </trkpt>
      <trkpt lat="38.81763" lon="121.14728">
        <ele>52.097515</ele>
        <time>2014-05-08T09:44:20.224000Z</time>
      </trkpt>
      <trkpt lat="38.81753" lon="121.147285">
        <ele>52.54495</ele>
        <time>2014-05-08T09:44:23.955000Z</time>
      </trkpt>
      <trkpt lat="38.81744" lon="121.14733">
        <ele>52.524506</ele>
        <time>2014-05-08T09:44:27.686000Z</time>
      </trkpt>
      <trkpt lat="38.817356" lon="121.1474">
        <ele>51.976833</ele>
        <time>2014-05-08T09:44:31.417000Z</time>
      </trkpt>
      <trkpt lat="38.8173" lon="121.1475">
        <ele>51.82863</ele>
        <time>2014-05-08T09:44:35.148000Z</time>
      </trkpt>
      <trkpt lat="38.81725" lon="121.14762">
        <ele>52.755646</ele>
        <time>2014-05-08T09:44:38.879000Z</time>
      </trkpt>
      <trkpt lat="38.817223" lon="121.14775">
        <ele>53.89411</ele>
        <time>2014-05-08T09:44:42.610000Z</time>
      </trkpt>
      <trkpt lat="38.81723" lon="121.14789">
        <ele>54.2789</ele>
        <time>2014-05-08T09:44:46.341000Z</time>
      </trkpt>
      <trkpt lat="38.817257" lon="121.14801">
        <ele>53.881233</ele>
        <time>2014-05-08T09:44:50.072000Z</time>
      </trkpt>
      <trkpt lat="38.817318" lon="121.14812">
        <ele>53.099888</ele>
        <time>2014-05-08T09:44:53.803000Z</time>
      </trkpt>
      <trkpt lat="38.81739" lon="121.14822">
        <ele>52.552555</ele>
        <time>2014-05-08T09:44:57.534000Z</time>
      </trkpt>
      <trkpt lat="38.817486" lon="121.14827">
        <ele>52.536644</ele>
        <time>2014-05-08T09:45:01.265000Z</time>
      </trkpt>
      <trkpt lat="38.817593" lon="121.14828">
        <ele>52.638824</ele>
        <time>2014-05-08T09:45:04.996000Z</time>
      </trkpt>
      <trkpt lat="38.817696" lon="121.14828">
        <ele>52.469696</ele>
        <time>2014-05-08T09:45:08.727000Z</time>
      </trkpt>
      <trkpt lat="38.817783" lon="121.14827">
        <ele>52.493217</ele>
        <time>2014-05-08T09:45:12.458000Z</time>
      </trkpt>
      <trkpt lat="38.817886" lon="121.14828">
        <ele>53.1427</ele>
        <time>2014-05-08T09:45:16.189000Z</time>
      </trkpt>
      <trkpt lat="38.817978" lon="121.14828">
        <ele>54.06584</ele>
        <time>2014-05-08T09:45:19.920000Z</time>
      </trkpt>
      <trkpt lat="38.818085" lon="121.14828">
        <ele>54.852737</ele>
        <time>2014-05-08T09:45:23.651000Z</time>
      </trkpt>
      <trkpt lat="38.818207" lon="121.148285">
        <ele>55.388577</ele>
        <time>2014-05-08T09:45:27.382000Z</time>
      </trkpt>
      <trkpt lat="38.818314" lon="121.14829">
        <ele>55.597435</ele>
        <time>2014-05-08T09:45:31.113000Z</time>
      </trkpt>
      <trkpt lat="38.81841" lon="121.148285">
        <ele>55.400684</ele>
        <time>2014-05-08T09:45:34.844000Z</time>
      </trkpt>
      <trkpt lat="38.8185" lon="121.14825">
        <ele>54.59984</ele>
        <time>2014-05-08T09:45:38.575000Z</time>
      </trkpt>
      <trkpt lat="38.818592" lon="121.14817">
        <ele>53.174316</ele>
        <time>2014-05-08T09:45:42.306000Z</time>
      </trkpt>
      <trkpt lat="38.818657" lon="121.14807">
        <ele>51.61143</ele>
        <time>2014-05-08T09:45:46.037000Z</time>
      </trkpt>
      <trkpt lat="38.818684" lon="121.14793">
        <ele>50.56874</ele>
        <time>2014-05-08T09:45:49.768000Z</time>
      </trkpt>
      <trkpt lat="38.81869" lon="121.14777">
        <ele>50.23591</ele>
        <time>2014-05-08T09:45:53.499000Z</time>
      </trkpt>
      <trkpt lat="38.818672" lon="121.14765">
        <ele>50.35289</ele>
        <time>2014-05-08T09:45:57.230000Z</time>
      </trkpt>
      <trkpt lat="38.81861" lon="121.147545">
        <ele>50.626835</ele>
        <time>2014-05-08T09:46:00.961000Z</time>
      </trkpt>
      <trkpt lat="38.81854" lon="121.147446">
        <ele>50.722454</ele>
        <time>2014-05-08T09:46:04.692000Z</time>
      </trkpt>
      <trkpt lat="38.81844" lon="121.1474">
        <ele>50.383194</ele>
        <time>2014-05-08T09:46:08.423000Z</time>
      </trkpt>
      <trkpt lat="38.81834" lon="121.147385">
        <ele>49.79078</ele>
        <time>2014-05-08T09:46:12.153000Z</time>
      </trkpt>
      <trkpt lat="38.818237" lon="121.14738">
        <ele>49.354076</ele>
        <time>2014-05-08T09:46:15.883000Z</time>
      </trkpt>
      <trkpt lat="38.818146" lon="121.147385">
        <ele>49.215458</ele>
        <time>2014-05-08T09:46:19.613000Z</time>
      </trkpt>
      <trkpt lat="38.818035" lon="121.147385">
        <ele>49.24697</ele>
        <time>2014-05-08T09:46:23.343000Z</time>
      </trkpt>
      <trkpt lat="38.81793" lon="121.14738">
        <ele>49.479977</ele>
        <time>2014-05-08T09:46:27.073000Z</time>
      </trkpt>
      <trkpt lat="38.81782" lon="121.14738">
        <ele>50.225132</ele>
        <time>2014-05-08T09:46:30.803000Z</time>
      </trkpt>
      <trkpt lat="38.81772" lon="121.14738">
        <ele>51.540676</ele>
        <time>2014-05-08T09:46:34.533000Z</time>
      </trkpt>
      <trkpt lat="38.81762" lon="121.14738">
        <ele>53.119274</ele>
        <time>2014-05-08T09:46:38.263000Z</time>
      </trkpt>
      <trkpt lat="38.81752" lon="121.147385">
        <ele>54.682983</ele>
        <time>2014-05-08T09:46:41.993000Z</time>
      </trkpt>
      <trkpt lat="38.817425" lon="121.14741">
        <ele>55.924446</ele>
        <time>2014-05-08T09:46:45.723000Z</time>
      </trkpt>
      <trkpt lat="38.81733" lon="121.14745">
        <ele>56.572258</ele>
        <time>2014-05-08T09:46:49.453000Z</time>
      </trkpt>
      <trkpt lat="38.817265" lon="121.14755">
        <ele>56.619286</ele>
        <time>2014-05-08T09:46:53.183000Z</time>
      </trkpt>
      <trkpt lat="38.81723" lon="121.14767">
        <ele>56.074642</ele>
        <time>2014-05-08T09:46:56.913000Z</time>
      </trkpt>
      <trkpt lat="38.817223" lon="121.147804">
        <ele>55.13766</ele>
        <time>2014-05-08T09:47:00.643000Z</time>
      </trkpt>
      <trkpt lat="38.817238" lon="121.14794">
        <ele>54.01962</ele>
        <time>2014-05-08T09:47:04.373000Z</time>
      </trkpt>
      <trkpt lat="38.817295" lon="121.14806">
        <ele>52.70691</ele>
        <time>2014-05-08T09:47:08.103000Z</time>
      </trkpt>
      <trkpt lat="38.81736" lon="121.14818">
        <ele>51.491547</ele>
        <time>2014-05-08T09:47:11.833000Z</time>
      </trkpt>
      <trkpt lat="38.817455" lon="121.14825">
        <ele>51.249104</ele>
        <time>2014-05-08T09:47:15.563000Z</time>
      </trkpt>
      <trkpt lat="38.817547" lon="121.14826">
        <ele>52.18578</ele>
        <time>2014-05-08T09:47:19.293000Z</time>
      </trkpt>
      <trkpt lat="38.817654" lon="121.14827">
        <ele>53.296215</ele>
        <time>2014-05-08T09:47:23.023000Z</time>
      </trkpt>
      <trkpt lat="38.817772" lon="121.14826">
        <ele>53.660255</ele>
        <time>2014-05-08T09:47:26.753000Z</time>
      </trkpt>
      <trkpt lat="38.817883" lon="121.14826">
        <ele>53.372925</ele>
        <time>2014-05-08T09:47:30.483000Z</time>
      </trkpt>
      <trkpt lat="38.817986" lon="121.14828">
        <ele>52.680573</ele>
        <time>2014-05-08T09:47:34.213000Z</time>
      </trkpt>
      <trkpt lat="38.818085" lon="121.148285">
        <ele>51.80406</ele>
        <time>2014-05-08T09:47:37.943000Z</time>
      </trkpt>
      <trkpt lat="38.818195" lon="121.14829">
        <ele>51.005817</ele>
        <time>2014-05-08T09:47:41.673000Z</time>
      </trkpt>
      <trkpt lat="38.818295" lon="121.14827">
        <ele>50.53338</ele>
        <time>2014-05-08T09:47:45.403000Z</time>
      </trkpt>
      <trkpt lat="38.818405" lon="121.14827">
        <ele>50.503708</ele>
        <time>2014-05-08T09:47:49.133000Z</time>
      </trkpt>
      <trkpt lat="38.818504" lon="121.14824">
        <ele>51.05107</ele>
        <time>2014-05-08T09:47:52.863000Z</time>
      </trkpt>
      <trkpt lat="38.818596" lon="121.14816">
        <ele>52.045753</ele>
        <time>2014-05-08T09:47:56.593000Z</time>
      </trkpt>
      <trkpt lat="38.818657" lon="121.148026">
        <ele>52.26694</ele>
        <time>2014-05-08T09:48:00.323000Z</time>
      </trkpt>
      <trkpt lat="38.818684" lon="121.14791">
        <ele>50.88825</ele>
        <time>2014-05-08T09:48:04.053000Z</time>
      </trkpt>
      <trkpt lat="38.818684" lon="121.14772">
        <ele>49.2662</ele>
        <time>2014-05-08T09:48:07.783000Z</time>
      </trkpt>
      <trkpt lat="38.81863" lon="121.14757">
        <ele>48.84206</ele>
        <time>2014-05-08T09:48:11.513000Z</time>
      </trkpt>
      <trkpt lat="38.818542" lon="121.14746">
        <ele>49.34547</ele>
        <time>2014-05-08T09:48:15.243000Z</time>
      </trkpt>
      <trkpt lat="38.81841" lon="121.1474">
        <ele>49.755535</ele>
        <time>2014-05-08T09:48:18.973000Z</time>
      </trkpt>
      <trkpt lat="38.818314" lon="121.14739">
        <ele>49.444714</ele>
        <time>2014-05-08T09:48:22.703000Z</time>
      </trkpt>
      <trkpt lat="38.818157" lon="121.14739">
        <ele>48.694584</ele>
        <time>2014-05-08T09:48:26.433000Z</time>
      </trkpt>
      <trkpt lat="38.818012" lon="121.147385">
        <ele>48.303684</ele>
        <time>2014-05-08T09:48:30.163000Z</time>
      </trkpt>
      <trkpt lat="38.81792" lon="121.147385">
        <ele>48.581676</ele>
        <time>2014-05-08T09:48:33.893000Z</time>
      </trkpt>
      <trkpt lat="38.817795" lon="121.14737">
        <ele>48.943977</ele>
        <time>2014-05-08T09:48:37.623000Z</time>
      </trkpt>
      <trkpt lat="38.81766" lon="121.14738">
        <ele>48.85658</ele>
        <time>2014-05-08T09:48:41.353000Z</time>
      </trkpt>
      <trkpt lat="38.817566" lon="121.14738">
        <ele>48.79283</ele>
        <time>2014-05-08T09:48:45.083000Z</time>
      </trkpt>
      <trkpt lat="38.817436" lon="121.1474">
        <ele>49.245316</ele>
        <time>2014-05-08T09:48:48.813000Z</time>
      </trkpt>
      <trkpt lat="38.81734" lon="121.14745">
        <ele>49.86041</ele>
        <time>2014-05-08T09:48:52.543000Z</time>
      </trkpt>
      <trkpt lat="38.817265" lon="121.14756">
        <ele>50.307987</ele>
        <time>2014-05-08T09:48:56.273000Z</time>
      </trkpt>
      <trkpt lat="38.817207" lon="121.14776">
        <ele>50.766323</ele>
        <time>2014-05-08T09:49:00.003000Z</time>
      </trkpt>
      <trkpt lat="38.817215" lon="121.14789">
        <ele>51.256516</ele>
        <time>2014-05-08T09:49:03.733000Z</time>
      </trkpt>
      <trkpt lat="38.817245" lon="121.14801">
        <ele>51.455967</ele>
        <time>2014-05-08T09:49:07.463000Z</time>
      </trkpt>
      <trkpt lat="38.817337" lon="121.14816">
        <ele>51.235733</ele>
        <time>2014-05-08T09:49:11.193000Z</time>
      </trkpt>
      <trkpt lat="38.81745" lon="121.14828">
        <ele>50.80237</ele>
        <time>2014-05-08T09:49:14.923000Z</time>
      </trkpt>
      <trkpt lat="38.81758" lon="121.14832">
        <ele>50.53332</ele>
        <time>2014-05-08T09:49:18.653000Z</time>
      </trkpt>
      <trkpt lat="38.817722" lon="121.14833">
        <ele>50.54211</ele>
        <time>2014-05-08T09:49:22.383000Z</time>
      </trkpt>
      <trkpt lat="38.817867" lon="121.14834">
        <ele>50.572685</ele>
        <time>2014-05-08T09:49:26.113000Z</time>
      </trkpt>
      <trkpt lat="38.81799" lon="121.148346">
        <ele>50.457935</ele>
        <time>2014-05-08T09:49:29.843000Z</time>
      </trkpt>
      <trkpt lat="38.818108" lon="121.148346">
        <ele>50.319386</ele>
        <time>2014-05-08T09:49:33.573000Z</time>
      </trkpt>
      <trkpt lat="38.8182" lon="121.148346">
        <ele>50.929947</ele>
        <time>2014-05-08T09:49:37.303000Z</time>
      </trkpt>
      <trkpt lat="38.81829" lon="121.14836">
        <ele>52.76996</ele>
        <time>2014-05-08T09:49:41.033000Z</time>
      </trkpt>
      <trkpt lat="38.81841" lon="121.14836">
        <ele>54.74874</ele>
        <time>2014-05-08T09:49:44.763000Z</time>
      </trkpt>
      <trkpt lat="38.81855" lon="121.14832">
        <ele>55.83546</ele>
        <time>2014-05-08T09:49:48.493000Z</time>
      </trkpt>
      <trkpt lat="38.818634" lon="121.148254">
        <ele>55.82618</ele>
        <time>2014-05-08T09:49:52.223000Z</time>
      </trkpt>
      <trkpt lat="38.818718" lon="121.14814">
        <ele>54.85629</ele>
        <time>2014-05-08T09:49:55.953000Z</time>
      </trkpt>
      <trkpt lat="38.818752" lon="121.147995">
        <ele>53.72943</ele>
        <time>2014-05-08T09:49:59.683000Z</time>
      </trkpt>
      <trkpt lat="38.818764" lon="121.14785">
        <ele>52.868095</ele>
        <time>2014-05-08T09:50:03.413000Z</time>
      </trkpt>
      <trkpt lat="38.818733" lon="121.1477">
        <ele>52.06855</ele>
        <time>2014-05-08T09:50:07.143000Z</time>
      </trkpt>
      <trkpt lat="38.818684" lon="121.14756">
        <ele>51.736614</ele>
        <time>2014-05-08T09:50:10.873000Z</time>
      </trkpt>
      <trkpt lat="38.81861" lon="121.14746">
        <ele>52.167927</ele>
        <time>2014-05-08T09:50:14.603000Z</time>
      </trkpt>
      <trkpt lat="38.818504" lon="121.147385">
        <ele>52.56791</ele>
        <time>2014-05-08T09:50:18.333000Z</time>
      </trkpt>
      <trkpt lat="38.818398" lon="121.147354">
        <ele>51.830036</ele>
        <time>2014-05-08T09:50:22.063000Z</time>
      </trkpt>
      <trkpt lat="38.8183" lon="121.14733">
        <ele>50.0773</ele>
        <time>2014-05-08T09:50:25.793000Z</time>
      </trkpt>
      <trkpt lat="38.818172" lon="121.1473">
        <ele>48.489555</ele>
        <time>2014-05-08T09:50:29.523000Z</time>
      </trkpt>
      <trkpt lat="38.818058" lon="121.1473">
        <ele>47.989292</ele>
        <time>2014-05-08T09:50:33.253000Z</time>
      </trkpt>
      <trkpt lat="38.817936" lon="121.14731">
        <ele>48.496876</ele>
        <time>2014-05-08T09:50:36.983000Z</time>
      </trkpt>
      <trkpt lat="38.81781" lon="121.1473">
        <ele>49.278942</ele>
        <time>2014-05-08T09:50:40.713000Z</time>
      </trkpt>
      <trkpt lat="38.81768" lon="121.14731">
        <ele>49.732067</ele>
        <time>2014-05-08T09:50:44.443000Z</time>
      </trkpt>
      <trkpt lat="38.81756" lon="121.1473">
        <ele>49.822075</ele>
        <time>2014-05-08T09:50:48.173000Z</time>
      </trkpt>
      <trkpt lat="38.817425" lon="121.14734">
        <ele>49.742306</ele>
        <time>2014-05-08T09:50:51.903000Z</time>
      </trkpt>
      <trkpt lat="38.817314" lon="121.14741">
        <ele>49.736626</ele>
        <time>2014-05-08T09:50:55.633000Z</time>
      </trkpt>
      <trkpt lat="38.81722" lon="121.14753">
        <ele>49.928333</ele>
        <time>2014-05-08T09:50:59.363000Z</time>
      </trkpt>
      <trkpt lat="38.817158" lon="121.14769">
        <ele>50.20295</ele>
        <time>2014-05-08T09:51:03.093000Z</time>
      </trkpt>
      <trkpt lat="38.81716" lon="121.14786">
        <ele>50.487293</ele>
        <time>2014-05-08T09:51:06.823000Z</time>
      </trkpt>
      <trkpt lat="38.817192" lon="121.14801">
        <ele>50.810417</ele>
        <time>2014-05-08T09:51:10.553000Z</time>
      </trkpt>
      <trkpt lat="38.817257" lon="121.14813">
        <ele>51.073624</ele>
        <time>2014-05-08T09:51:14.283000Z</time>
      </trkpt>
      <trkpt lat="38.81735" lon="121.148254">
        <ele>51.186203</ele>
        <time>2014-05-08T09:51:18.013000Z</time>
      </trkpt>
      <trkpt lat="38.817455" lon="121.14832">
        <ele>51.208324</ele>
        <time>2014-05-08T09:51:21.743000Z</time>
      </trkpt>
      <trkpt lat="38.81757" lon="121.14834">
        <ele>50.81867</ele>
        <time>2014-05-08T09:51:25.473000Z</time>
      </trkpt>
      <trkpt lat="38.817684" lon="121.148346">
        <ele>49.813633</ele>
        <time>2014-05-08T09:51:29.203000Z</time>
      </trkpt>
      <trkpt lat="38.817818" lon="121.14835">
        <ele>48.78796</ele>
        <time>2014-05-08T09:51:32.933000Z</time>
      </trkpt>
      <trkpt lat="38.817944" lon="121.14836">
        <ele>48.476902</ele>
        <time>2014-05-08T09:51:36.663000Z</time>
      </trkpt>
      <trkpt lat="38.818058" lon="121.14838">
        <ele>49.0538</ele>
        <time>2014-05-08T09:51:40.393000Z</time>
      </trkpt>
      <trkpt lat="38.81817" lon="121.1484">
        <ele>50.114075</ele>
        <time>2014-05-08T09:51:44.123000Z</time>
      </trkpt>
      <trkpt lat="38.818287" lon="121.148415">
        <ele>50.293125</ele>
        <time>2014-05-08T09:51:47.853000Z</time>
      </trkpt>
      <trkpt lat="38.818417" lon="121.14842">
        <ele>48.92085</ele>
        <time>2014-05-08T09:51:51.583000Z</time>
      </trkpt>
      <trkpt lat="38.818527" lon="121.14835">
        <ele>48.282307</ele>
        <time>2014-05-08T09:51:55.313000Z</time>
      </trkpt>
      <trkpt lat="38.81864" lon="121.14824">
        <ele>50.2212</ele>
        <time>2014-05-08T09:51:59.043000Z</time>
      </trkpt>
      <trkpt lat="38.81873" lon="121.1481">
        <ele>52.653786</ele>
        <time>2014-05-08T09:52:02.773000Z</time>
      </trkpt>
      <trkpt lat="38.818752" lon="121.14798">
        <ele>53.341553</ele>
        <time>2014-05-08T09:52:06.503000Z</time>
      </trkpt>
      <trkpt lat="38.81875" lon="121.1478">
        <ele>52.70521</ele>
        <time>2014-05-08T09:52:10.233000Z</time>
      </trkpt>
      <trkpt lat="38.818733" lon="121.14768">
        <ele>51.808964</ele>
        <time>2014-05-08T09:52:13.963000Z</time>
      </trkpt>
      <trkpt lat="38.818672" lon="121.147514">
        <ele>51.346493</ele>
        <time>2014-05-08T09:52:17.693000Z</time>
      </trkpt>
      <trkpt lat="38.818592" lon="121.147415">
        <ele>51.50231</ele>
        <time>2014-05-08T09:52:21.423000Z</time>
      </trkpt>
      <trkpt lat="38.81848" lon="121.147354">
        <ele>52.06963</ele>
        <time>2014-05-08T09:52:25.153000Z</time>
      </trkpt>
      <trkpt lat="38.818356" lon="121.147316">
        <time>2014-05-08T09:52:28.883000Z</time>
      </trkpt>
    </trkseg>
  </trk>
</gpx>