<?xml version="1.0" encoding="UTF-8"?>
<gpx xmlns="http://www.topografix.com/GPX/1/1" xmlns:gpxtpx="http://www.garmin.com/xmlschemas/TrackPointExtension/v1" xmlns:xsi="http://www.w3.org/2001/XMLSchema-instance" xsi:schemaLocation="http://www.topografix.com/GPX/1/1 http://www.topografix.com/GPX/1/1/gpx.xsd" version="1.1" creator="gpx.py -- https://github.com/tkrajina/gpxpy">
  <trk>
    <trkseg>
      <trkpt lat="38.81863" lon="121.14817">
        <ele>41.126026</ele>
        <time>2014-06-11T10:00:35.545000Z</time>
      </trkpt>
      <trkpt lat="38.81864" lon="121.14816">
        <ele>41.13612</ele>
        <time>2014-06-11T10:00:38.736000Z</time>
      </trkpt>
      <trkpt lat="38.81871" lon="121.14807">
        <ele>41.164272</ele>
        <time>2014-06-11T10:00:41.927000Z</time>
      </trkpt>
      <trkpt lat="38.818733" lon="121.14795">
        <ele>41.192577</ele>
        <time>2014-06-11T10:00:45.118000Z</time>
      </trkpt>
      <trkpt lat="38.818733" lon="121.14795">
        <ele>41.197933</ele>
        <time>2014-06-11T10:00:48.309000Z</time>
      </trkpt>
      <trkpt lat="38.81875" lon="121.14782">
        <ele>41.179253</ele>
        <time>2014-06-11T10:00:51.500000Z</time>
      </trkpt>
      <trkpt lat="38.818733" lon="121.1477">
        <ele>41.15577</ele>
        <time>2014-06-11T10:00:54.691000Z</time>
      </trkpt>
      <trkpt lat="38.818695" lon="121.147575">
        <ele>41.27718</ele>
        <time>2014-06-11T10:00:57.882000Z</time>
      </trkpt>
      <trkpt lat="38.818638" lon="121.14748">
        <ele>41.66452</ele>
        <time>2014-06-11T10:01:01.073000Z</time>
      </trkpt>
      <trkpt lat="38.818565" lon="121.14739">
        <ele>41.75129</ele>
        <time>2014-06-11T10:01:04.264000Z</time>
      </trkpt>
      <trkpt lat="38.818565" lon="121.14739">
        <ele>41.769604</ele>
        <time>2014-06-11T10:01:07.455000Z</time>
      </trkpt>
      <trkpt lat="38.81847" lon="121.14734">
        <ele>41.719124</ele>
        <time>2014-06-11T10:01:10.646000Z</time>
      </trkpt>
      <trkpt lat="38.818367" lon="121.147316">
        <ele>42.62623</ele>
        <time>2014-06-11T10:01:13.837000Z</time>
      </trkpt>
      <trkpt lat="38.818253" lon="121.147316">
        <ele>45.048492</ele>
        <time>2014-06-11T10:01:17.028000Z</time>
      </trkpt>
      <trkpt lat="38.818165" lon="121.14731">
        <ele>47.54693</ele>
        <time>2014-06-11T10:01:20.219000Z</time>
      </trkpt>
      <trkpt lat="38.818047" lon="121.1473">
        <ele>48.71998</ele>
        <time>2014-06-11T10:01:23.410000Z</time>
      </trkpt>
      <trkpt lat="38.817932" lon="121.1473">
        <ele>48.85597</ele>
        <time>2014-06-11T10:01:26.601000Z</time>
      </trkpt>
      <trkpt lat="38.81784" lon="121.1473">
        <ele>48.605515</ele>
        <time>2014-06-11T10:01:29.792000Z</time>
      </trkpt>
      <trkpt lat="38.81774" lon="121.147285">
        <ele>48.21111</ele>
        <time>2014-06-11T10:01:32.983000Z</time>
      </trkpt>
      <trkpt lat="38.817635" lon="121.14727">
        <ele>47.6663</ele>
        <time>2014-06-11T10:01:36.174000Z</time>
      </trkpt>
      <trkpt lat="38.817543" lon="121.14728">
        <ele>47.183872</ele>
        <time>2014-06-11T10:01:39.365000Z</time>
      </trkpt>
      <trkpt lat="38.817448" lon="121.14729">
        <ele>47.121433</ele>
        <time>2014-06-11T10:01:42.556000Z</time>
      </trkpt>
      <trkpt lat="38.817345" lon="121.14735">
        <ele>47.524147</ele>
        <time>2014-06-11T10:01:45.747000Z</time>
      </trkpt>
      <trkpt lat="38.81726" lon="121.14743">
        <ele>48.0213</ele>
        <time>2014-06-11T10:01:48.938000Z</time>
      </trkpt>
      <trkpt lat="38.817196" lon="121.14755">
        <ele>48.33544</ele>
        <time>2014-06-11T10:01:52.129000Z</time>
      </trkpt>
      <trkpt lat="38.817154" lon="121.14769">
        <ele>48.23022</ele>
        <time>2014-06-11T10:01:55.320000Z</time>
      </trkpt>
      <trkpt lat="38.81714" lon="121.147835">
        <ele>47.509808</ele>
        <time>2014-06-11T10:01:58.511000Z</time>
      </trkpt>
      <trkpt lat="38.81716" lon="121.14798">
        <ele>46.603424</ele>
        <time>2014-06-11T10:02:01.702000Z</time>
      </trkpt>
      <trkpt lat="38.817204" lon="121.14809">
        <ele>46.12644</ele>
        <time>2014-06-11T10:02:04.893000Z</time>
      </trkpt>
      <trkpt lat="38.81727" lon="121.14819">
        <ele>46.10278</ele>
        <time>2014-06-11T10:02:08.084000Z</time>
      </trkpt>
      <trkpt lat="38.817345" lon="121.14826">
        <ele>46.227898</ele>
        <time>2014-06-11T10:02:11.275000Z</time>
      </trkpt>
      <trkpt lat="38.81743" lon="121.14831">
        <ele>45.975246</ele>
        <time>2014-06-11T10:02:14.466000Z</time>
      </trkpt>
      <trkpt lat="38.81753" lon="121.14833">
        <ele>45.178528</ele>
        <time>2014-06-11T10:02:17.657000Z</time>
      </trkpt>
      <trkpt lat="38.817627" lon="121.14834">
        <ele>44.669086</ele>
        <time>2014-06-11T10:02:20.848000Z</time>
      </trkpt>
      <trkpt lat="38.817726" lon="121.14834">
        <ele>45.118374</ele>
        <time>2014-06-11T10:02:24.039000Z</time>
      </trkpt>
      <trkpt lat="38.817833" lon="121.14835">
        <ele>45.975334</ele>
        <time>2014-06-11T10:02:27.230000Z</time>
      </trkpt>
      <trkpt lat="38.817944" lon="121.14836">
        <ele>46.81973</ele>
        <time>2014-06-11T10:02:30.421000Z</time>
      </trkpt>
      <trkpt lat="38.818043" lon="121.14837">
        <ele>47.75158</ele>
        <time>2014-06-11T10:02:33.612000Z</time>
      </trkpt>
      <trkpt lat="38.818157" lon="121.14838">
        <ele>48.479355</ele>
        <time>2014-06-11T10:02:36.803000Z</time>
      </trkpt>
      <trkpt lat="38.818275" lon="121.14838">
        <ele>48.715893</ele>
        <time>2014-06-11T10:02:39.994000Z</time>
      </trkpt>
      <trkpt lat="38.818394" lon="121.14836">
        <ele>48.23709</ele>
        <time>2014-06-11T10:02:43.185000Z</time>
      </trkpt>
      <trkpt lat="38.8185" lon="121.14831">
        <ele>47.040974</ele>
        <time>2014-06-11T10:02:46.376000Z</time>
      </trkpt>
      <trkpt lat="38.81859" lon="121.14822">
        <ele>45.863804</ele>
        <time>2014-06-11T10:02:49.567000Z</time>
      </trkpt>
      <trkpt lat="38.81866" lon="121.14812">
        <ele>45.179703</ele>
        <time>2014-06-11T10:02:52.758000Z</time>
      </trkpt>
      <trkpt lat="38.818714" lon="121.14801">
        <ele>44.306976</ele>
        <time>2014-06-11T10:02:55.949000Z</time>
      </trkpt>
      <trkpt lat="38.818737" lon="121.14788">
        <ele>42.83749</ele>
        <time>2014-06-11T10:02:59.140000Z</time>
      </trkpt>
      <trkpt lat="38.81874" lon="121.14776">
        <ele>40.83835</ele>
        <time>2014-06-11T10:03:02.331000Z</time>
      </trkpt>
      <trkpt lat="38.818718" lon="121.14764">
        <ele>38.595085</ele>
        <time>2014-06-11T10:03:05.522000Z</time>
      </trkpt>
      <trkpt lat="38.818672" lon="121.14753">
        <ele>37.057327</ele>
        <time>2014-06-11T10:03:08.713000Z</time>
      </trkpt>
      <trkpt lat="38.81863" lon="121.14742">
        <ele>36.948265</ele>
        <time>2014-06-11T10:03:11.904000Z</time>
      </trkpt>
      <trkpt lat="38.81854" lon="121.147354">
        <ele>37.75477</ele>
        <time>2014-06-11T10:03:15.095000Z</time>
      </trkpt>
      <trkpt lat="38.81845" lon="121.147316">
        <ele>39.109238</ele>
        <time>2014-06-11T10:03:18.286000Z</time>
      </trkpt>
      <trkpt lat="38.818356" lon="121.14731">
        <ele>40.9162</ele>
        <time>2014-06-11T10:03:21.477000Z</time>
      </trkpt>
      <trkpt lat="38.818264" lon="121.14729">
        <ele>42.85248</ele>
        <time>2014-06-11T10:03:24.668000Z</time>
      </trkpt>
      <trkpt lat="38.81817" lon="121.14729">
        <ele>44.97356</ele>
        <time>2014-06-11T10:03:27.859000Z</time>
      </trkpt>
      <trkpt lat="38.81807" lon="121.14729">
        <ele>47.21569</ele>
        <time>2014-06-11T10:03:31.050000Z</time>
      </trkpt>
      <trkpt lat="38.81797" lon="121.14729">
        <ele>48.77888</ele>
        <time>2014-06-11T10:03:34.241000Z</time>
      </trkpt>
      <trkpt lat="38.817867" lon="121.1473">
        <ele>49.039936</ele>
        <time>2014-06-11T10:03:37.432000Z</time>
      </trkpt>
      <trkpt lat="38.817764" lon="121.14728">
        <ele>47.86588</ele>
        <time>2014-06-11T10:03:40.623000Z</time>
      </trkpt>
      <trkpt lat="38.81765" lon="121.14727">
        <ele>45.84645</ele>
        <time>2014-06-11T10:03:43.814000Z</time>
      </trkpt>
      <trkpt lat="38.81755" lon="121.14726">
        <ele>44.352783</ele>
        <time>2014-06-11T10:03:47.005000Z</time>
      </trkpt>
      <trkpt lat="38.81745" lon="121.1473">
        <ele>44.20788</ele>
        <time>2014-06-11T10:03:50.196000Z</time>
      </trkpt>
      <trkpt lat="38.817368" lon="121.14735">
        <ele>45.271248</ele>
        <time>2014-06-11T10:03:53.387000Z</time>
      </trkpt>
      <trkpt lat="38.81729" lon="121.147415">
        <ele>46.831806</ele>
        <time>2014-06-11T10:03:56.578000Z</time>
      </trkpt>
      <trkpt lat="38.81723" lon="121.147514">
        <ele>47.992443</ele>
        <time>2014-06-11T10:03:59.769000Z</time>
      </trkpt>
      <trkpt lat="38.817177" lon="121.147644">
        <ele>48.2115</ele>
        <time>2014-06-11T10:04:02.960000Z</time>
      </trkpt>
      <trkpt lat="38.81716" lon="121.147766">
        <ele>47.36945</ele>
        <time>2014-06-11T10:04:06.151000Z</time>
      </trkpt>
      <trkpt lat="38.817154" lon="121.147896">
        <ele>45.92981</ele>
        <time>2014-06-11T10:04:09.342000Z</time>
      </trkpt>
      <trkpt lat="38.817173" lon="121.148026">
        <ele>45.04902</ele>
        <time>2014-06-11T10:04:12.533000Z</time>
      </trkpt>
      <trkpt lat="38.817215" lon="121.14813">
        <ele>45.26118</ele>
        <time>2014-06-11T10:04:15.724000Z</time>
      </trkpt>
      <trkpt lat="38.817287" lon="121.14821">
        <ele>45.9223</ele>
        <time>2014-06-11T10:04:18.915000Z</time>
      </trkpt>
      <trkpt lat="38.81739" lon="121.14829">
        <ele>46.35529</ele>
        <time>2014-06-11T10:04:22.106000Z</time>
      </trkpt>
      <trkpt lat="38.81748" lon="121.14833">
        <ele>46.4896</ele>
        <time>2014-06-11T10:04:25.297000Z</time>
      </trkpt>
      <trkpt lat="38.817585" lon="121.14834">
        <ele>46.951202</ele>
        <time>2014-06-11T10:04:28.488000Z</time>
      </trkpt>
      <trkpt lat="38.81769" lon="121.148346">
        <ele>48.153946</ele>
        <time>2014-06-11T10:04:31.679000Z</time>
      </trkpt>
      <trkpt lat="38.81781" lon="121.14835">
        <ele>49.376854</ele>
        <time>2014-06-11T10:04:34.870000Z</time>
      </trkpt>
      <trkpt lat="38.817917" lon="121.14835">
        <ele>49.457577</ele>
        <time>2014-06-11T10:04:38.061000Z</time>
      </trkpt>
      <trkpt lat="38.81804" lon="121.14837">
        <ele>47.97805</ele>
        <time>2014-06-11T10:04:41.252000Z</time>
      </trkpt>
      <trkpt lat="38.818146" lon="121.14838">
        <ele>45.760696</ele>
        <time>2014-06-11T10:04:44.443000Z</time>
      </trkpt>
      <trkpt lat="38.818237" lon="121.148384">
        <ele>44.20524</ele>
        <time>2014-06-11T10:04:47.634000Z</time>
      </trkpt>
      <trkpt lat="38.81833" lon="121.1484">
        <ele>43.863888</ele>
        <time>2014-06-11T10:04:50.825000Z</time>
      </trkpt>
      <trkpt lat="38.81842" lon="121.148384">
        <ele>44.337868</ele>
        <time>2014-06-11T10:04:54.016000Z</time>
      </trkpt>
      <trkpt lat="38.818516" lon="121.14833">
        <ele>44.94394</ele>
        <time>2014-06-11T10:04:57.207000Z</time>
      </trkpt>
      <trkpt lat="38.81859" lon="121.148254">
        <ele>45.54951</ele>
        <time>2014-06-11T10:05:00.398000Z</time>
      </trkpt>
      <trkpt lat="38.818665" lon="121.14813">
        <ele>46.221306</ele>
        <time>2014-06-11T10:05:03.589000Z</time>
      </trkpt>
      <trkpt lat="38.818703" lon="121.148026">
        <ele>46.69102</ele>
        <time>2014-06-11T10:05:06.780000Z</time>
      </trkpt>
      <trkpt lat="38.81873" lon="121.14791">
        <ele>46.80429</ele>
        <time>2014-06-11T10:05:09.971000Z</time>
      </trkpt>
      <trkpt lat="38.818737" lon="121.14779">
        <ele>46.439644</ele>
        <time>2014-06-11T10:05:13.162000Z</time>
      </trkpt>
      <trkpt lat="38.81872" lon="121.14767">
        <ele>45.36582</ele>
        <time>2014-06-11T10:05:16.353000Z</time>
      </trkpt>
      <trkpt lat="38.818676" lon="121.14755">
        <ele>44.00009</ele>
        <time>2014-06-11T10:05:19.544000Z</time>
      </trkpt>
      <trkpt lat="38.8186" lon="121.14744">
        <ele>43.059124</ele>
        <time>2014-06-11T10:05:22.735000Z</time>
      </trkpt>
      <trkpt lat="38.818504" lon="121.14737">
        <ele>42.741856</ele>
        <time>2014-06-11T10:05:25.926000Z</time>
      </trkpt>
      <trkpt lat="38.8184" lon="121.14733">
        <ele>43.50719</ele>
        <time>2014-06-11T10:05:29.117000Z</time>
      </trkpt>
      <trkpt lat="38.818306" lon="121.147316">
        <ele>45.581703</ele>
        <time>2014-06-11T10:05:32.308000Z</time>
      </trkpt>
      <trkpt lat="38.818207" lon="121.14731">
        <ele>47.85411</ele>
        <time>2014-06-11T10:05:35.499000Z</time>
      </trkpt>
      <trkpt lat="38.818108" lon="121.147316">
        <ele>49.372147</ele>
        <time>2014-06-11T10:05:38.690000Z</time>
      </trkpt>
      <trkpt lat="38.818016" lon="121.147316">
        <ele>50.231945</ele>
        <time>2014-06-11T10:05:41.881000Z</time>
      </trkpt>
      <trkpt lat="38.817917" lon="121.147316">
        <ele>50.560116</ele>
        <time>2014-06-11T10:05:45.072000Z</time>
      </trkpt>
      <trkpt lat="38.817802" lon="121.14731">
        <ele>50.543182</ele>
        <time>2014-06-11T10:05:48.263000Z</time>
      </trkpt>
      <trkpt lat="38.817715" lon="121.1473">
        <ele>50.350544</ele>
        <time>2014-06-11T10:05:51.454000Z</time>
      </trkpt>
      <trkpt lat="38.81761" lon="121.14729">
        <ele>50.179058</ele>
        <time>2014-06-11T10:05:54.645000Z</time>
      </trkpt>
      <trkpt lat="38.817516" lon="121.1473">
        <ele>50.24986</ele>
        <time>2014-06-11T10:05:57.836000Z</time>
      </trkpt>
      <trkpt lat="38.817413" lon="121.14733">
        <ele>50.467598</ele>
        <time>2014-06-11T10:06:01.027000Z</time>
      </trkpt>
      <trkpt lat="38.817318" lon="121.14739">
        <ele>50.604153</ele>
        <time>2014-06-11T10:06:04.218000Z</time>
      </trkpt>
      <trkpt lat="38.817245" lon="121.14747">
        <ele>50.59122</ele>
        <time>2014-06-11T10:06:07.409000Z</time>
      </trkpt>
      <trkpt lat="38.8172" lon="121.14757">
        <ele>50.443333</ele>
        <time>2014-06-11T10:06:10.600000Z</time>
      </trkpt>
      <trkpt lat="38.817154" lon="121.1477">
        <ele>50.245636</ele>
        <time>2014-06-11T10:06:13.791000Z</time>
      </trkpt>
      <trkpt lat="38.81714" lon="121.14782">
        <ele>50.07131</ele>
        <time>2014-06-11T10:06:16.982000Z</time>
      </trkpt>
      <trkpt lat="38.817158" lon="121.147964">
        <ele>49.959946</ele>
        <time>2014-06-11T10:06:20.173000Z</time>
      </trkpt>
      <trkpt lat="38.81721" lon="121.1481">
        <ele>49.45511</ele>
        <time>2014-06-11T10:06:23.364000Z</time>
      </trkpt>
      <trkpt lat="38.817284" lon="121.1482">
        <ele>48.235073</ele>
        <time>2014-06-11T10:06:26.555000Z</time>
      </trkpt>
      <trkpt lat="38.817368" lon="121.14827">
        <ele>46.99072</ele>
        <time>2014-06-11T10:06:29.746000Z</time>
      </trkpt>
      <trkpt lat="38.81747" lon="121.14832">
        <ele>46.46283</ele>
        <time>2014-06-11T10:06:32.937000Z</time>
      </trkpt>
      <trkpt lat="38.817574" lon="121.148346">
        <ele>46.531963</ele>
        <time>2014-06-11T10:06:36.128000Z</time>
      </trkpt>
      <trkpt lat="38.817665" lon="121.14835">
        <ele>46.794563</ele>
        <time>2014-06-11T10:06:39.319000Z</time>
      </trkpt>
      <trkpt lat="38.817772" lon="121.148346">
        <ele>47.036125</ele>
        <time>2014-06-11T10:06:42.510000Z</time>
      </trkpt>
      <trkpt lat="38.817863" lon="121.148346">
        <ele>47.331596</ele>
        <time>2014-06-11T10:06:45.701000Z</time>
      </trkpt>
      <trkpt lat="38.817966" lon="121.148346">
        <ele>47.67929</ele>
        <time>2014-06-11T10:06:48.892000Z</time>
      </trkpt>
      <trkpt lat="38.818077" lon="121.148346">
        <ele>47.79212</ele>
        <time>2014-06-11T10:06:52.083000Z</time>
      </trkpt>
      <trkpt lat="38.81818" lon="121.14836">
        <ele>47.519966</ele>
        <time>2014-06-11T10:06:55.274000Z</time>
      </trkpt>
      <trkpt lat="38.81828" lon="121.14837">
        <ele>47.133446</ele>
        <time>2014-06-11T10:06:58.465000Z</time>
      </trkpt>
      <trkpt lat="38.81837" lon="121.14837">
        <ele>46.975132</ele>
        <time>2014-06-11T10:07:01.656000Z</time>
      </trkpt>
      <trkpt lat="38.818462" lon="121.14836">
        <ele>47.08255</ele>
        <time>2014-06-11T10:07:04.847000Z</time>
      </trkpt>
      <trkpt lat="38.81857" lon="121.14827">
        <ele>47.242714</ele>
        <time>2014-06-11T10:07:08.038000Z</time>
      </trkpt>
      <trkpt lat="38.81866" lon="121.148155">
        <ele>47.193798</ele>
        <time>2014-06-11T10:07:11.229000Z</time>
      </trkpt>
      <trkpt lat="38.81872" lon="121.14804">
        <ele>46.11886</ele>
        <time>2014-06-11T10:07:14.420000Z</time>
      </trkpt>
      <trkpt lat="38.818752" lon="121.147934">
        <ele>43.578262</ele>
        <time>2014-06-11T10:07:17.611000Z</time>
      </trkpt>
      <trkpt lat="38.81875" lon="121.14779">
        <ele>40.711727</ele>
        <time>2014-06-11T10:07:20.802000Z</time>
      </trkpt>
      <trkpt lat="38.81872" lon="121.14765">
        <ele>38.572132</ele>
        <time>2014-06-11T10:07:23.993000Z</time>
      </trkpt>
      <trkpt lat="38.818665" lon="121.14754">
        <ele>37.132145</ele>
        <time>2014-06-11T10:07:27.184000Z</time>
      </trkpt>
      <trkpt lat="38.818592" lon="121.147446">
        <ele>36.995262</ele>
        <time>2014-06-11T10:07:30.375000Z</time>
      </trkpt>
      <trkpt lat="38.8185" lon="121.14737">
        <ele>38.96171</ele>
        <time>2014-06-11T10:07:33.566000Z</time>
      </trkpt>
      <trkpt lat="38.818405" lon="121.14733">
        <ele>42.240795</ele>
        <time>2014-06-11T10:07:36.757000Z</time>
      </trkpt>
      <trkpt lat="38.818302" lon="121.147316">
        <ele>45.41551</ele>
        <time>2014-06-11T10:07:39.948000Z</time>
      </trkpt>
      <trkpt lat="38.818203" lon="121.147316">
        <ele>48.00642</ele>
        <time>2014-06-11T10:07:43.139000Z</time>
      </trkpt>
      <trkpt lat="38.818104" lon="121.14732">
        <ele>49.809204</ele>
        <time>2014-06-11T10:07:46.330000Z</time>
      </trkpt>
      <trkpt lat="38.818" lon="121.14733">
        <ele>50.6057</ele>
        <time>2014-06-11T10:07:49.521000Z</time>
      </trkpt>
      <trkpt lat="38.817898" lon="121.14733">
        <ele>50.94057</ele>
        <time>2014-06-11T10:07:52.712000Z</time>
      </trkpt>
      <trkpt lat="38.8178" lon="121.147316">
        <ele>51.427814</ele>
        <time>2014-06-11T10:07:55.903000Z</time>
      </trkpt>
      <trkpt lat="38.81769" lon="121.1473">
        <ele>51.81245</ele>
        <time>2014-06-11T10:07:59.094000Z</time>
      </trkpt>
      <trkpt lat="38.8176" lon="121.14729">
        <ele>51.676495</ele>
        <time>2014-06-11T10:08:02.285000Z</time>
      </trkpt>
      <trkpt lat="38.817497" lon="121.14729">
        <ele>51.069954</ele>
        <time>2014-06-11T10:08:05.476000Z</time>
      </trkpt>
      <trkpt lat="38.817394" lon="121.14733">
        <ele>50.2572</ele>
        <time>2014-06-11T10:08:08.667000Z</time>
      </trkpt>
      <trkpt lat="38.817303" lon="121.1474">
        <ele>49.800728</ele>
        <time>2014-06-11T10:08:11.858000Z</time>
      </trkpt>
      <trkpt lat="38.817226" lon="121.147484">
        <ele>50.050983</ele>
        <time>2014-06-11T10:08:15.049000Z</time>
      </trkpt>
      <trkpt lat="38.817177" lon="121.14763">
        <ele>50.610096</ele>
        <time>2014-06-11T10:08:18.240000Z</time>
      </trkpt>
      <trkpt lat="38.817154" lon="121.147766">
        <ele>50.761017</ele>
        <time>2014-06-11T10:08:21.431000Z</time>
      </trkpt>
      <trkpt lat="38.817154" lon="121.1479">
        <ele>50.23744</ele>
        <time>2014-06-11T10:08:24.622000Z</time>
      </trkpt>
      <trkpt lat="38.817204" lon="121.14806">
        <ele>49.41956</ele>
        <time>2014-06-11T10:08:27.813000Z</time>
      </trkpt>
      <trkpt lat="38.81727" lon="121.14817">
        <ele>48.509865</ele>
        <time>2014-06-11T10:08:31.004000Z</time>
      </trkpt>
      <trkpt lat="38.817345" lon="121.148254">
        <ele>47.346497</ele>
        <time>2014-06-11T10:08:34.195000Z</time>
      </trkpt>
      <trkpt lat="38.817432" lon="121.14829">
        <ele>45.909554</ele>
        <time>2014-06-11T10:08:37.386000Z</time>
      </trkpt>
      <trkpt lat="38.817528" lon="121.14831">
        <ele>44.471817</ele>
        <time>2014-06-11T10:08:40.577000Z</time>
      </trkpt>
      <trkpt lat="38.817642" lon="121.14834">
        <ele>43.698162</ele>
        <time>2014-06-11T10:08:43.768000Z</time>
      </trkpt>
      <trkpt lat="38.81774" lon="121.148346">
        <ele>43.89809</ele>
        <time>2014-06-11T10:08:46.959000Z</time>
      </trkpt>
      <trkpt lat="38.81783" lon="121.14835">
        <ele>44.46969</ele>
        <time>2014-06-11T10:08:50.150000Z</time>
      </trkpt>
      <trkpt lat="38.817932" lon="121.14836">
        <ele>44.96785</ele>
        <time>2014-06-11T10:08:53.341000Z</time>
      </trkpt>
      <trkpt lat="38.81805" lon="121.14837">
        <ele>45.41172</ele>
        <time>2014-06-11T10:08:56.532000Z</time>
      </trkpt>
      <trkpt lat="38.818153" lon="121.14837">
        <ele>45.766582</ele>
        <time>2014-06-11T10:08:59.723000Z</time>
      </trkpt>
      <trkpt lat="38.818275" lon="121.14838">
        <ele>46.38686</ele>
        <time>2014-06-11T10:09:02.914000Z</time>
      </trkpt>
      <trkpt lat="38.818375" lon="121.14838">
        <ele>47.54948</ele>
        <time>2014-06-11T10:09:06.105000Z</time>
      </trkpt>
      <trkpt lat="38.818474" lon="121.14833">
        <ele>48.543888</ele>
        <time>2014-06-11T10:09:09.296000Z</time>
      </trkpt>
      <trkpt lat="38.818584" lon="121.14823">
        <ele>48.74736</ele>
        <time>2014-06-11T10:09:12.487000Z</time>
      </trkpt>
      <trkpt lat="38.818657" lon="121.14813">
        <ele>48.20606</ele>
        <time>2014-06-11T10:09:15.678000Z</time>
      </trkpt>
      <trkpt lat="38.81871" lon="121.148026">
        <ele>47.03992</ele>
        <time>2014-06-11T10:09:18.869000Z</time>
      </trkpt>
      <trkpt lat="38.81874" lon="121.14788">
        <ele>45.624325</ele>
        <time>2014-06-11T10:09:22.060000Z</time>
      </trkpt>
      <trkpt lat="38.818745" lon="121.14775">
        <ele>44.07279</ele>
        <time>2014-06-11T10:09:25.251000Z</time>
      </trkpt>
      <trkpt lat="38.818726" lon="121.14763">
        <ele>42.34951</ele>
        <time>2014-06-11T10:09:28.442000Z</time>
      </trkpt>
      <trkpt lat="38.818676" lon="121.147514">
        <ele>41.036545</ele>
        <time>2014-06-11T10:09:31.633000Z</time>
      </trkpt>
      <trkpt lat="38.818596" lon="121.14741">
        <ele>40.844437</ele>
        <time>2014-06-11T10:09:34.824000Z</time>
      </trkpt>
      <trkpt lat="38.8185" lon="121.14733">
        <ele>41.85238</ele>
        <time>2014-06-11T10:09:38.015000Z</time>
      </trkpt>
      <trkpt lat="38.818405" lon="121.14729">
        <ele>43.733704</ele>
        <time>2014-06-11T10:09:41.206000Z</time>
      </trkpt>
      <trkpt lat="38.8183" lon="121.147285">
        <ele>45.810062</ele>
        <time>2014-06-11T10:09:44.397000Z</time>
      </trkpt>
      <trkpt lat="38.818184" lon="121.14729">
        <ele>47.624825</ele>
        <time>2014-06-11T10:09:47.588000Z</time>
      </trkpt>
      <trkpt lat="38.818077" lon="121.14729">
        <ele>49.221943</ele>
        <time>2014-06-11T10:09:50.779000Z</time>
      </trkpt>
      <trkpt lat="38.817963" lon="121.147285">
        <ele>50.661922</ele>
        <time>2014-06-11T10:09:53.970000Z</time>
      </trkpt>
      <trkpt lat="38.817867" lon="121.14728">
        <ele>51.559536</ele>
        <time>2014-06-11T10:09:57.161000Z</time>
      </trkpt>
      <trkpt lat="38.817764" lon="121.14728">
        <ele>51.15007</ele>
        <time>2014-06-11T10:10:00.352000Z</time>
      </trkpt>
      <trkpt lat="38.817673" lon="121.147285">
        <ele>49.2188</ele>
        <time>2014-06-11T10:10:03.543000Z</time>
      </trkpt>
      <trkpt lat="38.817562" lon="121.14728">
        <ele>46.964474</ele>
        <time>2014-06-11T10:10:06.734000Z</time>
      </trkpt>
      <trkpt lat="38.817467" lon="121.147285">
        <ele>46.269398</ele>
        <time>2014-06-11T10:10:09.925000Z</time>
      </trkpt>
      <trkpt lat="38.817368" lon="121.14734">
        <ele>47.631046</ele>
        <time>2014-06-11T10:10:13.116000Z</time>
      </trkpt>
      <trkpt lat="38.817276" lon="121.14742">
        <ele>49.65398</ele>
        <time>2014-06-11T10:10:16.306000Z</time>
      </trkpt>
      <trkpt lat="38.817204" lon="121.147514">
        <ele>50.99709</ele>
        <time>2014-06-11T10:10:19.496000Z</time>
      </trkpt>
      <trkpt lat="38.817154" lon="121.147644">
        <ele>51.593937</ele>
        <time>2014-06-11T10:10:22.686000Z</time>
      </trkpt>
      <trkpt lat="38.817142" lon="121.147766">
        <ele>51.414608</ele>
        <time>2014-06-11T10:10:25.876000Z</time>
      </trkpt>
      <trkpt lat="38.817146" lon="121.1479">
        <ele>50.390873</ele>
        <time>2014-06-11T10:10:29.066000Z</time>
      </trkpt>
      <trkpt lat="38.817184" lon="121.14803">
        <ele>48.72322</ele>
        <time>2014-06-11T10:10:32.256000Z</time>
      </trkpt>
      <trkpt lat="38.817257" lon="121.148155">
        <ele>46.931084</ele>
        <time>2014-06-11T10:10:35.446000Z</time>
      </trkpt>
      <trkpt lat="38.81733" lon="121.14824">
        <ele>45.696095</ele>
        <time>2014-06-11T10:10:38.636000Z</time>
      </trkpt>
      <trkpt lat="38.817444" lon="121.1483">
        <ele>45.284973</ele>
        <time>2014-06-11T10:10:41.826000Z</time>
      </trkpt>
      <trkpt lat="38.81756" lon="121.14832">
        <ele>45.504955</ele>
        <time>2014-06-11T10:10:45.016000Z</time>
      </trkpt>
      <trkpt lat="38.81765" lon="121.14834">
        <ele>45.8222</ele>
        <time>2014-06-11T10:10:48.206000Z</time>
      </trkpt>
      <trkpt lat="38.81775" lon="121.14834">
        <ele>46.33283</ele>
        <time>2014-06-11T10:10:51.396000Z</time>
      </trkpt>
      <trkpt lat="38.81785" lon="121.14835">
        <ele>47.04301</ele>
        <time>2014-06-11T10:10:54.586000Z</time>
      </trkpt>
      <trkpt lat="38.81795" lon="121.14836">
        <ele>47.04112</ele>
        <time>2014-06-11T10:10:57.776000Z</time>
      </trkpt>
      <trkpt lat="38.818047" lon="121.14837">
        <ele>46.2479</ele>
        <time>2014-06-11T10:11:00.966000Z</time>
      </trkpt>
      <trkpt lat="38.818142" lon="121.14838">
        <ele>45.836155</ele>
        <time>2014-06-11T10:11:04.156000Z</time>
      </trkpt>
      <trkpt lat="38.81824" lon="121.14837">
        <ele>46.093777</ele>
        <time>2014-06-11T10:11:07.346000Z</time>
      </trkpt>
      <trkpt lat="38.818348" lon="121.14838">
        <ele>46.67516</ele>
        <time>2014-06-11T10:11:10.536000Z</time>
      </trkpt>
      <trkpt lat="38.818443" lon="121.14838">
        <ele>47.0392</ele>
        <time>2014-06-11T10:11:13.726000Z</time>
      </trkpt>
      <trkpt lat="38.818527" lon="121.14832">
        <ele>46.860073</ele>
        <time>2014-06-11T10:11:16.916000Z</time>
      </trkpt>
      <trkpt lat="38.818607" lon="121.14824">
        <ele>46.317493</ele>
        <time>2014-06-11T10:11:20.106000Z</time>
      </trkpt>
      <trkpt lat="38.818687" lon="121.148125">
        <ele>45.82289</ele>
        <time>2014-06-11T10:11:23.296000Z</time>
      </trkpt>
      <trkpt lat="38.818733" lon="121.147995">
        <ele>45.24452</ele>
        <time>2014-06-11T10:11:26.486000Z</time>
      </trkpt>
      <trkpt lat="38.818752" lon="121.14787">
        <ele>44.20692</ele>
        <time>2014-06-11T10:11:29.676000Z</time>
      </trkpt>
      <trkpt lat="38.81875" lon="121.14774">
        <ele>42.934185</ele>
        <time>2014-06-11T10:11:32.866000Z</time>
      </trkpt>
      <trkpt lat="38.818714" lon="121.14762">
        <ele>42.203957</ele>
        <time>2014-06-11T10:11:36.056000Z</time>
      </trkpt>
      <trkpt lat="38.81866" lon="121.147514">
        <ele>42.42391</ele>
        <time>2014-06-11T10:11:39.246000Z</time>
      </trkpt>
      <trkpt lat="38.81859" lon="121.147415">
        <ele>43.1841</ele>
        <time>2014-06-11T10:11:42.436000Z</time>
      </trkpt>
      <trkpt lat="38.81849" lon="121.14734">
        <ele>43.82056</ele>
        <time>2014-06-11T10:11:45.626000Z</time>
      </trkpt>
      <trkpt lat="38.81838" lon="121.147316">
        <ele>44.71673</ele>
        <time>2014-06-11T10:11:48.816000Z</time>
      </trkpt>
      <trkpt lat="38.818275" lon="121.1473">
        <ele>46.562065</ele>
        <time>2014-06-11T10:11:52.006000Z</time>
      </trkpt>
      <trkpt lat="38.81815" lon="121.1473">
        <ele>48.672665</ele>
        <time>2014-06-11T10:11:55.196000Z</time>
      </trkpt>
      <trkpt lat="38.818058" lon="121.14731">
        <ele>49.92428</ele>
        <time>2014-06-11T10:11:58.386000Z</time>
      </trkpt>
      <trkpt lat="38.817955" lon="121.14729">
        <ele>49.911793</ele>
        <time>2014-06-11T10:12:01.576000Z</time>
      </trkpt>
      <trkpt lat="38.817856" lon="121.147285">
        <ele>48.54307</ele>
        <time>2014-06-11T10:12:04.766000Z</time>
      </trkpt>
      <trkpt lat="38.81776" lon="121.14729">
        <ele>46.44982</ele>
        <time>2014-06-11T10:12:07.956000Z</time>
      </trkpt>
      <trkpt lat="38.817665" lon="121.147285">
        <ele>44.475903</ele>
        <time>2014-06-11T10:12:11.146000Z</time>
      </trkpt>
      <trkpt lat="38.817562" lon="121.14728">
        <ele>42.94342</ele>
        <time>2014-06-11T10:12:14.336000Z</time>
      </trkpt>
      <trkpt lat="38.81746" lon="121.1473">
        <ele>42.220913</ele>
        <time>2014-06-11T10:12:17.526000Z</time>
      </trkpt>
      <trkpt lat="38.81735" lon="121.14736">
        <ele>42.459293</ele>
        <time>2014-06-11T10:12:20.716000Z</time>
      </trkpt>
      <trkpt lat="38.817272" lon="121.14744">
        <ele>43.564266</ele>
        <time>2014-06-11T10:12:23.906000Z</time>
      </trkpt>
      <trkpt lat="38.817215" lon="121.147545">
        <ele>45.30206</ele>
        <time>2014-06-11T10:12:27.096000Z</time>
      </trkpt>
      <trkpt lat="38.81718" lon="121.14766">
        <ele>46.028675</ele>
        <time>2014-06-11T10:12:30.286000Z</time>
      </trkpt>
      <trkpt lat="38.81717" lon="121.14781">
        <ele>44.547913</ele>
        <time>2014-06-11T10:12:33.476000Z</time>
      </trkpt>
      <trkpt lat="38.817177" lon="121.14795">
        <ele>42.30161</ele>
        <time>2014-06-11T10:12:36.666000Z</time>
      </trkpt>
      <trkpt lat="38.81721" lon="121.14808">
        <ele>41.105045</ele>
        <time>2014-06-11T10:12:39.856000Z</time>
      </trkpt>
      <trkpt lat="38.817276" lon="121.14819">
        <ele>41.115696</ele>
        <time>2014-06-11T10:12:43.046000Z</time>
      </trkpt>
      <trkpt lat="38.81738" lon="121.14827">
        <ele>41.610588</ele>
        <time>2014-06-11T10:12:46.236000Z</time>
      </trkpt>
      <trkpt lat="38.81748" lon="121.14829">
        <ele>42.386852</ele>
        <time>2014-06-11T10:12:49.426000Z</time>
      </trkpt>
      <trkpt lat="38.817574" lon="121.148315">
        <ele>43.599712</ele>
        <time>2014-06-11T10:12:52.616000Z</time>
      </trkpt>
      <trkpt lat="38.817673" lon="121.14833">
        <ele>44.72709</ele>
        <time>2014-06-11T10:12:55.806000Z</time>
      </trkpt>
      <trkpt lat="38.817776" lon="121.14834">
        <ele>45.10483</ele>
        <time>2014-06-11T10:12:58.996000Z</time>
      </trkpt>
      <trkpt lat="38.81788" lon="121.148346">
        <ele>44.80777</ele>
        <time>2014-06-11T10:13:02.186000Z</time>
      </trkpt>
      <trkpt lat="38.817974" lon="121.14835">
        <ele>44.455357</ele>
        <time>2014-06-11T10:13:05.376000Z</time>
      </trkpt>
      <trkpt lat="38.81807" lon="121.14836">
        <ele>44.56577</ele>
        <time>2014-06-11T10:13:08.566000Z</time>
      </trkpt>
      <trkpt lat="38.81818" lon="121.148346">
        <ele>45.530544</ele>
        <time>2014-06-11T10:13:11.756000Z</time>
      </trkpt>
      <trkpt lat="38.818287" lon="121.148346">
        <ele>47.28027</ele>
        <time>2014-06-11T10:13:14.946000Z</time>
      </trkpt>
      <trkpt lat="38.818398" lon="121.148346">
        <ele>48.810703</ele>
        <time>2014-06-11T10:13:18.136000Z</time>
      </trkpt>
      <trkpt lat="38.818504" lon="121.1483">
        <ele>49.113342</ele>
        <time>2014-06-11T10:13:21.326000Z</time>
      </trkpt>
      <trkpt lat="38.818596" lon="121.14823">
        <ele>48.270233</ele>
        <time>2014-06-11T10:13:24.516000Z</time>
      </trkpt>
      <trkpt lat="38.818665" lon="121.14814">
        <ele>46.81204</ele>
        <time>2014-06-11T10:13:27.706000Z</time>
      </trkpt>
      <trkpt lat="38.818714" lon="121.14803">
        <ele>45.24259</ele>
        <time>2014-06-11T10:13:30.896000Z</time>
      </trkpt>
      <trkpt lat="38.818752" lon="121.14791">
        <ele>44.053856</ele>
        <time>2014-06-11T10:13:34.086000Z</time>
      </trkpt>
      <trkpt lat="38.818745" lon="121.147766">
        <ele>43.66159</ele>
        <time>2014-06-11T10:13:37.276000Z</time>
      </trkpt>
      <trkpt lat="38.818707" lon="121.14763">
        <ele>43.92949</ele>
        <time>2014-06-11T10:13:40.466000Z</time>
      </trkpt>
      <trkpt lat="38.818657" lon="121.14752">
        <ele>44.144703</ele>
        <time>2014-06-11T10:13:43.656000Z</time>
      </trkpt>
      <trkpt lat="38.818577" lon="121.14742">
        <ele>43.824474</ele>
        <time>2014-06-11T10:13:46.846000Z</time>
      </trkpt>
      <trkpt lat="38.818466" lon="121.14735">
        <ele>43.557724</ele>
        <time>2014-06-11T10:13:50.036000Z</time>
      </trkpt>
      <trkpt lat="38.818348" lon="121.14732">
        <ele>43.91962</ele>
        <time>2014-06-11T10:13:53.226000Z</time>
      </trkpt>
      <trkpt lat="38.81825" lon="121.147316">
        <ele>44.52213</ele>
        <time>2014-06-11T10:13:56.416000Z</time>
      </trkpt>
      <trkpt lat="38.81814" lon="121.147316">
        <ele>45.023594</ele>
        <time>2014-06-11T10:13:59.606000Z</time>
      </trkpt>
      <trkpt lat="38.818035" lon="121.14731">
        <ele>45.509693</ele>
        <time>2014-06-11T10:14:02.796000Z</time>
      </trkpt>
      <trkpt lat="38.817924" lon="121.14731">
        <ele>45.84357</ele>
        <time>2014-06-11T10:14:05.986000Z</time>
      </trkpt>
      <trkpt lat="38.81782" lon="121.14731">
        <ele>45.881508</ele>
        <time>2014-06-11T10:14:09.176000Z</time>
      </trkpt>
      <trkpt lat="38.817722" lon="121.14731">
        <ele>45.993526</ele>
        <time>2014-06-11T10:14:12.366000Z</time>
      </trkpt>
      <trkpt lat="38.81762" lon="121.1473">
        <ele>46.47249</ele>
        <time>2014-06-11T10:14:15.556000Z</time>
      </trkpt>
      <trkpt lat="38.81752" lon="121.1473">
        <ele>47.166866</ele>
        <time>2014-06-11T10:14:18.746000Z</time>
      </trkpt>
      <trkpt lat="38.817425" lon="121.14733">
        <ele>47.82531</ele>
        <time>2014-06-11T10:14:21.936000Z</time>
      </trkpt>
      <trkpt lat="38.817337" lon="121.147385">
        <ele>48.26982</ele>
        <time>2014-06-11T10:14:25.126000Z</time>
      </trkpt>
      <trkpt lat="38.81726" lon="121.147484">
        <ele>48.30858</ele>
        <time>2014-06-11T10:14:28.316000Z</time>
      </trkpt>
      <trkpt lat="38.8172" lon="121.147606">
        <ele>48.01118</ele>
        <time>2014-06-11T10:14:31.506000Z</time>
      </trkpt>
      <trkpt lat="38.817165" lon="121.14774">
        <ele>47.716045</ele>
        <time>2014-06-11T10:14:34.696000Z</time>
      </trkpt>
      <trkpt lat="38.817165" lon="121.1479">
        <ele>47.666718</ele>
        <time>2014-06-11T10:14:37.886000Z</time>
      </trkpt>
      <trkpt lat="38.817196" lon="121.14805">
        <ele>47.32257</ele>
        <time>2014-06-11T10:14:41.076000Z</time>
      </trkpt>
      <trkpt lat="38.81726" lon="121.14816">
        <ele>46.265327</ele>
        <time>2014-06-11T10:14:44.266000Z</time>
      </trkpt>
      <trkpt lat="38.817345" lon="121.148254">
        <ele>45.12179</ele>
        <time>2014-06-11T10:14:47.456000Z</time>
      </trkpt>
      <trkpt lat="38.817448" lon="121.14831">
        <ele>44.637386</ele>
        <time>2014-06-11T10:14:50.646000Z</time>
      </trkpt>
      <trkpt lat="38.81755" lon="121.14833">
        <ele>44.853806</ele>
        <time>2014-06-11T10:14:53.836000Z</time>
      </trkpt>
      <trkpt lat="38.81764" lon="121.14834">
        <ele>45.47884</ele>
        <time>2014-06-11T10:14:57.026000Z</time>
      </trkpt>
      <trkpt lat="38.817745" lon="121.148346">
        <ele>46.83906</ele>
        <time>2014-06-11T10:15:00.216000Z</time>
      </trkpt>
      <trkpt lat="38.81785" lon="121.148346">
        <ele>49.134804</ele>
        <time>2014-06-11T10:15:03.406000Z</time>
      </trkpt>
      <trkpt lat="38.81795" lon="121.148346">
        <ele>50.897625</ele>
        <time>2014-06-11T10:15:06.596000Z</time>
      </trkpt>
      <trkpt lat="38.818047" lon="121.148346">
        <ele>50.957653</ele>
        <time>2014-06-11T10:15:09.786000Z</time>
      </trkpt>
      <trkpt lat="38.81814" lon="121.14836">
        <ele>50.569424</ele>
        <time>2014-06-11T10:15:12.976000Z</time>
      </trkpt>
      <trkpt lat="38.818253" lon="121.14836">
        <ele>50.999477</ele>
        <time>2014-06-11T10:15:16.166000Z</time>
      </trkpt>
      <trkpt lat="38.81836" lon="121.14837">
        <ele>51.362385</ele>
        <time>2014-06-11T10:15:19.356000Z</time>
      </trkpt>
      <trkpt lat="38.818474" lon="121.14833">
        <ele>50.452656</ele>
        <time>2014-06-11T10:15:22.546000Z</time>
      </trkpt>
      <trkpt lat="38.818573" lon="121.14827">
        <ele>48.77595</ele>
        <time>2014-06-11T10:15:25.736000Z</time>
      </trkpt>
      <trkpt lat="38.81865" lon="121.14817">
        <ele>46.984634</ele>
        <time>2014-06-11T10:15:28.926000Z</time>
      </trkpt>
      <trkpt lat="38.818714" lon="121.14806">
        <ele>45.158028</ele>
        <time>2014-06-11T10:15:32.116000Z</time>
      </trkpt>
      <trkpt lat="38.818752" lon="121.14795">
        <ele>43.741413</ele>
        <time>2014-06-11T10:15:35.306000Z</time>
      </trkpt>
      <trkpt lat="38.81876" lon="121.147804">
        <ele>43.135174</ele>
        <time>2014-06-11T10:15:38.496000Z</time>
      </trkpt>
      <trkpt lat="38.818733" lon="121.147675">
        <ele>43.321526</ele>
        <time>2014-06-11T10:15:41.686000Z</time>
      </trkpt>
      <trkpt lat="38.818684" lon="121.14756">
        <ele>44.042564</ele>
        <time>2014-06-11T10:15:44.876000Z</time>
      </trkpt>
      <trkpt lat="38.81862" lon="121.147446">
        <ele>44.37979</ele>
        <time>2014-06-11T10:15:48.066000Z</time>
      </trkpt>
      <trkpt lat="38.81853" lon="121.14737">
        <ele>43.796833</ele>
        <time>2014-06-11T10:15:51.256000Z</time>
      </trkpt>
      <trkpt lat="38.81843" lon="121.14733">
        <ele>43.461174</ele>
        <time>2014-06-11T10:15:54.446000Z</time>
      </trkpt>
      <trkpt lat="38.818317" lon="121.14732">
        <ele>44.45919</ele>
        <time>2014-06-11T10:15:57.636000Z</time>
      </trkpt>
      <trkpt lat="38.818317" lon="121.14732">
        <ele>46.002106</ele>
        <time>2014-06-11T10:16:00.826000Z</time>
      </trkpt>
      <trkpt lat="38.818226" lon="121.14732">
        <ele>47.031754</ele>
        <time>2014-06-11T10:16:04.016000Z</time>
      </trkpt>
      <trkpt lat="38.818127" lon="121.14733">
        <ele>47.493946</ele>
        <time>2014-06-11T10:16:07.206000Z</time>
      </trkpt>
      <trkpt lat="38.81803" lon="121.14733">
        <ele>48.025578</ele>
        <time>2014-06-11T10:16:10.396000Z</time>
      </trkpt>
      <trkpt lat="38.81792" lon="121.14732">
        <ele>49.180355</ele>
        <time>2014-06-11T10:16:13.586000Z</time>
      </trkpt>
      <trkpt lat="38.81792" lon="121.14732">
        <ele>50.546173</ele>
        <time>2014-06-11T10:16:16.776000Z</time>
      </trkpt>
      <trkpt lat="38.817825" lon="121.147316">
        <time>2014-06-11T10:16:19.966000Z</time>
      </trkpt>
    </trkseg>
  </trk>
</gpx>