<?xml version="1.0" encoding="UTF-8"?>
<gpx xmlns="http://www.topografix.com/GPX/1/1" xmlns:gpxtpx="http://www.garmin.com/xmlschemas/TrackPointExtension/v1" xmlns:xsi="http://www.w3.org/2001/XMLSchema-instance" xsi:schemaLocation="http://www.topografix.com/GPX/1/1 http://www.topografix.com/GPX/1/1/gpx.xsd" version="1.1" creator="gpx.py -- https://github.com/tkrajina/gpxpy">
  <trk>
    <trkseg>
      <trkpt lat="38.81873" lon="121.147865">
        <ele>49.114132</ele>
        <time>2014-06-07T09:37:33.067000Z</time>
      </trkpt>
      <trkpt lat="38.81873" lon="121.147865">
        <ele>48.61234</ele>
        <time>2014-06-07T09:37:36.084000Z</time>
      </trkpt>
      <trkpt lat="38.818707" lon="121.14766">
        <ele>48.176746</ele>
        <time>2014-06-07T09:37:39.101000Z</time>
      </trkpt>
      <trkpt lat="38.8187" lon="121.14763">
        <ele>46.703316</ele>
        <time>2014-06-07T09:37:42.118000Z</time>
      </trkpt>
      <trkpt lat="38.818638" lon="121.14752">
        <ele>43.664356</ele>
        <time>2014-06-07T09:37:45.135000Z</time>
      </trkpt>
      <trkpt lat="38.818638" lon="121.14752">
        <ele>41.35269</ele>
        <time>2014-06-07T09:37:48.152000Z</time>
      </trkpt>
      <trkpt lat="38.81856" lon="121.14743">
        <ele>41.502937</ele>
        <time>2014-06-07T09:37:51.169000Z</time>
      </trkpt>
      <trkpt lat="38.818447" lon="121.14736">
        <ele>43.560257</ele>
        <time>2014-06-07T09:37:54.186000Z</time>
      </trkpt>
      <trkpt lat="38.818336" lon="121.14734">
        <ele>46.50487</ele>
        <time>2014-06-07T09:37:57.203000Z</time>
      </trkpt>
      <trkpt lat="38.818226" lon="121.14732">
        <ele>49.152542</ele>
        <time>2014-06-07T09:38:00.220000Z</time>
      </trkpt>
      <trkpt lat="38.818115" lon="121.147316">
        <ele>50.48216</ele>
        <time>2014-06-07T09:38:03.237000Z</time>
      </trkpt>
      <trkpt lat="38.817993" lon="121.147316">
        <ele>50.638035</ele>
        <time>2014-06-07T09:38:06.254000Z</time>
      </trkpt>
      <trkpt lat="38.817898" lon="121.147316">
        <ele>50.506424</ele>
        <time>2014-06-07T09:38:09.271000Z</time>
      </trkpt>
      <trkpt lat="38.817776" lon="121.147316">
        <ele>50.896122</ele>
        <time>2014-06-07T09:38:12.288000Z</time>
      </trkpt>
      <trkpt lat="38.817673" lon="121.14731">
        <ele>52.342705</ele>
        <time>2014-06-07T09:38:15.305000Z</time>
      </trkpt>
      <trkpt lat="38.817574" lon="121.14729">
        <ele>54.563705</ele>
        <time>2014-06-07T09:38:18.322000Z</time>
      </trkpt>
      <trkpt lat="38.81746" lon="121.14729">
        <ele>56.383896</ele>
        <time>2014-06-07T09:38:21.339000Z</time>
      </trkpt>
      <trkpt lat="38.817364" lon="121.14733">
        <ele>56.972424</ele>
        <time>2014-06-07T09:38:24.356000Z</time>
      </trkpt>
      <trkpt lat="38.817272" lon="121.1474">
        <ele>56.585766</ele>
        <time>2014-06-07T09:38:27.373000Z</time>
      </trkpt>
      <trkpt lat="38.817207" lon="121.1475">
        <ele>55.851627</ele>
        <time>2014-06-07T09:38:30.390000Z</time>
      </trkpt>
      <trkpt lat="38.817154" lon="121.1476">
        <ele>55.263363</ele>
        <time>2014-06-07T09:38:33.407000Z</time>
      </trkpt>
      <trkpt lat="38.817127" lon="121.14771">
        <ele>54.75466</ele>
        <time>2014-06-07T09:38:36.424000Z</time>
      </trkpt>
      <trkpt lat="38.81713" lon="121.14785">
        <ele>54.138145</ele>
        <time>2014-06-07T09:38:39.441000Z</time>
      </trkpt>
      <trkpt lat="38.817146" lon="121.147964">
        <ele>53.62185</ele>
        <time>2014-06-07T09:38:42.458000Z</time>
      </trkpt>
      <trkpt lat="38.81718" lon="121.14808">
        <ele>53.444736</ele>
        <time>2014-06-07T09:38:45.475000Z</time>
      </trkpt>
      <trkpt lat="38.81724" lon="121.1482">
        <ele>53.537704</ele>
        <time>2014-06-07T09:38:48.492000Z</time>
      </trkpt>
      <trkpt lat="38.817314" lon="121.14827">
        <ele>53.68651</ele>
        <time>2014-06-07T09:38:51.509000Z</time>
      </trkpt>
      <trkpt lat="38.817413" lon="121.14834">
        <ele>53.548855</ele>
        <time>2014-06-07T09:38:54.526000Z</time>
      </trkpt>
      <trkpt lat="38.817505" lon="121.14836">
        <ele>52.911057</ele>
        <time>2014-06-07T09:38:57.543000Z</time>
      </trkpt>
      <trkpt lat="38.8176" lon="121.14838">
        <ele>52.028606</ele>
        <time>2014-06-07T09:39:00.560000Z</time>
      </trkpt>
      <trkpt lat="38.817707" lon="121.14837">
        <ele>51.678295</ele>
        <time>2014-06-07T09:39:03.577000Z</time>
      </trkpt>
      <trkpt lat="38.81782" lon="121.14838">
        <ele>52.22201</ele>
        <time>2014-06-07T09:39:06.594000Z</time>
      </trkpt>
      <trkpt lat="38.81793" lon="121.14838">
        <ele>52.753914</ele>
        <time>2014-06-07T09:39:09.611000Z</time>
      </trkpt>
      <trkpt lat="38.81803" lon="121.14838">
        <ele>52.238266</ele>
        <time>2014-06-07T09:39:12.628000Z</time>
      </trkpt>
      <trkpt lat="38.81815" lon="121.148384">
        <ele>50.962723</ele>
        <time>2014-06-07T09:39:15.645000Z</time>
      </trkpt>
      <trkpt lat="38.81826" lon="121.148384">
        <ele>50.041077</ele>
        <time>2014-06-07T09:39:18.662000Z</time>
      </trkpt>
      <trkpt lat="38.818375" lon="121.148384">
        <ele>50.12958</ele>
        <time>2014-06-07T09:39:21.679000Z</time>
      </trkpt>
      <trkpt lat="38.81848" lon="121.14834">
        <ele>50.734875</ele>
        <time>2014-06-07T09:39:24.696000Z</time>
      </trkpt>
      <trkpt lat="38.81857" lon="121.148285">
        <ele>51.18859</ele>
        <time>2014-06-07T09:39:27.713000Z</time>
      </trkpt>
      <trkpt lat="38.818657" lon="121.14819">
        <ele>52.026</ele>
        <time>2014-06-07T09:39:30.730000Z</time>
      </trkpt>
      <trkpt lat="38.81872" lon="121.148094">
        <ele>53.74231</ele>
        <time>2014-06-07T09:39:33.747000Z</time>
      </trkpt>
      <trkpt lat="38.818733" lon="121.14797">
        <ele>55.38564</ele>
        <time>2014-06-07T09:39:36.764000Z</time>
      </trkpt>
      <trkpt lat="38.818733" lon="121.14782">
        <ele>55.620743</ele>
        <time>2014-06-07T09:39:39.781000Z</time>
      </trkpt>
      <trkpt lat="38.81871" lon="121.147675">
        <ele>54.42239</ele>
        <time>2014-06-07T09:39:42.798000Z</time>
      </trkpt>
      <trkpt lat="38.818657" lon="121.147545">
        <ele>53.34485</ele>
        <time>2014-06-07T09:39:45.815000Z</time>
      </trkpt>
      <trkpt lat="38.818596" lon="121.147446">
        <ele>53.56</ele>
        <time>2014-06-07T09:39:48.832000Z</time>
      </trkpt>
      <trkpt lat="38.818512" lon="121.14738">
        <ele>54.41375</ele>
        <time>2014-06-07T09:39:51.849000Z</time>
      </trkpt>
      <trkpt lat="38.818417" lon="121.14735">
        <ele>54.345642</ele>
        <time>2014-06-07T09:39:54.866000Z</time>
      </trkpt>
      <trkpt lat="38.81833" lon="121.147316">
        <ele>52.87838</ele>
        <time>2014-06-07T09:39:57.883000Z</time>
      </trkpt>
      <trkpt lat="38.818207" lon="121.1473">
        <ele>51.28101</ele>
        <time>2014-06-07T09:40:00.900000Z</time>
      </trkpt>
      <trkpt lat="38.818104" lon="121.1473">
        <ele>50.88155</ele>
        <time>2014-06-07T09:40:03.917000Z</time>
      </trkpt>
      <trkpt lat="38.818" lon="121.14731">
        <ele>51.549564</ele>
        <time>2014-06-07T09:40:06.934000Z</time>
      </trkpt>
      <trkpt lat="38.81789" lon="121.14731">
        <ele>52.528084</ele>
        <time>2014-06-07T09:40:09.951000Z</time>
      </trkpt>
      <trkpt lat="38.81779" lon="121.1473">
        <ele>53.284878</ele>
        <time>2014-06-07T09:40:12.968000Z</time>
      </trkpt>
      <trkpt lat="38.8177" lon="121.1473">
        <ele>53.879498</ele>
        <time>2014-06-07T09:40:15.985000Z</time>
      </trkpt>
      <trkpt lat="38.817608" lon="121.147285">
        <ele>54.5859</ele>
        <time>2014-06-07T09:40:19.002000Z</time>
      </trkpt>
      <trkpt lat="38.817493" lon="121.147285">
        <ele>55.52646</ele>
        <time>2014-06-07T09:40:22.019000Z</time>
      </trkpt>
      <trkpt lat="38.817387" lon="121.14732">
        <ele>56.34648</ele>
        <time>2014-06-07T09:40:25.036000Z</time>
      </trkpt>
      <trkpt lat="38.817276" lon="121.1474">
        <ele>56.767277</ele>
        <time>2014-06-07T09:40:28.053000Z</time>
      </trkpt>
      <trkpt lat="38.81719" lon="121.1475">
        <ele>56.93621</ele>
        <time>2014-06-07T09:40:31.070000Z</time>
      </trkpt>
      <trkpt lat="38.817135" lon="121.147644">
        <ele>57.099354</ele>
        <time>2014-06-07T09:40:34.087000Z</time>
      </trkpt>
      <trkpt lat="38.817104" lon="121.14776">
        <ele>57.204193</ele>
        <time>2014-06-07T09:40:37.104000Z</time>
      </trkpt>
      <trkpt lat="38.817112" lon="121.147896">
        <ele>57.069786</ele>
        <time>2014-06-07T09:40:40.121000Z</time>
      </trkpt>
      <trkpt lat="38.81713" lon="121.148026">
        <ele>56.531567</ele>
        <time>2014-06-07T09:40:43.138000Z</time>
      </trkpt>
      <trkpt lat="38.817184" lon="121.148155">
        <ele>55.722927</ele>
        <time>2014-06-07T09:40:46.155000Z</time>
      </trkpt>
      <trkpt lat="38.81726" lon="121.14825">
        <ele>54.943474</ele>
        <time>2014-06-07T09:40:49.172000Z</time>
      </trkpt>
      <trkpt lat="38.817352" lon="121.148315">
        <ele>53.964443</ele>
        <time>2014-06-07T09:40:52.189000Z</time>
      </trkpt>
      <trkpt lat="38.817467" lon="121.14837">
        <ele>52.62877</ele>
        <time>2014-06-07T09:40:55.206000Z</time>
      </trkpt>
      <trkpt lat="38.817574" lon="121.148384">
        <ele>51.403725</ele>
        <time>2014-06-07T09:40:58.223000Z</time>
      </trkpt>
      <trkpt lat="38.817684" lon="121.14838">
        <ele>50.785355</ele>
        <time>2014-06-07T09:41:01.240000Z</time>
      </trkpt>
      <trkpt lat="38.817772" lon="121.14836">
        <ele>51.273647</ele>
        <time>2014-06-07T09:41:04.257000Z</time>
      </trkpt>
      <trkpt lat="38.817867" lon="121.14837">
        <ele>52.817467</ele>
        <time>2014-06-07T09:41:07.274000Z</time>
      </trkpt>
      <trkpt lat="38.817963" lon="121.14837">
        <ele>54.075108</ele>
        <time>2014-06-07T09:41:10.291000Z</time>
      </trkpt>
      <trkpt lat="38.818073" lon="121.14838">
        <ele>54.18416</ele>
        <time>2014-06-07T09:41:13.308000Z</time>
      </trkpt>
      <trkpt lat="38.818184" lon="121.1484">
        <ele>53.45817</ele>
        <time>2014-06-07T09:41:16.325000Z</time>
      </trkpt>
      <trkpt lat="38.81828" lon="121.14839">
        <ele>52.05133</ele>
        <time>2014-06-07T09:41:19.342000Z</time>
      </trkpt>
      <trkpt lat="38.818375" lon="121.14838">
        <ele>50.102505</ele>
        <time>2014-06-07T09:41:22.359000Z</time>
      </trkpt>
      <trkpt lat="38.81849" lon="121.14834">
        <ele>48.519638</ele>
        <time>2014-06-07T09:41:25.376000Z</time>
      </trkpt>
      <trkpt lat="38.818577" lon="121.14828">
        <ele>48.179543</ele>
        <time>2014-06-07T09:41:28.393000Z</time>
      </trkpt>
      <trkpt lat="38.818653" lon="121.148186">
        <ele>48.99724</ele>
        <time>2014-06-07T09:41:31.410000Z</time>
      </trkpt>
      <trkpt lat="38.818687" lon="121.14807">
        <ele>50.16291</ele>
        <time>2014-06-07T09:41:34.427000Z</time>
      </trkpt>
      <trkpt lat="38.818703" lon="121.147934">
        <ele>50.715214</ele>
        <time>2014-06-07T09:41:37.444000Z</time>
      </trkpt>
      <trkpt lat="38.8187" lon="121.1478">
        <ele>50.40098</ele>
        <time>2014-06-07T09:41:40.461000Z</time>
      </trkpt>
      <trkpt lat="38.818672" lon="121.147675">
        <ele>49.70285</ele>
        <time>2014-06-07T09:41:43.478000Z</time>
      </trkpt>
      <trkpt lat="38.81862" lon="121.14756">
        <ele>49.246975</ele>
        <time>2014-06-07T09:41:46.495000Z</time>
      </trkpt>
      <trkpt lat="38.818523" lon="121.14744">
        <ele>49.405727</ele>
        <time>2014-06-07T09:41:49.512000Z</time>
      </trkpt>
      <trkpt lat="38.818428" lon="121.14738">
        <ele>50.177635</ele>
        <time>2014-06-07T09:41:52.529000Z</time>
      </trkpt>
      <trkpt lat="38.81834" lon="121.14735">
        <ele>51.303524</ele>
        <time>2014-06-07T09:41:55.546000Z</time>
      </trkpt>
      <trkpt lat="38.818237" lon="121.14734">
        <ele>52.43191</ele>
        <time>2014-06-07T09:41:58.563000Z</time>
      </trkpt>
      <trkpt lat="38.81814" lon="121.14734">
        <ele>53.014885</ele>
        <time>2014-06-07T09:42:01.580000Z</time>
      </trkpt>
      <trkpt lat="38.818035" lon="121.14734">
        <ele>52.831802</ele>
        <time>2014-06-07T09:42:04.597000Z</time>
      </trkpt>
      <trkpt lat="38.81792" lon="121.14734">
        <ele>52.083416</ele>
        <time>2014-06-07T09:42:07.614000Z</time>
      </trkpt>
      <trkpt lat="38.817806" lon="121.14731">
        <ele>51.337944</ele>
        <time>2014-06-07T09:42:10.631000Z</time>
      </trkpt>
      <trkpt lat="38.81771" lon="121.14731">
        <ele>50.95682</ele>
        <time>2014-06-07T09:42:13.648000Z</time>
      </trkpt>
      <trkpt lat="38.817604" lon="121.1473">
        <ele>50.695442</ele>
        <time>2014-06-07T09:42:16.665000Z</time>
      </trkpt>
      <trkpt lat="38.817482" lon="121.147316">
        <ele>50.390377</ele>
        <time>2014-06-07T09:42:19.682000Z</time>
      </trkpt>
      <trkpt lat="38.817364" lon="121.14737">
        <ele>50.23226</ele>
        <time>2014-06-07T09:42:22.699000Z</time>
      </trkpt>
      <trkpt lat="38.817265" lon="121.14745">
        <ele>50.4275</ele>
        <time>2014-06-07T09:42:25.716000Z</time>
      </trkpt>
      <trkpt lat="38.817207" lon="121.147545">
        <ele>51.042942</ele>
        <time>2014-06-07T09:42:28.733000Z</time>
      </trkpt>
      <trkpt lat="38.817173" lon="121.14765">
        <ele>51.673725</ele>
        <time>2014-06-07T09:42:31.750000Z</time>
      </trkpt>
      <trkpt lat="38.81715" lon="121.1478">
        <ele>51.834114</ele>
        <time>2014-06-07T09:42:34.767000Z</time>
      </trkpt>
      <trkpt lat="38.81716" lon="121.14794">
        <ele>51.527756</ele>
        <time>2014-06-07T09:42:37.784000Z</time>
      </trkpt>
      <trkpt lat="38.817204" lon="121.14807">
        <ele>51.140694</ele>
        <time>2014-06-07T09:42:40.801000Z</time>
      </trkpt>
      <trkpt lat="38.81727" lon="121.14818">
        <ele>50.97854</ele>
        <time>2014-06-07T09:42:43.818000Z</time>
      </trkpt>
      <trkpt lat="38.817352" lon="121.14827">
        <ele>50.729355</ele>
        <time>2014-06-07T09:42:46.835000Z</time>
      </trkpt>
      <trkpt lat="38.817444" lon="121.148315">
        <ele>50.106525</ele>
        <time>2014-06-07T09:42:49.852000Z</time>
      </trkpt>
      <trkpt lat="38.81755" lon="121.14834">
        <ele>49.449184</ele>
        <time>2014-06-07T09:42:52.869000Z</time>
      </trkpt>
      <trkpt lat="38.81766" lon="121.148346">
        <ele>49.02154</ele>
        <time>2014-06-07T09:42:55.886000Z</time>
      </trkpt>
      <trkpt lat="38.817764" lon="121.14835">
        <ele>48.64067</ele>
        <time>2014-06-07T09:42:58.903000Z</time>
      </trkpt>
      <trkpt lat="38.81787" lon="121.14837">
        <ele>48.28878</ele>
        <time>2014-06-07T09:43:01.920000Z</time>
      </trkpt>
      <trkpt lat="38.817966" lon="121.14838">
        <ele>48.09138</ele>
        <time>2014-06-07T09:43:04.937000Z</time>
      </trkpt>
      <trkpt lat="38.81806" lon="121.14838">
        <ele>47.917313</ele>
        <time>2014-06-07T09:43:07.954000Z</time>
      </trkpt>
      <trkpt lat="38.818165" lon="121.148384">
        <ele>47.609432</ele>
        <time>2014-06-07T09:43:10.971000Z</time>
      </trkpt>
      <trkpt lat="38.818275" lon="121.148384">
        <ele>47.390865</ele>
        <time>2014-06-07T09:43:13.988000Z</time>
      </trkpt>
      <trkpt lat="38.818382" lon="121.148384">
        <ele>47.47957</ele>
        <time>2014-06-07T09:43:17.005000Z</time>
      </trkpt>
      <trkpt lat="38.818485" lon="121.14835">
        <ele>47.544395</ele>
        <time>2014-06-07T09:43:20.022000Z</time>
      </trkpt>
      <trkpt lat="38.81859" lon="121.148285">
        <ele>47.28369</ele>
        <time>2014-06-07T09:43:23.039000Z</time>
      </trkpt>
      <trkpt lat="38.818665" lon="121.1482">
        <ele>46.914726</ele>
        <time>2014-06-07T09:43:26.056000Z</time>
      </trkpt>
      <trkpt lat="38.81872" lon="121.148094">
        <ele>46.43402</ele>
        <time>2014-06-07T09:43:29.073000Z</time>
      </trkpt>
      <trkpt lat="38.818745" lon="121.14795">
        <ele>45.666107</ele>
        <time>2014-06-07T09:43:32.090000Z</time>
      </trkpt>
      <trkpt lat="38.81874" lon="121.1478">
        <ele>45.277523</ele>
        <time>2014-06-07T09:43:35.107000Z</time>
      </trkpt>
      <trkpt lat="38.81871" lon="121.147675">
        <ele>45.810757</ele>
        <time>2014-06-07T09:43:38.124000Z</time>
      </trkpt>
      <trkpt lat="38.81865" lon="121.14754">
        <ele>46.625664</ele>
        <time>2014-06-07T09:43:41.141000Z</time>
      </trkpt>
      <trkpt lat="38.81858" lon="121.147446">
        <ele>47.041603</ele>
        <time>2014-06-07T09:43:44.158000Z</time>
      </trkpt>
      <trkpt lat="38.81849" lon="121.14737">
        <ele>47.35656</ele>
        <time>2014-06-07T09:43:47.175000Z</time>
      </trkpt>
      <trkpt lat="38.818398" lon="121.14732">
        <ele>47.979427</ele>
        <time>2014-06-07T09:43:50.192000Z</time>
      </trkpt>
      <trkpt lat="38.8183" lon="121.147316">
        <ele>48.83878</ele>
        <time>2014-06-07T09:43:53.209000Z</time>
      </trkpt>
      <trkpt lat="38.818207" lon="121.147316">
        <ele>49.6571</ele>
        <time>2014-06-07T09:43:56.226000Z</time>
      </trkpt>
      <trkpt lat="38.81809" lon="121.1473">
        <ele>49.796272</ele>
        <time>2014-06-07T09:43:59.243000Z</time>
      </trkpt>
      <trkpt lat="38.817974" lon="121.1473">
        <ele>48.915062</ele>
        <time>2014-06-07T09:44:02.260000Z</time>
      </trkpt>
      <trkpt lat="38.817875" lon="121.14729">
        <ele>47.73441</ele>
        <time>2014-06-07T09:44:05.277000Z</time>
      </trkpt>
      <trkpt lat="38.817783" lon="121.14729">
        <ele>47.324837</ele>
        <time>2014-06-07T09:44:08.294000Z</time>
      </trkpt>
      <trkpt lat="38.817673" lon="121.147285">
        <ele>47.949337</ele>
        <time>2014-06-07T09:44:11.311000Z</time>
      </trkpt>
      <trkpt lat="38.81758" lon="121.14728">
        <ele>49.210957</ele>
        <time>2014-06-07T09:44:14.328000Z</time>
      </trkpt>
      <trkpt lat="38.817467" lon="121.1473">
        <ele>50.56465</ele>
        <time>2014-06-07T09:44:17.345000Z</time>
      </trkpt>
      <trkpt lat="38.81735" lon="121.14736">
        <ele>51.276814</ele>
        <time>2014-06-07T09:44:20.362000Z</time>
      </trkpt>
      <trkpt lat="38.817253" lon="121.14746">
        <ele>50.943165</ele>
        <time>2014-06-07T09:44:23.379000Z</time>
      </trkpt>
      <trkpt lat="38.817196" lon="121.14756">
        <ele>50.173214</ele>
        <time>2014-06-07T09:44:26.396000Z</time>
      </trkpt>
      <trkpt lat="38.817165" lon="121.1477">
        <ele>49.587074</ele>
        <time>2014-06-07T09:44:29.413000Z</time>
      </trkpt>
      <trkpt lat="38.817154" lon="121.147835">
        <ele>49.25347</ele>
        <time>2014-06-07T09:44:32.430000Z</time>
      </trkpt>
      <trkpt lat="38.81717" lon="121.147964">
        <ele>49.06394</ele>
        <time>2014-06-07T09:44:35.447000Z</time>
      </trkpt>
      <trkpt lat="38.81721" lon="121.14809">
        <ele>49.02628</ele>
        <time>2014-06-07T09:44:38.464000Z</time>
      </trkpt>
      <trkpt lat="38.817287" lon="121.14821">
        <ele>49.175827</ele>
        <time>2014-06-07T09:44:41.481000Z</time>
      </trkpt>
      <trkpt lat="38.817387" lon="121.14829">
        <ele>49.282764</ele>
        <time>2014-06-07T09:44:44.498000Z</time>
      </trkpt>
      <trkpt lat="38.817482" lon="121.14833">
        <ele>49.1666</ele>
        <time>2014-06-07T09:44:47.515000Z</time>
      </trkpt>
      <trkpt lat="38.81758" lon="121.14833">
        <ele>48.837864</ele>
        <time>2014-06-07T09:44:50.532000Z</time>
      </trkpt>
      <trkpt lat="38.817684" lon="121.148346">
        <ele>48.627724</ele>
        <time>2014-06-07T09:44:53.549000Z</time>
      </trkpt>
      <trkpt lat="38.817787" lon="121.14835">
        <ele>48.640804</ele>
        <time>2014-06-07T09:44:56.566000Z</time>
      </trkpt>
      <trkpt lat="38.817894" lon="121.14836">
        <ele>48.06214</ele>
        <time>2014-06-07T09:44:59.583000Z</time>
      </trkpt>
      <trkpt lat="38.817997" lon="121.14836">
        <ele>46.561604</ele>
        <time>2014-06-07T09:45:02.600000Z</time>
      </trkpt>
      <trkpt lat="38.81812" lon="121.14838">
        <ele>45.36517</ele>
        <time>2014-06-07T09:45:05.617000Z</time>
      </trkpt>
      <trkpt lat="38.818237" lon="121.148384">
        <ele>45.580894</ele>
        <time>2014-06-07T09:45:08.634000Z</time>
      </trkpt>
      <trkpt lat="38.818348" lon="121.14839">
        <ele>46.847176</ele>
        <time>2014-06-07T09:45:11.651000Z</time>
      </trkpt>
      <trkpt lat="38.818443" lon="121.148384">
        <ele>47.87432</ele>
        <time>2014-06-07T09:45:14.668000Z</time>
      </trkpt>
      <trkpt lat="38.818542" lon="121.14832">
        <ele>47.882072</ele>
        <time>2014-06-07T09:45:17.685000Z</time>
      </trkpt>
      <trkpt lat="38.81864" lon="121.148224">
        <ele>47.013496</ele>
        <time>2014-06-07T09:45:20.702000Z</time>
      </trkpt>
      <trkpt lat="38.81872" lon="121.14811">
        <ele>45.83255</ele>
        <time>2014-06-07T09:45:23.719000Z</time>
      </trkpt>
      <trkpt lat="38.81875" lon="121.147964">
        <ele>44.964184</ele>
        <time>2014-06-07T09:45:26.736000Z</time>
      </trkpt>
      <trkpt lat="38.818745" lon="121.14783">
        <ele>44.434795</ele>
        <time>2014-06-07T09:45:29.753000Z</time>
      </trkpt>
      <trkpt lat="38.818707" lon="121.147675">
        <ele>44.02788</ele>
        <time>2014-06-07T09:45:32.770000Z</time>
      </trkpt>
      <trkpt lat="38.818665" lon="121.14757">
        <ele>43.91575</ele>
        <time>2014-06-07T09:45:35.787000Z</time>
      </trkpt>
      <trkpt lat="38.8186" lon="121.14746">
        <ele>44.32126</ele>
        <time>2014-06-07T09:45:38.804000Z</time>
      </trkpt>
      <trkpt lat="38.818512" lon="121.147385">
        <ele>45.191875</ele>
        <time>2014-06-07T09:45:41.821000Z</time>
      </trkpt>
      <trkpt lat="38.818417" lon="121.14734">
        <ele>46.64513</ele>
        <time>2014-06-07T09:45:44.838000Z</time>
      </trkpt>
      <trkpt lat="38.818302" lon="121.14732">
        <ele>48.625526</ele>
        <time>2014-06-07T09:45:47.855000Z</time>
      </trkpt>
      <trkpt lat="38.818203" lon="121.14732">
        <ele>50.411995</ele>
        <time>2014-06-07T09:45:50.872000Z</time>
      </trkpt>
      <trkpt lat="38.81809" lon="121.14732">
        <ele>51.46655</ele>
        <time>2014-06-07T09:45:53.889000Z</time>
      </trkpt>
      <trkpt lat="38.81797" lon="121.14732">
        <ele>52.048187</ele>
        <time>2014-06-07T09:45:56.906000Z</time>
      </trkpt>
      <trkpt lat="38.81787" lon="121.14732">
        <ele>52.345768</ele>
        <time>2014-06-07T09:45:59.923000Z</time>
      </trkpt>
      <trkpt lat="38.817772" lon="121.14731">
        <ele>52.218163</ele>
        <time>2014-06-07T09:46:02.940000Z</time>
      </trkpt>
      <trkpt lat="38.81768" lon="121.1473">
        <ele>51.4924</ele>
        <time>2014-06-07T09:46:05.957000Z</time>
      </trkpt>
      <trkpt lat="38.81757" lon="121.14729">
        <ele>50.411987</ele>
        <time>2014-06-07T09:46:08.974000Z</time>
      </trkpt>
      <trkpt lat="38.817467" lon="121.14731">
        <ele>49.16766</ele>
        <time>2014-06-07T09:46:11.991000Z</time>
      </trkpt>
      <trkpt lat="38.817364" lon="121.14736">
        <ele>47.760357</ele>
        <time>2014-06-07T09:46:15.008000Z</time>
      </trkpt>
      <trkpt lat="38.817287" lon="121.14744">
        <ele>46.763477</ele>
        <time>2014-06-07T09:46:18.025000Z</time>
      </trkpt>
      <trkpt lat="38.81722" lon="121.14755">
        <ele>47.016853</ele>
        <time>2014-06-07T09:46:21.042000Z</time>
      </trkpt>
      <trkpt lat="38.817184" lon="121.147675">
        <ele>48.369553</ele>
        <time>2014-06-07T09:46:24.059000Z</time>
      </trkpt>
      <trkpt lat="38.817177" lon="121.14781">
        <ele>49.741013</ele>
        <time>2014-06-07T09:46:27.076000Z</time>
      </trkpt>
      <trkpt lat="38.81719" lon="121.147964">
        <ele>50.04959</ele>
        <time>2014-06-07T09:46:30.093000Z</time>
      </trkpt>
      <trkpt lat="38.817223" lon="121.14809">
        <ele>49.222984</ele>
        <time>2014-06-07T09:46:33.110000Z</time>
      </trkpt>
      <trkpt lat="38.81728" lon="121.14819">
        <ele>48.0538</ele>
        <time>2014-06-07T09:46:36.127000Z</time>
      </trkpt>
      <trkpt lat="38.817368" lon="121.14828">
        <ele>47.308743</ele>
        <time>2014-06-07T09:46:39.144000Z</time>
      </trkpt>
      <trkpt lat="38.817463" lon="121.14832">
        <ele>47.356045</ele>
        <time>2014-06-07T09:46:42.161000Z</time>
      </trkpt>
      <trkpt lat="38.817574" lon="121.14834">
        <ele>48.15762</ele>
        <time>2014-06-07T09:46:45.178000Z</time>
      </trkpt>
      <trkpt lat="38.817673" lon="121.148346">
        <ele>49.11196</ele>
        <time>2014-06-07T09:46:48.195000Z</time>
      </trkpt>
      <trkpt lat="38.817787" lon="121.14836">
        <ele>49.25348</ele>
        <time>2014-06-07T09:46:51.212000Z</time>
      </trkpt>
      <trkpt lat="38.817894" lon="121.14837">
        <ele>48.310257</ele>
        <time>2014-06-07T09:46:54.229000Z</time>
      </trkpt>
      <trkpt lat="38.81801" lon="121.14838">
        <ele>47.118443</ele>
        <time>2014-06-07T09:46:57.246000Z</time>
      </trkpt>
      <trkpt lat="38.818127" lon="121.148384">
        <ele>46.473907</ele>
        <time>2014-06-07T09:47:00.263000Z</time>
      </trkpt>
      <trkpt lat="38.81824" lon="121.148384">
        <ele>46.436413</ele>
        <time>2014-06-07T09:47:03.280000Z</time>
      </trkpt>
      <trkpt lat="38.818348" lon="121.148384">
        <ele>46.791206</ele>
        <time>2014-06-07T09:47:06.297000Z</time>
      </trkpt>
      <trkpt lat="38.818447" lon="121.14837">
        <ele>47.211796</ele>
        <time>2014-06-07T09:47:09.314000Z</time>
      </trkpt>
      <trkpt lat="38.818542" lon="121.14831">
        <ele>47.49277</ele>
        <time>2014-06-07T09:47:12.331000Z</time>
      </trkpt>
      <trkpt lat="38.818645" lon="121.14822">
        <ele>47.535038</ele>
        <time>2014-06-07T09:47:15.348000Z</time>
      </trkpt>
      <trkpt lat="38.818707" lon="121.14811">
        <ele>47.172066</ele>
        <time>2014-06-07T09:47:18.365000Z</time>
      </trkpt>
      <trkpt lat="38.818737" lon="121.14796">
        <ele>46.471523</ele>
        <time>2014-06-07T09:47:21.382000Z</time>
      </trkpt>
      <trkpt lat="38.818745" lon="121.14782">
        <ele>45.72226</ele>
        <time>2014-06-07T09:47:24.399000Z</time>
      </trkpt>
      <trkpt lat="38.81873" lon="121.147705">
        <ele>45.237453</ele>
        <time>2014-06-07T09:47:27.416000Z</time>
      </trkpt>
      <trkpt lat="38.81873" lon="121.147705">
        <ele>45.118484</ele>
        <time>2014-06-07T09:47:30.433000Z</time>
      </trkpt>
      <trkpt lat="38.818443" lon="121.147316">
        <ele>48.212273</ele>
        <time>2014-06-07T09:47:33.450000Z</time>
      </trkpt>
      <trkpt lat="38.818443" lon="121.147316">
        <ele>48.842983</ele>
        <time>2014-06-07T09:47:36.467000Z</time>
      </trkpt>
      <trkpt lat="38.818443" lon="121.147316">
        <ele>48.90796</ele>
        <time>2014-06-07T09:47:39.484000Z</time>
      </trkpt>
      <trkpt lat="38.81837" lon="121.147316">
        <ele>48.526134</ele>
        <time>2014-06-07T09:47:42.501000Z</time>
      </trkpt>
      <trkpt lat="38.818256" lon="121.147316">
        <ele>48.21464</ele>
        <time>2014-06-07T09:47:45.518000Z</time>
      </trkpt>
      <trkpt lat="38.818256" lon="121.147316">
        <ele>48.078342</ele>
        <time>2014-06-07T09:47:48.535000Z</time>
      </trkpt>
      <trkpt lat="38.81815" lon="121.1473">
        <ele>48.05874</ele>
        <time>2014-06-07T09:47:51.552000Z</time>
      </trkpt>
      <trkpt lat="38.818058" lon="121.147285">
        <ele>47.823772</ele>
        <time>2014-06-07T09:47:54.569000Z</time>
      </trkpt>
      <trkpt lat="38.817947" lon="121.147285">
        <ele>47.17273</ele>
        <time>2014-06-07T09:47:57.586000Z</time>
      </trkpt>
      <trkpt lat="38.81785" lon="121.14728">
        <ele>46.491055</ele>
        <time>2014-06-07T09:48:00.603000Z</time>
      </trkpt>
      <trkpt lat="38.817734" lon="121.14728">
        <ele>45.892113</ele>
        <time>2014-06-07T09:48:03.620000Z</time>
      </trkpt>
      <trkpt lat="38.81763" lon="121.14727">
        <ele>44.909588</ele>
        <time>2014-06-07T09:48:06.637000Z</time>
      </trkpt>
      <trkpt lat="38.817524" lon="121.14728">
        <ele>43.632423</ele>
        <time>2014-06-07T09:48:09.654000Z</time>
      </trkpt>
      <trkpt lat="38.817425" lon="121.14729">
        <ele>42.68387</ele>
        <time>2014-06-07T09:48:12.671000Z</time>
      </trkpt>
      <trkpt lat="38.81734" lon="121.14734">
        <ele>42.34507</ele>
        <time>2014-06-07T09:48:15.688000Z</time>
      </trkpt>
      <trkpt lat="38.817257" lon="121.14743">
        <ele>42.42555</ele>
        <time>2014-06-07T09:48:18.705000Z</time>
      </trkpt>
      <trkpt lat="38.8172" lon="121.14755">
        <ele>42.50519</ele>
        <time>2014-06-07T09:48:21.722000Z</time>
      </trkpt>
      <trkpt lat="38.817165" lon="121.1477">
        <ele>42.240307</ele>
        <time>2014-06-07T09:48:24.739000Z</time>
      </trkpt>
      <trkpt lat="38.817154" lon="121.14786">
        <ele>41.826256</ele>
        <time>2014-06-07T09:48:27.756000Z</time>
      </trkpt>
      <trkpt lat="38.81718" lon="121.147995">
        <ele>41.93893</ele>
        <time>2014-06-07T09:48:30.773000Z</time>
      </trkpt>
      <trkpt lat="38.817234" lon="121.14813">
        <ele>43.182472</ele>
        <time>2014-06-07T09:48:33.790000Z</time>
      </trkpt>
      <trkpt lat="38.817303" lon="121.148224">
        <ele>45.04378</ele>
        <time>2014-06-07T09:48:36.807000Z</time>
      </trkpt>
      <trkpt lat="38.817398" lon="121.148285">
        <ele>46.32757</ele>
        <time>2014-06-07T09:48:39.824000Z</time>
      </trkpt>
      <trkpt lat="38.817505" lon="121.14831">
        <ele>46.719566</ele>
        <time>2014-06-07T09:48:42.841000Z</time>
      </trkpt>
      <trkpt lat="38.817616" lon="121.14831">
        <ele>46.77796</ele>
        <time>2014-06-07T09:48:45.858000Z</time>
      </trkpt>
      <trkpt lat="38.81771" lon="121.14831">
        <ele>46.85009</ele>
        <time>2014-06-07T09:48:48.875000Z</time>
      </trkpt>
      <trkpt lat="38.81781" lon="121.14832">
        <ele>46.842274</ele>
        <time>2014-06-07T09:48:51.892000Z</time>
      </trkpt>
      <trkpt lat="38.81792" lon="121.14833">
        <ele>46.591805</ele>
        <time>2014-06-07T09:48:54.909000Z</time>
      </trkpt>
      <trkpt lat="38.81802" lon="121.14833">
        <ele>46.47079</ele>
        <time>2014-06-07T09:48:57.926000Z</time>
      </trkpt>
      <trkpt lat="38.818115" lon="121.14834">
        <ele>46.845554</ele>
        <time>2014-06-07T09:49:00.943000Z</time>
      </trkpt>
      <trkpt lat="38.81824" lon="121.148346">
        <ele>47.621853</ele>
        <time>2014-06-07T09:49:03.960000Z</time>
      </trkpt>
      <trkpt lat="38.818348" lon="121.148346">
        <ele>48.303577</ele>
        <time>2014-06-07T09:49:06.977000Z</time>
      </trkpt>
      <trkpt lat="38.81844" lon="121.148346">
        <ele>48.391327</ele>
        <time>2014-06-07T09:49:09.994000Z</time>
      </trkpt>
      <trkpt lat="38.818527" lon="121.14831">
        <ele>47.99106</ele>
        <time>2014-06-07T09:49:13.011000Z</time>
      </trkpt>
      <trkpt lat="38.81862" lon="121.148224">
        <ele>47.69551</ele>
        <time>2014-06-07T09:49:16.028000Z</time>
      </trkpt>
      <trkpt lat="38.818695" lon="121.14811">
        <ele>47.73392</ele>
        <time>2014-06-07T09:49:19.045000Z</time>
      </trkpt>
      <trkpt lat="38.81873" lon="121.147964">
        <ele>47.6203</ele>
        <time>2014-06-07T09:49:22.062000Z</time>
      </trkpt>
      <trkpt lat="38.818733" lon="121.14781">
        <ele>46.689747</ele>
        <time>2014-06-07T09:49:25.079000Z</time>
      </trkpt>
      <trkpt lat="38.818726" lon="121.1477">
        <ele>45.218708</ele>
        <time>2014-06-07T09:49:28.096000Z</time>
      </trkpt>
      <trkpt lat="38.818687" lon="121.14756">
        <ele>44.05027</ele>
        <time>2014-06-07T09:49:31.113000Z</time>
      </trkpt>
      <trkpt lat="38.818626" lon="121.14747">
        <ele>43.476112</ele>
        <time>2014-06-07T09:49:34.130000Z</time>
      </trkpt>
      <trkpt lat="38.818546" lon="121.14738">
        <ele>43.31373</ele>
        <time>2014-06-07T09:49:37.147000Z</time>
      </trkpt>
      <trkpt lat="38.81844" lon="121.147316">
        <ele>43.714268</ele>
        <time>2014-06-07T09:49:40.164000Z</time>
      </trkpt>
      <trkpt lat="38.818333" lon="121.147285">
        <ele>44.906815</ele>
        <time>2014-06-07T09:49:43.181000Z</time>
      </trkpt>
      <trkpt lat="38.818233" lon="121.14727">
        <ele>46.38377</ele>
        <time>2014-06-07T09:49:46.198000Z</time>
      </trkpt>
      <trkpt lat="38.818134" lon="121.14727">
        <ele>47.271168</ele>
        <time>2014-06-07T09:49:49.215000Z</time>
      </trkpt>
      <trkpt lat="38.818005" lon="121.147255">
        <ele>47.21866</ele>
        <time>2014-06-07T09:49:52.232000Z</time>
      </trkpt>
      <trkpt lat="38.817898" lon="121.147255">
        <ele>46.454166</ele>
        <time>2014-06-07T09:49:55.249000Z</time>
      </trkpt>
      <trkpt lat="38.817783" lon="121.14725">
        <ele>45.33909</ele>
        <time>2014-06-07T09:49:58.266000Z</time>
      </trkpt>
      <trkpt lat="38.817657" lon="121.14725">
        <ele>44.215252</ele>
        <time>2014-06-07T09:50:01.283000Z</time>
      </trkpt>
      <trkpt lat="38.817547" lon="121.147255">
        <ele>43.801044</ele>
        <time>2014-06-07T09:50:04.300000Z</time>
      </trkpt>
      <trkpt lat="38.81744" lon="121.14727">
        <ele>44.437603</ele>
        <time>2014-06-07T09:50:07.317000Z</time>
      </trkpt>
      <trkpt lat="38.817314" lon="121.14734">
        <ele>45.373177</ele>
        <time>2014-06-07T09:50:10.334000Z</time>
      </trkpt>
      <trkpt lat="38.817238" lon="121.14741">
        <ele>46.28357</ele>
        <time>2014-06-07T09:50:13.351000Z</time>
      </trkpt>
      <trkpt lat="38.81716" lon="121.14755">
        <ele>47.423817</ele>
        <time>2014-06-07T09:50:16.368000Z</time>
      </trkpt>
      <trkpt lat="38.81713" lon="121.147675">
        <ele>48.421944</ele>
        <time>2014-06-07T09:50:19.385000Z</time>
      </trkpt>
      <trkpt lat="38.81712" lon="121.14784">
        <ele>48.90858</ele>
        <time>2014-06-07T09:50:22.402000Z</time>
      </trkpt>
      <trkpt lat="38.817146" lon="121.147964">
        <ele>49.32362</ele>
        <time>2014-06-07T09:50:25.419000Z</time>
      </trkpt>
      <trkpt lat="38.817173" lon="121.14808">
        <ele>50.133636</ele>
        <time>2014-06-07T09:50:28.436000Z</time>
      </trkpt>
      <trkpt lat="38.81724" lon="121.1482">
        <ele>50.98786</ele>
        <time>2014-06-07T09:50:31.453000Z</time>
      </trkpt>
      <trkpt lat="38.817333" lon="121.1483">
        <ele>50.460308</ele>
        <time>2014-06-07T09:50:34.470000Z</time>
      </trkpt>
      <trkpt lat="38.817448" lon="121.14835">
        <ele>48.054993</ele>
        <time>2014-06-07T09:50:37.487000Z</time>
      </trkpt>
      <trkpt lat="38.81756" lon="121.14837">
        <ele>45.3877</ele>
        <time>2014-06-07T09:50:40.504000Z</time>
      </trkpt>
      <trkpt lat="38.817657" lon="121.14837">
        <ele>43.97558</ele>
        <time>2014-06-07T09:50:43.521000Z</time>
      </trkpt>
      <trkpt lat="38.81778" lon="121.14837">
        <ele>44.20961</ele>
        <time>2014-06-07T09:50:46.538000Z</time>
      </trkpt>
      <trkpt lat="38.81789" lon="121.14836">
        <ele>45.76424</ele>
        <time>2014-06-07T09:50:49.555000Z</time>
      </trkpt>
      <trkpt lat="38.818012" lon="121.14836">
        <ele>47.333004</ele>
        <time>2014-06-07T09:50:52.572000Z</time>
      </trkpt>
      <trkpt lat="38.818123" lon="121.14836">
        <ele>47.90821</ele>
        <time>2014-06-07T09:50:55.589000Z</time>
      </trkpt>
      <trkpt lat="38.818237" lon="121.14836">
        <ele>47.741905</ele>
        <time>2014-06-07T09:50:58.606000Z</time>
      </trkpt>
      <trkpt lat="38.818344" lon="121.14837">
        <ele>47.63178</ele>
        <time>2014-06-07T09:51:01.623000Z</time>
      </trkpt>
      <trkpt lat="38.81844" lon="121.14836">
        <ele>48.304893</ele>
        <time>2014-06-07T09:51:04.640000Z</time>
      </trkpt>
      <trkpt lat="38.81854" lon="121.148315">
        <ele>49.60031</ele>
        <time>2014-06-07T09:51:07.657000Z</time>
      </trkpt>
      <trkpt lat="38.81863" lon="121.14821">
        <ele>50.40671</ele>
        <time>2014-06-07T09:51:10.674000Z</time>
      </trkpt>
      <trkpt lat="38.818707" lon="121.14807">
        <ele>49.99407</ele>
        <time>2014-06-07T09:51:13.691000Z</time>
      </trkpt>
      <trkpt lat="38.818733" lon="121.147934">
        <ele>48.886894</ele>
        <time>2014-06-07T09:51:16.708000Z</time>
      </trkpt>
      <trkpt lat="38.81874" lon="121.1478">
        <ele>47.76865</ele>
        <time>2014-06-07T09:51:19.725000Z</time>
      </trkpt>
      <trkpt lat="38.818718" lon="121.14764">
        <ele>46.80138</ele>
        <time>2014-06-07T09:51:22.742000Z</time>
      </trkpt>
      <trkpt lat="38.818665" lon="121.147514">
        <ele>45.779842</ele>
        <time>2014-06-07T09:51:25.759000Z</time>
      </trkpt>
      <trkpt lat="38.81856" lon="121.14739">
        <ele>44.593857</ele>
        <time>2014-06-07T09:51:28.776000Z</time>
      </trkpt>
      <trkpt lat="38.818462" lon="121.14733">
        <ele>44.15684</ele>
        <time>2014-06-07T09:51:31.793000Z</time>
      </trkpt>
      <trkpt lat="38.81835" lon="121.14729">
        <ele>45.820965</ele>
        <time>2014-06-07T09:51:34.810000Z</time>
      </trkpt>
      <trkpt lat="38.81824" lon="121.147285">
        <ele>48.954014</ele>
        <time>2014-06-07T09:51:37.827000Z</time>
      </trkpt>
      <trkpt lat="38.818123" lon="121.14728">
        <ele>51.39426</ele>
        <time>2014-06-07T09:51:40.844000Z</time>
      </trkpt>
      <trkpt lat="38.817993" lon="121.14728">
        <ele>52.079014</ele>
        <time>2014-06-07T09:51:43.861000Z</time>
      </trkpt>
      <trkpt lat="38.81788" lon="121.14727">
        <ele>51.51555</ele>
        <time>2014-06-07T09:51:46.878000Z</time>
      </trkpt>
      <trkpt lat="38.817757" lon="121.14726">
        <ele>50.41488</ele>
        <time>2014-06-07T09:51:49.895000Z</time>
      </trkpt>
      <trkpt lat="38.817646" lon="121.14726">
        <ele>49.350822</ele>
        <time>2014-06-07T09:51:52.912000Z</time>
      </trkpt>
      <trkpt lat="38.817524" lon="121.14727">
        <ele>48.730057</ele>
        <time>2014-06-07T09:51:55.929000Z</time>
      </trkpt>
      <trkpt lat="38.8174" lon="121.14731">
        <ele>48.58226</ele>
        <time>2014-06-07T09:51:58.946000Z</time>
      </trkpt>
      <trkpt lat="38.81728" lon="121.147385">
        <ele>48.685562</ele>
        <time>2014-06-07T09:52:01.963000Z</time>
      </trkpt>
      <trkpt lat="38.817192" lon="121.14752">
        <ele>49.376923</ele>
        <time>2014-06-07T09:52:04.980000Z</time>
      </trkpt>
      <trkpt lat="38.81715" lon="121.14765">
        <ele>50.876873</ele>
        <time>2014-06-07T09:52:07.997000Z</time>
      </trkpt>
      <trkpt lat="38.81715" lon="121.14781">
        <ele>52.3084</ele>
        <time>2014-06-07T09:52:11.014000Z</time>
      </trkpt>
      <trkpt lat="38.817173" lon="121.147964">
        <ele>52.365425</ele>
        <time>2014-06-07T09:52:14.031000Z</time>
      </trkpt>
      <trkpt lat="38.81722" lon="121.14809">
        <ele>50.913067</ele>
        <time>2014-06-07T09:52:17.048000Z</time>
      </trkpt>
      <trkpt lat="38.817303" lon="121.14822">
        <ele>49.081482</ele>
        <time>2014-06-07T09:52:20.065000Z</time>
      </trkpt>
      <trkpt lat="38.817398" lon="121.148285">
        <ele>47.95095</ele>
        <time>2014-06-07T09:52:23.082000Z</time>
      </trkpt>
      <trkpt lat="38.817516" lon="121.148315">
        <ele>47.69176</ele>
        <time>2014-06-07T09:52:26.099000Z</time>
      </trkpt>
      <trkpt lat="38.81762" lon="121.148315">
        <ele>48.233543</ele>
        <time>2014-06-07T09:52:29.116000Z</time>
      </trkpt>
      <trkpt lat="38.81773" lon="121.14832">
        <ele>49.003326</ele>
        <time>2014-06-07T09:52:32.133000Z</time>
      </trkpt>
      <trkpt lat="38.81783" lon="121.14833">
        <ele>49.15608</ele>
        <time>2014-06-07T09:52:35.150000Z</time>
      </trkpt>
      <trkpt lat="38.81795" lon="121.148346">
        <ele>48.61873</ele>
        <time>2014-06-07T09:52:38.167000Z</time>
      </trkpt>
      <trkpt lat="38.81807" lon="121.148346">
        <ele>47.939175</ele>
        <time>2014-06-07T09:52:41.184000Z</time>
      </trkpt>
      <trkpt lat="38.818184" lon="121.14836">
        <ele>47.046898</ele>
        <time>2014-06-07T09:52:44.201000Z</time>
      </trkpt>
      <trkpt lat="38.818302" lon="121.14836">
        <ele>45.78094</ele>
        <time>2014-06-07T09:52:47.218000Z</time>
      </trkpt>
      <trkpt lat="38.81842" lon="121.14835">
        <ele>45.24005</ele>
        <time>2014-06-07T09:52:50.235000Z</time>
      </trkpt>
      <trkpt lat="38.818527" lon="121.14831">
        <ele>46.22804</ele>
        <time>2014-06-07T09:52:53.252000Z</time>
      </trkpt>
      <trkpt lat="38.81861" lon="121.14823">
        <ele>47.683235</ele>
        <time>2014-06-07T09:52:56.269000Z</time>
      </trkpt>
      <trkpt lat="38.818707" lon="121.14812">
        <ele>48.31536</ele>
        <time>2014-06-07T09:52:59.286000Z</time>
      </trkpt>
      <trkpt lat="38.81873" lon="121.147964">
        <ele>48.041428</ele>
        <time>2014-06-07T09:53:02.303000Z</time>
      </trkpt>
      <trkpt lat="38.818745" lon="121.14782">
        <ele>47.391506</ele>
        <time>2014-06-07T09:53:05.320000Z</time>
      </trkpt>
      <trkpt lat="38.81872" lon="121.14769">
        <ele>46.217857</ele>
        <time>2014-06-07T09:53:08.337000Z</time>
      </trkpt>
      <trkpt lat="38.818665" lon="121.14754">
        <ele>44.322956</ele>
        <time>2014-06-07T09:53:11.354000Z</time>
      </trkpt>
      <trkpt lat="38.818596" lon="121.147446">
        <ele>42.64885</ele>
        <time>2014-06-07T09:53:14.371000Z</time>
      </trkpt>
      <trkpt lat="38.81849" lon="121.14737">
        <ele>42.330437</ele>
        <time>2014-06-07T09:53:17.388000Z</time>
      </trkpt>
      <trkpt lat="38.81838" lon="121.14733">
        <ele>43.67036</ele>
        <time>2014-06-07T09:53:20.405000Z</time>
      </trkpt>
      <trkpt lat="38.818253" lon="121.147316">
        <ele>45.97741</ele>
        <time>2014-06-07T09:53:23.422000Z</time>
      </trkpt>
      <trkpt lat="38.818146" lon="121.147316">
        <ele>47.915283</ele>
        <time>2014-06-07T09:53:26.439000Z</time>
      </trkpt>
      <trkpt lat="38.81803" lon="121.1473">
        <ele>48.82274</ele>
        <time>2014-06-07T09:53:29.456000Z</time>
      </trkpt>
      <trkpt lat="38.81793" lon="121.1473">
        <ele>48.964302</ele>
        <time>2014-06-07T09:53:32.473000Z</time>
      </trkpt>
      <trkpt lat="38.817806" lon="121.14729">
        <ele>48.8332</ele>
        <time>2014-06-07T09:53:35.490000Z</time>
      </trkpt>
      <trkpt lat="38.817688" lon="121.1473">
        <ele>48.84842</ele>
        <time>2014-06-07T09:53:38.507000Z</time>
      </trkpt>
      <trkpt lat="38.817577" lon="121.147285">
        <ele>48.876457</ele>
        <time>2014-06-07T09:53:41.524000Z</time>
      </trkpt>
      <trkpt lat="38.817448" lon="121.1473">
        <ele>48.79275</ele>
        <time>2014-06-07T09:53:44.541000Z</time>
      </trkpt>
      <trkpt lat="38.81734" lon="121.14736">
        <ele>49.17157</ele>
        <time>2014-06-07T09:53:47.558000Z</time>
      </trkpt>
      <trkpt lat="38.81725" lon="121.14746">
        <ele>50.512478</ele>
        <time>2014-06-07T09:53:50.575000Z</time>
      </trkpt>
      <trkpt lat="38.817184" lon="121.14759">
        <ele>52.2943</ele>
        <time>2014-06-07T09:53:53.592000Z</time>
      </trkpt>
      <trkpt lat="38.817154" lon="121.147736">
        <ele>53.374233</ele>
        <time>2014-06-07T09:53:56.609000Z</time>
      </trkpt>
      <trkpt lat="38.817158" lon="121.14789">
        <ele>52.57266</ele>
        <time>2014-06-07T09:53:59.626000Z</time>
      </trkpt>
      <trkpt lat="38.817177" lon="121.148026">
        <ele>49.90571</ele>
        <time>2014-06-07T09:54:02.643000Z</time>
      </trkpt>
      <trkpt lat="38.817238" lon="121.14816">
        <ele>46.921764</ele>
        <time>2014-06-07T09:54:05.660000Z</time>
      </trkpt>
      <trkpt lat="38.81734" lon="121.14827">
        <ele>45.658516</ele>
        <time>2014-06-07T09:54:08.677000Z</time>
      </trkpt>
      <trkpt lat="38.817455" lon="121.14833">
        <ele>46.582016</ele>
        <time>2014-06-07T09:54:11.694000Z</time>
      </trkpt>
      <trkpt lat="38.817554" lon="121.148346">
        <ele>48.20896</ele>
        <time>2014-06-07T09:54:14.711000Z</time>
      </trkpt>
      <trkpt lat="38.817657" lon="121.14835">
        <ele>49.022404</ele>
        <time>2014-06-07T09:54:17.728000Z</time>
      </trkpt>
      <trkpt lat="38.817783" lon="121.14836">
        <ele>48.690746</ele>
        <time>2014-06-07T09:54:20.745000Z</time>
      </trkpt>
      <trkpt lat="38.817905" lon="121.14837">
        <ele>47.663548</ele>
        <time>2014-06-07T09:54:23.762000Z</time>
      </trkpt>
      <trkpt lat="38.818012" lon="121.14838">
        <ele>46.74035</ele>
        <time>2014-06-07T09:54:26.779000Z</time>
      </trkpt>
      <trkpt lat="38.81814" lon="121.14838">
        <ele>46.263103</ele>
        <time>2014-06-07T09:54:29.796000Z</time>
      </trkpt>
      <trkpt lat="38.81825" lon="121.14839">
        <ele>46.027027</ele>
        <time>2014-06-07T09:54:32.813000Z</time>
      </trkpt>
      <trkpt lat="38.81837" lon="121.14839">
        <ele>45.90978</ele>
        <time>2014-06-07T09:54:35.830000Z</time>
      </trkpt>
      <trkpt lat="38.81849" lon="121.14836">
        <ele>45.58151</ele>
        <time>2014-06-07T09:54:38.847000Z</time>
      </trkpt>
      <trkpt lat="38.818584" lon="121.14829">
        <ele>44.649124</ele>
        <time>2014-06-07T09:54:41.864000Z</time>
      </trkpt>
      <trkpt lat="38.818672" lon="121.1482">
        <ele>43.457172</ele>
        <time>2014-06-07T09:54:44.881000Z</time>
      </trkpt>
      <trkpt lat="38.818726" lon="121.148094">
        <ele>42.399834</ele>
        <time>2014-06-07T09:54:47.898000Z</time>
      </trkpt>
      <trkpt lat="38.818752" lon="121.147964">
        <ele>41.411114</ele>
        <time>2014-06-07T09:54:50.915000Z</time>
      </trkpt>
      <trkpt lat="38.818745" lon="121.1478">
        <ele>40.674862</ele>
        <time>2014-06-07T09:54:53.932000Z</time>
      </trkpt>
      <trkpt lat="38.818707" lon="121.14763">
        <ele>40.533504</ele>
        <time>2014-06-07T09:54:56.949000Z</time>
      </trkpt>
      <trkpt lat="38.818634" lon="121.14749">
        <ele>41.05618</ele>
        <time>2014-06-07T09:54:59.966000Z</time>
      </trkpt>
      <trkpt lat="38.81854" lon="121.14741">
        <ele>41.952885</ele>
        <time>2014-06-07T09:55:02.983000Z</time>
      </trkpt>
      <trkpt lat="38.818436" lon="121.147354">
        <ele>42.667007</ele>
        <time>2014-06-07T09:55:06Z</time>
      </trkpt>
      <trkpt lat="38.818306" lon="121.14733">
        <ele>43.1043</ele>
        <time>2014-06-07T09:55:09.017000Z</time>
      </trkpt>
      <trkpt lat="38.818176" lon="121.14732">
        <ele>43.687412</ele>
        <time>2014-06-07T09:55:12.034000Z</time>
      </trkpt>
      <trkpt lat="38.818066" lon="121.147316">
        <ele>44.85014</ele>
        <time>2014-06-07T09:55:15.051000Z</time>
      </trkpt>
      <trkpt lat="38.817944" lon="121.14731">
        <ele>46.430904</ele>
        <time>2014-06-07T09:55:18.068000Z</time>
      </trkpt>
      <trkpt lat="38.81782" lon="121.147316">
        <ele>47.668007</ele>
        <time>2014-06-07T09:55:21.085000Z</time>
      </trkpt>
      <trkpt lat="38.817703" lon="121.14731">
        <ele>48.27223</ele>
        <time>2014-06-07T09:55:24.102000Z</time>
      </trkpt>
      <trkpt lat="38.81759" lon="121.14729">
        <ele>48.604496</ele>
        <time>2014-06-07T09:55:27.119000Z</time>
      </trkpt>
      <trkpt lat="38.81747" lon="121.1473">
        <ele>48.816902</ele>
        <time>2014-06-07T09:55:30.136000Z</time>
      </trkpt>
      <trkpt lat="38.817368" lon="121.147354">
        <ele>49.00659</ele>
        <time>2014-06-07T09:55:33.153000Z</time>
      </trkpt>
      <trkpt lat="38.817272" lon="121.147446">
        <ele>49.35122</ele>
        <time>2014-06-07T09:55:36.170000Z</time>
      </trkpt>
      <trkpt lat="38.817204" lon="121.14757">
        <ele>49.850708</ele>
        <time>2014-06-07T09:55:39.187000Z</time>
      </trkpt>
      <trkpt lat="38.81716" lon="121.147705">
        <ele>50.332996</ele>
        <time>2014-06-07T09:55:42.204000Z</time>
      </trkpt>
      <trkpt lat="38.81715" lon="121.14788">
        <ele>50.62401</ele>
        <time>2014-06-07T09:55:45.221000Z</time>
      </trkpt>
      <trkpt lat="38.81718" lon="121.14802">
        <ele>50.668015</ele>
        <time>2014-06-07T09:55:48.238000Z</time>
      </trkpt>
      <trkpt lat="38.817245" lon="121.14815">
        <ele>50.294132</ele>
        <time>2014-06-07T09:55:51.255000Z</time>
      </trkpt>
      <trkpt lat="38.817345" lon="121.14825">
        <ele>49.42261</ele>
        <time>2014-06-07T09:55:54.272000Z</time>
      </trkpt>
      <trkpt lat="38.817467" lon="121.14831">
        <ele>48.510967</ele>
        <time>2014-06-07T09:55:57.289000Z</time>
      </trkpt>
      <trkpt lat="38.817585" lon="121.14833">
        <ele>48.02251</ele>
        <time>2014-06-07T09:56:00.306000Z</time>
      </trkpt>
      <trkpt lat="38.81769" lon="121.14834">
        <ele>48.070034</ele>
        <time>2014-06-07T09:56:03.323000Z</time>
      </trkpt>
      <trkpt lat="38.817806" lon="121.148346">
        <ele>48.532246</ele>
        <time>2014-06-07T09:56:06.340000Z</time>
      </trkpt>
      <trkpt lat="38.81793" lon="121.14835">
        <ele>48.930878</ele>
        <time>2014-06-07T09:56:09.357000Z</time>
      </trkpt>
      <trkpt lat="38.818043" lon="121.14837">
        <ele>48.705627</ele>
        <time>2014-06-07T09:56:12.374000Z</time>
      </trkpt>
      <trkpt lat="38.81816" lon="121.14836">
        <ele>47.91404</ele>
        <time>2014-06-07T09:56:15.391000Z</time>
      </trkpt>
      <trkpt lat="38.81828" lon="121.14836">
        <ele>47.2893</ele>
        <time>2014-06-07T09:56:18.408000Z</time>
      </trkpt>
      <trkpt lat="38.81839" lon="121.14836">
        <ele>47.394943</ele>
        <time>2014-06-07T09:56:21.425000Z</time>
      </trkpt>
      <trkpt lat="38.818512" lon="121.14832">
        <ele>47.874184</ele>
        <time>2014-06-07T09:56:24.442000Z</time>
      </trkpt>
      <trkpt lat="38.818615" lon="121.148254">
        <ele>47.8094</ele>
        <time>2014-06-07T09:56:27.459000Z</time>
      </trkpt>
      <trkpt lat="38.818714" lon="121.14813">
        <ele>46.95326</ele>
        <time>2014-06-07T09:56:30.476000Z</time>
      </trkpt>
      <trkpt lat="38.81874" lon="121.147995">
        <ele>46.022625</ele>
        <time>2014-06-07T09:56:33.493000Z</time>
      </trkpt>
      <trkpt lat="38.81874" lon="121.147835">
        <ele>45.44243</ele>
        <time>2014-06-07T09:56:36.510000Z</time>
      </trkpt>
      <trkpt lat="38.81871" lon="121.147675">
        <ele>45.040966</ele>
        <time>2014-06-07T09:56:39.527000Z</time>
      </trkpt>
      <trkpt lat="38.818653" lon="121.14754">
        <ele>44.791725</ele>
        <time>2014-06-07T09:56:42.544000Z</time>
      </trkpt>
      <trkpt lat="38.81857" lon="121.14744">
        <ele>45.1626</ele>
        <time>2014-06-07T09:56:45.561000Z</time>
      </trkpt>
      <trkpt lat="38.81847" lon="121.147354">
        <ele>46.306515</ele>
        <time>2014-06-07T09:56:48.578000Z</time>
      </trkpt>
      <trkpt lat="38.818344" lon="121.147316">
        <ele>47.459366</ele>
        <time>2014-06-07T09:56:51.595000Z</time>
      </trkpt>
      <trkpt lat="38.818237" lon="121.1473">
        <ele>47.955948</ele>
        <time>2014-06-07T09:56:54.612000Z</time>
      </trkpt>
      <trkpt lat="38.81813" lon="121.1473">
        <ele>47.950203</ele>
        <time>2014-06-07T09:56:57.629000Z</time>
      </trkpt>
      <trkpt lat="38.81801" lon="121.14729">
        <ele>47.791378</ele>
        <time>2014-06-07T09:57:00.646000Z</time>
      </trkpt>
      <trkpt lat="38.817886" lon="121.147285">
        <ele>47.677967</ele>
        <time>2014-06-07T09:57:03.663000Z</time>
      </trkpt>
      <trkpt lat="38.81777" lon="121.147285">
        <ele>47.89282</ele>
        <time>2014-06-07T09:57:06.680000Z</time>
      </trkpt>
      <trkpt lat="38.817654" lon="121.14728">
        <ele>48.482166</ele>
        <time>2014-06-07T09:57:09.697000Z</time>
      </trkpt>
      <trkpt lat="38.81753" lon="121.14729">
        <ele>48.96882</ele>
        <time>2014-06-07T09:57:12.714000Z</time>
      </trkpt>
      <trkpt lat="38.817417" lon="121.14733">
        <ele>48.852142</ele>
        <time>2014-06-07T09:57:15.731000Z</time>
      </trkpt>
      <trkpt lat="38.817314" lon="121.14741">
        <ele>48.0769</ele>
        <time>2014-06-07T09:57:18.748000Z</time>
      </trkpt>
      <trkpt lat="38.817238" lon="121.147514">
        <ele>47.18491</ele>
        <time>2014-06-07T09:57:21.765000Z</time>
      </trkpt>
      <trkpt lat="38.817192" lon="121.14766">
        <ele>46.670467</ele>
        <time>2014-06-07T09:57:24.782000Z</time>
      </trkpt>
      <trkpt lat="38.817177" lon="121.14782">
        <ele>46.535522</ele>
        <time>2014-06-07T09:57:27.799000Z</time>
      </trkpt>
      <trkpt lat="38.817192" lon="121.148">
        <ele>46.800266</ele>
        <time>2014-06-07T09:57:30.816000Z</time>
      </trkpt>
      <trkpt lat="38.81724" lon="121.14814">
        <ele>47.428616</ele>
        <time>2014-06-07T09:57:33.833000Z</time>
      </trkpt>
      <trkpt lat="38.817307" lon="121.14824">
        <ele>48.091015</ele>
        <time>2014-06-07T09:57:36.850000Z</time>
      </trkpt>
      <trkpt lat="38.817406" lon="121.14832">
        <ele>48.53482</ele>
        <time>2014-06-07T09:57:39.867000Z</time>
      </trkpt>
      <trkpt lat="38.81753" lon="121.14835">
        <ele>48.73095</ele>
        <time>2014-06-07T09:57:42.884000Z</time>
      </trkpt>
      <trkpt lat="38.817665" lon="121.14836">
        <ele>48.846714</ele>
        <time>2014-06-07T09:57:45.901000Z</time>
      </trkpt>
      <trkpt lat="38.817795" lon="121.14838">
        <ele>48.37813</ele>
        <time>2014-06-07T09:57:48.918000Z</time>
      </trkpt>
      <trkpt lat="38.817894" lon="121.14838">
        <ele>46.97223</ele>
        <time>2014-06-07T09:57:51.935000Z</time>
      </trkpt>
      <trkpt lat="38.818016" lon="121.14838">
        <ele>45.54665</ele>
        <time>2014-06-07T09:57:54.952000Z</time>
      </trkpt>
      <trkpt lat="38.81818" lon="121.14836">
        <ele>45.06212</ele>
        <time>2014-06-07T09:57:57.969000Z</time>
      </trkpt>
      <trkpt lat="38.818283" lon="121.14837">
        <ele>45.38295</ele>
        <time>2014-06-07T09:58:00.986000Z</time>
      </trkpt>
      <trkpt lat="38.81842" lon="121.14835">
        <ele>46.263206</ele>
        <time>2014-06-07T09:58:04.003000Z</time>
      </trkpt>
      <trkpt lat="38.81853" lon="121.1483">
        <ele>47.459877</ele>
        <time>2014-06-07T09:58:07.020000Z</time>
      </trkpt>
      <trkpt lat="38.818623" lon="121.14823">
        <ele>48.42216</ele>
        <time>2014-06-07T09:58:10.037000Z</time>
      </trkpt>
      <trkpt lat="38.81838" lon="121.14733">
        <ele>48.920223</ele>
        <time>2014-06-07T09:58:13.054000Z</time>
      </trkpt>
      <trkpt lat="38.818356" lon="121.14733">
        <ele>50.20491</ele>
        <time>2014-06-07T09:58:16.071000Z</time>
      </trkpt>
      <trkpt lat="38.818237" lon="121.14732">
        <ele>50.799664</ele>
        <time>2014-06-07T09:58:19.088000Z</time>
      </trkpt>
      <trkpt lat="38.818237" lon="121.14732">
        <ele>50.895683</ele>
        <time>2014-06-07T09:58:22.105000Z</time>
      </trkpt>
      <trkpt lat="38.818127" lon="121.14731">
        <ele>50.82589</ele>
        <time>2014-06-07T09:58:25.122000Z</time>
      </trkpt>
      <trkpt lat="38.818035" lon="121.1473">
        <ele>50.760876</ele>
        <time>2014-06-07T09:58:28.139000Z</time>
      </trkpt>
      <trkpt lat="38.81791" lon="121.14729">
        <ele>50.75361</ele>
        <time>2014-06-07T09:58:31.156000Z</time>
      </trkpt>
      <trkpt lat="38.81779" lon="121.14727">
        <ele>50.48999</ele>
        <time>2014-06-07T09:58:34.173000Z</time>
      </trkpt>
      <trkpt lat="38.817665" lon="121.14727">
        <ele>49.812984</ele>
        <time>2014-06-07T09:58:37.190000Z</time>
      </trkpt>
      <trkpt lat="38.81755" lon="121.14726">
        <ele>48.913193</ele>
        <time>2014-06-07T09:58:40.207000Z</time>
      </trkpt>
      <trkpt lat="38.81743" lon="121.147285">
        <ele>47.68439</ele>
        <time>2014-06-07T09:58:43.224000Z</time>
      </trkpt>
      <trkpt lat="38.817307" lon="121.147354">
        <ele>46.222885</ele>
        <time>2014-06-07T09:58:46.241000Z</time>
      </trkpt>
      <trkpt lat="38.817215" lon="121.14748">
        <ele>45.611115</ele>
        <time>2014-06-07T09:58:49.258000Z</time>
      </trkpt>
      <trkpt lat="38.817165" lon="121.14762">
        <ele>46.340492</ele>
        <time>2014-06-07T09:58:52.275000Z</time>
      </trkpt>
      <trkpt lat="38.81715" lon="121.14777">
        <ele>47.520775</ele>
        <time>2014-06-07T09:58:55.292000Z</time>
      </trkpt>
      <trkpt lat="38.81716" lon="121.147934">
        <ele>48.04395</ele>
        <time>2014-06-07T09:58:58.309000Z</time>
      </trkpt>
      <trkpt lat="38.817215" lon="121.14809">
        <ele>47.50895</ele>
        <time>2014-06-07T09:59:01.326000Z</time>
      </trkpt>
      <trkpt lat="38.81731" lon="121.14822">
        <ele>46.561237</ele>
        <time>2014-06-07T09:59:04.343000Z</time>
      </trkpt>
      <trkpt lat="38.817413" lon="121.14829">
        <ele>46.051224</ele>
        <time>2014-06-07T09:59:07.360000Z</time>
      </trkpt>
      <trkpt lat="38.817543" lon="121.14832">
        <ele>46.230576</ele>
        <time>2014-06-07T09:59:10.377000Z</time>
      </trkpt>
      <trkpt lat="38.81766" lon="121.14833">
        <ele>46.659145</ele>
        <time>2014-06-07T09:59:13.394000Z</time>
      </trkpt>
      <trkpt lat="38.817783" lon="121.14834">
        <ele>46.86057</ele>
        <time>2014-06-07T09:59:16.411000Z</time>
      </trkpt>
      <trkpt lat="38.817905" lon="121.14835">
        <ele>46.920593</ele>
        <time>2014-06-07T09:59:19.428000Z</time>
      </trkpt>
      <trkpt lat="38.817997" lon="121.14835">
        <ele>47.100986</ele>
        <time>2014-06-07T09:59:22.445000Z</time>
      </trkpt>
      <trkpt lat="38.818096" lon="121.14837">
        <ele>47.22918</ele>
        <time>2014-06-07T09:59:25.462000Z</time>
      </trkpt>
      <trkpt lat="38.818188" lon="121.148384">
        <ele>47.214294</ele>
        <time>2014-06-07T09:59:28.479000Z</time>
      </trkpt>
      <trkpt lat="38.818283" lon="121.14839">
        <ele>47.13773</ele>
        <time>2014-06-07T09:59:31.496000Z</time>
      </trkpt>
      <trkpt lat="38.818375" lon="121.148384">
        <ele>47.202198</ele>
        <time>2014-06-07T09:59:34.513000Z</time>
      </trkpt>
      <trkpt lat="38.818478" lon="121.148346">
        <ele>47.51158</ele>
        <time>2014-06-07T09:59:37.530000Z</time>
      </trkpt>
      <trkpt lat="38.818573" lon="121.148285">
        <ele>47.973255</ele>
        <time>2014-06-07T09:59:40.547000Z</time>
      </trkpt>
      <trkpt lat="38.818653" lon="121.1482">
        <ele>48.053436</ele>
        <time>2014-06-07T09:59:43.564000Z</time>
      </trkpt>
      <trkpt lat="38.81872" lon="121.148125">
        <ele>47.214146</ele>
        <time>2014-06-07T09:59:46.581000Z</time>
      </trkpt>
      <trkpt lat="38.81875" lon="121.147995">
        <ele>46.04475</ele>
        <time>2014-06-07T09:59:49.598000Z</time>
      </trkpt>
      <trkpt lat="38.818764" lon="121.147865">
        <ele>45.488888</ele>
        <time>2014-06-07T09:59:52.615000Z</time>
      </trkpt>
      <trkpt lat="38.81876" lon="121.14775">
        <ele>45.661976</ele>
        <time>2014-06-07T09:59:55.632000Z</time>
      </trkpt>
      <trkpt lat="38.818726" lon="121.1476">
        <ele>46.2875</ele>
        <time>2014-06-07T09:59:58.649000Z</time>
      </trkpt>
      <trkpt lat="38.81866" lon="121.14747">
        <ele>47.064934</ele>
        <time>2014-06-07T10:00:01.666000Z</time>
      </trkpt>
      <trkpt lat="38.818592" lon="121.14739">
        <ele>47.4379</ele>
        <time>2014-06-07T10:00:04.683000Z</time>
      </trkpt>
      <trkpt lat="38.818493" lon="121.14735">
        <ele>47.159573</ele>
        <time>2014-06-07T10:00:07.700000Z</time>
      </trkpt>
      <trkpt lat="38.81839" lon="121.147316">
        <ele>46.652836</ele>
        <time>2014-06-07T10:00:10.717000Z</time>
      </trkpt>
      <trkpt lat="38.818302" lon="121.14731">
        <ele>46.702354</ele>
        <time>2014-06-07T10:00:13.734000Z</time>
      </trkpt>
      <trkpt lat="38.81819" lon="121.14731">
        <ele>47.618687</ele>
        <time>2014-06-07T10:00:16.751000Z</time>
      </trkpt>
      <trkpt lat="38.818085" lon="121.14731">
        <ele>49.175873</ele>
        <time>2014-06-07T10:00:19.768000Z</time>
      </trkpt>
      <trkpt lat="38.817978" lon="121.1473">
        <ele>50.89266</ele>
        <time>2014-06-07T10:00:22.785000Z</time>
      </trkpt>
      <trkpt lat="38.817875" lon="121.14731">
        <ele>52.15057</ele>
        <time>2014-06-07T10:00:25.802000Z</time>
      </trkpt>
      <trkpt lat="38.817753" lon="121.14731">
        <ele>52.6298</ele>
        <time>2014-06-07T10:00:28.819000Z</time>
      </trkpt>
      <trkpt lat="38.817646" lon="121.147285">
        <ele>52.90247</ele>
        <time>2014-06-07T10:00:31.836000Z</time>
      </trkpt>
      <trkpt lat="38.817547" lon="121.14728">
        <ele>53.472485</ele>
        <time>2014-06-07T10:00:34.853000Z</time>
      </trkpt>
      <trkpt lat="38.81745" lon="121.14729">
        <ele>53.966637</ele>
        <time>2014-06-07T10:00:37.870000Z</time>
      </trkpt>
      <trkpt lat="38.817364" lon="121.14735">
        <ele>53.769814</ele>
        <time>2014-06-07T10:00:40.887000Z</time>
      </trkpt>
      <trkpt lat="38.817276" lon="121.147446">
        <ele>52.82377</ele>
        <time>2014-06-07T10:00:43.904000Z</time>
      </trkpt>
      <trkpt lat="38.817204" lon="121.14757">
        <ele>51.338135</ele>
        <time>2014-06-07T10:00:46.921000Z</time>
      </trkpt>
      <trkpt lat="38.817177" lon="121.14771">
        <ele>49.790222</ele>
        <time>2014-06-07T10:00:49.938000Z</time>
      </trkpt>
      <trkpt lat="38.817173" lon="121.14786">
        <ele>49.05425</ele>
        <time>2014-06-07T10:00:52.955000Z</time>
      </trkpt>
      <trkpt lat="38.81719" lon="121.147995">
        <ele>49.435715</ele>
        <time>2014-06-07T10:00:55.972000Z</time>
      </trkpt>
      <trkpt lat="38.817234" lon="121.14811">
        <ele>50.00713</ele>
        <time>2014-06-07T10:00:58.989000Z</time>
      </trkpt>
      <trkpt lat="38.81731" lon="121.14819">
        <ele>49.972977</ele>
        <time>2014-06-07T10:01:02.006000Z</time>
      </trkpt>
      <trkpt lat="38.8174" lon="121.14826">
        <ele>49.7696</ele>
        <time>2014-06-07T10:01:05.023000Z</time>
      </trkpt>
      <trkpt lat="38.817493" lon="121.1483">
        <ele>50.054985</ele>
        <time>2014-06-07T10:01:08.040000Z</time>
      </trkpt>
      <trkpt lat="38.817596" lon="121.14832">
        <ele>50.9147</ele>
        <time>2014-06-07T10:01:11.057000Z</time>
      </trkpt>
      <trkpt lat="38.817696" lon="121.14833">
        <ele>52.20618</ele>
        <time>2014-06-07T10:01:14.074000Z</time>
      </trkpt>
      <trkpt lat="38.81781" lon="121.148346">
        <ele>53.650204</ele>
        <time>2014-06-07T10:01:17.091000Z</time>
      </trkpt>
      <trkpt lat="38.817917" lon="121.14834">
        <ele>54.76935</ele>
        <time>2014-06-07T10:01:20.108000Z</time>
      </trkpt>
      <trkpt lat="38.818027" lon="121.148346">
        <ele>55.22308</ele>
        <time>2014-06-07T10:01:23.125000Z</time>
      </trkpt>
      <trkpt lat="38.818146" lon="121.148346">
        <ele>55.099636</ele>
        <time>2014-06-07T10:01:26.142000Z</time>
      </trkpt>
      <trkpt lat="38.818253" lon="121.14835">
        <ele>54.75413</ele>
        <time>2014-06-07T10:01:29.159000Z</time>
      </trkpt>
      <trkpt lat="38.81835" lon="121.14836">
        <ele>54.415478</ele>
        <time>2014-06-07T10:01:32.176000Z</time>
      </trkpt>
      <trkpt lat="38.818478" lon="121.14833">
        <ele>54.156815</ele>
        <time>2014-06-07T10:01:35.193000Z</time>
      </trkpt>
      <trkpt lat="38.818584" lon="121.14826">
        <ele>53.990906</ele>
        <time>2014-06-07T10:01:38.210000Z</time>
      </trkpt>
      <trkpt lat="38.818672" lon="121.14818">
        <ele>53.64709</ele>
        <time>2014-06-07T10:01:41.227000Z</time>
      </trkpt>
      <trkpt lat="38.818752" lon="121.14808">
        <ele>52.395042</ele>
        <time>2014-06-07T10:01:44.244000Z</time>
      </trkpt>
      <trkpt lat="38.81876" lon="121.14796">
        <ele>50.024513</ele>
        <time>2014-06-07T10:01:47.261000Z</time>
      </trkpt>
      <trkpt lat="38.81876" lon="121.147835">
        <ele>47.50019</ele>
        <time>2014-06-07T10:01:50.278000Z</time>
      </trkpt>
      <trkpt lat="38.818745" lon="121.14769">
        <ele>45.85023</ele>
        <time>2014-06-07T10:01:53.295000Z</time>
      </trkpt>
      <trkpt lat="38.818707" lon="121.14756">
        <ele>45.31233</ele>
        <time>2014-06-07T10:01:56.312000Z</time>
      </trkpt>
      <trkpt lat="38.81863" lon="121.147446">
        <ele>45.94192</ele>
        <time>2014-06-07T10:01:59.329000Z</time>
      </trkpt>
      <trkpt lat="38.81855" lon="121.14738">
        <ele>47.372738</ele>
        <time>2014-06-07T10:02:02.346000Z</time>
      </trkpt>
      <trkpt lat="38.818455" lon="121.14733">
        <ele>48.586918</ele>
        <time>2014-06-07T10:02:05.363000Z</time>
      </trkpt>
      <trkpt lat="38.81836" lon="121.14731">
        <ele>48.97555</ele>
        <time>2014-06-07T10:02:08.380000Z</time>
      </trkpt>
      <trkpt lat="38.818264" lon="121.14729">
        <ele>49.471554</ele>
        <time>2014-06-07T10:02:11.397000Z</time>
      </trkpt>
      <trkpt lat="38.818142" lon="121.147285">
        <ele>50.89328</ele>
        <time>2014-06-07T10:02:14.414000Z</time>
      </trkpt>
      <trkpt lat="38.81802" lon="121.14729">
        <ele>52.65713</ele>
        <time>2014-06-07T10:02:17.431000Z</time>
      </trkpt>
      <trkpt lat="38.817905" lon="121.14729">
        <ele>53.932907</ele>
        <time>2014-06-07T10:02:20.448000Z</time>
      </trkpt>
      <trkpt lat="38.817802" lon="121.147285">
        <ele>54.12585</ele>
        <time>2014-06-07T10:02:23.465000Z</time>
      </trkpt>
      <trkpt lat="38.817703" lon="121.147285">
        <ele>53.088528</ele>
        <time>2014-06-07T10:02:26.482000Z</time>
      </trkpt>
      <trkpt lat="38.817596" lon="121.14729">
        <ele>51.88848</ele>
        <time>2014-06-07T10:02:29.499000Z</time>
      </trkpt>
      <trkpt lat="38.817497" lon="121.14729">
        <ele>51.634884</ele>
        <time>2014-06-07T10:02:32.516000Z</time>
      </trkpt>
      <trkpt lat="38.817398" lon="121.14733">
        <ele>52.253258</ele>
        <time>2014-06-07T10:02:35.533000Z</time>
      </trkpt>
      <trkpt lat="38.817303" lon="121.14741">
        <ele>52.88077</ele>
        <time>2014-06-07T10:02:38.550000Z</time>
      </trkpt>
      <trkpt lat="38.81723" lon="121.147514">
        <ele>52.886475</ele>
        <time>2014-06-07T10:02:41.567000Z</time>
      </trkpt>
      <trkpt lat="38.817184" lon="121.14765">
        <ele>52.414772</ele>
        <time>2014-06-07T10:02:44.584000Z</time>
      </trkpt>
      <trkpt lat="38.81717" lon="121.14778">
        <ele>51.88055</ele>
        <time>2014-06-07T10:02:47.601000Z</time>
      </trkpt>
      <trkpt lat="38.81717" lon="121.1479">
        <ele>51.535965</ele>
        <time>2014-06-07T10:02:50.618000Z</time>
      </trkpt>
      <trkpt lat="38.817192" lon="121.14804">
        <ele>51.355923</ele>
        <time>2014-06-07T10:02:53.635000Z</time>
      </trkpt>
      <trkpt lat="38.817257" lon="121.14817">
        <ele>51.145428</ele>
        <time>2014-06-07T10:02:56.652000Z</time>
      </trkpt>
      <trkpt lat="38.817356" lon="121.14827">
        <ele>50.585155</ele>
        <time>2014-06-07T10:02:59.669000Z</time>
      </trkpt>
      <trkpt lat="38.817467" lon="121.14831">
        <ele>49.646706</ele>
        <time>2014-06-07T10:03:02.686000Z</time>
      </trkpt>
      <trkpt lat="38.81757" lon="121.14832">
        <ele>48.82282</ele>
        <time>2014-06-07T10:03:05.703000Z</time>
      </trkpt>
      <trkpt lat="38.817677" lon="121.14833">
        <ele>48.491215</ele>
        <time>2014-06-07T10:03:08.720000Z</time>
      </trkpt>
      <trkpt lat="38.817776" lon="121.14834">
        <ele>48.69609</ele>
        <time>2014-06-07T10:03:11.737000Z</time>
      </trkpt>
      <trkpt lat="38.817894" lon="121.14834">
        <ele>49.301273</ele>
        <time>2014-06-07T10:03:14.754000Z</time>
      </trkpt>
      <trkpt lat="38.817986" lon="121.14835">
        <ele>49.812885</ele>
        <time>2014-06-07T10:03:17.771000Z</time>
      </trkpt>
      <trkpt lat="38.818092" lon="121.14836">
        <ele>49.789936</ele>
        <time>2014-06-07T10:03:20.788000Z</time>
      </trkpt>
      <trkpt lat="38.818203" lon="121.14837">
        <ele>49.46489</ele>
        <time>2014-06-07T10:03:23.805000Z</time>
      </trkpt>
      <trkpt lat="38.818333" lon="121.14838">
        <ele>49.396534</ele>
        <time>2014-06-07T10:03:26.822000Z</time>
      </trkpt>
      <trkpt lat="38.81843" lon="121.14835">
        <ele>49.686893</ele>
        <time>2014-06-07T10:03:29.839000Z</time>
      </trkpt>
      <trkpt lat="38.818546" lon="121.14829">
        <ele>49.905575</ele>
        <time>2014-06-07T10:03:32.856000Z</time>
      </trkpt>
      <trkpt lat="38.818645" lon="121.14821">
        <ele>49.763638</ele>
        <time>2014-06-07T10:03:35.873000Z</time>
      </trkpt>
      <trkpt lat="38.818733" lon="121.148094">
        <ele>49.457912</ele>
        <time>2014-06-07T10:03:38.890000Z</time>
      </trkpt>
      <trkpt lat="38.818752" lon="121.147934">
        <ele>49.177643</ele>
        <time>2014-06-07T10:03:41.907000Z</time>
      </trkpt>
      <trkpt lat="38.818752" lon="121.14779">
        <ele>48.59878</ele>
        <time>2014-06-07T10:03:44.924000Z</time>
      </trkpt>
      <trkpt lat="38.81873" lon="121.147644">
        <ele>47.603733</ele>
        <time>2014-06-07T10:03:47.941000Z</time>
      </trkpt>
      <trkpt lat="38.818687" lon="121.14751">
        <ele>46.47563</ele>
        <time>2014-06-07T10:03:50.958000Z</time>
      </trkpt>
      <trkpt lat="38.81859" lon="121.14739">
        <ele>45.447544</ele>
        <time>2014-06-07T10:03:53.975000Z</time>
      </trkpt>
      <trkpt lat="38.81848" lon="121.14732">
        <ele>44.91768</ele>
        <time>2014-06-07T10:03:56.992000Z</time>
      </trkpt>
      <trkpt lat="38.81839" lon="121.14731">
        <ele>45.175705</ele>
        <time>2014-06-07T10:04:00.009000Z</time>
      </trkpt>
      <trkpt lat="38.818287" lon="121.14729">
        <ele>46.150875</ele>
        <time>2014-06-07T10:04:03.026000Z</time>
      </trkpt>
      <trkpt lat="38.81818" lon="121.147285">
        <ele>47.63998</ele>
        <time>2014-06-07T10:04:06.043000Z</time>
      </trkpt>
      <trkpt lat="38.81806" lon="121.147285">
        <ele>49.061512</ele>
        <time>2014-06-07T10:04:09.060000Z</time>
      </trkpt>
      <trkpt lat="38.81795" lon="121.14728">
        <ele>49.99321</ele>
        <time>2014-06-07T10:04:12.077000Z</time>
      </trkpt>
      <trkpt lat="38.817852" lon="121.14728">
        <ele>50.61186</ele>
        <time>2014-06-07T10:04:15.094000Z</time>
      </trkpt>
      <trkpt lat="38.81775" lon="121.14727">
        <ele>51.068684</ele>
        <time>2014-06-07T10:04:18.111000Z</time>
      </trkpt>
      <trkpt lat="38.81763" lon="121.14727">
        <ele>51.338673</ele>
        <time>2014-06-07T10:04:21.128000Z</time>
      </trkpt>
      <trkpt lat="38.817516" lon="121.14728">
        <ele>51.50978</ele>
        <time>2014-06-07T10:04:24.145000Z</time>
      </trkpt>
      <trkpt lat="38.81742" lon="121.14731">
        <ele>51.677826</ele>
        <time>2014-06-07T10:04:27.162000Z</time>
      </trkpt>
      <trkpt lat="38.81732" lon="121.14739">
        <ele>51.819534</ele>
        <time>2014-06-07T10:04:30.179000Z</time>
      </trkpt>
      <trkpt lat="38.817245" lon="121.14751">
        <ele>51.20425</ele>
        <time>2014-06-07T10:04:33.196000Z</time>
      </trkpt>
      <trkpt lat="38.817196" lon="121.14762">
        <ele>49.452618</ele>
        <time>2014-06-07T10:04:36.213000Z</time>
      </trkpt>
      <trkpt lat="38.81717" lon="121.14777">
        <ele>47.652016</ele>
        <time>2014-06-07T10:04:39.230000Z</time>
      </trkpt>
      <trkpt lat="38.817165" lon="121.14791">
        <ele>46.825302</ele>
        <time>2014-06-07T10:04:42.247000Z</time>
      </trkpt>
      <trkpt lat="38.81719" lon="121.148026">
        <ele>47.07405</ele>
        <time>2014-06-07T10:04:45.264000Z</time>
      </trkpt>
      <trkpt lat="38.817253" lon="121.14813">
        <ele>48.04219</ele>
        <time>2014-06-07T10:04:48.281000Z</time>
      </trkpt>
      <trkpt lat="38.81733" lon="121.14823">
        <ele>48.877823</ele>
        <time>2014-06-07T10:04:51.298000Z</time>
      </trkpt>
      <trkpt lat="38.817436" lon="121.1483">
        <ele>49.07431</ele>
        <time>2014-06-07T10:04:54.315000Z</time>
      </trkpt>
      <trkpt lat="38.817554" lon="121.14832">
        <ele>48.85857</ele>
        <time>2014-06-07T10:04:57.332000Z</time>
      </trkpt>
      <trkpt lat="38.817657" lon="121.14834">
        <ele>48.66142</ele>
        <time>2014-06-07T10:05:00.349000Z</time>
      </trkpt>
      <trkpt lat="38.817757" lon="121.148346">
        <ele>48.847927</ele>
        <time>2014-06-07T10:05:03.366000Z</time>
      </trkpt>
      <trkpt lat="38.817856" lon="121.14835">
        <ele>49.334778</ele>
        <time>2014-06-07T10:05:06.383000Z</time>
      </trkpt>
      <trkpt lat="38.817974" lon="121.14837">
        <ele>49.755096</ele>
        <time>2014-06-07T10:05:09.400000Z</time>
      </trkpt>
      <trkpt lat="38.818073" lon="121.14838">
        <ele>49.56836</ele>
        <time>2014-06-07T10:05:12.417000Z</time>
      </trkpt>
      <trkpt lat="38.8182" lon="121.14839">
        <ele>48.553818</ele>
        <time>2014-06-07T10:05:15.434000Z</time>
      </trkpt>
      <trkpt lat="38.818306" lon="121.1484">
        <ele>47.41162</ele>
        <time>2014-06-07T10:05:18.451000Z</time>
      </trkpt>
      <trkpt lat="38.8184" lon="121.14839">
        <ele>46.93488</ele>
        <time>2014-06-07T10:05:21.468000Z</time>
      </trkpt>
      <trkpt lat="38.818516" lon="121.14833">
        <ele>47.02589</ele>
        <time>2014-06-07T10:05:24.485000Z</time>
      </trkpt>
      <trkpt lat="38.818623" lon="121.14825">
        <ele>47.20951</ele>
        <time>2014-06-07T10:05:27.502000Z</time>
      </trkpt>
      <trkpt lat="38.81869" lon="121.148155">
        <ele>47.24284</ele>
        <time>2014-06-07T10:05:30.519000Z</time>
      </trkpt>
      <trkpt lat="38.81874" lon="121.14802">
        <ele>47.42855</ele>
        <time>2014-06-07T10:05:33.536000Z</time>
      </trkpt>
      <trkpt lat="38.818756" lon="121.14789">
        <ele>48.055958</ele>
        <time>2014-06-07T10:05:36.553000Z</time>
      </trkpt>
      <trkpt lat="38.818756" lon="121.14774">
        <ele>48.774624</ele>
        <time>2014-06-07T10:05:39.570000Z</time>
      </trkpt>
      <trkpt lat="38.818733" lon="121.14762">
        <ele>48.818054</ele>
        <time>2014-06-07T10:05:42.587000Z</time>
      </trkpt>
      <trkpt lat="38.818665" lon="121.14749">
        <ele>47.807392</ele>
        <time>2014-06-07T10:05:45.604000Z</time>
      </trkpt>
      <trkpt lat="38.818596" lon="121.14741">
        <ele>46.24948</ele>
        <time>2014-06-07T10:05:48.621000Z</time>
      </trkpt>
      <trkpt lat="38.818497" lon="121.14732">
        <ele>45.042397</ele>
        <time>2014-06-07T10:05:51.638000Z</time>
      </trkpt>
      <trkpt lat="38.818386" lon="121.14729">
        <ele>45.06952</ele>
        <time>2014-06-07T10:05:54.654000Z</time>
      </trkpt>
      <trkpt lat="38.81827" lon="121.1473">
        <ele>46.50297</ele>
        <time>2014-06-07T10:05:57.670000Z</time>
      </trkpt>
      <trkpt lat="38.818157" lon="121.14729">
        <ele>48.340908</ele>
        <time>2014-06-07T10:06:00.686000Z</time>
      </trkpt>
      <trkpt lat="38.818054" lon="121.1473">
        <ele>49.757774</ele>
        <time>2014-06-07T10:06:03.702000Z</time>
      </trkpt>
      <trkpt lat="38.817947" lon="121.14731">
        <ele>50.563183</ele>
        <time>2014-06-07T10:06:06.718000Z</time>
      </trkpt>
      <trkpt lat="38.81784" lon="121.1473">
        <ele>50.232044</ele>
        <time>2014-06-07T10:06:09.734000Z</time>
      </trkpt>
      <trkpt lat="38.81772" lon="121.1473">
        <ele>48.85201</ele>
        <time>2014-06-07T10:06:12.750000Z</time>
      </trkpt>
      <trkpt lat="38.817604" lon="121.14729">
        <ele>47.527</ele>
        <time>2014-06-07T10:06:15.766000Z</time>
      </trkpt>
      <trkpt lat="38.817493" lon="121.1473">
        <ele>47.03817</ele>
        <time>2014-06-07T10:06:18.782000Z</time>
      </trkpt>
      <trkpt lat="38.817394" lon="121.14733">
        <ele>47.425842</ele>
        <time>2014-06-07T10:06:21.798000Z</time>
      </trkpt>
      <trkpt lat="38.817307" lon="121.14741">
        <ele>48.344353</ele>
        <time>2014-06-07T10:06:24.814000Z</time>
      </trkpt>
      <trkpt lat="38.817223" lon="121.14753">
        <ele>48.92585</ele>
        <time>2014-06-07T10:06:27.830000Z</time>
      </trkpt>
      <trkpt lat="38.817177" lon="121.14765">
        <ele>48.684284</ele>
        <time>2014-06-07T10:06:30.846000Z</time>
      </trkpt>
      <trkpt lat="38.817154" lon="121.14778">
        <ele>48.505642</ele>
        <time>2014-06-07T10:06:33.862000Z</time>
      </trkpt>
      <trkpt lat="38.817158" lon="121.14793">
        <ele>49.21928</ele>
        <time>2014-06-07T10:06:36.878000Z</time>
      </trkpt>
      <trkpt lat="38.817196" lon="121.14806">
        <ele>50.292366</ele>
        <time>2014-06-07T10:06:39.894000Z</time>
      </trkpt>
      <trkpt lat="38.81726" lon="121.14818">
        <ele>51.229115</ele>
        <time>2014-06-07T10:06:42.910000Z</time>
      </trkpt>
      <trkpt lat="38.81734" lon="121.14826">
        <ele>51.901516</ele>
        <time>2014-06-07T10:06:45.926000Z</time>
      </trkpt>
      <trkpt lat="38.81745" lon="121.148315">
        <ele>51.957504</ele>
        <time>2014-06-07T10:06:48.942000Z</time>
      </trkpt>
      <trkpt lat="38.817566" lon="121.14833">
        <ele>51.17214</ele>
        <time>2014-06-07T10:06:51.958000Z</time>
      </trkpt>
      <trkpt lat="38.81769" lon="121.14834">
        <ele>49.702637</ele>
        <time>2014-06-07T10:06:54.974000Z</time>
      </trkpt>
      <trkpt lat="38.81781" lon="121.14834">
        <ele>47.44947</ele>
        <time>2014-06-07T10:06:57.990000Z</time>
      </trkpt>
      <trkpt lat="38.817924" lon="121.14834">
        <ele>44.44818</ele>
        <time>2014-06-07T10:07:01.006000Z</time>
      </trkpt>
      <trkpt lat="38.81804" lon="121.14834">
        <ele>41.523582</ele>
        <time>2014-06-07T10:07:04.022000Z</time>
      </trkpt>
      <trkpt lat="38.818165" lon="121.14835">
        <ele>39.544838</ele>
        <time>2014-06-07T10:07:07.038000Z</time>
      </trkpt>
      <trkpt lat="38.818287" lon="121.14835">
        <ele>38.47936</ele>
        <time>2014-06-07T10:07:10.054000Z</time>
      </trkpt>
      <trkpt lat="38.818382" lon="121.14837">
        <ele>38.17284</ele>
        <time>2014-06-07T10:07:13.070000Z</time>
      </trkpt>
      <trkpt lat="38.818485" lon="121.148346">
        <ele>38.521587</ele>
        <time>2014-06-07T10:07:16.086000Z</time>
      </trkpt>
      <trkpt lat="38.818577" lon="121.14829">
        <ele>39.382412</ele>
        <time>2014-06-07T10:07:19.102000Z</time>
      </trkpt>
      <trkpt lat="38.81866" lon="121.14821">
        <ele>40.44936</ele>
        <time>2014-06-07T10:07:22.118000Z</time>
      </trkpt>
      <trkpt lat="38.81873" lon="121.14811">
        <ele>41.291164</ele>
        <time>2014-06-07T10:07:25.134000Z</time>
      </trkpt>
      <trkpt lat="38.81875" lon="121.14798">
        <ele>41.735184</ele>
        <time>2014-06-07T10:07:28.150000Z</time>
      </trkpt>
      <trkpt lat="38.818764" lon="121.14784">
        <ele>42.057106</ele>
        <time>2014-06-07T10:07:31.166000Z</time>
      </trkpt>
      <trkpt lat="38.81875" lon="121.14773">
        <ele>42.47984</ele>
        <time>2014-06-07T10:07:34.182000Z</time>
      </trkpt>
      <trkpt lat="38.818703" lon="121.14758">
        <ele>42.871803</ele>
        <time>2014-06-07T10:07:37.198000Z</time>
      </trkpt>
      <trkpt lat="38.818638" lon="121.14747">
        <ele>43.08119</ele>
        <time>2014-06-07T10:07:40.214000Z</time>
      </trkpt>
      <trkpt lat="38.818554" lon="121.14739">
        <ele>43.561848</ele>
        <time>2014-06-07T10:07:43.230000Z</time>
      </trkpt>
      <trkpt lat="38.818455" lon="121.14734">
        <ele>45.058514</ele>
        <time>2014-06-07T10:07:46.246000Z</time>
      </trkpt>
      <trkpt lat="38.81835" lon="121.14732">
        <ele>47.296043</ele>
        <time>2014-06-07T10:07:49.262000Z</time>
      </trkpt>
      <trkpt lat="38.818226" lon="121.147316">
        <ele>49.002155</ele>
        <time>2014-06-07T10:07:52.278000Z</time>
      </trkpt>
      <trkpt lat="38.81814" lon="121.14731">
        <ele>49.27964</ele>
        <time>2014-06-07T10:07:55.294000Z</time>
      </trkpt>
      <trkpt lat="38.81803" lon="121.14731">
        <ele>48.380276</ele>
        <time>2014-06-07T10:07:58.310000Z</time>
      </trkpt>
      <trkpt lat="38.81792" lon="121.14729">
        <ele>47.423927</ele>
        <time>2014-06-07T10:08:01.326000Z</time>
      </trkpt>
      <trkpt lat="38.8178" lon="121.14729">
        <ele>47.20072</ele>
        <time>2014-06-07T10:08:04.342000Z</time>
      </trkpt>
      <trkpt lat="38.817688" lon="121.147285">
        <ele>47.54629</ele>
        <time>2014-06-07T10:08:07.358000Z</time>
      </trkpt>
      <trkpt lat="38.817562" lon="121.14728">
        <ele>48.112442</ele>
        <time>2014-06-07T10:08:10.374000Z</time>
      </trkpt>
      <trkpt lat="38.81746" lon="121.1473">
        <ele>48.821854</ele>
        <time>2014-06-07T10:08:13.390000Z</time>
      </trkpt>
      <trkpt lat="38.81735" lon="121.147354">
        <ele>49.642273</ele>
        <time>2014-06-07T10:08:16.406000Z</time>
      </trkpt>
      <trkpt lat="38.81726" lon="121.14745">
        <ele>50.36472</ele>
        <time>2014-06-07T10:08:19.422000Z</time>
      </trkpt>
      <trkpt lat="38.817192" lon="121.147575">
        <ele>50.95205</ele>
        <time>2014-06-07T10:08:22.438000Z</time>
      </trkpt>
      <trkpt lat="38.817154" lon="121.14771">
        <ele>51.652363</ele>
        <time>2014-06-07T10:08:25.454000Z</time>
      </trkpt>
      <trkpt lat="38.81714" lon="121.14786">
        <ele>52.399826</ele>
        <time>2014-06-07T10:08:28.470000Z</time>
      </trkpt>
      <trkpt lat="38.817173" lon="121.14801">
        <ele>52.230896</ele>
        <time>2014-06-07T10:08:31.486000Z</time>
      </trkpt>
      <trkpt lat="38.817226" lon="121.148125">
        <ele>50.6808</ele>
        <time>2014-06-07T10:08:34.502000Z</time>
      </trkpt>
      <trkpt lat="38.81733" lon="121.14824">
        <ele>48.663548</ele>
        <time>2014-06-07T10:08:37.518000Z</time>
      </trkpt>
      <trkpt lat="38.817444" lon="121.14831">
        <ele>47.12378</ele>
        <time>2014-06-07T10:08:40.534000Z</time>
      </trkpt>
      <trkpt lat="38.81757" lon="121.14833">
        <ele>45.619743</ele>
        <time>2014-06-07T10:08:43.550000Z</time>
      </trkpt>
      <trkpt lat="38.817673" lon="121.14833">
        <ele>43.705444</ele>
        <time>2014-06-07T10:08:46.566000Z</time>
      </trkpt>
      <trkpt lat="38.817783" lon="121.14833">
        <ele>42.112247</ele>
        <time>2014-06-07T10:08:49.582000Z</time>
      </trkpt>
      <trkpt lat="38.81789" lon="121.148346">
        <ele>42.0037</ele>
        <time>2014-06-07T10:08:52.598000Z</time>
      </trkpt>
      <trkpt lat="38.81801" lon="121.14836">
        <ele>43.277527</ele>
        <time>2014-06-07T10:08:55.614000Z</time>
      </trkpt>
      <trkpt lat="38.818127" lon="121.14837">
        <ele>44.97964</ele>
        <time>2014-06-07T10:08:58.630000Z</time>
      </trkpt>
      <trkpt lat="38.81823" lon="121.14837">
        <ele>46.302742</ele>
        <time>2014-06-07T10:09:01.646000Z</time>
      </trkpt>
      <trkpt lat="38.81835" lon="121.14837">
        <ele>46.984562</ele>
        <time>2014-06-07T10:09:04.662000Z</time>
      </trkpt>
      <trkpt lat="38.818474" lon="121.148346">
        <ele>47.089005</ele>
        <time>2014-06-07T10:09:07.678000Z</time>
      </trkpt>
      <trkpt lat="38.818573" lon="121.14829">
        <ele>46.95639</ele>
        <time>2014-06-07T10:09:10.694000Z</time>
      </trkpt>
      <trkpt lat="38.81867" lon="121.148186">
        <ele>46.669254</ele>
        <time>2014-06-07T10:09:13.710000Z</time>
      </trkpt>
      <trkpt lat="38.818745" lon="121.14807">
        <ele>45.902325</ele>
        <time>2014-06-07T10:09:16.726000Z</time>
      </trkpt>
      <trkpt lat="38.81875" lon="121.14794">
        <ele>44.70006</ele>
        <time>2014-06-07T10:09:19.742000Z</time>
      </trkpt>
      <trkpt lat="38.818756" lon="121.14781">
        <ele>43.92778</ele>
        <time>2014-06-07T10:09:22.758000Z</time>
      </trkpt>
      <trkpt lat="38.818733" lon="121.14766">
        <ele>44.078636</ele>
        <time>2014-06-07T10:09:25.774000Z</time>
      </trkpt>
      <trkpt lat="38.818672" lon="121.147514">
        <ele>44.64246</ele>
        <time>2014-06-07T10:09:28.790000Z</time>
      </trkpt>
      <trkpt lat="38.818584" lon="121.14741">
        <ele>44.87977</ele>
        <time>2014-06-07T10:09:31.806000Z</time>
      </trkpt>
      <trkpt lat="38.81848" lon="121.14734">
        <ele>44.898277</ele>
        <time>2014-06-07T10:09:34.822000Z</time>
      </trkpt>
      <trkpt lat="38.818382" lon="121.14731">
        <ele>45.3615</ele>
        <time>2014-06-07T10:09:37.838000Z</time>
      </trkpt>
      <trkpt lat="38.81826" lon="121.147316">
        <ele>47.016983</ele>
        <time>2014-06-07T10:09:40.854000Z</time>
      </trkpt>
      <trkpt lat="38.81815" lon="121.147316">
        <ele>49.702347</ele>
        <time>2014-06-07T10:09:43.870000Z</time>
      </trkpt>
      <trkpt lat="38.818027" lon="121.14731">
        <ele>51.915268</ele>
        <time>2014-06-07T10:09:46.886000Z</time>
      </trkpt>
      <trkpt lat="38.8179" lon="121.14731">
        <ele>52.54877</ele>
        <time>2014-06-07T10:09:49.902000Z</time>
      </trkpt>
      <trkpt lat="38.817795" lon="121.1473">
        <ele>52.20195</ele>
        <time>2014-06-07T10:09:52.918000Z</time>
      </trkpt>
      <trkpt lat="38.817684" lon="121.14729">
        <ele>51.260044</ele>
        <time>2014-06-07T10:09:55.934000Z</time>
      </trkpt>
      <trkpt lat="38.817562" lon="121.14729">
        <ele>49.74149</ele>
        <time>2014-06-07T10:09:58.950000Z</time>
      </trkpt>
      <trkpt lat="38.81744" lon="121.14731">
        <ele>48.309776</ele>
        <time>2014-06-07T10:10:01.966000Z</time>
      </trkpt>
      <trkpt lat="38.81733" lon="121.14738">
        <ele>47.894215</ele>
        <time>2014-06-07T10:10:04.982000Z</time>
      </trkpt>
      <trkpt lat="38.817238" lon="121.14748">
        <ele>48.73861</ele>
        <time>2014-06-07T10:10:07.998000Z</time>
      </trkpt>
      <trkpt lat="38.817173" lon="121.147606">
        <ele>50.31747</ele>
        <time>2014-06-07T10:10:11.014000Z</time>
      </trkpt>
      <trkpt lat="38.81714" lon="121.147766">
        <ele>51.630817</ele>
        <time>2014-06-07T10:10:14.030000Z</time>
      </trkpt>
      <trkpt lat="38.81715" lon="121.14792">
        <ele>52.13259</ele>
        <time>2014-06-07T10:10:17.046000Z</time>
      </trkpt>
      <trkpt lat="38.817192" lon="121.14808">
        <ele>52.03666</ele>
        <time>2014-06-07T10:10:20.062000Z</time>
      </trkpt>
      <trkpt lat="38.817287" lon="121.1482">
        <ele>51.515728</ele>
        <time>2014-06-07T10:10:23.078000Z</time>
      </trkpt>
      <trkpt lat="38.817375" lon="121.14828">
        <ele>50.251484</ele>
        <time>2014-06-07T10:10:26.094000Z</time>
      </trkpt>
      <trkpt lat="38.817474" lon="121.14832">
        <ele>48.452713</ele>
        <time>2014-06-07T10:10:29.110000Z</time>
      </trkpt>
      <trkpt lat="38.81759" lon="121.14834">
        <time>2014-06-07T10:10:32.126000Z</time>
      </trkpt>
    </trkseg>
  </trk>
</gpx>