<?xml version="1.0" encoding="UTF-8"?>
<gpx xmlns="http://www.topografix.com/GPX/1/1" xmlns:gpxtpx="http://www.garmin.com/xmlschemas/TrackPointExtension/v1" xmlns:xsi="http://www.w3.org/2001/XMLSchema-instance" xsi:schemaLocation="http://www.topografix.com/GPX/1/1 http://www.topografix.com/GPX/1/1/gpx.xsd" version="1.1" creator="gpx.py -- https://github.com/tkrajina/gpxpy">
  <trk>
    <trkseg>
      <trkpt lat="38.81857" lon="121.14817">
        <ele>56.016155</ele>
        <time>2014-06-27T09:21:15.769000Z</time>
      </trkpt>
      <trkpt lat="38.81858" lon="121.14816">
        <ele>53.971077</ele>
        <time>2014-06-27T09:21:18.976000Z</time>
      </trkpt>
      <trkpt lat="38.818634" lon="121.14806">
        <ele>52.166042</ele>
        <time>2014-06-27T09:21:22.183000Z</time>
      </trkpt>
      <trkpt lat="38.81867" lon="121.14795">
        <ele>51.729004</ele>
        <time>2014-06-27T09:21:25.390000Z</time>
      </trkpt>
      <trkpt lat="38.81868" lon="121.147835">
        <ele>54.37456</ele>
        <time>2014-06-27T09:21:28.597000Z</time>
      </trkpt>
      <trkpt lat="38.818665" lon="121.1477">
        <ele>55.881077</ele>
        <time>2014-06-27T09:21:31.804000Z</time>
      </trkpt>
      <trkpt lat="38.81862" lon="121.14756">
        <ele>56.820343</ele>
        <time>2014-06-27T09:21:35.011000Z</time>
      </trkpt>
      <trkpt lat="38.818554" lon="121.14746">
        <ele>56.183308</ele>
        <time>2014-06-27T09:21:38.218000Z</time>
      </trkpt>
      <trkpt lat="38.818466" lon="121.147385">
        <ele>53.784477</ele>
        <time>2014-06-27T09:21:41.425000Z</time>
      </trkpt>
      <trkpt lat="38.81835" lon="121.14735">
        <ele>51.62221</ele>
        <time>2014-06-27T09:21:44.632000Z</time>
      </trkpt>
      <trkpt lat="38.818245" lon="121.14734">
        <ele>51.467365</ele>
        <time>2014-06-27T09:21:47.839000Z</time>
      </trkpt>
      <trkpt lat="38.818142" lon="121.14734">
        <ele>52.570324</ele>
        <time>2014-06-27T09:21:51.046000Z</time>
      </trkpt>
      <trkpt lat="38.81803" lon="121.14733">
        <ele>53.515842</ele>
        <time>2014-06-27T09:21:54.253000Z</time>
      </trkpt>
      <trkpt lat="38.817936" lon="121.14732">
        <ele>53.764725</ele>
        <time>2014-06-27T09:21:57.460000Z</time>
      </trkpt>
      <trkpt lat="38.817833" lon="121.14732">
        <ele>53.59333</ele>
        <time>2014-06-27T09:22:00.667000Z</time>
      </trkpt>
      <trkpt lat="38.81772" lon="121.14732">
        <ele>53.58849</ele>
        <time>2014-06-27T09:22:03.874000Z</time>
      </trkpt>
      <trkpt lat="38.81762" lon="121.14732">
        <ele>53.97756</ele>
        <time>2014-06-27T09:22:07.081000Z</time>
      </trkpt>
      <trkpt lat="38.81752" lon="121.14733">
        <ele>53.46423</ele>
        <time>2014-06-27T09:22:10.288000Z</time>
      </trkpt>
      <trkpt lat="38.81741" lon="121.14738">
        <ele>50.624584</ele>
        <time>2014-06-27T09:22:13.495000Z</time>
      </trkpt>
      <trkpt lat="38.81733" lon="121.147446">
        <ele>46.637344</ele>
        <time>2014-06-27T09:22:16.702000Z</time>
      </trkpt>
      <trkpt lat="38.81726" lon="121.14756">
        <ele>43.85274</ele>
        <time>2014-06-27T09:22:19.909000Z</time>
      </trkpt>
      <trkpt lat="38.817223" lon="121.14769">
        <ele>42.86129</ele>
        <time>2014-06-27T09:22:23.116000Z</time>
      </trkpt>
      <trkpt lat="38.8172" lon="121.14783">
        <ele>43.195465</ele>
        <time>2014-06-27T09:22:26.323000Z</time>
      </trkpt>
      <trkpt lat="38.81721" lon="121.14794">
        <ele>44.476074</ele>
        <time>2014-06-27T09:22:29.530000Z</time>
      </trkpt>
      <trkpt lat="38.817257" lon="121.148056">
        <ele>46.031048</ele>
        <time>2014-06-27T09:22:32.737000Z</time>
      </trkpt>
      <trkpt lat="38.817326" lon="121.14814">
        <ele>46.748264</ele>
        <time>2014-06-27T09:22:35.944000Z</time>
      </trkpt>
      <trkpt lat="38.817394" lon="121.14822">
        <ele>46.28211</ele>
        <time>2014-06-27T09:22:39.150000Z</time>
      </trkpt>
      <trkpt lat="38.81749" lon="121.148285">
        <ele>45.852966</ele>
        <time>2014-06-27T09:22:42.356000Z</time>
      </trkpt>
      <trkpt lat="38.81759" lon="121.1483">
        <ele>46.493572</ele>
        <time>2014-06-27T09:22:45.562000Z</time>
      </trkpt>
      <trkpt lat="38.817707" lon="121.1483">
        <ele>47.59362</ele>
        <time>2014-06-27T09:22:48.768000Z</time>
      </trkpt>
      <trkpt lat="38.817806" lon="121.14831">
        <ele>48.325825</ele>
        <time>2014-06-27T09:22:51.974000Z</time>
      </trkpt>
      <trkpt lat="38.817905" lon="121.148315">
        <ele>48.656013</ele>
        <time>2014-06-27T09:22:55.180000Z</time>
      </trkpt>
      <trkpt lat="38.818024" lon="121.14832">
        <ele>48.74498</ele>
        <time>2014-06-27T09:22:58.386000Z</time>
      </trkpt>
      <trkpt lat="38.818142" lon="121.14834">
        <ele>48.58734</ele>
        <time>2014-06-27T09:23:01.592000Z</time>
      </trkpt>
      <trkpt lat="38.818233" lon="121.14834">
        <ele>48.22448</ele>
        <time>2014-06-27T09:23:04.798000Z</time>
      </trkpt>
      <trkpt lat="38.818325" lon="121.14834">
        <ele>47.908173</ele>
        <time>2014-06-27T09:23:08.004000Z</time>
      </trkpt>
      <trkpt lat="38.818436" lon="121.14833">
        <ele>47.808693</ele>
        <time>2014-06-27T09:23:11.210000Z</time>
      </trkpt>
      <trkpt lat="38.818535" lon="121.14828">
        <ele>47.878136</ele>
        <time>2014-06-27T09:23:14.416000Z</time>
      </trkpt>
      <trkpt lat="38.818623" lon="121.14818">
        <ele>48.06991</ele>
        <time>2014-06-27T09:23:17.622000Z</time>
      </trkpt>
      <trkpt lat="38.81869" lon="121.14805">
        <ele>48.301258</ele>
        <time>2014-06-27T09:23:20.828000Z</time>
      </trkpt>
      <trkpt lat="38.818726" lon="121.1479">
        <ele>48.370377</ele>
        <time>2014-06-27T09:23:24.034000Z</time>
      </trkpt>
      <trkpt lat="38.818714" lon="121.14776">
        <ele>48.150543</ele>
        <time>2014-06-27T09:23:27.240000Z</time>
      </trkpt>
      <trkpt lat="38.818676" lon="121.14765">
        <ele>47.796432</ele>
        <time>2014-06-27T09:23:30.446000Z</time>
      </trkpt>
      <trkpt lat="38.818626" lon="121.147545">
        <ele>47.538883</ele>
        <time>2014-06-27T09:23:33.652000Z</time>
      </trkpt>
      <trkpt lat="38.818542" lon="121.147446">
        <ele>48.204617</ele>
        <time>2014-06-27T09:23:36.858000Z</time>
      </trkpt>
      <trkpt lat="38.81846" lon="121.147385">
        <ele>50.20897</ele>
        <time>2014-06-27T09:23:40.064000Z</time>
      </trkpt>
      <trkpt lat="38.818367" lon="121.147354">
        <ele>52.584763</ele>
        <time>2014-06-27T09:23:43.270000Z</time>
      </trkpt>
      <trkpt lat="38.81827" lon="121.14735">
        <ele>54.67948</ele>
        <time>2014-06-27T09:23:46.476000Z</time>
      </trkpt>
      <trkpt lat="38.818172" lon="121.147354">
        <ele>56.39606</ele>
        <time>2014-06-27T09:23:49.682000Z</time>
      </trkpt>
      <trkpt lat="38.818054" lon="121.147354">
        <ele>57.34392</ele>
        <time>2014-06-27T09:23:52.888000Z</time>
      </trkpt>
      <trkpt lat="38.817947" lon="121.14735">
        <ele>57.548996</ele>
        <time>2014-06-27T09:23:56.094000Z</time>
      </trkpt>
      <trkpt lat="38.817856" lon="121.14735">
        <ele>57.268265</ele>
        <time>2014-06-27T09:23:59.300000Z</time>
      </trkpt>
      <trkpt lat="38.817757" lon="121.14734">
        <ele>56.131004</ele>
        <time>2014-06-27T09:24:02.506000Z</time>
      </trkpt>
      <trkpt lat="38.817654" lon="121.14733">
        <ele>53.982014</ele>
        <time>2014-06-27T09:24:05.712000Z</time>
      </trkpt>
      <trkpt lat="38.81753" lon="121.14733">
        <ele>51.40696</ele>
        <time>2014-06-27T09:24:08.918000Z</time>
      </trkpt>
      <trkpt lat="38.81744" lon="121.14736">
        <ele>48.731007</ele>
        <time>2014-06-27T09:24:12.124000Z</time>
      </trkpt>
      <trkpt lat="38.817345" lon="121.14742">
        <ele>46.153576</ele>
        <time>2014-06-27T09:24:15.330000Z</time>
      </trkpt>
      <trkpt lat="38.81727" lon="121.14754">
        <ele>44.477764</ele>
        <time>2014-06-27T09:24:18.536000Z</time>
      </trkpt>
      <trkpt lat="38.817234" lon="121.147644">
        <ele>43.934834</ele>
        <time>2014-06-27T09:24:21.742000Z</time>
      </trkpt>
      <trkpt lat="38.817207" lon="121.14777">
        <ele>43.994793</ele>
        <time>2014-06-27T09:24:24.948000Z</time>
      </trkpt>
      <trkpt lat="38.817215" lon="121.14793">
        <ele>44.406696</ele>
        <time>2014-06-27T09:24:28.154000Z</time>
      </trkpt>
      <trkpt lat="38.817253" lon="121.148056">
        <ele>45.21992</ele>
        <time>2014-06-27T09:24:31.360000Z</time>
      </trkpt>
      <trkpt lat="38.817318" lon="121.14816">
        <ele>46.162582</ele>
        <time>2014-06-27T09:24:34.566000Z</time>
      </trkpt>
      <trkpt lat="38.817413" lon="121.14825">
        <ele>46.803333</ele>
        <time>2014-06-27T09:24:37.772000Z</time>
      </trkpt>
      <trkpt lat="38.817497" lon="121.14829">
        <ele>46.79016</ele>
        <time>2014-06-27T09:24:40.978000Z</time>
      </trkpt>
      <trkpt lat="38.817604" lon="121.14831">
        <ele>46.2108</ele>
        <time>2014-06-27T09:24:44.184000Z</time>
      </trkpt>
      <trkpt lat="38.817703" lon="121.14831">
        <ele>45.588196</ele>
        <time>2014-06-27T09:24:47.390000Z</time>
      </trkpt>
      <trkpt lat="38.8178" lon="121.14831">
        <ele>45.279823</ele>
        <time>2014-06-27T09:24:50.596000Z</time>
      </trkpt>
      <trkpt lat="38.817917" lon="121.148315">
        <ele>45.09209</ele>
        <time>2014-06-27T09:24:53.802000Z</time>
      </trkpt>
      <trkpt lat="38.818016" lon="121.14833">
        <ele>44.791183</ele>
        <time>2014-06-27T09:24:57.008000Z</time>
      </trkpt>
      <trkpt lat="38.818127" lon="121.14833">
        <ele>44.44936</ele>
        <time>2014-06-27T09:25:00.214000Z</time>
      </trkpt>
      <trkpt lat="38.81822" lon="121.14832">
        <ele>44.56734</ele>
        <time>2014-06-27T09:25:03.420000Z</time>
      </trkpt>
      <trkpt lat="38.81833" lon="121.14834">
        <ele>45.27137</ele>
        <time>2014-06-27T09:25:06.626000Z</time>
      </trkpt>
      <trkpt lat="38.818417" lon="121.14833">
        <ele>46.096</ele>
        <time>2014-06-27T09:25:09.832000Z</time>
      </trkpt>
      <trkpt lat="38.81851" lon="121.14828">
        <ele>46.838917</ele>
        <time>2014-06-27T09:25:13.038000Z</time>
      </trkpt>
      <trkpt lat="38.818607" lon="121.14819">
        <ele>47.659565</ele>
        <time>2014-06-27T09:25:16.244000Z</time>
      </trkpt>
      <trkpt lat="38.81868" lon="121.14809">
        <ele>48.49315</ele>
        <time>2014-06-27T09:25:19.450000Z</time>
      </trkpt>
      <trkpt lat="38.818714" lon="121.14794">
        <ele>49.21008</ele>
        <time>2014-06-27T09:25:22.656000Z</time>
      </trkpt>
      <trkpt lat="38.81872" lon="121.14782">
        <ele>49.711662</ele>
        <time>2014-06-27T09:25:25.862000Z</time>
      </trkpt>
      <trkpt lat="38.818695" lon="121.1477">
        <ele>49.956226</ele>
        <time>2014-06-27T09:25:29.068000Z</time>
      </trkpt>
      <trkpt lat="38.81865" lon="121.14759">
        <ele>50.180695</ele>
        <time>2014-06-27T09:25:32.274000Z</time>
      </trkpt>
      <trkpt lat="38.81859" lon="121.14749">
        <ele>50.43251</ele>
        <time>2014-06-27T09:25:35.480000Z</time>
      </trkpt>
      <trkpt lat="38.818497" lon="121.147415">
        <ele>50.50955</ele>
        <time>2014-06-27T09:25:38.686000Z</time>
      </trkpt>
      <trkpt lat="38.818398" lon="121.14736">
        <ele>50.402496</ele>
        <time>2014-06-27T09:25:41.892000Z</time>
      </trkpt>
      <trkpt lat="38.81829" lon="121.14734">
        <ele>50.39246</ele>
        <time>2014-06-27T09:25:45.098000Z</time>
      </trkpt>
      <trkpt lat="38.818172" lon="121.14734">
        <ele>50.586624</ele>
        <time>2014-06-27T09:25:48.304000Z</time>
      </trkpt>
      <trkpt lat="38.818073" lon="121.14733">
        <ele>50.900288</ele>
        <time>2014-06-27T09:25:51.510000Z</time>
      </trkpt>
      <trkpt lat="38.81796" lon="121.14734">
        <ele>51.25606</ele>
        <time>2014-06-27T09:25:54.716000Z</time>
      </trkpt>
      <trkpt lat="38.817867" lon="121.14733">
        <ele>51.67215</ele>
        <time>2014-06-27T09:25:57.922000Z</time>
      </trkpt>
      <trkpt lat="38.81776" lon="121.14733">
        <ele>52.06172</ele>
        <time>2014-06-27T09:26:01.128000Z</time>
      </trkpt>
      <trkpt lat="38.81766" lon="121.147316">
        <ele>52.272472</ele>
        <time>2014-06-27T09:26:04.334000Z</time>
      </trkpt>
      <trkpt lat="38.81756" lon="121.1473">
        <ele>52.006348</ele>
        <time>2014-06-27T09:26:07.540000Z</time>
      </trkpt>
      <trkpt lat="38.81745" lon="121.14732">
        <ele>51.027653</ele>
        <time>2014-06-27T09:26:10.746000Z</time>
      </trkpt>
      <trkpt lat="38.817368" lon="121.14737">
        <ele>49.92008</ele>
        <time>2014-06-27T09:26:13.952000Z</time>
      </trkpt>
      <trkpt lat="38.81728" lon="121.14745">
        <ele>49.73188</ele>
        <time>2014-06-27T09:26:17.158000Z</time>
      </trkpt>
      <trkpt lat="38.817223" lon="121.14756">
        <ele>50.75392</ele>
        <time>2014-06-27T09:26:20.364000Z</time>
      </trkpt>
      <trkpt lat="38.81718" lon="121.147705">
        <ele>52.146427</ele>
        <time>2014-06-27T09:26:23.570000Z</time>
      </trkpt>
      <trkpt lat="38.817177" lon="121.14782">
        <ele>52.899498</ele>
        <time>2014-06-27T09:26:26.776000Z</time>
      </trkpt>
      <trkpt lat="38.817196" lon="121.14796">
        <ele>52.914265</ele>
        <time>2014-06-27T09:26:29.982000Z</time>
      </trkpt>
      <trkpt lat="38.81725" lon="121.14807">
        <ele>52.1905</ele>
        <time>2014-06-27T09:26:33.188000Z</time>
      </trkpt>
      <trkpt lat="38.817318" lon="121.14818">
        <ele>50.682255</ele>
        <time>2014-06-27T09:26:36.394000Z</time>
      </trkpt>
      <trkpt lat="38.817398" lon="121.148254">
        <ele>49.717396</ele>
        <time>2014-06-27T09:26:39.600000Z</time>
      </trkpt>
      <trkpt lat="38.817486" lon="121.148285">
        <ele>50.311268</ele>
        <time>2014-06-27T09:26:42.806000Z</time>
      </trkpt>
      <trkpt lat="38.817596" lon="121.14829">
        <ele>51.246803</ele>
        <time>2014-06-27T09:26:46.012000Z</time>
      </trkpt>
      <trkpt lat="38.817715" lon="121.14829">
        <ele>51.03982</ele>
        <time>2014-06-27T09:26:49.218000Z</time>
      </trkpt>
      <trkpt lat="38.817818" lon="121.14829">
        <ele>49.667316</ele>
        <time>2014-06-27T09:26:52.424000Z</time>
      </trkpt>
      <trkpt lat="38.81794" lon="121.14831">
        <ele>48.03032</ele>
        <time>2014-06-27T09:26:55.630000Z</time>
      </trkpt>
      <trkpt lat="38.818047" lon="121.1483">
        <ele>46.92435</ele>
        <time>2014-06-27T09:26:58.836000Z</time>
      </trkpt>
      <trkpt lat="38.81816" lon="121.14831">
        <ele>46.49234</ele>
        <time>2014-06-27T09:27:02.042000Z</time>
      </trkpt>
      <trkpt lat="38.81826" lon="121.14831">
        <ele>46.46017</ele>
        <time>2014-06-27T09:27:05.248000Z</time>
      </trkpt>
      <trkpt lat="38.81835" lon="121.148315">
        <ele>46.605083</ele>
        <time>2014-06-27T09:27:08.454000Z</time>
      </trkpt>
      <trkpt lat="38.818447" lon="121.14829">
        <ele>46.84305</ele>
        <time>2014-06-27T09:27:11.660000Z</time>
      </trkpt>
      <trkpt lat="38.818546" lon="121.14824">
        <ele>47.115997</ele>
        <time>2014-06-27T09:27:14.866000Z</time>
      </trkpt>
      <trkpt lat="38.81863" lon="121.14816">
        <ele>47.317802</ele>
        <time>2014-06-27T09:27:18.072000Z</time>
      </trkpt>
      <trkpt lat="38.818687" lon="121.14804">
        <ele>47.411366</ele>
        <time>2014-06-27T09:27:21.278000Z</time>
      </trkpt>
      <trkpt lat="38.818707" lon="121.14793">
        <ele>47.43479</ele>
        <time>2014-06-27T09:27:24.484000Z</time>
      </trkpt>
      <trkpt lat="38.818718" lon="121.14778">
        <ele>47.5524</ele>
        <time>2014-06-27T09:27:27.690000Z</time>
      </trkpt>
      <trkpt lat="38.81871" lon="121.14767">
        <ele>48.277973</ele>
        <time>2014-06-27T09:27:30.896000Z</time>
      </trkpt>
      <trkpt lat="38.81866" lon="121.147545">
        <ele>49.674763</ele>
        <time>2014-06-27T09:27:34.102000Z</time>
      </trkpt>
      <trkpt lat="38.818604" lon="121.14746">
        <ele>50.927555</ele>
        <time>2014-06-27T09:27:37.308000Z</time>
      </trkpt>
      <trkpt lat="38.81851" lon="121.14738">
        <ele>51.627567</ele>
        <time>2014-06-27T09:27:40.514000Z</time>
      </trkpt>
      <trkpt lat="38.818417" lon="121.14735">
        <ele>52.085884</ele>
        <time>2014-06-27T09:27:43.720000Z</time>
      </trkpt>
      <trkpt lat="38.818317" lon="121.14734">
        <ele>52.54434</ele>
        <time>2014-06-27T09:27:46.926000Z</time>
      </trkpt>
      <trkpt lat="38.818207" lon="121.14733">
        <ele>53.049965</ele>
        <time>2014-06-27T09:27:50.132000Z</time>
      </trkpt>
      <trkpt lat="38.818096" lon="121.14732">
        <ele>53.133286</ele>
        <time>2014-06-27T09:27:53.338000Z</time>
      </trkpt>
      <trkpt lat="38.817997" lon="121.14733">
        <ele>52.45237</ele>
        <time>2014-06-27T09:27:56.544000Z</time>
      </trkpt>
      <trkpt lat="38.8179" lon="121.147316">
        <ele>51.916172</ele>
        <time>2014-06-27T09:27:59.750000Z</time>
      </trkpt>
      <trkpt lat="38.817776" lon="121.14731">
        <ele>52.305683</ele>
        <time>2014-06-27T09:28:02.956000Z</time>
      </trkpt>
      <trkpt lat="38.81768" lon="121.14731">
        <ele>52.962112</ele>
        <time>2014-06-27T09:28:06.162000Z</time>
      </trkpt>
      <trkpt lat="38.817562" lon="121.14731">
        <ele>53.136494</ele>
        <time>2014-06-27T09:28:09.368000Z</time>
      </trkpt>
      <trkpt lat="38.817455" lon="121.147316">
        <ele>53.779034</ele>
        <time>2014-06-27T09:28:12.574000Z</time>
      </trkpt>
      <trkpt lat="38.817368" lon="121.14736">
        <ele>55.714695</ele>
        <time>2014-06-27T09:28:15.780000Z</time>
      </trkpt>
      <trkpt lat="38.817284" lon="121.14743">
        <ele>57.798027</ele>
        <time>2014-06-27T09:28:18.986000Z</time>
      </trkpt>
      <trkpt lat="38.81723" lon="121.14752">
        <ele>58.59995</ele>
        <time>2014-06-27T09:28:22.192000Z</time>
      </trkpt>
      <trkpt lat="38.8172" lon="121.14764">
        <ele>57.86478</ele>
        <time>2014-06-27T09:28:25.398000Z</time>
      </trkpt>
      <trkpt lat="38.817177" lon="121.14776">
        <ele>56.14109</ele>
        <time>2014-06-27T09:28:28.604000Z</time>
      </trkpt>
      <trkpt lat="38.81718" lon="121.14788">
        <ele>54.392265</ele>
        <time>2014-06-27T09:28:31.810000Z</time>
      </trkpt>
      <trkpt lat="38.817215" lon="121.14799">
        <ele>52.934925</ele>
        <time>2014-06-27T09:28:35.016000Z</time>
      </trkpt>
      <trkpt lat="38.81727" lon="121.1481">
        <ele>51.960384</ele>
        <time>2014-06-27T09:28:38.222000Z</time>
      </trkpt>
      <trkpt lat="38.81734" lon="121.148186">
        <ele>50.966248</ele>
        <time>2014-06-27T09:28:41.428000Z</time>
      </trkpt>
      <trkpt lat="38.817444" lon="121.14826">
        <ele>49.25001</ele>
        <time>2014-06-27T09:28:44.634000Z</time>
      </trkpt>
      <trkpt lat="38.817535" lon="121.148285">
        <ele>47.24032</ele>
        <time>2014-06-27T09:28:47.840000Z</time>
      </trkpt>
      <trkpt lat="38.81763" lon="121.148285">
        <ele>46.034954</ele>
        <time>2014-06-27T09:28:51.046000Z</time>
      </trkpt>
      <trkpt lat="38.817734" lon="121.14829">
        <ele>45.827095</ele>
        <time>2014-06-27T09:28:54.252000Z</time>
      </trkpt>
      <trkpt lat="38.817856" lon="121.1483">
        <ele>46.207943</ele>
        <time>2014-06-27T09:28:57.458000Z</time>
      </trkpt>
      <trkpt lat="38.817944" lon="121.14831">
        <ele>46.50426</ele>
        <time>2014-06-27T09:29:00.664000Z</time>
      </trkpt>
      <trkpt lat="38.818054" lon="121.14831">
        <ele>46.646446</ele>
        <time>2014-06-27T09:29:03.870000Z</time>
      </trkpt>
      <trkpt lat="38.818153" lon="121.148315">
        <ele>47.079895</ele>
        <time>2014-06-27T09:29:07.076000Z</time>
      </trkpt>
      <trkpt lat="38.818264" lon="121.14832">
        <ele>48.060135</ele>
        <time>2014-06-27T09:29:10.282000Z</time>
      </trkpt>
      <trkpt lat="38.818363" lon="121.148315">
        <ele>48.960186</ele>
        <time>2014-06-27T09:29:13.488000Z</time>
      </trkpt>
      <trkpt lat="38.818462" lon="121.14829">
        <ele>49.127254</ele>
        <time>2014-06-27T09:29:16.694000Z</time>
      </trkpt>
      <trkpt lat="38.81855" lon="121.14823">
        <ele>48.172688</ele>
        <time>2014-06-27T09:29:19.900000Z</time>
      </trkpt>
      <trkpt lat="38.818626" lon="121.148155">
        <ele>46.330162</ele>
        <time>2014-06-27T09:29:23.106000Z</time>
      </trkpt>
      <trkpt lat="38.818703" lon="121.14802">
        <ele>44.605873</ele>
        <time>2014-06-27T09:29:26.312000Z</time>
      </trkpt>
      <trkpt lat="38.81872" lon="121.147896">
        <ele>43.868324</ele>
        <time>2014-06-27T09:29:29.518000Z</time>
      </trkpt>
      <trkpt lat="38.81872" lon="121.14778">
        <ele>44.475483</ele>
        <time>2014-06-27T09:29:32.724000Z</time>
      </trkpt>
      <trkpt lat="38.8187" lon="121.14763">
        <ele>46.09449</ele>
        <time>2014-06-27T09:29:35.930000Z</time>
      </trkpt>
      <trkpt lat="38.818634" lon="121.14749">
        <ele>47.86554</ele>
        <time>2014-06-27T09:29:39.136000Z</time>
      </trkpt>
      <trkpt lat="38.818565" lon="121.14741">
        <ele>49.207</ele>
        <time>2014-06-27T09:29:42.342000Z</time>
      </trkpt>
      <trkpt lat="38.81845" lon="121.14736">
        <ele>49.807957</ele>
        <time>2014-06-27T09:29:45.548000Z</time>
      </trkpt>
      <trkpt lat="38.818336" lon="121.14735">
        <ele>49.627186</ele>
        <time>2014-06-27T09:29:48.754000Z</time>
      </trkpt>
      <trkpt lat="38.81823" lon="121.14734">
        <ele>49.678116</ele>
        <time>2014-06-27T09:29:51.960000Z</time>
      </trkpt>
      <trkpt lat="38.81813" lon="121.14733">
        <ele>50.681778</ele>
        <time>2014-06-27T09:29:55.166000Z</time>
      </trkpt>
      <trkpt lat="38.818005" lon="121.14732">
        <ele>51.739376</ele>
        <time>2014-06-27T09:29:58.372000Z</time>
      </trkpt>
      <trkpt lat="38.8179" lon="121.147316">
        <ele>51.922817</ele>
        <time>2014-06-27T09:30:01.578000Z</time>
      </trkpt>
      <trkpt lat="38.817776" lon="121.14731">
        <ele>51.583527</ele>
        <time>2014-06-27T09:30:04.784000Z</time>
      </trkpt>
      <trkpt lat="38.81766" lon="121.1473">
        <ele>50.939438</ele>
        <time>2014-06-27T09:30:07.990000Z</time>
      </trkpt>
      <trkpt lat="38.817554" lon="121.1473">
        <ele>49.862587</ele>
        <time>2014-06-27T09:30:11.196000Z</time>
      </trkpt>
      <trkpt lat="38.817436" lon="121.14732">
        <ele>48.778404</ele>
        <time>2014-06-27T09:30:14.402000Z</time>
      </trkpt>
      <trkpt lat="38.817356" lon="121.14738">
        <ele>48.64827</ele>
        <time>2014-06-27T09:30:17.608000Z</time>
      </trkpt>
      <trkpt lat="38.817272" lon="121.14748">
        <ele>49.708164</ele>
        <time>2014-06-27T09:30:20.814000Z</time>
      </trkpt>
      <trkpt lat="38.817215" lon="121.14761">
        <ele>51.00881</ele>
        <time>2014-06-27T09:30:24.020000Z</time>
      </trkpt>
      <trkpt lat="38.817184" lon="121.14774">
        <ele>51.295975</ele>
        <time>2014-06-27T09:30:27.226000Z</time>
      </trkpt>
      <trkpt lat="38.81718" lon="121.14786">
        <ele>50.341656</ele>
        <time>2014-06-27T09:30:30.432000Z</time>
      </trkpt>
      <trkpt lat="38.817207" lon="121.14799">
        <ele>49.00064</ele>
        <time>2014-06-27T09:30:33.638000Z</time>
      </trkpt>
      <trkpt lat="38.817265" lon="121.14811">
        <ele>48.16764</ele>
        <time>2014-06-27T09:30:36.844000Z</time>
      </trkpt>
      <trkpt lat="38.817345" lon="121.14822">
        <ele>47.920044</ele>
        <time>2014-06-27T09:30:40.050000Z</time>
      </trkpt>
      <trkpt lat="38.81744" lon="121.14827">
        <ele>47.969418</ele>
        <time>2014-06-27T09:30:43.256000Z</time>
      </trkpt>
      <trkpt lat="38.817543" lon="121.14829">
        <ele>48.05146</ele>
        <time>2014-06-27T09:30:46.462000Z</time>
      </trkpt>
      <trkpt lat="38.817654" lon="121.148285">
        <ele>48.071167</ele>
        <time>2014-06-27T09:30:49.668000Z</time>
      </trkpt>
      <trkpt lat="38.81777" lon="121.14829">
        <ele>48.073235</ele>
        <time>2014-06-27T09:30:52.874000Z</time>
      </trkpt>
      <trkpt lat="38.817863" lon="121.1483">
        <ele>48.088745</ele>
        <time>2014-06-27T09:30:56.080000Z</time>
      </trkpt>
      <trkpt lat="38.81797" lon="121.14829">
        <ele>48.1185</ele>
        <time>2014-06-27T09:30:59.286000Z</time>
      </trkpt>
      <trkpt lat="38.818077" lon="121.1483">
        <ele>48.070595</ele>
        <time>2014-06-27T09:31:02.492000Z</time>
      </trkpt>
      <trkpt lat="38.818188" lon="121.148315">
        <ele>47.968307</ele>
        <time>2014-06-27T09:31:05.698000Z</time>
      </trkpt>
      <trkpt lat="38.818306" lon="121.14832">
        <ele>48.06264</ele>
        <time>2014-06-27T09:31:08.904000Z</time>
      </trkpt>
      <trkpt lat="38.818405" lon="121.14831">
        <ele>48.37411</ele>
        <time>2014-06-27T09:31:12.110000Z</time>
      </trkpt>
      <trkpt lat="38.818516" lon="121.14826">
        <ele>48.454193</ele>
        <time>2014-06-27T09:31:15.316000Z</time>
      </trkpt>
      <trkpt lat="38.81857" lon="121.1473">
        <ele>45.001293</ele>
        <time>2014-06-27T09:31:18.522000Z</time>
      </trkpt>
      <trkpt lat="38.81857" lon="121.1473">
        <ele>45.34508</ele>
        <time>2014-06-27T09:31:21.728000Z</time>
      </trkpt>
      <trkpt lat="38.818478" lon="121.14732">
        <ele>45.594337</ele>
        <time>2014-06-27T09:31:24.934000Z</time>
      </trkpt>
      <trkpt lat="38.81845" lon="121.14733">
        <ele>46.018135</ele>
        <time>2014-06-27T09:31:28.140000Z</time>
      </trkpt>
      <trkpt lat="38.818348" lon="121.147354">
        <ele>46.859524</ele>
        <time>2014-06-27T09:31:31.346000Z</time>
      </trkpt>
      <trkpt lat="38.818233" lon="121.14736">
        <ele>47.40917</ele>
        <time>2014-06-27T09:31:34.552000Z</time>
      </trkpt>
      <trkpt lat="38.818123" lon="121.147354">
        <ele>46.856537</ele>
        <time>2014-06-27T09:31:37.758000Z</time>
      </trkpt>
      <trkpt lat="38.818123" lon="121.147354">
        <ele>45.56871</ele>
        <time>2014-06-27T09:31:40.964000Z</time>
      </trkpt>
      <trkpt lat="38.818027" lon="121.14735">
        <ele>44.861164</ele>
        <time>2014-06-27T09:31:44.170000Z</time>
      </trkpt>
      <trkpt lat="38.817924" lon="121.14734">
        <ele>45.34434</ele>
        <time>2014-06-27T09:31:47.376000Z</time>
      </trkpt>
      <trkpt lat="38.817818" lon="121.14732">
        <ele>46.51127</ele>
        <time>2014-06-27T09:31:50.582000Z</time>
      </trkpt>
      <trkpt lat="38.81772" lon="121.14732">
        <ele>47.757812</ele>
        <time>2014-06-27T09:31:53.788000Z</time>
      </trkpt>
      <trkpt lat="38.817616" lon="121.147316">
        <ele>48.688396</ele>
        <time>2014-06-27T09:31:56.994000Z</time>
      </trkpt>
      <trkpt lat="38.817524" lon="121.14732">
        <ele>48.40778</ele>
        <time>2014-06-27T09:32:00.200000Z</time>
      </trkpt>
      <trkpt lat="38.81742" lon="121.147354">
        <ele>46.699703</ele>
        <time>2014-06-27T09:32:03.406000Z</time>
      </trkpt>
      <trkpt lat="38.817333" lon="121.147415">
        <ele>45.427227</ele>
        <time>2014-06-27T09:32:06.612000Z</time>
      </trkpt>
      <trkpt lat="38.817253" lon="121.1475">
        <ele>46.190674</ele>
        <time>2014-06-27T09:32:09.818000Z</time>
      </trkpt>
      <trkpt lat="38.81719" lon="121.147644">
        <ele>48.195454</ele>
        <time>2014-06-27T09:32:13.024000Z</time>
      </trkpt>
      <trkpt lat="38.81717" lon="121.147766">
        <ele>50.047714</ele>
        <time>2014-06-27T09:32:16.230000Z</time>
      </trkpt>
      <trkpt lat="38.817177" lon="121.1479">
        <ele>51.280006</ele>
        <time>2014-06-27T09:32:19.436000Z</time>
      </trkpt>
      <trkpt lat="38.81722" lon="121.14804">
        <ele>52.005142</ele>
        <time>2014-06-27T09:32:22.642000Z</time>
      </trkpt>
      <trkpt lat="38.81728" lon="121.14814">
        <ele>52.18439</ele>
        <time>2014-06-27T09:32:25.848000Z</time>
      </trkpt>
      <trkpt lat="38.817352" lon="121.148224">
        <ele>51.75867</ele>
        <time>2014-06-27T09:32:29.054000Z</time>
      </trkpt>
      <trkpt lat="38.817448" lon="121.14829">
        <ele>51.629272</ele>
        <time>2014-06-27T09:32:32.260000Z</time>
      </trkpt>
      <trkpt lat="38.817547" lon="121.148315">
        <ele>52.45512</ele>
        <time>2014-06-27T09:32:35.466000Z</time>
      </trkpt>
      <trkpt lat="38.817646" lon="121.14831">
        <ele>53.22769</ele>
        <time>2014-06-27T09:32:38.672000Z</time>
      </trkpt>
      <trkpt lat="38.817764" lon="121.14831">
        <ele>52.843018</ele>
        <time>2014-06-27T09:32:41.878000Z</time>
      </trkpt>
      <trkpt lat="38.81787" lon="121.148315">
        <ele>51.713493</ele>
        <time>2014-06-27T09:32:45.084000Z</time>
      </trkpt>
      <trkpt lat="38.81797" lon="121.14832">
        <ele>50.444702</ele>
        <time>2014-06-27T09:32:48.290000Z</time>
      </trkpt>
      <trkpt lat="38.818096" lon="121.14832">
        <ele>48.96925</ele>
        <time>2014-06-27T09:32:51.496000Z</time>
      </trkpt>
      <trkpt lat="38.818195" lon="121.14832">
        <ele>47.118282</ele>
        <time>2014-06-27T09:32:54.702000Z</time>
      </trkpt>
      <trkpt lat="38.81831" lon="121.14832">
        <ele>45.226048</ele>
        <time>2014-06-27T09:32:57.908000Z</time>
      </trkpt>
      <trkpt lat="38.81841" lon="121.14833">
        <ele>43.914227</ele>
        <time>2014-06-27T09:33:01.114000Z</time>
      </trkpt>
      <trkpt lat="38.818504" lon="121.1483">
        <ele>43.392773</ele>
        <time>2014-06-27T09:33:04.320000Z</time>
      </trkpt>
      <trkpt lat="38.818592" lon="121.148224">
        <ele>43.295795</ele>
        <time>2014-06-27T09:33:07.526000Z</time>
      </trkpt>
      <trkpt lat="38.818657" lon="121.148125">
        <ele>43.285244</ele>
        <time>2014-06-27T09:33:10.732000Z</time>
      </trkpt>
      <trkpt lat="38.818695" lon="121.147995">
        <ele>43.23913</ele>
        <time>2014-06-27T09:33:13.938000Z</time>
      </trkpt>
      <trkpt lat="38.81872" lon="121.14786">
        <ele>44.09521</ele>
        <time>2014-06-27T09:33:17.144000Z</time>
      </trkpt>
      <trkpt lat="38.818703" lon="121.14771">
        <ele>46.423943</ele>
        <time>2014-06-27T09:33:20.350000Z</time>
      </trkpt>
      <trkpt lat="38.818657" lon="121.14758">
        <ele>48.77718</ele>
        <time>2014-06-27T09:33:23.556000Z</time>
      </trkpt>
      <trkpt lat="38.818577" lon="121.14747">
        <ele>49.759544</ele>
        <time>2014-06-27T09:33:26.762000Z</time>
      </trkpt>
      <trkpt lat="38.818478" lon="121.147385">
        <ele>49.59755</ele>
        <time>2014-06-27T09:33:29.968000Z</time>
      </trkpt>
      <trkpt lat="38.818382" lon="121.14736">
        <ele>48.13166</ele>
        <time>2014-06-27T09:33:33.174000Z</time>
      </trkpt>
      <trkpt lat="38.818283" lon="121.14736">
        <ele>45.475853</ele>
        <time>2014-06-27T09:33:36.380000Z</time>
      </trkpt>
      <trkpt lat="38.81819" lon="121.147354">
        <ele>43.330944</ele>
        <time>2014-06-27T09:33:39.586000Z</time>
      </trkpt>
      <trkpt lat="38.818085" lon="121.147354">
        <ele>43.071777</ele>
        <time>2014-06-27T09:33:42.792000Z</time>
      </trkpt>
      <trkpt lat="38.81799" lon="121.147354">
        <ele>44.053543</ele>
        <time>2014-06-27T09:33:45.998000Z</time>
      </trkpt>
      <trkpt lat="38.817875" lon="121.147354">
        <ele>45.051178</ele>
        <time>2014-06-27T09:33:49.204000Z</time>
      </trkpt>
      <trkpt lat="38.81776" lon="121.14734">
        <ele>45.650024</ele>
        <time>2014-06-27T09:33:52.410000Z</time>
      </trkpt>
      <trkpt lat="38.817657" lon="121.14734">
        <ele>46.220013</ele>
        <time>2014-06-27T09:33:55.616000Z</time>
      </trkpt>
      <trkpt lat="38.817562" lon="121.14734">
        <ele>46.913452</ele>
        <time>2014-06-27T09:33:58.822000Z</time>
      </trkpt>
      <trkpt lat="38.817444" lon="121.14737">
        <ele>47.166466</ele>
        <time>2014-06-27T09:34:02.028000Z</time>
      </trkpt>
      <trkpt lat="38.817356" lon="121.147415">
        <ele>46.65793</ele>
        <time>2014-06-27T09:34:05.234000Z</time>
      </trkpt>
      <trkpt lat="38.81727" lon="121.14749">
        <ele>46.355713</ele>
        <time>2014-06-27T09:34:08.440000Z</time>
      </trkpt>
      <trkpt lat="38.817215" lon="121.147606">
        <ele>47.062534</ele>
        <time>2014-06-27T09:34:11.646000Z</time>
      </trkpt>
      <trkpt lat="38.817184" lon="121.14774">
        <ele>48.113796</ele>
        <time>2014-06-27T09:34:14.852000Z</time>
      </trkpt>
      <trkpt lat="38.817192" lon="121.14788">
        <ele>48.393333</ele>
        <time>2014-06-27T09:34:18.058000Z</time>
      </trkpt>
      <trkpt lat="38.81721" lon="121.148">
        <ele>47.658653</ele>
        <time>2014-06-27T09:34:21.264000Z</time>
      </trkpt>
      <trkpt lat="38.817257" lon="121.14812">
        <ele>46.564754</ele>
        <time>2014-06-27T09:34:24.470000Z</time>
      </trkpt>
      <trkpt lat="38.81733" lon="121.148224">
        <ele>45.790123</ele>
        <time>2014-06-27T09:34:27.676000Z</time>
      </trkpt>
      <trkpt lat="38.817432" lon="121.14828">
        <ele>45.45305</ele>
        <time>2014-06-27T09:34:30.882000Z</time>
      </trkpt>
      <trkpt lat="38.81753" lon="121.1483">
        <ele>45.76631</ele>
        <time>2014-06-27T09:34:34.088000Z</time>
      </trkpt>
      <trkpt lat="38.817635" lon="121.1483">
        <ele>46.716595</ele>
        <time>2014-06-27T09:34:37.294000Z</time>
      </trkpt>
      <trkpt lat="38.81774" lon="121.14831">
        <ele>47.655056</ele>
        <time>2014-06-27T09:34:40.500000Z</time>
      </trkpt>
      <trkpt lat="38.81786" lon="121.1483">
        <ele>47.97578</ele>
        <time>2014-06-27T09:34:43.706000Z</time>
      </trkpt>
      <trkpt lat="38.817955" lon="121.14829">
        <ele>47.257378</ele>
        <time>2014-06-27T09:34:46.912000Z</time>
      </trkpt>
      <trkpt lat="38.818077" lon="121.1483">
        <ele>45.39846</ele>
        <time>2014-06-27T09:34:50.118000Z</time>
      </trkpt>
      <trkpt lat="38.81818" lon="121.148315">
        <ele>43.534782</ele>
        <time>2014-06-27T09:34:53.324000Z</time>
      </trkpt>
      <trkpt lat="38.818283" lon="121.14832">
        <ele>42.955723</ele>
        <time>2014-06-27T09:34:56.530000Z</time>
      </trkpt>
      <trkpt lat="38.818386" lon="121.14832">
        <ele>43.496456</ele>
        <time>2014-06-27T09:34:59.736000Z</time>
      </trkpt>
      <trkpt lat="38.818493" lon="121.14829">
        <ele>44.230072</ele>
        <time>2014-06-27T09:35:02.942000Z</time>
      </trkpt>
      <trkpt lat="38.818577" lon="121.14822">
        <ele>45.12063</ele>
        <time>2014-06-27T09:35:06.148000Z</time>
      </trkpt>
      <trkpt lat="38.81863" lon="121.14812">
        <ele>46.435318</ele>
        <time>2014-06-27T09:35:09.354000Z</time>
      </trkpt>
      <trkpt lat="38.81868" lon="121.147995">
        <ele>47.77815</ele>
        <time>2014-06-27T09:35:12.560000Z</time>
      </trkpt>
      <trkpt lat="38.818703" lon="121.14788">
        <ele>48.856308</ele>
        <time>2014-06-27T09:35:15.766000Z</time>
      </trkpt>
      <trkpt lat="38.818703" lon="121.14775">
        <ele>49.747658</ele>
        <time>2014-06-27T09:35:18.972000Z</time>
      </trkpt>
      <trkpt lat="38.81868" lon="121.14763">
        <ele>50.461952</ele>
        <time>2014-06-27T09:35:22.178000Z</time>
      </trkpt>
      <trkpt lat="38.81863" lon="121.14752">
        <ele>51.079525</ele>
        <time>2014-06-27T09:35:25.384000Z</time>
      </trkpt>
      <trkpt lat="38.81856" lon="121.14743">
        <ele>50.911324</ele>
        <time>2014-06-27T09:35:28.590000Z</time>
      </trkpt>
      <trkpt lat="38.818478" lon="121.147354">
        <ele>49.171432</ele>
        <time>2014-06-27T09:35:31.796000Z</time>
      </trkpt>
      <trkpt lat="38.81838" lon="121.14733">
        <ele>46.730583</ele>
        <time>2014-06-27T09:35:35.002000Z</time>
      </trkpt>
      <trkpt lat="38.818275" lon="121.14733">
        <ele>45.389706</ele>
        <time>2014-06-27T09:35:38.208000Z</time>
      </trkpt>
      <trkpt lat="38.81818" lon="121.14732">
        <ele>45.714954</ele>
        <time>2014-06-27T09:35:41.414000Z</time>
      </trkpt>
      <trkpt lat="38.81808" lon="121.14733">
        <ele>46.77716</ele>
        <time>2014-06-27T09:35:44.620000Z</time>
      </trkpt>
      <trkpt lat="38.81799" lon="121.14735">
        <ele>47.304386</ele>
        <time>2014-06-27T09:35:47.826000Z</time>
      </trkpt>
      <trkpt lat="38.817886" lon="121.147354">
        <ele>46.51123</ele>
        <time>2014-06-27T09:35:51.032000Z</time>
      </trkpt>
      <trkpt lat="38.817764" lon="121.14735">
        <ele>44.720085</ele>
        <time>2014-06-27T09:35:54.238000Z</time>
      </trkpt>
      <trkpt lat="38.81765" lon="121.14735">
        <ele>43.162663</ele>
        <time>2014-06-27T09:35:57.444000Z</time>
      </trkpt>
      <trkpt lat="38.817547" lon="121.14735">
        <ele>42.43859</ele>
        <time>2014-06-27T09:36:00.650000Z</time>
      </trkpt>
      <trkpt lat="38.81743" lon="121.14737">
        <ele>42.412563</ele>
        <time>2014-06-27T09:36:03.856000Z</time>
      </trkpt>
      <trkpt lat="38.817345" lon="121.147415">
        <ele>43.441505</ele>
        <time>2014-06-27T09:36:07.062000Z</time>
      </trkpt>
      <trkpt lat="38.81727" lon="121.1475">
        <ele>45.575317</ele>
        <time>2014-06-27T09:36:10.268000Z</time>
      </trkpt>
      <trkpt lat="38.817207" lon="121.14763">
        <ele>47.68685</ele>
        <time>2014-06-27T09:36:13.474000Z</time>
      </trkpt>
      <trkpt lat="38.817184" lon="121.14777">
        <ele>48.772617</ele>
        <time>2014-06-27T09:36:16.680000Z</time>
      </trkpt>
      <trkpt lat="38.817196" lon="121.147896">
        <ele>48.8191</ele>
        <time>2014-06-27T09:36:19.886000Z</time>
      </trkpt>
      <trkpt lat="38.817226" lon="121.148026">
        <ele>47.90802</ele>
        <time>2014-06-27T09:36:23.092000Z</time>
      </trkpt>
      <trkpt lat="38.817287" lon="121.14813">
        <ele>45.95918</ele>
        <time>2014-06-27T09:36:26.298000Z</time>
      </trkpt>
      <trkpt lat="38.817356" lon="121.14822">
        <ele>43.59403</ele>
        <time>2014-06-27T09:36:29.504000Z</time>
      </trkpt>
      <trkpt lat="38.817448" lon="121.14826">
        <ele>42.086323</ele>
        <time>2014-06-27T09:36:32.710000Z</time>
      </trkpt>
      <trkpt lat="38.817547" lon="121.14829">
        <ele>41.971684</ele>
        <time>2014-06-27T09:36:35.916000Z</time>
      </trkpt>
      <trkpt lat="38.81765" lon="121.1483">
        <ele>43.112694</ele>
        <time>2014-06-27T09:36:39.122000Z</time>
      </trkpt>
      <trkpt lat="38.817745" lon="121.14829">
        <ele>45.023632</ele>
        <time>2014-06-27T09:36:42.328000Z</time>
      </trkpt>
      <trkpt lat="38.817856" lon="121.14829">
        <ele>46.642662</ele>
        <time>2014-06-27T09:36:45.534000Z</time>
      </trkpt>
      <trkpt lat="38.817966" lon="121.1483">
        <ele>47.00129</ele>
        <time>2014-06-27T09:36:48.740000Z</time>
      </trkpt>
      <trkpt lat="38.818077" lon="121.14831">
        <ele>46.08143</ele>
        <time>2014-06-27T09:36:51.946000Z</time>
      </trkpt>
      <trkpt lat="38.81818" lon="121.148315">
        <ele>44.573063</ele>
        <time>2014-06-27T09:36:55.152000Z</time>
      </trkpt>
      <trkpt lat="38.81828" lon="121.148315">
        <ele>43.31104</ele>
        <time>2014-06-27T09:36:58.358000Z</time>
      </trkpt>
      <trkpt lat="38.818398" lon="121.14831">
        <ele>42.7285</ele>
        <time>2014-06-27T09:37:01.564000Z</time>
      </trkpt>
      <trkpt lat="38.8185" lon="121.14828">
        <ele>43.180363</ele>
        <time>2014-06-27T09:37:04.770000Z</time>
      </trkpt>
      <trkpt lat="38.818584" lon="121.14819">
        <ele>44.644215</ele>
        <time>2014-06-27T09:37:07.976000Z</time>
      </trkpt>
      <trkpt lat="38.818665" lon="121.148094">
        <ele>46.8249</ele>
        <time>2014-06-27T09:37:11.182000Z</time>
      </trkpt>
      <trkpt lat="38.818707" lon="121.14799">
        <ele>49.209114</ele>
        <time>2014-06-27T09:37:14.388000Z</time>
      </trkpt>
      <trkpt lat="38.818733" lon="121.147865">
        <ele>50.595047</ele>
        <time>2014-06-27T09:37:17.594000Z</time>
      </trkpt>
      <trkpt lat="38.818718" lon="121.147705">
        <ele>49.984142</ele>
        <time>2014-06-27T09:37:20.800000Z</time>
      </trkpt>
      <trkpt lat="38.81868" lon="121.147575">
        <ele>48.08775</ele>
        <time>2014-06-27T09:37:24.006000Z</time>
      </trkpt>
      <trkpt lat="38.818607" lon="121.14745">
        <ele>46.23652</ele>
        <time>2014-06-27T09:37:27.212000Z</time>
      </trkpt>
      <trkpt lat="38.818527" lon="121.147385">
        <ele>45.079834</ele>
        <time>2014-06-27T09:37:30.418000Z</time>
      </trkpt>
      <trkpt lat="38.818428" lon="121.14735">
        <ele>44.7529</ele>
        <time>2014-06-27T09:37:33.624000Z</time>
      </trkpt>
      <trkpt lat="38.81832" lon="121.14734">
        <ele>45.095276</ele>
        <time>2014-06-27T09:37:36.830000Z</time>
      </trkpt>
      <trkpt lat="38.81821" lon="121.14733">
        <ele>45.24996</ele>
        <time>2014-06-27T09:37:40.036000Z</time>
      </trkpt>
      <trkpt lat="38.8181" lon="121.14735">
        <ele>44.549015</ele>
        <time>2014-06-27T09:37:43.242000Z</time>
      </trkpt>
      <trkpt lat="38.817997" lon="121.14735">
        <ele>43.46058</ele>
        <time>2014-06-27T09:37:46.448000Z</time>
      </trkpt>
      <trkpt lat="38.817905" lon="121.14735">
        <ele>42.74373</ele>
        <time>2014-06-27T09:37:49.654000Z</time>
      </trkpt>
      <trkpt lat="38.81778" lon="121.14734">
        <ele>42.647507</ele>
        <time>2014-06-27T09:37:52.860000Z</time>
      </trkpt>
      <trkpt lat="38.81768" lon="121.14733">
        <ele>43.05017</ele>
        <time>2014-06-27T09:37:56.066000Z</time>
      </trkpt>
      <trkpt lat="38.817585" lon="121.14734">
        <ele>43.559273</ele>
        <time>2014-06-27T09:37:59.272000Z</time>
      </trkpt>
      <trkpt lat="38.817467" lon="121.147354">
        <ele>43.901173</ele>
        <time>2014-06-27T09:38:02.478000Z</time>
      </trkpt>
      <trkpt lat="38.817368" lon="121.1474">
        <ele>44.174686</ele>
        <time>2014-06-27T09:38:05.684000Z</time>
      </trkpt>
      <trkpt lat="38.81729" lon="121.14748">
        <ele>44.463215</ele>
        <time>2014-06-27T09:38:08.890000Z</time>
      </trkpt>
      <trkpt lat="38.817234" lon="121.14759">
        <ele>44.81567</ele>
        <time>2014-06-27T09:38:12.096000Z</time>
      </trkpt>
      <trkpt lat="38.817192" lon="121.14772">
        <ele>45.43904</ele>
        <time>2014-06-27T09:38:15.302000Z</time>
      </trkpt>
      <trkpt lat="38.817196" lon="121.14789">
        <ele>46.276962</ele>
        <time>2014-06-27T09:38:18.508000Z</time>
      </trkpt>
      <trkpt lat="38.817226" lon="121.148">
        <ele>47.01949</ele>
        <time>2014-06-27T09:38:21.714000Z</time>
      </trkpt>
      <trkpt lat="38.81729" lon="121.14812">
        <ele>47.677044</ele>
        <time>2014-06-27T09:38:24.920000Z</time>
      </trkpt>
      <trkpt lat="38.817383" lon="121.148224">
        <ele>48.310017</ele>
        <time>2014-06-27T09:38:28.126000Z</time>
      </trkpt>
      <trkpt lat="38.817467" lon="121.14828">
        <ele>48.524635</ele>
        <time>2014-06-27T09:38:31.332000Z</time>
      </trkpt>
      <trkpt lat="38.817574" lon="121.1483">
        <ele>48.131992</ele>
        <time>2014-06-27T09:38:34.538000Z</time>
      </trkpt>
      <trkpt lat="38.817677" lon="121.14831">
        <ele>47.577576</ele>
        <time>2014-06-27T09:38:37.744000Z</time>
      </trkpt>
      <trkpt lat="38.81777" lon="121.1483">
        <ele>47.4854</ele>
        <time>2014-06-27T09:38:40.950000Z</time>
      </trkpt>
      <trkpt lat="38.817867" lon="121.14829">
        <ele>48.100044</ele>
        <time>2014-06-27T09:38:44.156000Z</time>
      </trkpt>
      <trkpt lat="38.817974" lon="121.14829">
        <ele>49.057594</ele>
        <time>2014-06-27T09:38:47.362000Z</time>
      </trkpt>
      <trkpt lat="38.818073" lon="121.1483">
        <ele>49.747845</ele>
        <time>2014-06-27T09:38:50.568000Z</time>
      </trkpt>
      <trkpt lat="38.818184" lon="121.1483">
        <ele>49.91059</ele>
        <time>2014-06-27T09:38:53.774000Z</time>
      </trkpt>
      <trkpt lat="38.81829" lon="121.1483">
        <ele>49.407597</ele>
        <time>2014-06-27T09:38:56.980000Z</time>
      </trkpt>
      <trkpt lat="38.818386" lon="121.1483">
        <ele>48.185696</ele>
        <time>2014-06-27T09:39:00.186000Z</time>
      </trkpt>
      <trkpt lat="38.818504" lon="121.14827">
        <ele>46.747597</ele>
        <time>2014-06-27T09:39:03.392000Z</time>
      </trkpt>
      <trkpt lat="38.818584" lon="121.14821">
        <ele>45.889748</ele>
        <time>2014-06-27T09:39:06.598000Z</time>
      </trkpt>
      <trkpt lat="38.818665" lon="121.1481">
        <ele>46.149513</ele>
        <time>2014-06-27T09:39:09.804000Z</time>
      </trkpt>
      <trkpt lat="38.818703" lon="121.147995">
        <ele>47.26633</ele>
        <time>2014-06-27T09:39:13.010000Z</time>
      </trkpt>
      <trkpt lat="38.818718" lon="121.14787">
        <ele>48.36956</ele>
        <time>2014-06-27T09:39:16.216000Z</time>
      </trkpt>
      <trkpt lat="38.81871" lon="121.14775">
        <ele>48.943817</ele>
        <time>2014-06-27T09:39:19.422000Z</time>
      </trkpt>
      <trkpt lat="38.818676" lon="121.147606">
        <ele>49.256645</ele>
        <time>2014-06-27T09:39:22.628000Z</time>
      </trkpt>
      <trkpt lat="38.81863" lon="121.147484">
        <ele>49.616726</ele>
        <time>2014-06-27T09:39:25.834000Z</time>
      </trkpt>
      <trkpt lat="38.818558" lon="121.14741">
        <ele>49.960255</ele>
        <time>2014-06-27T09:39:29.040000Z</time>
      </trkpt>
      <trkpt lat="38.818474" lon="121.14736">
        <ele>49.726967</ele>
        <time>2014-06-27T09:39:32.246000Z</time>
      </trkpt>
      <trkpt lat="38.818367" lon="121.14733">
        <ele>48.667145</ele>
        <time>2014-06-27T09:39:35.452000Z</time>
      </trkpt>
      <trkpt lat="38.818264" lon="121.14732">
        <ele>47.41619</ele>
        <time>2014-06-27T09:39:38.658000Z</time>
      </trkpt>
      <trkpt lat="38.81814" lon="121.14732">
        <ele>46.33853</ele>
        <time>2014-06-27T09:39:41.864000Z</time>
      </trkpt>
      <trkpt lat="38.818027" lon="121.14731">
        <ele>45.216465</ele>
        <time>2014-06-27T09:39:45.070000Z</time>
      </trkpt>
      <trkpt lat="38.817917" lon="121.14731">
        <ele>44.332317</ele>
        <time>2014-06-27T09:39:48.276000Z</time>
      </trkpt>
      <trkpt lat="38.817818" lon="121.14731">
        <ele>44.249195</ele>
        <time>2014-06-27T09:39:51.482000Z</time>
      </trkpt>
      <trkpt lat="38.817707" lon="121.1473">
        <ele>45.2442</ele>
        <time>2014-06-27T09:39:54.688000Z</time>
      </trkpt>
      <trkpt lat="38.8176" lon="121.14729">
        <ele>46.892696</ele>
        <time>2014-06-27T09:39:57.894000Z</time>
      </trkpt>
      <trkpt lat="38.817505" lon="121.14731">
        <ele>48.18862</ele>
        <time>2014-06-27T09:40:01.100000Z</time>
      </trkpt>
      <trkpt lat="38.817398" lon="121.14736">
        <ele>48.5726</ele>
        <time>2014-06-27T09:40:04.306000Z</time>
      </trkpt>
      <trkpt lat="38.817318" lon="121.14742">
        <ele>48.27237</ele>
        <time>2014-06-27T09:40:07.512000Z</time>
      </trkpt>
      <trkpt lat="38.81726" lon="121.14752">
        <ele>47.82398</ele>
        <time>2014-06-27T09:40:10.718000Z</time>
      </trkpt>
      <trkpt lat="38.81721" lon="121.14765">
        <ele>47.57644</ele>
        <time>2014-06-27T09:40:13.924000Z</time>
      </trkpt>
      <trkpt lat="38.81719" lon="121.14778">
        <ele>47.364563</ele>
        <time>2014-06-27T09:40:17.130000Z</time>
      </trkpt>
      <trkpt lat="38.817192" lon="121.147934">
        <ele>46.56569</ele>
        <time>2014-06-27T09:40:20.336000Z</time>
      </trkpt>
      <trkpt lat="38.817238" lon="121.148056">
        <ele>44.984913</ele>
        <time>2014-06-27T09:40:23.542000Z</time>
      </trkpt>
      <trkpt lat="38.817303" lon="121.14816">
        <ele>43.416084</ele>
        <time>2014-06-27T09:40:26.748000Z</time>
      </trkpt>
      <trkpt lat="38.817394" lon="121.14824">
        <ele>43.04643</ele>
        <time>2014-06-27T09:40:29.954000Z</time>
      </trkpt>
      <trkpt lat="38.817482" lon="121.14828">
        <ele>44.063786</ele>
        <time>2014-06-27T09:40:33.160000Z</time>
      </trkpt>
      <trkpt lat="38.81758" lon="121.148285">
        <ele>45.36869</ele>
        <time>2014-06-27T09:40:36.366000Z</time>
      </trkpt>
      <trkpt lat="38.817688" lon="121.14828">
        <ele>46.016808</ele>
        <time>2014-06-27T09:40:39.572000Z</time>
      </trkpt>
      <trkpt lat="38.8178" lon="121.14827">
        <ele>46.190712</ele>
        <time>2014-06-27T09:40:42.778000Z</time>
      </trkpt>
      <trkpt lat="38.81791" lon="121.14827">
        <ele>46.3736</ele>
        <time>2014-06-27T09:40:45.984000Z</time>
      </trkpt>
      <trkpt lat="38.818016" lon="121.14828">
        <ele>46.616116</ele>
        <time>2014-06-27T09:40:49.190000Z</time>
      </trkpt>
      <trkpt lat="38.818127" lon="121.148285">
        <ele>46.43087</ele>
        <time>2014-06-27T09:40:52.396000Z</time>
      </trkpt>
      <trkpt lat="38.81823" lon="121.1483">
        <ele>45.687504</ele>
        <time>2014-06-27T09:40:55.602000Z</time>
      </trkpt>
      <trkpt lat="38.81834" lon="121.1483">
        <ele>45.04037</ele>
        <time>2014-06-27T09:40:58.808000Z</time>
      </trkpt>
      <trkpt lat="38.818436" lon="121.14829">
        <ele>44.960884</ele>
        <time>2014-06-27T09:41:02.014000Z</time>
      </trkpt>
      <trkpt lat="38.818546" lon="121.14824">
        <ele>45.199986</ele>
        <time>2014-06-27T09:41:05.220000Z</time>
      </trkpt>
      <trkpt lat="38.81862" lon="121.148155">
        <ele>45.56217</ele>
        <time>2014-06-27T09:41:08.426000Z</time>
      </trkpt>
      <trkpt lat="38.818676" lon="121.14804">
        <ele>46.147564</ele>
        <time>2014-06-27T09:41:11.632000Z</time>
      </trkpt>
      <trkpt lat="38.81871" lon="121.1479">
        <ele>46.93571</ele>
        <time>2014-06-27T09:41:14.838000Z</time>
      </trkpt>
      <trkpt lat="38.81871" lon="121.14776">
        <ele>48.211475</ele>
        <time>2014-06-27T09:41:18.044000Z</time>
      </trkpt>
      <trkpt lat="38.818687" lon="121.14763">
        <ele>50.310658</ele>
        <time>2014-06-27T09:41:21.250000Z</time>
      </trkpt>
      <trkpt lat="38.81864" lon="121.14753">
        <ele>52.534393</ele>
        <time>2014-06-27T09:41:24.456000Z</time>
      </trkpt>
      <trkpt lat="38.81857" lon="121.147446">
        <ele>53.26399</ele>
        <time>2014-06-27T09:41:27.662000Z</time>
      </trkpt>
      <trkpt lat="38.81847" lon="121.147385">
        <ele>51.96075</ele>
        <time>2014-06-27T09:41:30.868000Z</time>
      </trkpt>
      <trkpt lat="38.81837" lon="121.147354">
        <ele>49.81988</ele>
        <time>2014-06-27T09:41:34.074000Z</time>
      </trkpt>
      <trkpt lat="38.818268" lon="121.14735">
        <ele>47.975456</ele>
        <time>2014-06-27T09:41:37.280000Z</time>
      </trkpt>
      <trkpt lat="38.818172" lon="121.14735">
        <ele>46.50601</ele>
        <time>2014-06-27T09:41:40.486000Z</time>
      </trkpt>
      <trkpt lat="38.818077" lon="121.147354">
        <ele>45.445988</ele>
        <time>2014-06-27T09:41:43.692000Z</time>
      </trkpt>
      <trkpt lat="38.817955" lon="121.14735">
        <ele>45.024334</ele>
        <time>2014-06-27T09:41:46.898000Z</time>
      </trkpt>
      <trkpt lat="38.81786" lon="121.14734">
        <ele>45.360428</ele>
        <time>2014-06-27T09:41:50.104000Z</time>
      </trkpt>
      <trkpt lat="38.817764" lon="121.14732">
        <ele>46.26353</ele>
        <time>2014-06-27T09:41:53.310000Z</time>
      </trkpt>
      <trkpt lat="38.817646" lon="121.14732">
        <ele>47.117943</ele>
        <time>2014-06-27T09:41:56.516000Z</time>
      </trkpt>
      <trkpt lat="38.817535" lon="121.14733">
        <ele>47.328384</ele>
        <time>2014-06-27T09:41:59.722000Z</time>
      </trkpt>
      <trkpt lat="38.81744" lon="121.14735">
        <ele>46.993214</ele>
        <time>2014-06-27T09:42:02.928000Z</time>
      </trkpt>
      <trkpt lat="38.817352" lon="121.1474">
        <ele>46.294037</ele>
        <time>2014-06-27T09:42:06.134000Z</time>
      </trkpt>
      <trkpt lat="38.817272" lon="121.14751">
        <ele>45.68692</ele>
        <time>2014-06-27T09:42:09.340000Z</time>
      </trkpt>
      <trkpt lat="38.817223" lon="121.14763">
        <ele>45.737938</ele>
        <time>2014-06-27T09:42:12.546000Z</time>
      </trkpt>
      <trkpt lat="38.8172" lon="121.14774">
        <ele>46.099144</ele>
        <time>2014-06-27T09:42:15.752000Z</time>
      </trkpt>
      <trkpt lat="38.817204" lon="121.14788">
        <ele>46.21164</ele>
        <time>2014-06-27T09:42:18.958000Z</time>
      </trkpt>
      <trkpt lat="38.81724" lon="121.148">
        <ele>46.427097</ele>
        <time>2014-06-27T09:42:22.164000Z</time>
      </trkpt>
      <trkpt lat="38.8173" lon="121.14813">
        <ele>47.33743</ele>
        <time>2014-06-27T09:42:25.370000Z</time>
      </trkpt>
      <trkpt lat="38.81737" lon="121.148224">
        <ele>48.905148</ele>
        <time>2014-06-27T09:42:28.576000Z</time>
      </trkpt>
      <trkpt lat="38.81747" lon="121.14827">
        <ele>50.326916</ele>
        <time>2014-06-27T09:42:31.782000Z</time>
      </trkpt>
      <trkpt lat="38.81757" lon="121.148285">
        <ele>51.042423</ele>
        <time>2014-06-27T09:42:34.988000Z</time>
      </trkpt>
      <trkpt lat="38.817688" lon="121.148285">
        <ele>50.743088</ele>
        <time>2014-06-27T09:42:38.194000Z</time>
      </trkpt>
      <trkpt lat="38.817783" lon="121.14828">
        <ele>49.530716</ele>
        <time>2014-06-27T09:42:41.400000Z</time>
      </trkpt>
      <trkpt lat="38.817886" lon="121.14828">
        <ele>48.304523</ele>
        <time>2014-06-27T09:42:44.606000Z</time>
      </trkpt>
      <trkpt lat="38.81799" lon="121.14828">
        <ele>47.740574</ele>
        <time>2014-06-27T09:42:47.812000Z</time>
      </trkpt>
      <trkpt lat="38.818108" lon="121.14829">
        <ele>47.19835</ele>
        <time>2014-06-27T09:42:51.018000Z</time>
      </trkpt>
      <trkpt lat="38.818222" lon="121.1483">
        <ele>46.0725</ele>
        <time>2014-06-27T09:42:54.224000Z</time>
      </trkpt>
      <trkpt lat="38.818333" lon="121.148315">
        <ele>44.931095</ele>
        <time>2014-06-27T09:42:57.430000Z</time>
      </trkpt>
      <trkpt lat="38.818428" lon="121.14831">
        <ele>44.49399</ele>
        <time>2014-06-27T09:43:00.636000Z</time>
      </trkpt>
      <trkpt lat="38.81853" lon="121.14826">
        <ele>44.66428</ele>
        <time>2014-06-27T09:43:03.842000Z</time>
      </trkpt>
      <trkpt lat="38.818604" lon="121.1482">
        <ele>45.172684</ele>
        <time>2014-06-27T09:43:07.048000Z</time>
      </trkpt>
      <trkpt lat="38.81868" lon="121.14809">
        <ele>46.19695</ele>
        <time>2014-06-27T09:43:10.254000Z</time>
      </trkpt>
      <trkpt lat="38.81872" lon="121.14795">
        <ele>47.739838</ele>
        <time>2014-06-27T09:43:13.460000Z</time>
      </trkpt>
      <trkpt lat="38.818737" lon="121.14781">
        <ele>49.043232</ele>
        <time>2014-06-27T09:43:16.666000Z</time>
      </trkpt>
      <trkpt lat="38.81872" lon="121.1477">
        <ele>49.673527</ele>
        <time>2014-06-27T09:43:19.872000Z</time>
      </trkpt>
      <trkpt lat="38.818684" lon="121.14758">
        <ele>49.94246</ele>
        <time>2014-06-27T09:43:23.078000Z</time>
      </trkpt>
      <trkpt lat="38.81861" lon="121.14746">
        <ele>49.75942</ele>
        <time>2014-06-27T09:43:26.284000Z</time>
      </trkpt>
      <trkpt lat="38.81851" lon="121.147385">
        <ele>48.960735</ele>
        <time>2014-06-27T09:43:29.490000Z</time>
      </trkpt>
      <trkpt lat="38.818405" lon="121.14735">
        <ele>48.085262</ele>
        <time>2014-06-27T09:43:32.696000Z</time>
      </trkpt>
      <trkpt lat="38.818314" lon="121.14735">
        <ele>47.64904</ele>
        <time>2014-06-27T09:43:35.902000Z</time>
      </trkpt>
      <trkpt lat="38.81819" lon="121.14733">
        <ele>47.47839</ele>
        <time>2014-06-27T09:43:39.108000Z</time>
      </trkpt>
      <trkpt lat="38.81808" lon="121.14733">
        <ele>47.325253</ele>
        <time>2014-06-27T09:43:42.314000Z</time>
      </trkpt>
      <trkpt lat="38.81798" lon="121.14734">
        <ele>47.302135</ele>
        <time>2014-06-27T09:43:45.520000Z</time>
      </trkpt>
      <trkpt lat="38.81787" lon="121.14735">
        <ele>47.5758</ele>
        <time>2014-06-27T09:43:48.726000Z</time>
      </trkpt>
      <trkpt lat="38.81776" lon="121.14735">
        <ele>47.99382</ele>
        <time>2014-06-27T09:43:51.932000Z</time>
      </trkpt>
      <trkpt lat="38.817646" lon="121.14734">
        <ele>47.785202</ele>
        <time>2014-06-27T09:43:55.138000Z</time>
      </trkpt>
      <trkpt lat="38.81754" lon="121.14733">
        <ele>46.58311</ele>
        <time>2014-06-27T09:43:58.344000Z</time>
      </trkpt>
      <trkpt lat="38.81744" lon="121.147354">
        <ele>45.23872</ele>
        <time>2014-06-27T09:44:01.550000Z</time>
      </trkpt>
      <trkpt lat="38.817356" lon="121.14742">
        <ele>44.611717</ele>
        <time>2014-06-27T09:44:04.756000Z</time>
      </trkpt>
      <trkpt lat="38.817276" lon="121.147514">
        <ele>44.69321</ele>
        <time>2014-06-27T09:44:07.962000Z</time>
      </trkpt>
      <trkpt lat="38.81722" lon="121.14765">
        <ele>45.50084</ele>
        <time>2014-06-27T09:44:11.168000Z</time>
      </trkpt>
      <trkpt lat="38.8172" lon="121.14778">
        <ele>46.88948</ele>
        <time>2014-06-27T09:44:14.374000Z</time>
      </trkpt>
      <trkpt lat="38.817204" lon="121.14792">
        <ele>48.16136</ele>
        <time>2014-06-27T09:44:17.580000Z</time>
      </trkpt>
      <trkpt lat="38.81724" lon="121.14803">
        <ele>48.334106</ele>
        <time>2014-06-27T09:44:20.786000Z</time>
      </trkpt>
      <trkpt lat="38.817307" lon="121.14814">
        <ele>47.278645</ele>
        <time>2014-06-27T09:44:23.992000Z</time>
      </trkpt>
      <trkpt lat="38.817398" lon="121.148224">
        <ele>46.182076</ele>
        <time>2014-06-27T09:44:27.198000Z</time>
      </trkpt>
      <trkpt lat="38.8175" lon="121.14828">
        <ele>46.293575</ele>
        <time>2014-06-27T09:44:30.404000Z</time>
      </trkpt>
      <trkpt lat="38.817616" lon="121.148285">
        <ele>47.403473</ele>
        <time>2014-06-27T09:44:33.610000Z</time>
      </trkpt>
      <trkpt lat="38.817707" lon="121.148285">
        <ele>48.465363</ele>
        <time>2014-06-27T09:44:36.816000Z</time>
      </trkpt>
      <trkpt lat="38.81783" lon="121.14829">
        <ele>48.741676</ele>
        <time>2014-06-27T09:44:40.022000Z</time>
      </trkpt>
      <trkpt lat="38.817932" lon="121.1483">
        <ele>48.4848</ele>
        <time>2014-06-27T09:44:43.228000Z</time>
      </trkpt>
      <trkpt lat="38.818054" lon="121.14831">
        <ele>48.393265</ele>
        <time>2014-06-27T09:44:46.434000Z</time>
      </trkpt>
      <trkpt lat="38.818172" lon="121.148315">
        <ele>48.6374</ele>
        <time>2014-06-27T09:44:49.640000Z</time>
      </trkpt>
      <trkpt lat="38.818268" lon="121.14832">
        <ele>49.05835</ele>
        <time>2014-06-27T09:44:52.846000Z</time>
      </trkpt>
      <trkpt lat="38.818363" lon="121.14832">
        <ele>49.619785</ele>
        <time>2014-06-27T09:44:56.052000Z</time>
      </trkpt>
      <trkpt lat="38.818474" lon="121.148285">
        <ele>50.329014</ele>
        <time>2014-06-27T09:44:59.258000Z</time>
      </trkpt>
      <trkpt lat="38.818565" lon="121.148224">
        <ele>51.141884</ele>
        <time>2014-06-27T09:45:02.464000Z</time>
      </trkpt>
      <trkpt lat="38.818657" lon="121.148125">
        <ele>51.788307</ele>
        <time>2014-06-27T09:45:05.670000Z</time>
      </trkpt>
      <trkpt lat="38.818714" lon="121.14801">
        <ele>51.73241</ele>
        <time>2014-06-27T09:45:08.876000Z</time>
      </trkpt>
      <trkpt lat="38.818737" lon="121.14787">
        <ele>50.87329</ele>
        <time>2014-06-27T09:45:12.082000Z</time>
      </trkpt>
      <trkpt lat="38.81873" lon="121.147736">
        <ele>49.25898</ele>
        <time>2014-06-27T09:45:15.288000Z</time>
      </trkpt>
      <trkpt lat="38.818695" lon="121.147606">
        <ele>47.182335</ele>
        <time>2014-06-27T09:45:18.494000Z</time>
      </trkpt>
      <trkpt lat="38.818645" lon="121.14751">
        <ele>45.62441</ele>
        <time>2014-06-27T09:45:21.700000Z</time>
      </trkpt>
      <trkpt lat="38.818573" lon="121.147415">
        <ele>45.47575</ele>
        <time>2014-06-27T09:45:24.906000Z</time>
      </trkpt>
      <trkpt lat="38.818485" lon="121.14735">
        <ele>46.338474</ele>
        <time>2014-06-27T09:45:28.112000Z</time>
      </trkpt>
      <trkpt lat="38.81839" lon="121.14734">
        <ele>47.269073</ele>
        <time>2014-06-27T09:45:31.318000Z</time>
      </trkpt>
      <trkpt lat="38.81827" lon="121.14734">
        <ele>47.69806</ele>
        <time>2014-06-27T09:45:34.524000Z</time>
      </trkpt>
      <trkpt lat="38.818146" lon="121.14735">
        <ele>47.394825</ele>
        <time>2014-06-27T09:45:37.730000Z</time>
      </trkpt>
      <trkpt lat="38.818035" lon="121.14736">
        <ele>46.426632</ele>
        <time>2014-06-27T09:45:40.936000Z</time>
      </trkpt>
      <trkpt lat="38.81794" lon="121.14736">
        <ele>45.419865</ele>
        <time>2014-06-27T09:45:44.142000Z</time>
      </trkpt>
      <trkpt lat="38.817844" lon="121.14734">
        <ele>44.894768</ele>
        <time>2014-06-27T09:45:47.348000Z</time>
      </trkpt>
      <trkpt lat="38.81775" lon="121.14733">
        <ele>45.166504</ele>
        <time>2014-06-27T09:45:50.554000Z</time>
      </trkpt>
      <trkpt lat="38.81762" lon="121.14732">
        <ele>46.223953</ele>
        <time>2014-06-27T09:45:53.760000Z</time>
      </trkpt>
      <trkpt lat="38.817513" lon="121.14732">
        <ele>47.321434</ele>
        <time>2014-06-27T09:45:56.966000Z</time>
      </trkpt>
      <trkpt lat="38.81742" lon="121.14737">
        <ele>47.95032</ele>
        <time>2014-06-27T09:46:00.172000Z</time>
      </trkpt>
      <trkpt lat="38.817333" lon="121.14744">
        <ele>48.30488</ele>
        <time>2014-06-27T09:46:03.378000Z</time>
      </trkpt>
      <trkpt lat="38.817257" lon="121.14753">
        <ele>48.934628</ele>
        <time>2014-06-27T09:46:06.584000Z</time>
      </trkpt>
      <trkpt lat="38.817207" lon="121.14765">
        <ele>49.658913</ele>
        <time>2014-06-27T09:46:09.790000Z</time>
      </trkpt>
      <trkpt lat="38.81719" lon="121.147804">
        <ele>49.955494</ele>
        <time>2014-06-27T09:46:12.996000Z</time>
      </trkpt>
      <trkpt lat="38.81721" lon="121.14795">
        <ele>49.806458</ele>
        <time>2014-06-27T09:46:16.202000Z</time>
      </trkpt>
      <trkpt lat="38.817257" lon="121.14806">
        <ele>49.1989</ele>
        <time>2014-06-27T09:46:19.408000Z</time>
      </trkpt>
      <trkpt lat="38.81734" lon="121.148186">
        <ele>48.10961</ele>
        <time>2014-06-27T09:46:22.614000Z</time>
      </trkpt>
      <trkpt lat="38.817425" lon="121.148254">
        <ele>47.13696</ele>
        <time>2014-06-27T09:46:25.820000Z</time>
      </trkpt>
      <trkpt lat="38.81752" lon="121.14829">
        <ele>46.820732</ele>
        <time>2014-06-27T09:46:29.026000Z</time>
      </trkpt>
      <trkpt lat="38.817616" lon="121.14829">
        <ele>47.262802</ele>
        <time>2014-06-27T09:46:32.232000Z</time>
      </trkpt>
      <trkpt lat="38.817726" lon="121.14829">
        <ele>47.268726</ele>
        <time>2014-06-27T09:46:35.438000Z</time>
      </trkpt>
      <trkpt lat="38.81784" lon="121.14829">
        <ele>45.972713</ele>
        <time>2014-06-27T09:46:38.644000Z</time>
      </trkpt>
      <trkpt lat="38.81795" lon="121.1483">
        <ele>44.51225</ele>
        <time>2014-06-27T09:46:41.850000Z</time>
      </trkpt>
      <trkpt lat="38.818043" lon="121.1483">
        <ele>44.219337</ele>
        <time>2014-06-27T09:46:45.056000Z</time>
      </trkpt>
      <trkpt lat="38.818146" lon="121.14831">
        <ele>44.967793</ele>
        <time>2014-06-27T09:46:48.262000Z</time>
      </trkpt>
      <trkpt lat="38.818256" lon="121.148315">
        <ele>46.079605</ele>
        <time>2014-06-27T09:46:51.468000Z</time>
      </trkpt>
      <trkpt lat="38.81836" lon="121.14831">
        <ele>47.005875</ele>
        <time>2014-06-27T09:46:54.674000Z</time>
      </trkpt>
      <trkpt lat="38.818455" lon="121.1483">
        <ele>47.490574</ele>
        <time>2014-06-27T09:46:57.880000Z</time>
      </trkpt>
      <trkpt lat="38.81855" lon="121.14824">
        <ele>47.754417</ele>
        <time>2014-06-27T09:47:01.086000Z</time>
      </trkpt>
      <trkpt lat="38.81864" lon="121.14815">
        <ele>48.54994</ele>
        <time>2014-06-27T09:47:04.292000Z</time>
      </trkpt>
      <trkpt lat="38.81871" lon="121.14802">
        <ele>50.037907</ele>
        <time>2014-06-27T09:47:07.498000Z</time>
      </trkpt>
      <trkpt lat="38.81875" lon="121.14787">
        <ele>51.09161</ele>
        <time>2014-06-27T09:47:10.704000Z</time>
      </trkpt>
      <trkpt lat="38.81875" lon="121.14776">
        <ele>50.286987</ele>
        <time>2014-06-27T09:47:13.910000Z</time>
      </trkpt>
      <trkpt lat="38.818718" lon="121.14763">
        <ele>47.5839</ele>
        <time>2014-06-27T09:47:17.116000Z</time>
      </trkpt>
      <trkpt lat="38.818653" lon="121.14753">
        <ele>44.76126</ele>
        <time>2014-06-27T09:47:20.322000Z</time>
      </trkpt>
      <trkpt lat="38.818554" lon="121.147415">
        <ele>43.454487</ele>
        <time>2014-06-27T09:47:23.528000Z</time>
      </trkpt>
      <trkpt lat="38.818447" lon="121.14735">
        <ele>44.01703</ele>
        <time>2014-06-27T09:47:26.734000Z</time>
      </trkpt>
      <trkpt lat="38.81833" lon="121.14734">
        <ele>45.855053</ele>
        <time>2014-06-27T09:47:29.940000Z</time>
      </trkpt>
      <trkpt lat="38.818222" lon="121.147354">
        <ele>47.448345</ele>
        <time>2014-06-27T09:47:33.146000Z</time>
      </trkpt>
      <trkpt lat="38.818127" lon="121.14736">
        <ele>47.7682</ele>
        <time>2014-06-27T09:47:36.352000Z</time>
      </trkpt>
      <trkpt lat="38.818024" lon="121.14736">
        <ele>47.363373</ele>
        <time>2014-06-27T09:47:39.558000Z</time>
      </trkpt>
      <trkpt lat="38.8179" lon="121.14736">
        <ele>47.03042</ele>
        <time>2014-06-27T09:47:42.764000Z</time>
      </trkpt>
      <trkpt lat="38.8178" lon="121.14735">
        <ele>47.559677</ele>
        <time>2014-06-27T09:47:45.970000Z</time>
      </trkpt>
      <trkpt lat="38.817684" lon="121.14733">
        <ele>49.13093</ele>
        <time>2014-06-27T09:47:49.176000Z</time>
      </trkpt>
      <trkpt lat="38.817566" lon="121.14732">
        <ele>50.207424</ele>
        <time>2014-06-27T09:47:52.382000Z</time>
      </trkpt>
      <trkpt lat="38.817455" lon="121.14734">
        <ele>49.638187</ele>
        <time>2014-06-27T09:47:55.588000Z</time>
      </trkpt>
      <trkpt lat="38.81736" lon="121.14739">
        <ele>48.030857</ele>
        <time>2014-06-27T09:47:58.794000Z</time>
      </trkpt>
      <trkpt lat="38.817276" lon="121.14748">
        <ele>46.74471</ele>
        <time>2014-06-27T09:48:02Z</time>
      </trkpt>
      <trkpt lat="38.817223" lon="121.1476">
        <ele>46.511288</ele>
        <time>2014-06-27T09:48:05.206000Z</time>
      </trkpt>
      <trkpt lat="38.81719" lon="121.14773">
        <ele>46.81433</ele>
        <time>2014-06-27T09:48:08.412000Z</time>
      </trkpt>
      <trkpt lat="38.81718" lon="121.147865">
        <ele>46.928608</ele>
        <time>2014-06-27T09:48:11.618000Z</time>
      </trkpt>
      <trkpt lat="38.81721" lon="121.14799">
        <ele>46.846264</ele>
        <time>2014-06-27T09:48:14.824000Z</time>
      </trkpt>
      <trkpt lat="38.817276" lon="121.14812">
        <ele>46.6</ele>
        <time>2014-06-27T09:48:18.030000Z</time>
      </trkpt>
      <trkpt lat="38.817356" lon="121.14822">
        <ele>46.11632</ele>
        <time>2014-06-27T09:48:21.236000Z</time>
      </trkpt>
      <trkpt lat="38.81745" lon="121.14828">
        <ele>45.121708</ele>
        <time>2014-06-27T09:48:24.442000Z</time>
      </trkpt>
      <trkpt lat="38.81756" lon="121.1483">
        <ele>43.796577</ele>
        <time>2014-06-27T09:48:27.648000Z</time>
      </trkpt>
      <trkpt lat="38.817677" lon="121.1483">
        <ele>42.78172</ele>
        <time>2014-06-27T09:48:30.854000Z</time>
      </trkpt>
      <trkpt lat="38.817772" lon="121.14831">
        <ele>42.493484</ele>
        <time>2014-06-27T09:48:34.060000Z</time>
      </trkpt>
      <trkpt lat="38.817894" lon="121.14831">
        <ele>43.304955</ele>
        <time>2014-06-27T09:48:37.266000Z</time>
      </trkpt>
      <trkpt lat="38.817993" lon="121.14831">
        <ele>45.058147</ele>
        <time>2014-06-27T09:48:40.472000Z</time>
      </trkpt>
      <trkpt lat="38.818108" lon="121.1483">
        <ele>46.635273</ele>
        <time>2014-06-27T09:48:43.678000Z</time>
      </trkpt>
      <trkpt lat="38.818226" lon="121.14831">
        <ele>47.19705</ele>
        <time>2014-06-27T09:48:46.884000Z</time>
      </trkpt>
      <trkpt lat="38.818348" lon="121.148315">
        <ele>46.967537</ele>
        <time>2014-06-27T09:48:50.090000Z</time>
      </trkpt>
      <trkpt lat="38.81846" lon="121.14831">
        <ele>46.55194</ele>
        <time>2014-06-27T09:48:53.296000Z</time>
      </trkpt>
      <trkpt lat="38.81855" lon="121.14825">
        <ele>46.376816</ele>
        <time>2014-06-27T09:48:56.502000Z</time>
      </trkpt>
      <trkpt lat="38.81864" lon="121.14816">
        <ele>47.099464</ele>
        <time>2014-06-27T09:48:59.708000Z</time>
      </trkpt>
      <trkpt lat="38.8187" lon="121.14805">
        <ele>49.39918</ele>
        <time>2014-06-27T09:49:02.914000Z</time>
      </trkpt>
      <trkpt lat="38.81873" lon="121.147896">
        <ele>52.485077</ele>
        <time>2014-06-27T09:49:06.120000Z</time>
      </trkpt>
      <trkpt lat="38.818733" lon="121.14774">
        <ele>54.290424</ele>
        <time>2014-06-27T09:49:09.326000Z</time>
      </trkpt>
      <trkpt lat="38.818707" lon="121.14762">
        <ele>53.395008</ele>
        <time>2014-06-27T09:49:12.532000Z</time>
      </trkpt>
      <trkpt lat="38.81865" lon="121.14749">
        <ele>50.579735</ele>
        <time>2014-06-27T09:49:15.738000Z</time>
      </trkpt>
      <trkpt lat="38.818565" lon="121.14739">
        <ele>47.875496</ele>
        <time>2014-06-27T09:49:18.944000Z</time>
      </trkpt>
      <trkpt lat="38.818478" lon="121.14733">
        <ele>46.29527</ele>
        <time>2014-06-27T09:49:22.150000Z</time>
      </trkpt>
      <trkpt lat="38.818375" lon="121.14732">
        <ele>45.67755</ele>
        <time>2014-06-27T09:49:25.356000Z</time>
      </trkpt>
      <trkpt lat="38.818283" lon="121.14732">
        <ele>45.66163</ele>
        <time>2014-06-27T09:49:28.562000Z</time>
      </trkpt>
      <trkpt lat="38.81818" lon="121.147316">
        <ele>45.86978</ele>
        <time>2014-06-27T09:49:31.768000Z</time>
      </trkpt>
      <trkpt lat="38.81809" lon="121.14732">
        <ele>46.454597</ele>
        <time>2014-06-27T09:49:34.974000Z</time>
      </trkpt>
      <trkpt lat="38.817963" lon="121.147316">
        <ele>47.755623</ele>
        <time>2014-06-27T09:49:38.180000Z</time>
      </trkpt>
      <trkpt lat="38.817852" lon="121.14731">
        <ele>49.40153</ele>
        <time>2014-06-27T09:49:41.386000Z</time>
      </trkpt>
      <trkpt lat="38.817738" lon="121.1473">
        <ele>50.78903</ele>
        <time>2014-06-27T09:49:44.592000Z</time>
      </trkpt>
      <trkpt lat="38.817627" lon="121.147316">
        <ele>52.034077</ele>
        <time>2014-06-27T09:49:47.798000Z</time>
      </trkpt>
      <trkpt lat="38.817505" lon="121.14735">
        <ele>53.29524</ele>
        <time>2014-06-27T09:49:51.004000Z</time>
      </trkpt>
      <trkpt lat="38.817394" lon="121.14741">
        <ele>54.173706</ele>
        <time>2014-06-27T09:49:54.210000Z</time>
      </trkpt>
      <trkpt lat="38.8173" lon="121.147484">
        <ele>54.45137</ele>
        <time>2014-06-27T09:49:57.416000Z</time>
      </trkpt>
      <trkpt lat="38.81724" lon="121.14759">
        <ele>54.39715</ele>
        <time>2014-06-27T09:50:00.622000Z</time>
      </trkpt>
      <trkpt lat="38.8172" lon="121.14772">
        <ele>53.750385</ele>
        <time>2014-06-27T09:50:03.828000Z</time>
      </trkpt>
      <trkpt lat="38.81721" lon="121.14787">
        <ele>51.987965</ele>
        <time>2014-06-27T09:50:07.034000Z</time>
      </trkpt>
      <trkpt lat="38.817234" lon="121.148026">
        <ele>49.34564</ele>
        <time>2014-06-27T09:50:10.240000Z</time>
      </trkpt>
      <trkpt lat="38.8173" lon="121.14815">
        <ele>46.33144</ele>
        <time>2014-06-27T09:50:13.446000Z</time>
      </trkpt>
      <trkpt lat="38.81738" lon="121.14823">
        <ele>43.70095</ele>
        <time>2014-06-27T09:50:16.652000Z</time>
      </trkpt>
      <trkpt lat="38.817467" lon="121.14828">
        <ele>42.246872</ele>
        <time>2014-06-27T09:50:19.858000Z</time>
      </trkpt>
      <trkpt lat="38.817577" lon="121.1483">
        <ele>41.930004</ele>
        <time>2014-06-27T09:50:23.064000Z</time>
      </trkpt>
      <trkpt lat="38.81769" lon="121.14829">
        <ele>42.41626</ele>
        <time>2014-06-27T09:50:26.270000Z</time>
      </trkpt>
      <trkpt lat="38.817802" lon="121.14829">
        <ele>43.90071</ele>
        <time>2014-06-27T09:50:29.476000Z</time>
      </trkpt>
      <trkpt lat="38.817924" lon="121.14831">
        <ele>46.0699</ele>
        <time>2014-06-27T09:50:32.682000Z</time>
      </trkpt>
      <trkpt lat="38.81803" lon="121.14831">
        <ele>47.838272</ele>
        <time>2014-06-27T09:50:35.888000Z</time>
      </trkpt>
      <trkpt lat="38.81812" lon="121.148315">
        <ele>48.322704</ele>
        <time>2014-06-27T09:50:39.094000Z</time>
      </trkpt>
      <trkpt lat="38.818214" lon="121.148315">
        <ele>48.24295</ele>
        <time>2014-06-27T09:50:42.300000Z</time>
      </trkpt>
      <trkpt lat="38.81831" lon="121.14832">
        <ele>48.873886</ele>
        <time>2014-06-27T09:50:45.506000Z</time>
      </trkpt>
      <trkpt lat="38.818424" lon="121.148315">
        <ele>50.158264</ele>
        <time>2014-06-27T09:50:48.712000Z</time>
      </trkpt>
      <trkpt lat="38.818527" lon="121.14827">
        <ele>50.8692</ele>
        <time>2014-06-27T09:50:51.918000Z</time>
      </trkpt>
      <trkpt lat="38.81862" lon="121.148186">
        <ele>50.410694</ele>
        <time>2014-06-27T09:50:55.124000Z</time>
      </trkpt>
      <trkpt lat="38.81868" lon="121.148056">
        <ele>48.70576</ele>
        <time>2014-06-27T09:50:58.330000Z</time>
      </trkpt>
      <trkpt lat="38.81872" lon="121.14794">
        <ele>46.16029</ele>
        <time>2014-06-27T09:51:01.536000Z</time>
      </trkpt>
      <trkpt lat="38.81872" lon="121.14782">
        <ele>43.77672</ele>
        <time>2014-06-27T09:51:04.742000Z</time>
      </trkpt>
      <trkpt lat="38.818703" lon="121.14769">
        <ele>42.277275</ele>
        <time>2014-06-27T09:51:07.948000Z</time>
      </trkpt>
      <trkpt lat="38.818653" lon="121.14757">
        <ele>41.647144</ele>
        <time>2014-06-27T09:51:11.154000Z</time>
      </trkpt>
      <trkpt lat="38.818573" lon="121.147446">
        <ele>41.74545</ele>
        <time>2014-06-27T09:51:14.360000Z</time>
      </trkpt>
      <trkpt lat="38.81849" lon="121.14738">
        <ele>42.38078</ele>
        <time>2014-06-27T09:51:17.566000Z</time>
      </trkpt>
      <trkpt lat="38.818386" lon="121.14735">
        <ele>43.21426</ele>
        <time>2014-06-27T09:51:20.772000Z</time>
      </trkpt>
      <trkpt lat="38.81826" lon="121.14734">
        <ele>43.975887</ele>
        <time>2014-06-27T09:51:23.978000Z</time>
      </trkpt>
      <trkpt lat="38.81815" lon="121.14734">
        <ele>44.48506</ele>
        <time>2014-06-27T09:51:27.184000Z</time>
      </trkpt>
      <trkpt lat="38.81804" lon="121.14735">
        <ele>44.65249</ele>
        <time>2014-06-27T09:51:30.390000Z</time>
      </trkpt>
      <trkpt lat="38.817936" lon="121.14735">
        <ele>44.576714</ele>
        <time>2014-06-27T09:51:33.596000Z</time>
      </trkpt>
      <trkpt lat="38.817837" lon="121.14735">
        <ele>44.449646</ele>
        <time>2014-06-27T09:51:36.802000Z</time>
      </trkpt>
      <trkpt lat="38.81773" lon="121.14734">
        <ele>44.343582</ele>
        <time>2014-06-27T09:51:40.008000Z</time>
      </trkpt>
      <trkpt lat="38.81762" lon="121.14733">
        <ele>44.77475</ele>
        <time>2014-06-27T09:51:43.214000Z</time>
      </trkpt>
      <trkpt lat="38.81752" lon="121.14733">
        <ele>46.36717</ele>
        <time>2014-06-27T09:51:46.420000Z</time>
      </trkpt>
      <trkpt lat="38.81742" lon="121.147354">
        <ele>48.591496</ele>
        <time>2014-06-27T09:51:49.626000Z</time>
      </trkpt>
      <trkpt lat="38.817326" lon="121.14743">
        <ele>50.188976</ele>
        <time>2014-06-27T09:51:52.832000Z</time>
      </trkpt>
      <trkpt lat="38.817265" lon="121.14754">
        <ele>50.764263</ele>
        <time>2014-06-27T09:51:56.038000Z</time>
      </trkpt>
      <trkpt lat="38.81722" lon="121.14767">
        <ele>50.524006</ele>
        <time>2014-06-27T09:51:59.244000Z</time>
      </trkpt>
      <trkpt lat="38.8172" lon="121.1478">
        <ele>49.689262</ele>
        <time>2014-06-27T09:52:02.450000Z</time>
      </trkpt>
      <trkpt lat="38.817215" lon="121.147934">
        <ele>48.2077</ele>
        <time>2014-06-27T09:52:05.656000Z</time>
      </trkpt>
      <trkpt lat="38.81726" lon="121.14808">
        <ele>46.197716</ele>
        <time>2014-06-27T09:52:08.862000Z</time>
      </trkpt>
      <trkpt lat="38.81734" lon="121.148186">
        <ele>44.485367</ele>
        <time>2014-06-27T09:52:12.068000Z</time>
      </trkpt>
      <trkpt lat="38.81745" lon="121.14826">
        <ele>43.64346</ele>
        <time>2014-06-27T09:52:15.274000Z</time>
      </trkpt>
      <trkpt lat="38.817554" lon="121.14828">
        <ele>43.26415</ele>
        <time>2014-06-27T09:52:18.480000Z</time>
      </trkpt>
      <trkpt lat="38.817673" lon="121.14828">
        <ele>42.979145</ele>
        <time>2014-06-27T09:52:21.686000Z</time>
      </trkpt>
      <trkpt lat="38.81779" lon="121.148285">
        <ele>42.839245</ele>
        <time>2014-06-27T09:52:24.892000Z</time>
      </trkpt>
      <trkpt lat="38.81791" lon="121.14827">
        <ele>43.087006</ele>
        <time>2014-06-27T09:52:28.098000Z</time>
      </trkpt>
      <trkpt lat="38.818016" lon="121.14827">
        <ele>43.778202</ele>
        <time>2014-06-27T09:52:31.304000Z</time>
      </trkpt>
      <trkpt lat="38.81813" lon="121.14828">
        <ele>44.567574</ele>
        <time>2014-06-27T09:52:34.510000Z</time>
      </trkpt>
      <trkpt lat="38.81825" lon="121.14827">
        <ele>44.647907</ele>
        <time>2014-06-27T09:52:37.716000Z</time>
      </trkpt>
      <trkpt lat="38.81836" lon="121.14828">
        <ele>43.716656</ele>
        <time>2014-06-27T09:52:40.922000Z</time>
      </trkpt>
      <trkpt lat="38.81847" lon="121.14827">
        <ele>41.998436</ele>
        <time>2014-06-27T09:52:44.128000Z</time>
      </trkpt>
      <trkpt lat="38.818558" lon="121.14823">
        <ele>39.916233</ele>
        <time>2014-06-27T09:52:47.334000Z</time>
      </trkpt>
      <trkpt lat="38.81863" lon="121.148155">
        <ele>38.91058</ele>
        <time>2014-06-27T09:52:50.540000Z</time>
      </trkpt>
      <trkpt lat="38.818687" lon="121.14806">
        <ele>39.934505</ele>
        <time>2014-06-27T09:52:53.746000Z</time>
      </trkpt>
      <trkpt lat="38.81873" lon="121.14794">
        <ele>42.43128</ele>
        <time>2014-06-27T09:52:56.952000Z</time>
      </trkpt>
      <trkpt lat="38.818745" lon="121.14779">
        <ele>45.476208</ele>
        <time>2014-06-27T09:53:00.158000Z</time>
      </trkpt>
      <trkpt lat="38.818714" lon="121.14764">
        <ele>47.616055</ele>
        <time>2014-06-27T09:53:03.364000Z</time>
      </trkpt>
      <trkpt lat="38.818653" lon="121.14753">
        <ele>47.954224</ele>
        <time>2014-06-27T09:53:06.570000Z</time>
      </trkpt>
      <trkpt lat="38.818565" lon="121.14742">
        <ele>47.53454</ele>
        <time>2014-06-27T09:53:09.776000Z</time>
      </trkpt>
      <trkpt lat="38.818485" lon="121.14737">
        <ele>47.43909</ele>
        <time>2014-06-27T09:53:12.982000Z</time>
      </trkpt>
      <trkpt lat="38.818382" lon="121.14735">
        <ele>47.86565</ele>
        <time>2014-06-27T09:53:16.188000Z</time>
      </trkpt>
      <trkpt lat="38.818264" lon="121.14733">
        <ele>48.51996</ele>
        <time>2014-06-27T09:53:19.394000Z</time>
      </trkpt>
      <trkpt lat="38.818165" lon="121.14734">
        <ele>48.99553</ele>
        <time>2014-06-27T09:53:22.600000Z</time>
      </trkpt>
      <trkpt lat="38.818047" lon="121.14735">
        <ele>48.959957</ele>
        <time>2014-06-27T09:53:25.806000Z</time>
      </trkpt>
      <trkpt lat="38.817917" lon="121.14733">
        <ele>48.451603</ele>
        <time>2014-06-27T09:53:29.012000Z</time>
      </trkpt>
      <trkpt lat="38.817802" lon="121.147316">
        <ele>47.818066</ele>
        <time>2014-06-27T09:53:32.218000Z</time>
      </trkpt>
      <trkpt lat="38.81769" lon="121.147316">
        <ele>47.186386</ele>
        <time>2014-06-27T09:53:35.424000Z</time>
      </trkpt>
      <trkpt lat="38.817596" lon="121.147316">
        <ele>46.200363</ele>
        <time>2014-06-27T09:53:38.630000Z</time>
      </trkpt>
      <trkpt lat="38.81749" lon="121.14732">
        <ele>44.914593</ele>
        <time>2014-06-27T09:53:41.836000Z</time>
      </trkpt>
      <trkpt lat="38.81739" lon="121.14737">
        <ele>43.94335</ele>
        <time>2014-06-27T09:53:45.042000Z</time>
      </trkpt>
      <trkpt lat="38.817314" lon="121.14745">
        <ele>43.635513</ele>
        <time>2014-06-27T09:53:48.248000Z</time>
      </trkpt>
      <trkpt lat="38.817257" lon="121.14757">
        <ele>44.370186</ele>
        <time>2014-06-27T09:53:51.454000Z</time>
      </trkpt>
      <trkpt lat="38.817226" lon="121.1477">
        <ele>46.567593</ele>
        <time>2014-06-27T09:53:54.660000Z</time>
      </trkpt>
      <trkpt lat="38.817234" lon="121.147835">
        <ele>49.966564</ele>
        <time>2014-06-27T09:53:57.866000Z</time>
      </trkpt>
      <trkpt lat="38.817257" lon="121.147995">
        <ele>53.422222</ele>
        <time>2014-06-27T09:54:01.072000Z</time>
      </trkpt>
      <trkpt lat="38.81731" lon="121.1481">
        <ele>55.15617</ele>
        <time>2014-06-27T09:54:04.278000Z</time>
      </trkpt>
      <trkpt lat="38.817387" lon="121.14819">
        <ele>53.78214</ele>
        <time>2014-06-27T09:54:07.484000Z</time>
      </trkpt>
      <trkpt lat="38.817482" lon="121.148254">
        <ele>50.26284</ele>
        <time>2014-06-27T09:54:10.690000Z</time>
      </trkpt>
      <trkpt lat="38.8176" lon="121.148285">
        <ele>46.621014</ele>
        <time>2014-06-27T09:54:13.896000Z</time>
      </trkpt>
      <trkpt lat="38.817715" lon="121.14829">
        <ele>43.876724</ele>
        <time>2014-06-27T09:54:17.102000Z</time>
      </trkpt>
      <trkpt lat="38.817818" lon="121.1483">
        <ele>42.33172</ele>
        <time>2014-06-27T09:54:20.308000Z</time>
      </trkpt>
      <trkpt lat="38.817924" lon="121.14831">
        <ele>42.266174</ele>
        <time>2014-06-27T09:54:23.514000Z</time>
      </trkpt>
      <trkpt lat="38.818035" lon="121.14831">
        <ele>43.227715</ele>
        <time>2014-06-27T09:54:26.720000Z</time>
      </trkpt>
      <trkpt lat="38.818146" lon="121.14831">
        <ele>44.26652</ele>
        <time>2014-06-27T09:54:29.926000Z</time>
      </trkpt>
      <trkpt lat="38.818256" lon="121.14831">
        <ele>44.82411</ele>
        <time>2014-06-27T09:54:33.132000Z</time>
      </trkpt>
      <trkpt lat="38.818356" lon="121.148315">
        <ele>45.0408</ele>
        <time>2014-06-27T09:54:36.338000Z</time>
      </trkpt>
      <trkpt lat="38.818466" lon="121.14829">
        <ele>44.84568</ele>
        <time>2014-06-27T09:54:39.544000Z</time>
      </trkpt>
      <trkpt lat="38.81856" lon="121.14824">
        <ele>44.174812</ele>
        <time>2014-06-27T09:54:42.750000Z</time>
      </trkpt>
      <trkpt lat="38.818634" lon="121.14815">
        <ele>43.553165</ele>
        <time>2014-06-27T09:54:45.956000Z</time>
      </trkpt>
      <trkpt lat="38.818695" lon="121.148026">
        <ele>43.694935</ele>
        <time>2014-06-27T09:54:49.162000Z</time>
      </trkpt>
      <trkpt lat="38.818726" lon="121.14788">
        <ele>44.56634</ele>
        <time>2014-06-27T09:54:52.368000Z</time>
      </trkpt>
      <trkpt lat="38.81872" lon="121.14774">
        <ele>45.73264</ele>
        <time>2014-06-27T09:54:55.574000Z</time>
      </trkpt>
      <trkpt lat="38.818687" lon="121.147606">
        <ele>46.872074</ele>
        <time>2014-06-27T09:54:58.780000Z</time>
      </trkpt>
      <trkpt lat="38.818623" lon="121.14748">
        <ele>47.57094</ele>
        <time>2014-06-27T09:55:01.986000Z</time>
      </trkpt>
      <trkpt lat="38.818535" lon="121.147385">
        <ele>47.58412</ele>
        <time>2014-06-27T09:55:05.192000Z</time>
      </trkpt>
      <trkpt lat="38.818436" lon="121.14733">
        <ele>47.77713</ele>
        <time>2014-06-27T09:55:08.398000Z</time>
      </trkpt>
      <trkpt lat="38.81833" lon="121.147316">
        <ele>48.8143</ele>
        <time>2014-06-27T09:55:11.604000Z</time>
      </trkpt>
      <trkpt lat="38.818214" lon="121.147316">
        <ele>49.64764</ele>
        <time>2014-06-27T09:55:14.810000Z</time>
      </trkpt>
      <trkpt lat="38.818108" lon="121.14732">
        <ele>49.283836</ele>
        <time>2014-06-27T09:55:18.016000Z</time>
      </trkpt>
      <trkpt lat="38.817997" lon="121.14732">
        <ele>48.525993</ele>
        <time>2014-06-27T09:55:21.222000Z</time>
      </trkpt>
      <trkpt lat="38.817894" lon="121.14731">
        <ele>48.297436</ele>
        <time>2014-06-27T09:55:24.428000Z</time>
      </trkpt>
      <trkpt lat="38.817787" lon="121.14731">
        <ele>48.124622</ele>
        <time>2014-06-27T09:55:27.634000Z</time>
      </trkpt>
      <trkpt lat="38.817677" lon="121.1473">
        <ele>47.420357</ele>
        <time>2014-06-27T09:55:30.840000Z</time>
      </trkpt>
      <trkpt lat="38.817574" lon="121.14731">
        <ele>47.06352</ele>
        <time>2014-06-27T09:55:34.046000Z</time>
      </trkpt>
      <trkpt lat="38.817467" lon="121.14733">
        <ele>47.864086</ele>
        <time>2014-06-27T09:55:37.252000Z</time>
      </trkpt>
      <trkpt lat="38.817375" lon="121.1474">
        <ele>49.18929</ele>
        <time>2014-06-27T09:55:40.458000Z</time>
      </trkpt>
      <trkpt lat="38.81729" lon="121.147484">
        <ele>50.259624</ele>
        <time>2014-06-27T09:55:43.664000Z</time>
      </trkpt>
      <trkpt lat="38.817234" lon="121.147606">
        <ele>50.892376</ele>
        <time>2014-06-27T09:55:46.870000Z</time>
      </trkpt>
      <trkpt lat="38.817196" lon="121.14774">
        <ele>51.115173</ele>
        <time>2014-06-27T09:55:50.076000Z</time>
      </trkpt>
      <trkpt lat="38.81719" lon="121.14789">
        <ele>50.60321</ele>
        <time>2014-06-27T09:55:53.282000Z</time>
      </trkpt>
      <trkpt lat="38.817223" lon="121.148026">
        <ele>49.093445</ele>
        <time>2014-06-27T09:55:56.488000Z</time>
      </trkpt>
      <trkpt lat="38.81729" lon="121.14815">
        <ele>47.39562</ele>
        <time>2014-06-27T09:55:59.694000Z</time>
      </trkpt>
      <trkpt lat="38.81737" lon="121.14822">
        <ele>46.445843</ele>
        <time>2014-06-27T09:56:02.900000Z</time>
      </trkpt>
      <trkpt lat="38.81749" lon="121.14826">
        <ele>46.019226</ele>
        <time>2014-06-27T09:56:06.106000Z</time>
      </trkpt>
      <trkpt lat="38.81762" lon="121.14828">
        <ele>45.827915</ele>
        <time>2014-06-27T09:56:09.312000Z</time>
      </trkpt>
      <trkpt lat="38.817745" lon="121.14828">
        <ele>46.13324</ele>
        <time>2014-06-27T09:56:12.518000Z</time>
      </trkpt>
      <trkpt lat="38.817867" lon="121.14828">
        <ele>46.847095</ele>
        <time>2014-06-27T09:56:15.724000Z</time>
      </trkpt>
      <trkpt lat="38.817978" lon="121.14828">
        <ele>47.31944</ele>
        <time>2014-06-27T09:56:18.930000Z</time>
      </trkpt>
      <trkpt lat="38.818104" lon="121.148285">
        <ele>47.057217</ele>
        <time>2014-06-27T09:56:22.136000Z</time>
      </trkpt>
      <trkpt lat="38.818203" lon="121.1483">
        <ele>46.17601</ele>
        <time>2014-06-27T09:56:25.342000Z</time>
      </trkpt>
      <trkpt lat="38.81831" lon="121.14831">
        <ele>45.37206</ele>
        <time>2014-06-27T09:56:28.548000Z</time>
      </trkpt>
      <trkpt lat="38.81842" lon="121.148315">
        <ele>45.228893</ele>
        <time>2014-06-27T09:56:31.754000Z</time>
      </trkpt>
      <trkpt lat="38.818535" lon="121.14828">
        <ele>45.611004</ele>
        <time>2014-06-27T09:56:34.960000Z</time>
      </trkpt>
      <trkpt lat="38.818623" lon="121.148186">
        <ele>45.99625</ele>
        <time>2014-06-27T09:56:38.166000Z</time>
      </trkpt>
      <trkpt lat="38.81868" lon="121.14807">
        <ele>46.015358</ele>
        <time>2014-06-27T09:56:41.372000Z</time>
      </trkpt>
      <trkpt lat="38.81872" lon="121.14791">
        <ele>45.713768</ele>
        <time>2014-06-27T09:56:44.578000Z</time>
      </trkpt>
      <trkpt lat="38.818726" lon="121.14779">
        <ele>45.392273</ele>
        <time>2014-06-27T09:56:47.784000Z</time>
      </trkpt>
      <trkpt lat="38.81871" lon="121.14764">
        <ele>45.76892</ele>
        <time>2014-06-27T09:56:50.990000Z</time>
      </trkpt>
      <trkpt lat="38.818653" lon="121.14749">
        <ele>47.076614</ele>
        <time>2014-06-27T09:56:54.196000Z</time>
      </trkpt>
      <trkpt lat="38.81857" lon="121.14739">
        <ele>48.337254</ele>
        <time>2014-06-27T09:56:57.402000Z</time>
      </trkpt>
      <trkpt lat="38.818466" lon="121.14734">
        <ele>48.71432</ele>
        <time>2014-06-27T09:57:00.608000Z</time>
      </trkpt>
      <trkpt lat="38.818356" lon="121.14733">
        <ele>48.248417</ele>
        <time>2014-06-27T09:57:03.814000Z</time>
      </trkpt>
      <trkpt lat="38.818237" lon="121.14732">
        <ele>47.759296</ele>
        <time>2014-06-27T09:57:07.020000Z</time>
      </trkpt>
      <trkpt lat="38.8181" lon="121.14735">
        <ele>47.810688</ele>
        <time>2014-06-27T09:57:10.226000Z</time>
      </trkpt>
      <trkpt lat="38.817978" lon="121.14734">
        <ele>47.84415</ele>
        <time>2014-06-27T09:57:13.432000Z</time>
      </trkpt>
      <trkpt lat="38.817867" lon="121.14734">
        <ele>47.504745</ele>
        <time>2014-06-27T09:57:16.638000Z</time>
      </trkpt>
      <trkpt lat="38.81775" lon="121.14732">
        <ele>47.022537</ele>
        <time>2014-06-27T09:57:19.844000Z</time>
      </trkpt>
      <trkpt lat="38.817642" lon="121.147316">
        <time>2014-06-27T09:57:23.050000Z</time>
      </trkpt>
    </trkseg>
  </trk>
</gpx>