<?xml version="1.0" encoding="UTF-8"?>
<gpx xmlns="http://www.topografix.com/GPX/1/1" xmlns:gpxtpx="http://www.garmin.com/xmlschemas/TrackPointExtension/v1" xmlns:xsi="http://www.w3.org/2001/XMLSchema-instance" xsi:schemaLocation="http://www.topografix.com/GPX/1/1 http://www.topografix.com/GPX/1/1/gpx.xsd" version="1.1" creator="gpx.py -- https://github.com/tkrajina/gpxpy">
  <trk>
    <trkseg>
      <trkpt lat="38.818596" lon="121.147575">
        <ele>50.116264</ele>
        <time>2014-06-19T09:29:17.135000Z</time>
      </trkpt>
      <trkpt lat="38.818584" lon="121.14757">
        <ele>49.378735</ele>
        <time>2014-06-19T09:29:20.463000Z</time>
      </trkpt>
      <trkpt lat="38.818584" lon="121.14757">
        <ele>49.50035</ele>
        <time>2014-06-19T09:29:23.791000Z</time>
      </trkpt>
      <trkpt lat="38.818516" lon="121.14747">
        <ele>49.975487</ele>
        <time>2014-06-19T09:29:27.119000Z</time>
      </trkpt>
      <trkpt lat="38.81842" lon="121.14741">
        <ele>50.692234</ele>
        <time>2014-06-19T09:29:30.447000Z</time>
      </trkpt>
      <trkpt lat="38.81832" lon="121.14737">
        <ele>51.71452</ele>
        <time>2014-06-19T09:29:33.775000Z</time>
      </trkpt>
      <trkpt lat="38.818207" lon="121.14737">
        <ele>52.440777</ele>
        <time>2014-06-19T09:29:37.103000Z</time>
      </trkpt>
      <trkpt lat="38.818104" lon="121.14736">
        <ele>52.422405</ele>
        <time>2014-06-19T09:29:40.431000Z</time>
      </trkpt>
      <trkpt lat="38.818" lon="121.14737">
        <ele>52.14188</ele>
        <time>2014-06-19T09:29:43.759000Z</time>
      </trkpt>
      <trkpt lat="38.817898" lon="121.147354">
        <ele>52.098633</ele>
        <time>2014-06-19T09:29:47.087000Z</time>
      </trkpt>
      <trkpt lat="38.817795" lon="121.14734">
        <ele>51.80688</ele>
        <time>2014-06-19T09:29:50.415000Z</time>
      </trkpt>
      <trkpt lat="38.817677" lon="121.14732">
        <ele>50.809032</ele>
        <time>2014-06-19T09:29:53.743000Z</time>
      </trkpt>
      <trkpt lat="38.817566" lon="121.14732">
        <ele>50.094276</ele>
        <time>2014-06-19T09:29:57.071000Z</time>
      </trkpt>
      <trkpt lat="38.817463" lon="121.14734">
        <ele>50.543846</ele>
        <time>2014-06-19T09:30:00.399000Z</time>
      </trkpt>
      <trkpt lat="38.81736" lon="121.147385">
        <ele>51.40796</ele>
        <time>2014-06-19T09:30:03.727000Z</time>
      </trkpt>
      <trkpt lat="38.817287" lon="121.14746">
        <ele>51.156094</ele>
        <time>2014-06-19T09:30:07.055000Z</time>
      </trkpt>
      <trkpt lat="38.81722" lon="121.14758">
        <ele>49.425846</ele>
        <time>2014-06-19T09:30:10.383000Z</time>
      </trkpt>
      <trkpt lat="38.817177" lon="121.14773">
        <ele>48.255077</ele>
        <time>2014-06-19T09:30:13.711000Z</time>
      </trkpt>
      <trkpt lat="38.81718" lon="121.14786">
        <ele>49.33867</ele>
        <time>2014-06-19T09:30:17.039000Z</time>
      </trkpt>
      <trkpt lat="38.817215" lon="121.14798">
        <ele>51.44491</ele>
        <time>2014-06-19T09:30:20.367000Z</time>
      </trkpt>
      <trkpt lat="38.817276" lon="121.148094">
        <ele>52.80855</ele>
        <time>2014-06-19T09:30:23.695000Z</time>
      </trkpt>
      <trkpt lat="38.81736" lon="121.14818">
        <ele>52.610977</ele>
        <time>2014-06-19T09:30:27.023000Z</time>
      </trkpt>
      <trkpt lat="38.817463" lon="121.14825">
        <ele>51.008053</ele>
        <time>2014-06-19T09:30:30.351000Z</time>
      </trkpt>
      <trkpt lat="38.817574" lon="121.14826">
        <ele>49.561604</ele>
        <time>2014-06-19T09:30:33.679000Z</time>
      </trkpt>
      <trkpt lat="38.817665" lon="121.14826">
        <ele>49.40927</ele>
        <time>2014-06-19T09:30:37.007000Z</time>
      </trkpt>
      <trkpt lat="38.81776" lon="121.14826">
        <ele>50.15166</ele>
        <time>2014-06-19T09:30:40.335000Z</time>
      </trkpt>
      <trkpt lat="38.817867" lon="121.14827">
        <ele>51.124588</ele>
        <time>2014-06-19T09:30:43.663000Z</time>
      </trkpt>
      <trkpt lat="38.81797" lon="121.14827">
        <ele>52.08032</ele>
        <time>2014-06-19T09:30:46.991000Z</time>
      </trkpt>
      <trkpt lat="38.81806" lon="121.14828">
        <ele>52.71927</ele>
        <time>2014-06-19T09:30:50.319000Z</time>
      </trkpt>
      <trkpt lat="38.818176" lon="121.14828">
        <ele>52.957108</ele>
        <time>2014-06-19T09:30:53.647000Z</time>
      </trkpt>
      <trkpt lat="38.818283" lon="121.148285">
        <ele>52.80447</ele>
        <time>2014-06-19T09:30:56.975000Z</time>
      </trkpt>
      <trkpt lat="38.818398" lon="121.14826">
        <ele>52.594936</ele>
        <time>2014-06-19T09:31:00.303000Z</time>
      </trkpt>
      <trkpt lat="38.818497" lon="121.1482">
        <ele>52.42186</ele>
        <time>2014-06-19T09:31:03.631000Z</time>
      </trkpt>
      <trkpt lat="38.818592" lon="121.14812">
        <ele>51.871788</ele>
        <time>2014-06-19T09:31:06.959000Z</time>
      </trkpt>
      <trkpt lat="38.81866" lon="121.147995">
        <ele>50.66371</ele>
        <time>2014-06-19T09:31:10.287000Z</time>
      </trkpt>
      <trkpt lat="38.818687" lon="121.14786">
        <ele>49.281303</ele>
        <time>2014-06-19T09:31:13.615000Z</time>
      </trkpt>
      <trkpt lat="38.81869" lon="121.14774">
        <ele>48.044098</ele>
        <time>2014-06-19T09:31:16.943000Z</time>
      </trkpt>
      <trkpt lat="38.81866" lon="121.14761">
        <ele>47.088387</ele>
        <time>2014-06-19T09:31:20.271000Z</time>
      </trkpt>
      <trkpt lat="38.818592" lon="121.1475">
        <ele>46.50635</ele>
        <time>2014-06-19T09:31:23.599000Z</time>
      </trkpt>
      <trkpt lat="38.818512" lon="121.14741">
        <ele>46.71646</ele>
        <time>2014-06-19T09:31:26.927000Z</time>
      </trkpt>
      <trkpt lat="38.818417" lon="121.14737">
        <ele>47.859955</ele>
        <time>2014-06-19T09:31:30.255000Z</time>
      </trkpt>
      <trkpt lat="38.81831" lon="121.14736">
        <ele>49.48974</ele>
        <time>2014-06-19T09:31:33.583000Z</time>
      </trkpt>
      <trkpt lat="38.81822" lon="121.14736">
        <ele>50.92938</ele>
        <time>2014-06-19T09:31:36.911000Z</time>
      </trkpt>
      <trkpt lat="38.818115" lon="121.14736">
        <ele>52.08181</ele>
        <time>2014-06-19T09:31:40.239000Z</time>
      </trkpt>
      <trkpt lat="38.81801" lon="121.14735">
        <ele>52.84178</ele>
        <time>2014-06-19T09:31:43.567000Z</time>
      </trkpt>
      <trkpt lat="38.817894" lon="121.147354">
        <ele>52.893883</ele>
        <time>2014-06-19T09:31:46.895000Z</time>
      </trkpt>
      <trkpt lat="38.817776" lon="121.14735">
        <ele>52.42543</ele>
        <time>2014-06-19T09:31:50.223000Z</time>
      </trkpt>
      <trkpt lat="38.817677" lon="121.14735">
        <ele>51.672</ele>
        <time>2014-06-19T09:31:53.551000Z</time>
      </trkpt>
      <trkpt lat="38.817562" lon="121.14734">
        <ele>50.573746</ele>
        <time>2014-06-19T09:31:56.879000Z</time>
      </trkpt>
      <trkpt lat="38.81746" lon="121.147354">
        <ele>49.76499</ele>
        <time>2014-06-19T09:32:00.207000Z</time>
      </trkpt>
      <trkpt lat="38.81737" lon="121.14741">
        <ele>49.861275</ele>
        <time>2014-06-19T09:32:03.535000Z</time>
      </trkpt>
      <trkpt lat="38.817303" lon="121.14749">
        <ele>50.653065</ele>
        <time>2014-06-19T09:32:06.863000Z</time>
      </trkpt>
      <trkpt lat="38.817238" lon="121.1476">
        <ele>51.57332</ele>
        <time>2014-06-19T09:32:10.191000Z</time>
      </trkpt>
      <trkpt lat="38.81721" lon="121.147736">
        <ele>51.73739</ele>
        <time>2014-06-19T09:32:13.519000Z</time>
      </trkpt>
      <trkpt lat="38.817215" lon="121.14786">
        <ele>50.799313</ele>
        <time>2014-06-19T09:32:16.847000Z</time>
      </trkpt>
      <trkpt lat="38.81725" lon="121.148">
        <ele>49.564713</ele>
        <time>2014-06-19T09:32:20.175000Z</time>
      </trkpt>
      <trkpt lat="38.8173" lon="121.148094">
        <ele>48.80908</ele>
        <time>2014-06-19T09:32:23.503000Z</time>
      </trkpt>
      <trkpt lat="38.817375" lon="121.14818">
        <ele>48.213116</ele>
        <time>2014-06-19T09:32:26.831000Z</time>
      </trkpt>
      <trkpt lat="38.817482" lon="121.14824">
        <ele>47.37172</ele>
        <time>2014-06-19T09:32:30.159000Z</time>
      </trkpt>
      <trkpt lat="38.817577" lon="121.148254">
        <ele>46.644207</ele>
        <time>2014-06-19T09:32:33.487000Z</time>
      </trkpt>
      <trkpt lat="38.81769" lon="121.148254">
        <ele>46.489086</ele>
        <time>2014-06-19T09:32:36.815000Z</time>
      </trkpt>
      <trkpt lat="38.8178" lon="121.14826">
        <ele>46.75004</ele>
        <time>2014-06-19T09:32:40.143000Z</time>
      </trkpt>
      <trkpt lat="38.8179" lon="121.14826">
        <ele>47.27148</ele>
        <time>2014-06-19T09:32:43.471000Z</time>
      </trkpt>
      <trkpt lat="38.817997" lon="121.14826">
        <ele>48.2679</ele>
        <time>2014-06-19T09:32:46.799000Z</time>
      </trkpt>
      <trkpt lat="38.8181" lon="121.14828">
        <ele>50.014896</ele>
        <time>2014-06-19T09:32:50.127000Z</time>
      </trkpt>
      <trkpt lat="38.81822" lon="121.148285">
        <ele>52.09961</ele>
        <time>2014-06-19T09:32:53.455000Z</time>
      </trkpt>
      <trkpt lat="38.818314" lon="121.148285">
        <ele>53.60787</ele>
        <time>2014-06-19T09:32:56.783000Z</time>
      </trkpt>
      <trkpt lat="38.818424" lon="121.14826">
        <ele>53.780865</ele>
        <time>2014-06-19T09:33:00.111000Z</time>
      </trkpt>
      <trkpt lat="38.818512" lon="121.1482">
        <ele>52.736782</ele>
        <time>2014-06-19T09:33:03.439000Z</time>
      </trkpt>
      <trkpt lat="38.81859" lon="121.14811">
        <ele>51.493256</ele>
        <time>2014-06-19T09:33:06.767000Z</time>
      </trkpt>
      <trkpt lat="38.81865" lon="121.14799">
        <ele>50.805355</ele>
        <time>2014-06-19T09:33:10.095000Z</time>
      </trkpt>
      <trkpt lat="38.81868" lon="121.147865">
        <ele>50.36553</ele>
        <time>2014-06-19T09:33:13.423000Z</time>
      </trkpt>
      <trkpt lat="38.818687" lon="121.14772">
        <ele>49.58678</ele>
        <time>2014-06-19T09:33:16.751000Z</time>
      </trkpt>
      <trkpt lat="38.818657" lon="121.147606">
        <ele>48.49145</ele>
        <time>2014-06-19T09:33:20.079000Z</time>
      </trkpt>
      <trkpt lat="38.818596" lon="121.1475">
        <ele>47.555935</ele>
        <time>2014-06-19T09:33:23.407000Z</time>
      </trkpt>
      <trkpt lat="38.818485" lon="121.147415">
        <ele>47.163944</ele>
        <time>2014-06-19T09:33:26.735000Z</time>
      </trkpt>
      <trkpt lat="38.818394" lon="121.14736">
        <ele>47.466984</ele>
        <time>2014-06-19T09:33:30.063000Z</time>
      </trkpt>
      <trkpt lat="38.818302" lon="121.147354">
        <ele>48.536224</ele>
        <time>2014-06-19T09:33:33.391000Z</time>
      </trkpt>
      <trkpt lat="38.818184" lon="121.147354">
        <ele>50.294525</ele>
        <time>2014-06-19T09:33:36.719000Z</time>
      </trkpt>
      <trkpt lat="38.818066" lon="121.147354">
        <ele>52.15154</ele>
        <time>2014-06-19T09:33:40.047000Z</time>
      </trkpt>
      <trkpt lat="38.817955" lon="121.147354">
        <ele>53.190742</ele>
        <time>2014-06-19T09:33:43.375000Z</time>
      </trkpt>
      <trkpt lat="38.81784" lon="121.14735">
        <ele>53.248928</ele>
        <time>2014-06-19T09:33:46.703000Z</time>
      </trkpt>
      <trkpt lat="38.817734" lon="121.14735">
        <ele>52.85267</ele>
        <time>2014-06-19T09:33:50.031000Z</time>
      </trkpt>
      <trkpt lat="38.817623" lon="121.14734">
        <ele>52.465645</ele>
        <time>2014-06-19T09:33:53.359000Z</time>
      </trkpt>
      <trkpt lat="38.817513" lon="121.14735">
        <ele>52.221</ele>
        <time>2014-06-19T09:33:56.687000Z</time>
      </trkpt>
      <trkpt lat="38.8174" lon="121.14737">
        <ele>51.541794</ele>
        <time>2014-06-19T09:34:00.015000Z</time>
      </trkpt>
      <trkpt lat="38.81732" lon="121.147446">
        <ele>50.025383</ele>
        <time>2014-06-19T09:34:03.343000Z</time>
      </trkpt>
      <trkpt lat="38.817265" lon="121.14754">
        <ele>48.506603</ele>
        <time>2014-06-19T09:34:06.671000Z</time>
      </trkpt>
      <trkpt lat="38.817226" lon="121.147675">
        <ele>48.03672</ele>
        <time>2014-06-19T09:34:09.999000Z</time>
      </trkpt>
      <trkpt lat="38.817215" lon="121.14781">
        <ele>48.549255</ele>
        <time>2014-06-19T09:34:13.327000Z</time>
      </trkpt>
      <trkpt lat="38.817238" lon="121.14796">
        <ele>49.17048</ele>
        <time>2014-06-19T09:34:16.655000Z</time>
      </trkpt>
      <trkpt lat="38.8173" lon="121.14807">
        <ele>49.165615</ele>
        <time>2014-06-19T09:34:19.983000Z</time>
      </trkpt>
      <trkpt lat="38.81738" lon="121.14816">
        <ele>48.777122</ele>
        <time>2014-06-19T09:34:23.311000Z</time>
      </trkpt>
      <trkpt lat="38.81749" lon="121.148224">
        <ele>48.718903</ele>
        <time>2014-06-19T09:34:26.639000Z</time>
      </trkpt>
      <trkpt lat="38.817593" lon="121.14825">
        <ele>49.45957</ele>
        <time>2014-06-19T09:34:29.967000Z</time>
      </trkpt>
      <trkpt lat="38.81771" lon="121.14826">
        <ele>50.738308</ele>
        <time>2014-06-19T09:34:33.295000Z</time>
      </trkpt>
      <trkpt lat="38.817825" lon="121.14827">
        <ele>51.835144</ele>
        <time>2014-06-19T09:34:36.623000Z</time>
      </trkpt>
      <trkpt lat="38.817936" lon="121.14828">
        <ele>52.377598</ele>
        <time>2014-06-19T09:34:39.951000Z</time>
      </trkpt>
      <trkpt lat="38.818024" lon="121.14828">
        <ele>52.517258</ele>
        <time>2014-06-19T09:34:43.279000Z</time>
      </trkpt>
      <trkpt lat="38.81812" lon="121.148285">
        <ele>52.49685</ele>
        <time>2014-06-19T09:34:46.607000Z</time>
      </trkpt>
      <trkpt lat="38.81822" lon="121.14829">
        <ele>52.38805</ele>
        <time>2014-06-19T09:34:49.935000Z</time>
      </trkpt>
      <trkpt lat="38.81831" lon="121.1483">
        <ele>52.30113</ele>
        <time>2014-06-19T09:34:53.263000Z</time>
      </trkpt>
      <trkpt lat="38.81842" lon="121.14826">
        <ele>52.294987</ele>
        <time>2014-06-19T09:34:56.591000Z</time>
      </trkpt>
      <trkpt lat="38.8185" lon="121.1482">
        <ele>51.961624</ele>
        <time>2014-06-19T09:34:59.919000Z</time>
      </trkpt>
      <trkpt lat="38.818577" lon="121.14812">
        <ele>51.15012</ele>
        <time>2014-06-19T09:35:03.247000Z</time>
      </trkpt>
      <trkpt lat="38.818634" lon="121.14802">
        <ele>50.370747</ele>
        <time>2014-06-19T09:35:06.575000Z</time>
      </trkpt>
      <trkpt lat="38.818676" lon="121.147896">
        <ele>49.59461</ele>
        <time>2014-06-19T09:35:09.903000Z</time>
      </trkpt>
      <trkpt lat="38.818684" lon="121.14777">
        <ele>48.42094</ele>
        <time>2014-06-19T09:35:13.231000Z</time>
      </trkpt>
      <trkpt lat="38.81866" lon="121.147644">
        <ele>47.138374</ele>
        <time>2014-06-19T09:35:16.559000Z</time>
      </trkpt>
      <trkpt lat="38.81861" lon="121.14754">
        <ele>46.330376</ele>
        <time>2014-06-19T09:35:19.887000Z</time>
      </trkpt>
      <trkpt lat="38.81854" lon="121.14745">
        <ele>46.070232</ele>
        <time>2014-06-19T09:35:23.215000Z</time>
      </trkpt>
      <trkpt lat="38.818455" lon="121.1474">
        <ele>46.495083</ele>
        <time>2014-06-19T09:35:26.543000Z</time>
      </trkpt>
      <trkpt lat="38.81836" lon="121.14736">
        <ele>48.118263</ele>
        <time>2014-06-19T09:35:29.871000Z</time>
      </trkpt>
      <trkpt lat="38.818237" lon="121.147354">
        <ele>50.57226</ele>
        <time>2014-06-19T09:35:33.199000Z</time>
      </trkpt>
      <trkpt lat="38.818123" lon="121.147354">
        <ele>52.509274</ele>
        <time>2014-06-19T09:35:36.527000Z</time>
      </trkpt>
      <trkpt lat="38.818035" lon="121.14735">
        <ele>53.44977</ele>
        <time>2014-06-19T09:35:39.855000Z</time>
      </trkpt>
      <trkpt lat="38.817924" lon="121.14735">
        <ele>53.896816</ele>
        <time>2014-06-19T09:35:43.183000Z</time>
      </trkpt>
      <trkpt lat="38.817818" lon="121.14735">
        <ele>54.113205</ele>
        <time>2014-06-19T09:35:46.511000Z</time>
      </trkpt>
      <trkpt lat="38.817707" lon="121.14735">
        <ele>53.879383</ele>
        <time>2014-06-19T09:35:49.839000Z</time>
      </trkpt>
      <trkpt lat="38.817593" lon="121.14733">
        <ele>52.96173</ele>
        <time>2014-06-19T09:35:53.167000Z</time>
      </trkpt>
      <trkpt lat="38.81748" lon="121.14733">
        <ele>51.855713</ele>
        <time>2014-06-19T09:35:56.495000Z</time>
      </trkpt>
      <trkpt lat="38.81737" lon="121.14739">
        <ele>51.354595</ele>
        <time>2014-06-19T09:35:59.823000Z</time>
      </trkpt>
      <trkpt lat="38.8173" lon="121.14748">
        <ele>51.440353</ele>
        <time>2014-06-19T09:36:03.151000Z</time>
      </trkpt>
      <trkpt lat="38.81725" lon="121.14757">
        <ele>51.446743</ele>
        <time>2014-06-19T09:36:06.479000Z</time>
      </trkpt>
      <trkpt lat="38.81721" lon="121.14771">
        <ele>50.933628</ele>
        <time>2014-06-19T09:36:09.807000Z</time>
      </trkpt>
      <trkpt lat="38.81721" lon="121.147865">
        <ele>50.11065</ele>
        <time>2014-06-19T09:36:13.135000Z</time>
      </trkpt>
      <trkpt lat="38.817234" lon="121.14798">
        <ele>49.498764</ele>
        <time>2014-06-19T09:36:16.463000Z</time>
      </trkpt>
      <trkpt lat="38.817303" lon="121.1481">
        <ele>49.388252</ele>
        <time>2014-06-19T09:36:19.791000Z</time>
      </trkpt>
      <trkpt lat="38.81739" lon="121.14819">
        <ele>49.868885</ele>
        <time>2014-06-19T09:36:23.119000Z</time>
      </trkpt>
      <trkpt lat="38.817482" lon="121.14823">
        <ele>50.661255</ele>
        <time>2014-06-19T09:36:26.447000Z</time>
      </trkpt>
      <trkpt lat="38.817593" lon="121.148254">
        <ele>51.244225</ele>
        <time>2014-06-19T09:36:29.775000Z</time>
      </trkpt>
      <trkpt lat="38.817696" lon="121.14827">
        <ele>51.4384</ele>
        <time>2014-06-19T09:36:33.103000Z</time>
      </trkpt>
      <trkpt lat="38.817806" lon="121.14827">
        <ele>51.139393</ele>
        <time>2014-06-19T09:36:36.431000Z</time>
      </trkpt>
      <trkpt lat="38.81791" lon="121.14828">
        <ele>50.771667</ele>
        <time>2014-06-19T09:36:39.759000Z</time>
      </trkpt>
      <trkpt lat="38.81801" lon="121.148285">
        <ele>51.19058</ele>
        <time>2014-06-19T09:36:43.087000Z</time>
      </trkpt>
      <trkpt lat="38.818104" lon="121.14829">
        <ele>52.213806</ele>
        <time>2014-06-19T09:36:46.415000Z</time>
      </trkpt>
      <trkpt lat="38.818214" lon="121.14829">
        <ele>52.957947</ele>
        <time>2014-06-19T09:36:49.743000Z</time>
      </trkpt>
      <trkpt lat="38.818325" lon="121.1483">
        <ele>53.229607</ele>
        <time>2014-06-19T09:36:53.071000Z</time>
      </trkpt>
      <trkpt lat="38.81842" lon="121.14826">
        <ele>53.22858</ele>
        <time>2014-06-19T09:36:56.399000Z</time>
      </trkpt>
      <trkpt lat="38.81852" lon="121.14819">
        <ele>52.88673</ele>
        <time>2014-06-19T09:36:59.727000Z</time>
      </trkpt>
      <trkpt lat="38.818592" lon="121.14812">
        <ele>51.871113</ele>
        <time>2014-06-19T09:37:03.055000Z</time>
      </trkpt>
      <trkpt lat="38.81865" lon="121.14801">
        <ele>50.446728</ele>
        <time>2014-06-19T09:37:06.383000Z</time>
      </trkpt>
      <trkpt lat="38.818684" lon="121.14789">
        <ele>49.345554</ele>
        <time>2014-06-19T09:37:09.711000Z</time>
      </trkpt>
      <trkpt lat="38.818684" lon="121.14777">
        <ele>48.775288</ele>
        <time>2014-06-19T09:37:13.039000Z</time>
      </trkpt>
      <trkpt lat="38.81866" lon="121.14766">
        <ele>48.51541</ele>
        <time>2014-06-19T09:37:16.367000Z</time>
      </trkpt>
      <trkpt lat="38.818607" lon="121.147545">
        <ele>48.09072</ele>
        <time>2014-06-19T09:37:19.695000Z</time>
      </trkpt>
      <trkpt lat="38.81852" lon="121.14745">
        <ele>47.080795</ele>
        <time>2014-06-19T09:37:23.023000Z</time>
      </trkpt>
      <trkpt lat="38.818436" lon="121.1474">
        <ele>45.85607</ele>
        <time>2014-06-19T09:37:26.351000Z</time>
      </trkpt>
      <trkpt lat="38.81833" lon="121.14738">
        <ele>45.3234</ele>
        <time>2014-06-19T09:37:29.679000Z</time>
      </trkpt>
      <trkpt lat="38.81821" lon="121.14736">
        <ele>46.069424</ele>
        <time>2014-06-19T09:37:33.007000Z</time>
      </trkpt>
      <trkpt lat="38.818108" lon="121.147354">
        <ele>48.10551</ele>
        <time>2014-06-19T09:37:36.335000Z</time>
      </trkpt>
      <trkpt lat="38.81801" lon="121.14735">
        <ele>50.553177</ele>
        <time>2014-06-19T09:37:39.663000Z</time>
      </trkpt>
      <trkpt lat="38.817894" lon="121.14735">
        <ele>52.218304</ele>
        <time>2014-06-19T09:37:42.991000Z</time>
      </trkpt>
      <trkpt lat="38.81778" lon="121.14735">
        <ele>52.759865</ele>
        <time>2014-06-19T09:37:46.319000Z</time>
      </trkpt>
      <trkpt lat="38.81766" lon="121.14735">
        <ele>52.685505</ele>
        <time>2014-06-19T09:37:49.647000Z</time>
      </trkpt>
      <trkpt lat="38.81755" lon="121.14733">
        <ele>53.208202</ele>
        <time>2014-06-19T09:37:52.975000Z</time>
      </trkpt>
      <trkpt lat="38.817436" lon="121.14734">
        <ele>54.980843</ele>
        <time>2014-06-19T09:37:56.303000Z</time>
      </trkpt>
      <trkpt lat="38.81734" lon="121.147415">
        <ele>56.898952</ele>
        <time>2014-06-19T09:37:59.631000Z</time>
      </trkpt>
      <trkpt lat="38.817272" lon="121.14749">
        <ele>57.836952</ele>
        <time>2014-06-19T09:38:02.959000Z</time>
      </trkpt>
      <trkpt lat="38.817223" lon="121.14763">
        <ele>57.70837</ele>
        <time>2014-06-19T09:38:06.287000Z</time>
      </trkpt>
      <trkpt lat="38.817204" lon="121.14774">
        <ele>56.288048</ele>
        <time>2014-06-19T09:38:09.615000Z</time>
      </trkpt>
      <trkpt lat="38.817207" lon="121.14787">
        <ele>53.77903</ele>
        <time>2014-06-19T09:38:12.943000Z</time>
      </trkpt>
      <trkpt lat="38.817245" lon="121.147995">
        <ele>51.044853</ele>
        <time>2014-06-19T09:38:16.271000Z</time>
      </trkpt>
      <trkpt lat="38.81732" lon="121.14812">
        <ele>48.838345</ele>
        <time>2014-06-19T09:38:19.599000Z</time>
      </trkpt>
      <trkpt lat="38.8174" lon="121.14819">
        <ele>47.543526</ele>
        <time>2014-06-19T09:38:22.927000Z</time>
      </trkpt>
      <trkpt lat="38.8175" lon="121.14825">
        <ele>47.26721</ele>
        <time>2014-06-19T09:38:26.255000Z</time>
      </trkpt>
      <trkpt lat="38.817616" lon="121.14825">
        <ele>47.6587</ele>
        <time>2014-06-19T09:38:29.583000Z</time>
      </trkpt>
      <trkpt lat="38.817715" lon="121.14826">
        <ele>48.16924</ele>
        <time>2014-06-19T09:38:32.911000Z</time>
      </trkpt>
      <trkpt lat="38.81783" lon="121.148254">
        <ele>48.441944</ele>
        <time>2014-06-19T09:38:36.239000Z</time>
      </trkpt>
      <trkpt lat="38.81794" lon="121.14826">
        <ele>48.483715</ele>
        <time>2014-06-19T09:38:39.567000Z</time>
      </trkpt>
      <trkpt lat="38.81803" lon="121.14827">
        <ele>48.28194</ele>
        <time>2014-06-19T09:38:42.895000Z</time>
      </trkpt>
      <trkpt lat="38.81812" lon="121.14828">
        <ele>47.84808</ele>
        <time>2014-06-19T09:38:46.223000Z</time>
      </trkpt>
      <trkpt lat="38.818237" lon="121.14829">
        <ele>47.43346</ele>
        <time>2014-06-19T09:38:49.551000Z</time>
      </trkpt>
      <trkpt lat="38.818348" lon="121.148285">
        <ele>47.562504</ele>
        <time>2014-06-19T09:38:52.879000Z</time>
      </trkpt>
      <trkpt lat="38.818443" lon="121.14824">
        <ele>48.823616</ele>
        <time>2014-06-19T09:38:56.207000Z</time>
      </trkpt>
      <trkpt lat="38.818523" lon="121.14818">
        <ele>50.901382</ele>
        <time>2014-06-19T09:38:59.535000Z</time>
      </trkpt>
      <trkpt lat="38.818596" lon="121.14807">
        <ele>52.562756</ele>
        <time>2014-06-19T09:39:02.863000Z</time>
      </trkpt>
      <trkpt lat="38.81865" lon="121.14796">
        <ele>53.210415</ele>
        <time>2014-06-19T09:39:06.191000Z</time>
      </trkpt>
      <trkpt lat="38.818676" lon="121.147835">
        <ele>52.56222</ele>
        <time>2014-06-19T09:39:09.519000Z</time>
      </trkpt>
      <trkpt lat="38.818665" lon="121.1477">
        <ele>50.687565</ele>
        <time>2014-06-19T09:39:12.847000Z</time>
      </trkpt>
      <trkpt lat="38.81863" lon="121.14759">
        <ele>48.818565</ele>
        <time>2014-06-19T09:39:16.175000Z</time>
      </trkpt>
      <trkpt lat="38.818554" lon="121.14749">
        <ele>48.379436</ele>
        <time>2014-06-19T09:39:19.503000Z</time>
      </trkpt>
      <trkpt lat="38.81847" lon="121.147415">
        <ele>48.928123</ele>
        <time>2014-06-19T09:39:22.831000Z</time>
      </trkpt>
      <trkpt lat="38.818356" lon="121.14736">
        <ele>49.17074</ele>
        <time>2014-06-19T09:39:26.159000Z</time>
      </trkpt>
      <trkpt lat="38.818253" lon="121.147354">
        <ele>48.85659</ele>
        <time>2014-06-19T09:39:29.487000Z</time>
      </trkpt>
      <trkpt lat="38.818142" lon="121.147354">
        <ele>48.582214</ele>
        <time>2014-06-19T09:39:32.815000Z</time>
      </trkpt>
      <trkpt lat="38.818035" lon="121.147354">
        <ele>48.668243</ele>
        <time>2014-06-19T09:39:36.143000Z</time>
      </trkpt>
      <trkpt lat="38.817932" lon="121.147354">
        <ele>49.470074</ele>
        <time>2014-06-19T09:39:39.471000Z</time>
      </trkpt>
      <trkpt lat="38.81781" lon="121.14736">
        <ele>51.17342</ele>
        <time>2014-06-19T09:39:42.799000Z</time>
      </trkpt>
      <trkpt lat="38.817707" lon="121.14735">
        <ele>53.352436</ele>
        <time>2014-06-19T09:39:46.127000Z</time>
      </trkpt>
      <trkpt lat="38.817604" lon="121.14734">
        <ele>55.049202</ele>
        <time>2014-06-19T09:39:49.455000Z</time>
      </trkpt>
      <trkpt lat="38.817493" lon="121.147354">
        <ele>55.688274</ele>
        <time>2014-06-19T09:39:52.783000Z</time>
      </trkpt>
      <trkpt lat="38.8174" lon="121.147385">
        <ele>55.37203</ele>
        <time>2014-06-19T09:39:56.111000Z</time>
      </trkpt>
      <trkpt lat="38.817303" lon="121.14747">
        <ele>54.42105</ele>
        <time>2014-06-19T09:39:59.439000Z</time>
      </trkpt>
      <trkpt lat="38.817234" lon="121.14758">
        <ele>53.161972</ele>
        <time>2014-06-19T09:40:02.767000Z</time>
      </trkpt>
      <trkpt lat="38.8172" lon="121.14772">
        <ele>52.036137</ele>
        <time>2014-06-19T09:40:06.095000Z</time>
      </trkpt>
      <trkpt lat="38.81719" lon="121.14785">
        <ele>51.521984</ele>
        <time>2014-06-19T09:40:09.423000Z</time>
      </trkpt>
      <trkpt lat="38.817215" lon="121.14798">
        <ele>51.64785</ele>
        <time>2014-06-19T09:40:12.751000Z</time>
      </trkpt>
      <trkpt lat="38.817272" lon="121.14808">
        <ele>51.496742</ele>
        <time>2014-06-19T09:40:16.079000Z</time>
      </trkpt>
      <trkpt lat="38.817352" lon="121.14817">
        <ele>50.428864</ele>
        <time>2014-06-19T09:40:19.407000Z</time>
      </trkpt>
      <trkpt lat="38.817444" lon="121.148224">
        <ele>49.23919</ele>
        <time>2014-06-19T09:40:22.735000Z</time>
      </trkpt>
      <trkpt lat="38.81755" lon="121.148254">
        <ele>48.7781</ele>
        <time>2014-06-19T09:40:26.063000Z</time>
      </trkpt>
      <trkpt lat="38.817657" lon="121.14826">
        <ele>48.84228</ele>
        <time>2014-06-19T09:40:29.391000Z</time>
      </trkpt>
      <trkpt lat="38.817776" lon="121.14826">
        <ele>49.02294</ele>
        <time>2014-06-19T09:40:32.719000Z</time>
      </trkpt>
      <trkpt lat="38.817886" lon="121.14827">
        <ele>50.008427</ele>
        <time>2014-06-19T09:40:36.047000Z</time>
      </trkpt>
      <trkpt lat="38.817993" lon="121.148285">
        <ele>52.49993</ele>
        <time>2014-06-19T09:40:39.375000Z</time>
      </trkpt>
      <trkpt lat="38.818115" lon="121.148285">
        <ele>55.323555</ele>
        <time>2014-06-19T09:40:42.703000Z</time>
      </trkpt>
      <trkpt lat="38.818222" lon="121.1483">
        <ele>56.938652</ele>
        <time>2014-06-19T09:40:46.031000Z</time>
      </trkpt>
      <trkpt lat="38.818333" lon="121.14829">
        <ele>56.83122</ele>
        <time>2014-06-19T09:40:49.359000Z</time>
      </trkpt>
      <trkpt lat="38.818455" lon="121.148254">
        <ele>54.90666</ele>
        <time>2014-06-19T09:40:52.687000Z</time>
      </trkpt>
      <trkpt lat="38.81853" lon="121.14818">
        <ele>52.118984</ele>
        <time>2014-06-19T09:40:56.015000Z</time>
      </trkpt>
      <trkpt lat="38.818604" lon="121.148094">
        <ele>49.92803</ele>
        <time>2014-06-19T09:40:59.343000Z</time>
      </trkpt>
      <trkpt lat="38.818653" lon="121.147995">
        <ele>48.926933</ele>
        <time>2014-06-19T09:41:02.671000Z</time>
      </trkpt>
      <trkpt lat="38.818687" lon="121.14786">
        <ele>48.94142</ele>
        <time>2014-06-19T09:41:05.999000Z</time>
      </trkpt>
      <trkpt lat="38.81868" lon="121.14773">
        <ele>49.450317</ele>
        <time>2014-06-19T09:41:09.327000Z</time>
      </trkpt>
      <trkpt lat="38.818634" lon="121.14759">
        <ele>49.701557</ele>
        <time>2014-06-19T09:41:12.655000Z</time>
      </trkpt>
      <trkpt lat="38.818565" lon="121.14749">
        <ele>49.2792</ele>
        <time>2014-06-19T09:41:15.983000Z</time>
      </trkpt>
      <trkpt lat="38.818462" lon="121.14741">
        <ele>48.26112</ele>
        <time>2014-06-19T09:41:19.311000Z</time>
      </trkpt>
      <trkpt lat="38.81837" lon="121.14737">
        <ele>47.30714</ele>
        <time>2014-06-19T09:41:22.639000Z</time>
      </trkpt>
      <trkpt lat="38.81827" lon="121.14737">
        <ele>47.274048</ele>
        <time>2014-06-19T09:41:25.967000Z</time>
      </trkpt>
      <trkpt lat="38.818172" lon="121.14737">
        <ele>48.341755</ele>
        <time>2014-06-19T09:41:29.295000Z</time>
      </trkpt>
      <trkpt lat="38.818066" lon="121.14737">
        <ele>49.618206</ele>
        <time>2014-06-19T09:41:32.623000Z</time>
      </trkpt>
      <trkpt lat="38.817944" lon="121.14736">
        <ele>50.44349</ele>
        <time>2014-06-19T09:41:35.951000Z</time>
      </trkpt>
      <trkpt lat="38.817837" lon="121.14733">
        <ele>51.03772</ele>
        <time>2014-06-19T09:41:39.279000Z</time>
      </trkpt>
      <trkpt lat="38.817722" lon="121.14732">
        <ele>52.56205</ele>
        <time>2014-06-19T09:41:42.607000Z</time>
      </trkpt>
      <trkpt lat="38.81761" lon="121.147316">
        <ele>55.76705</ele>
        <time>2014-06-19T09:41:45.935000Z</time>
      </trkpt>
      <trkpt lat="38.817497" lon="121.14731">
        <ele>60.02693</ele>
        <time>2014-06-19T09:41:49.263000Z</time>
      </trkpt>
      <trkpt lat="38.817383" lon="121.14736">
        <ele>63.831123</ele>
        <time>2014-06-19T09:41:52.591000Z</time>
      </trkpt>
      <trkpt lat="38.817287" lon="121.14743">
        <ele>65.63837</ele>
        <time>2014-06-19T09:41:55.919000Z</time>
      </trkpt>
      <trkpt lat="38.817245" lon="121.14753">
        <ele>64.7355</ele>
        <time>2014-06-19T09:41:59.247000Z</time>
      </trkpt>
      <trkpt lat="38.817215" lon="121.14764">
        <ele>62.02449</ele>
        <time>2014-06-19T09:42:02.575000Z</time>
      </trkpt>
      <trkpt lat="38.817196" lon="121.14776">
        <ele>58.751476</ele>
        <time>2014-06-19T09:42:05.903000Z</time>
      </trkpt>
      <trkpt lat="38.817207" lon="121.14788">
        <ele>55.582993</ele>
        <time>2014-06-19T09:42:09.231000Z</time>
      </trkpt>
      <trkpt lat="38.81726" lon="121.148">
        <ele>52.31469</ele>
        <time>2014-06-19T09:42:12.559000Z</time>
      </trkpt>
      <trkpt lat="38.817333" lon="121.14813">
        <ele>49.003613</ele>
        <time>2014-06-19T09:42:15.887000Z</time>
      </trkpt>
      <trkpt lat="38.81741" lon="121.1482">
        <ele>46.964123</ele>
        <time>2014-06-19T09:42:19.215000Z</time>
      </trkpt>
      <trkpt lat="38.817505" lon="121.14824">
        <ele>46.85955</ele>
        <time>2014-06-19T09:42:22.543000Z</time>
      </trkpt>
      <trkpt lat="38.817593" lon="121.14826">
        <ele>47.652355</ele>
        <time>2014-06-19T09:42:25.871000Z</time>
      </trkpt>
      <trkpt lat="38.8177" lon="121.148254">
        <ele>48.119175</ele>
        <time>2014-06-19T09:42:29.199000Z</time>
      </trkpt>
      <trkpt lat="38.817806" lon="121.14827">
        <ele>48.0923</ele>
        <time>2014-06-19T09:42:32.527000Z</time>
      </trkpt>
      <trkpt lat="38.817905" lon="121.14827">
        <ele>47.94245</ele>
        <time>2014-06-19T09:42:35.855000Z</time>
      </trkpt>
      <trkpt lat="38.818012" lon="121.14828">
        <ele>47.936523</ele>
        <time>2014-06-19T09:42:39.183000Z</time>
      </trkpt>
      <trkpt lat="38.818123" lon="121.14828">
        <ele>48.57157</ele>
        <time>2014-06-19T09:42:42.511000Z</time>
      </trkpt>
      <trkpt lat="38.818233" lon="121.148285">
        <ele>49.960323</ele>
        <time>2014-06-19T09:42:45.839000Z</time>
      </trkpt>
      <trkpt lat="38.81834" lon="121.14829">
        <ele>51.01819</ele>
        <time>2014-06-19T09:42:49.167000Z</time>
      </trkpt>
      <trkpt lat="38.81846" lon="121.14826">
        <ele>50.361046</ele>
        <time>2014-06-19T09:42:52.495000Z</time>
      </trkpt>
      <trkpt lat="38.818542" lon="121.14821">
        <ele>48.045696</ele>
        <time>2014-06-19T09:42:55.823000Z</time>
      </trkpt>
      <trkpt lat="38.81861" lon="121.14812">
        <ele>45.890064</ele>
        <time>2014-06-19T09:42:59.151000Z</time>
      </trkpt>
      <trkpt lat="38.818672" lon="121.14801">
        <ele>45.33013</ele>
        <time>2014-06-19T09:43:02.479000Z</time>
      </trkpt>
      <trkpt lat="38.8187" lon="121.14788">
        <ele>46.064598</ele>
        <time>2014-06-19T09:43:05.807000Z</time>
      </trkpt>
      <trkpt lat="38.818687" lon="121.147736">
        <ele>47.124966</ele>
        <time>2014-06-19T09:43:09.135000Z</time>
      </trkpt>
      <trkpt lat="38.818653" lon="121.14761">
        <ele>47.77885</ele>
        <time>2014-06-19T09:43:12.463000Z</time>
      </trkpt>
      <trkpt lat="38.818604" lon="121.147514">
        <ele>47.918438</ele>
        <time>2014-06-19T09:43:15.791000Z</time>
      </trkpt>
      <trkpt lat="38.818504" lon="121.14743">
        <ele>47.796444</ele>
        <time>2014-06-19T09:43:19.119000Z</time>
      </trkpt>
      <trkpt lat="38.818413" lon="121.147385">
        <ele>47.9768</ele>
        <time>2014-06-19T09:43:22.447000Z</time>
      </trkpt>
      <trkpt lat="38.818302" lon="121.14738">
        <ele>48.400642</ele>
        <time>2014-06-19T09:43:25.775000Z</time>
      </trkpt>
      <trkpt lat="38.81821" lon="121.147385">
        <ele>48.61361</ele>
        <time>2014-06-19T09:43:29.103000Z</time>
      </trkpt>
      <trkpt lat="38.818108" lon="121.14738">
        <ele>48.492092</ele>
        <time>2014-06-19T09:43:32.431000Z</time>
      </trkpt>
      <trkpt lat="38.818" lon="121.14737">
        <ele>48.07276</ele>
        <time>2014-06-19T09:43:35.759000Z</time>
      </trkpt>
      <trkpt lat="38.817894" lon="121.147354">
        <ele>47.537117</ele>
        <time>2014-06-19T09:43:39.087000Z</time>
      </trkpt>
      <trkpt lat="38.8178" lon="121.14735">
        <ele>47.59856</ele>
        <time>2014-06-19T09:43:42.415000Z</time>
      </trkpt>
      <trkpt lat="38.817688" lon="121.14735">
        <ele>48.4049</ele>
        <time>2014-06-19T09:43:45.743000Z</time>
      </trkpt>
      <trkpt lat="38.81757" lon="121.14735">
        <ele>49.346504</ele>
        <time>2014-06-19T09:43:49.071000Z</time>
      </trkpt>
      <trkpt lat="38.81748" lon="121.147354">
        <ele>49.66118</ele>
        <time>2014-06-19T09:43:52.399000Z</time>
      </trkpt>
      <trkpt lat="38.81737" lon="121.147415">
        <ele>49.29133</ele>
        <time>2014-06-19T09:43:55.727000Z</time>
      </trkpt>
      <trkpt lat="38.8173" lon="121.14749">
        <ele>49.169395</ele>
        <time>2014-06-19T09:43:59.055000Z</time>
      </trkpt>
      <trkpt lat="38.817234" lon="121.147606">
        <ele>50.017536</ele>
        <time>2014-06-19T09:44:02.383000Z</time>
      </trkpt>
      <trkpt lat="38.8172" lon="121.14774">
        <ele>51.232876</ele>
        <time>2014-06-19T09:44:05.711000Z</time>
      </trkpt>
      <trkpt lat="38.817207" lon="121.147865">
        <ele>52.01788</ele>
        <time>2014-06-19T09:44:09.039000Z</time>
      </trkpt>
      <trkpt lat="38.817238" lon="121.14799">
        <ele>51.542294</ele>
        <time>2014-06-19T09:44:12.367000Z</time>
      </trkpt>
      <trkpt lat="38.817303" lon="121.14811">
        <ele>49.555923</ele>
        <time>2014-06-19T09:44:15.695000Z</time>
      </trkpt>
      <trkpt lat="38.817368" lon="121.1482">
        <ele>47.852703</ele>
        <time>2014-06-19T09:44:19.023000Z</time>
      </trkpt>
      <trkpt lat="38.817455" lon="121.14824">
        <ele>47.90376</ele>
        <time>2014-06-19T09:44:22.351000Z</time>
      </trkpt>
      <trkpt lat="38.81755" lon="121.14825">
        <ele>48.707462</ele>
        <time>2014-06-19T09:44:25.679000Z</time>
      </trkpt>
      <trkpt lat="38.81765" lon="121.148254">
        <ele>49.05019</ele>
        <time>2014-06-19T09:44:29.007000Z</time>
      </trkpt>
      <trkpt lat="38.817745" lon="121.14826">
        <ele>48.945545</ele>
        <time>2014-06-19T09:44:32.335000Z</time>
      </trkpt>
      <trkpt lat="38.817837" lon="121.14826">
        <ele>48.970848</ele>
        <time>2014-06-19T09:44:35.663000Z</time>
      </trkpt>
      <trkpt lat="38.817947" lon="121.14827">
        <ele>49.41299</ele>
        <time>2014-06-19T09:44:38.991000Z</time>
      </trkpt>
      <trkpt lat="38.818054" lon="121.14826">
        <ele>50.089203</ele>
        <time>2014-06-19T09:44:42.319000Z</time>
      </trkpt>
      <trkpt lat="38.818146" lon="121.14828">
        <ele>50.70034</ele>
        <time>2014-06-19T09:44:45.647000Z</time>
      </trkpt>
      <trkpt lat="38.818253" lon="121.148285">
        <ele>51.237797</ele>
        <time>2014-06-19T09:44:48.975000Z</time>
      </trkpt>
      <trkpt lat="38.818363" lon="121.14828">
        <ele>51.877583</ele>
        <time>2014-06-19T09:44:52.303000Z</time>
      </trkpt>
      <trkpt lat="38.81846" lon="121.14824">
        <ele>52.463444</ele>
        <time>2014-06-19T09:44:55.630000Z</time>
      </trkpt>
      <trkpt lat="38.81854" lon="121.14816">
        <ele>52.454628</ele>
        <time>2014-06-19T09:44:58.957000Z</time>
      </trkpt>
      <trkpt lat="38.818607" lon="121.14808">
        <ele>51.85432</ele>
        <time>2014-06-19T09:45:02.284000Z</time>
      </trkpt>
      <trkpt lat="38.818657" lon="121.14795">
        <ele>51.23843</ele>
        <time>2014-06-19T09:45:05.611000Z</time>
      </trkpt>
      <trkpt lat="38.818672" lon="121.14783">
        <ele>50.99352</ele>
        <time>2014-06-19T09:45:08.938000Z</time>
      </trkpt>
      <trkpt lat="38.818657" lon="121.147675">
        <ele>50.843536</ele>
        <time>2014-06-19T09:45:12.265000Z</time>
      </trkpt>
      <trkpt lat="38.818596" lon="121.14755">
        <ele>50.652725</ele>
        <time>2014-06-19T09:45:15.592000Z</time>
      </trkpt>
      <trkpt lat="38.818523" lon="121.14747">
        <ele>50.852264</ele>
        <time>2014-06-19T09:45:18.919000Z</time>
      </trkpt>
      <trkpt lat="38.818417" lon="121.1474">
        <ele>51.57166</ele>
        <time>2014-06-19T09:45:22.246000Z</time>
      </trkpt>
      <trkpt lat="38.818314" lon="121.147385">
        <ele>52.332817</ele>
        <time>2014-06-19T09:45:25.573000Z</time>
      </trkpt>
      <trkpt lat="38.8182" lon="121.14738">
        <ele>53.12285</ele>
        <time>2014-06-19T09:45:28.900000Z</time>
      </trkpt>
      <trkpt lat="38.81809" lon="121.14738">
        <ele>54.107285</ele>
        <time>2014-06-19T09:45:32.227000Z</time>
      </trkpt>
      <trkpt lat="38.81798" lon="121.14737">
        <ele>54.86413</ele>
        <time>2014-06-19T09:45:35.554000Z</time>
      </trkpt>
      <trkpt lat="38.817883" lon="121.14736">
        <ele>54.723534</ele>
        <time>2014-06-19T09:45:38.881000Z</time>
      </trkpt>
      <trkpt lat="38.81778" lon="121.14736">
        <ele>53.812733</ele>
        <time>2014-06-19T09:45:42.208000Z</time>
      </trkpt>
      <trkpt lat="38.817673" lon="121.147354">
        <ele>52.884506</ele>
        <time>2014-06-19T09:45:45.535000Z</time>
      </trkpt>
      <trkpt lat="38.817562" lon="121.14735">
        <ele>52.444645</ele>
        <time>2014-06-19T09:45:48.862000Z</time>
      </trkpt>
      <trkpt lat="38.817444" lon="121.14738">
        <ele>52.402287</ele>
        <time>2014-06-19T09:45:52.189000Z</time>
      </trkpt>
      <trkpt lat="38.817345" lon="121.14743">
        <ele>52.84247</ele>
        <time>2014-06-19T09:45:55.516000Z</time>
      </trkpt>
      <trkpt lat="38.817276" lon="121.14751">
        <ele>53.793026</ele>
        <time>2014-06-19T09:45:58.843000Z</time>
      </trkpt>
      <trkpt lat="38.817223" lon="121.14761">
        <ele>54.5919</ele>
        <time>2014-06-19T09:46:02.170000Z</time>
      </trkpt>
      <trkpt lat="38.817204" lon="121.14776">
        <ele>54.549706</ele>
        <time>2014-06-19T09:46:05.497000Z</time>
      </trkpt>
      <trkpt lat="38.81721" lon="121.14789">
        <ele>53.69403</ele>
        <time>2014-06-19T09:46:08.824000Z</time>
      </trkpt>
      <trkpt lat="38.817253" lon="121.148026">
        <ele>52.47913</ele>
        <time>2014-06-19T09:46:12.151000Z</time>
      </trkpt>
      <trkpt lat="38.817326" lon="121.148125">
        <ele>51.44947</ele>
        <time>2014-06-19T09:46:15.478000Z</time>
      </trkpt>
      <trkpt lat="38.817417" lon="121.1482">
        <ele>50.7213</ele>
        <time>2014-06-19T09:46:18.805000Z</time>
      </trkpt>
      <trkpt lat="38.81751" lon="121.14823">
        <ele>49.588284</ele>
        <time>2014-06-19T09:46:22.132000Z</time>
      </trkpt>
      <trkpt lat="38.81762" lon="121.14825">
        <ele>47.565598</ele>
        <time>2014-06-19T09:46:25.459000Z</time>
      </trkpt>
      <trkpt lat="38.817715" lon="121.14825">
        <ele>45.644623</ele>
        <time>2014-06-19T09:46:28.786000Z</time>
      </trkpt>
      <trkpt lat="38.817806" lon="121.148254">
        <ele>45.468822</ele>
        <time>2014-06-19T09:46:32.113000Z</time>
      </trkpt>
      <trkpt lat="38.81792" lon="121.148254">
        <ele>47.04213</ele>
        <time>2014-06-19T09:46:35.440000Z</time>
      </trkpt>
      <trkpt lat="38.81803" lon="121.148254">
        <ele>48.784428</ele>
        <time>2014-06-19T09:46:38.767000Z</time>
      </trkpt>
      <trkpt lat="38.818142" lon="121.148254">
        <ele>49.830402</ele>
        <time>2014-06-19T09:46:42.094000Z</time>
      </trkpt>
      <trkpt lat="38.818237" lon="121.14826">
        <ele>50.461582</ele>
        <time>2014-06-19T09:46:45.421000Z</time>
      </trkpt>
      <trkpt lat="38.81834" lon="121.14827">
        <ele>50.55357</ele>
        <time>2014-06-19T09:46:48.748000Z</time>
      </trkpt>
      <trkpt lat="38.818436" lon="121.14825">
        <ele>49.60821</ele>
        <time>2014-06-19T09:46:52.075000Z</time>
      </trkpt>
      <trkpt lat="38.818516" lon="121.14819">
        <ele>47.978333</ele>
        <time>2014-06-19T09:46:55.402000Z</time>
      </trkpt>
      <trkpt lat="38.818607" lon="121.14809">
        <ele>46.895004</ele>
        <time>2014-06-19T09:46:58.729000Z</time>
      </trkpt>
      <trkpt lat="38.81867" lon="121.14796">
        <ele>47.351402</ele>
        <time>2014-06-19T09:47:02.056000Z</time>
      </trkpt>
      <trkpt lat="38.818676" lon="121.14784">
        <ele>48.987377</ele>
        <time>2014-06-19T09:47:05.383000Z</time>
      </trkpt>
      <trkpt lat="38.81867" lon="121.14772">
        <ele>50.2364</ele>
        <time>2014-06-19T09:47:08.710000Z</time>
      </trkpt>
      <trkpt lat="38.818634" lon="121.1476">
        <ele>50.21096</ele>
        <time>2014-06-19T09:47:12.037000Z</time>
      </trkpt>
      <trkpt lat="38.81855" lon="121.14749">
        <ele>49.41781</ele>
        <time>2014-06-19T09:47:15.364000Z</time>
      </trkpt>
      <trkpt lat="38.818474" lon="121.14742">
        <ele>48.579086</ele>
        <time>2014-06-19T09:47:18.691000Z</time>
      </trkpt>
      <trkpt lat="38.81835" lon="121.147385">
        <ele>48.07455</ele>
        <time>2014-06-19T09:47:22.018000Z</time>
      </trkpt>
      <trkpt lat="38.818226" lon="121.14737">
        <ele>48.09326</ele>
        <time>2014-06-19T09:47:25.345000Z</time>
      </trkpt>
      <trkpt lat="38.818127" lon="121.14737">
        <ele>48.54858</ele>
        <time>2014-06-19T09:47:28.672000Z</time>
      </trkpt>
      <trkpt lat="38.818035" lon="121.14737">
        <ele>49.524673</ele>
        <time>2014-06-19T09:47:31.999000Z</time>
      </trkpt>
      <trkpt lat="38.817944" lon="121.14736">
        <ele>51.092583</ele>
        <time>2014-06-19T09:47:35.326000Z</time>
      </trkpt>
      <trkpt lat="38.817833" lon="121.14737">
        <ele>52.684635</ele>
        <time>2014-06-19T09:47:38.653000Z</time>
      </trkpt>
      <trkpt lat="38.817726" lon="121.14737">
        <ele>53.58667</ele>
        <time>2014-06-19T09:47:41.980000Z</time>
      </trkpt>
      <trkpt lat="38.81762" lon="121.14736">
        <ele>53.68903</ele>
        <time>2014-06-19T09:47:45.307000Z</time>
      </trkpt>
      <trkpt lat="38.8175" lon="121.14738">
        <ele>53.28237</ele>
        <time>2014-06-19T09:47:48.634000Z</time>
      </trkpt>
      <trkpt lat="38.817406" lon="121.14741">
        <ele>52.82509</ele>
        <time>2014-06-19T09:47:51.961000Z</time>
      </trkpt>
      <trkpt lat="38.81733" lon="121.14748">
        <ele>52.316555</ele>
        <time>2014-06-19T09:47:55.288000Z</time>
      </trkpt>
      <trkpt lat="38.817265" lon="121.147575">
        <ele>51.544716</ele>
        <time>2014-06-19T09:47:58.615000Z</time>
      </trkpt>
      <trkpt lat="38.81722" lon="121.14772">
        <ele>50.78507</ele>
        <time>2014-06-19T09:48:01.942000Z</time>
      </trkpt>
      <trkpt lat="38.817223" lon="121.147865">
        <ele>50.35297</ele>
        <time>2014-06-19T09:48:05.269000Z</time>
      </trkpt>
      <trkpt lat="38.817257" lon="121.147995">
        <ele>50.035976</ele>
        <time>2014-06-19T09:48:08.596000Z</time>
      </trkpt>
      <trkpt lat="38.81733" lon="121.1481">
        <ele>49.49793</ele>
        <time>2014-06-19T09:48:11.923000Z</time>
      </trkpt>
      <trkpt lat="38.817406" lon="121.14818">
        <ele>48.79376</ele>
        <time>2014-06-19T09:48:15.250000Z</time>
      </trkpt>
      <trkpt lat="38.81749" lon="121.148224">
        <ele>48.293694</ele>
        <time>2014-06-19T09:48:18.577000Z</time>
      </trkpt>
      <trkpt lat="38.81758" lon="121.148254">
        <ele>48.117165</ele>
        <time>2014-06-19T09:48:21.904000Z</time>
      </trkpt>
      <trkpt lat="38.817703" lon="121.14826">
        <ele>48.04795</ele>
        <time>2014-06-19T09:48:25.231000Z</time>
      </trkpt>
      <trkpt lat="38.817795" lon="121.14826">
        <ele>47.89242</ele>
        <time>2014-06-19T09:48:28.558000Z</time>
      </trkpt>
      <trkpt lat="38.81789" lon="121.14826">
        <ele>47.700615</ele>
        <time>2014-06-19T09:48:31.885000Z</time>
      </trkpt>
      <trkpt lat="38.81801" lon="121.148254">
        <ele>47.58872</ele>
        <time>2014-06-19T09:48:35.212000Z</time>
      </trkpt>
      <trkpt lat="38.818115" lon="121.148254">
        <ele>47.18233</ele>
        <time>2014-06-19T09:48:38.539000Z</time>
      </trkpt>
      <trkpt lat="38.818237" lon="121.14826">
        <ele>46.2104</ele>
        <time>2014-06-19T09:48:41.866000Z</time>
      </trkpt>
      <trkpt lat="38.818348" lon="121.14826">
        <ele>45.218437</ele>
        <time>2014-06-19T09:48:45.193000Z</time>
      </trkpt>
      <trkpt lat="38.818462" lon="121.14823">
        <ele>45.429756</ele>
        <time>2014-06-19T09:48:48.520000Z</time>
      </trkpt>
      <trkpt lat="38.818565" lon="121.148155">
        <ele>47.13164</ele>
        <time>2014-06-19T09:48:51.847000Z</time>
      </trkpt>
      <trkpt lat="38.818634" lon="121.14804">
        <ele>48.8181</ele>
        <time>2014-06-19T09:48:55.174000Z</time>
      </trkpt>
      <trkpt lat="38.818684" lon="121.14787">
        <ele>49.14106</ele>
        <time>2014-06-19T09:48:58.501000Z</time>
      </trkpt>
      <trkpt lat="38.818684" lon="121.14773">
        <ele>48.56972</ele>
        <time>2014-06-19T09:49:01.828000Z</time>
      </trkpt>
      <trkpt lat="38.81862" lon="121.147575">
        <ele>47.920197</ele>
        <time>2014-06-19T09:49:05.155000Z</time>
      </trkpt>
      <trkpt lat="38.818542" lon="121.147446">
        <ele>47.477936</ele>
        <time>2014-06-19T09:49:08.482000Z</time>
      </trkpt>
      <trkpt lat="38.818542" lon="121.147446">
        <ele>47.28184</ele>
        <time>2014-06-19T09:49:11.809000Z</time>
      </trkpt>
      <trkpt lat="38.81845" lon="121.14741">
        <ele>47.74618</ele>
        <time>2014-06-19T09:49:15.136000Z</time>
      </trkpt>
      <trkpt lat="38.81848" lon="121.14731">
        <ele>51.794586</ele>
        <time>2014-06-19T09:49:18.463000Z</time>
      </trkpt>
      <trkpt lat="38.81848" lon="121.14731">
        <ele>52.03968</ele>
        <time>2014-06-19T09:49:21.790000Z</time>
      </trkpt>
      <trkpt lat="38.81848" lon="121.14731">
        <ele>52.046917</ele>
        <time>2014-06-19T09:49:25.117000Z</time>
      </trkpt>
      <trkpt lat="38.818405" lon="121.14732">
        <ele>51.882736</ele>
        <time>2014-06-19T09:49:28.444000Z</time>
      </trkpt>
      <trkpt lat="38.818306" lon="121.14733">
        <ele>51.42047</ele>
        <time>2014-06-19T09:49:31.771000Z</time>
      </trkpt>
      <trkpt lat="38.81821" lon="121.14732">
        <ele>50.495804</ele>
        <time>2014-06-19T09:49:35.098000Z</time>
      </trkpt>
      <trkpt lat="38.81821" lon="121.14732">
        <ele>49.690323</ele>
        <time>2014-06-19T09:49:38.425000Z</time>
      </trkpt>
      <trkpt lat="38.818096" lon="121.14732">
        <ele>49.523838</ele>
        <time>2014-06-19T09:49:41.752000Z</time>
      </trkpt>
      <trkpt lat="38.818" lon="121.14732">
        <ele>49.40495</ele>
        <time>2014-06-19T09:49:45.079000Z</time>
      </trkpt>
      <trkpt lat="38.817898" lon="121.14732">
        <ele>48.65019</ele>
        <time>2014-06-19T09:49:48.406000Z</time>
      </trkpt>
      <trkpt lat="38.81778" lon="121.147316">
        <ele>47.53119</ele>
        <time>2014-06-19T09:49:51.733000Z</time>
      </trkpt>
      <trkpt lat="38.817673" lon="121.147316">
        <ele>46.71017</ele>
        <time>2014-06-19T09:49:55.060000Z</time>
      </trkpt>
      <trkpt lat="38.81758" lon="121.147316">
        <ele>46.69533</ele>
        <time>2014-06-19T09:49:58.387000Z</time>
      </trkpt>
      <trkpt lat="38.81747" lon="121.14735">
        <ele>47.776417</ele>
        <time>2014-06-19T09:50:01.714000Z</time>
      </trkpt>
      <trkpt lat="38.817375" lon="121.147385">
        <ele>49.442894</ele>
        <time>2014-06-19T09:50:05.041000Z</time>
      </trkpt>
      <trkpt lat="38.81729" lon="121.14747">
        <ele>50.939903</ele>
        <time>2014-06-19T09:50:08.368000Z</time>
      </trkpt>
      <trkpt lat="38.817226" lon="121.14758">
        <ele>52.025085</ele>
        <time>2014-06-19T09:50:11.695000Z</time>
      </trkpt>
      <trkpt lat="38.81719" lon="121.147705">
        <ele>52.52487</ele>
        <time>2014-06-19T09:50:15.022000Z</time>
      </trkpt>
      <trkpt lat="38.817184" lon="121.14783">
        <ele>51.96377</ele>
        <time>2014-06-19T09:50:18.349000Z</time>
      </trkpt>
      <trkpt lat="38.817204" lon="121.14797">
        <ele>50.482586</ele>
        <time>2014-06-19T09:50:21.676000Z</time>
      </trkpt>
      <trkpt lat="38.817238" lon="121.14808">
        <ele>48.961483</ele>
        <time>2014-06-19T09:50:25.003000Z</time>
      </trkpt>
      <trkpt lat="38.817295" lon="121.14818">
        <ele>48.004646</ele>
        <time>2014-06-19T09:50:28.330000Z</time>
      </trkpt>
      <trkpt lat="38.81738" lon="121.14827">
        <ele>47.5616</ele>
        <time>2014-06-19T09:50:31.657000Z</time>
      </trkpt>
      <trkpt lat="38.81749" lon="121.148315">
        <ele>47.19048</ele>
        <time>2014-06-19T09:50:34.984000Z</time>
      </trkpt>
      <trkpt lat="38.817604" lon="121.14833">
        <ele>46.379463</ele>
        <time>2014-06-19T09:50:38.311000Z</time>
      </trkpt>
      <trkpt lat="38.8177" lon="121.14833">
        <ele>45.331646</ele>
        <time>2014-06-19T09:50:41.638000Z</time>
      </trkpt>
      <trkpt lat="38.81781" lon="121.14832">
        <ele>45.172367</ele>
        <time>2014-06-19T09:50:44.965000Z</time>
      </trkpt>
      <trkpt lat="38.817944" lon="121.14832">
        <ele>46.37648</ele>
        <time>2014-06-19T09:50:48.292000Z</time>
      </trkpt>
      <trkpt lat="38.818047" lon="121.148315">
        <ele>48.15644</ele>
        <time>2014-06-19T09:50:51.619000Z</time>
      </trkpt>
      <trkpt lat="38.818176" lon="121.14833">
        <ele>49.45622</ele>
        <time>2014-06-19T09:50:54.946000Z</time>
      </trkpt>
      <trkpt lat="38.81829" lon="121.14833">
        <ele>49.850956</ele>
        <time>2014-06-19T09:50:58.273000Z</time>
      </trkpt>
      <trkpt lat="38.818398" lon="121.14834">
        <ele>49.62867</ele>
        <time>2014-06-19T09:51:01.600000Z</time>
      </trkpt>
      <trkpt lat="38.818516" lon="121.1483">
        <ele>49.387623</ele>
        <time>2014-06-19T09:51:04.927000Z</time>
      </trkpt>
      <trkpt lat="38.81861" lon="121.14819">
        <ele>49.481163</ele>
        <time>2014-06-19T09:51:08.254000Z</time>
      </trkpt>
      <trkpt lat="38.81869" lon="121.14807">
        <ele>49.99365</ele>
        <time>2014-06-19T09:51:11.581000Z</time>
      </trkpt>
      <trkpt lat="38.81875" lon="121.14794">
        <ele>50.756462</ele>
        <time>2014-06-19T09:51:14.908000Z</time>
      </trkpt>
      <trkpt lat="38.818745" lon="121.14779">
        <ele>51.083893</ele>
        <time>2014-06-19T09:51:18.235000Z</time>
      </trkpt>
      <trkpt lat="38.818718" lon="121.14767">
        <ele>50.424847</ele>
        <time>2014-06-19T09:51:21.562000Z</time>
      </trkpt>
      <trkpt lat="38.81867" lon="121.147545">
        <ele>49.353146</ele>
        <time>2014-06-19T09:51:24.889000Z</time>
      </trkpt>
      <trkpt lat="38.81859" lon="121.14746">
        <ele>49.04118</ele>
        <time>2014-06-19T09:51:28.216000Z</time>
      </trkpt>
      <trkpt lat="38.81849" lon="121.14739">
        <ele>49.679096</ele>
        <time>2014-06-19T09:51:31.543000Z</time>
      </trkpt>
      <trkpt lat="38.81839" lon="121.147354">
        <ele>50.405903</ele>
        <time>2014-06-19T09:51:34.870000Z</time>
      </trkpt>
      <trkpt lat="38.81828" lon="121.14735">
        <ele>50.496655</ele>
        <time>2014-06-19T09:51:38.197000Z</time>
      </trkpt>
      <trkpt lat="38.818184" lon="121.14734">
        <ele>50.263744</ele>
        <time>2014-06-19T09:51:41.524000Z</time>
      </trkpt>
      <trkpt lat="38.818092" lon="121.14734">
        <ele>50.162487</ele>
        <time>2014-06-19T09:51:44.851000Z</time>
      </trkpt>
      <trkpt lat="38.817963" lon="121.14733">
        <ele>49.823696</ele>
        <time>2014-06-19T09:51:48.178000Z</time>
      </trkpt>
      <trkpt lat="38.817863" lon="121.14732">
        <ele>48.880016</ele>
        <time>2014-06-19T09:51:51.505000Z</time>
      </trkpt>
      <trkpt lat="38.81776" lon="121.14732">
        <ele>47.868336</ele>
        <time>2014-06-19T09:51:54.832000Z</time>
      </trkpt>
      <trkpt lat="38.817635" lon="121.14732">
        <ele>47.367958</ele>
        <time>2014-06-19T09:51:58.159000Z</time>
      </trkpt>
      <trkpt lat="38.817516" lon="121.14733">
        <ele>47.334953</ele>
        <time>2014-06-19T09:52:01.486000Z</time>
      </trkpt>
      <trkpt lat="38.817417" lon="121.147354">
        <ele>48.474564</ele>
        <time>2014-06-19T09:52:04.813000Z</time>
      </trkpt>
      <trkpt lat="38.817307" lon="121.147415">
        <ele>51.19252</ele>
        <time>2014-06-19T09:52:08.140000Z</time>
      </trkpt>
      <trkpt lat="38.81724" lon="121.1475">
        <ele>54.13695</ele>
        <time>2014-06-19T09:52:11.467000Z</time>
      </trkpt>
      <trkpt lat="38.81719" lon="121.147644">
        <ele>55.917904</ele>
        <time>2014-06-19T09:52:14.794000Z</time>
      </trkpt>
      <trkpt lat="38.817173" lon="121.147804">
        <ele>56.209785</ele>
        <time>2014-06-19T09:52:18.121000Z</time>
      </trkpt>
      <trkpt lat="38.81718" lon="121.14795">
        <ele>54.4539</ele>
        <time>2014-06-19T09:52:21.448000Z</time>
      </trkpt>
      <trkpt lat="38.81723" lon="121.14806">
        <ele>51.16456</ele>
        <time>2014-06-19T09:52:24.775000Z</time>
      </trkpt>
      <trkpt lat="38.81731" lon="121.14818">
        <ele>48.502674</ele>
        <time>2014-06-19T09:52:28.102000Z</time>
      </trkpt>
      <trkpt lat="38.817383" lon="121.14825">
        <ele>47.70616</ele>
        <time>2014-06-19T09:52:31.429000Z</time>
      </trkpt>
      <trkpt lat="38.817486" lon="121.1483">
        <ele>48.197136</ele>
        <time>2014-06-19T09:52:34.756000Z</time>
      </trkpt>
      <trkpt lat="38.817596" lon="121.148315">
        <ele>49.3414</ele>
        <time>2014-06-19T09:52:38.083000Z</time>
      </trkpt>
      <trkpt lat="38.817696" lon="121.148315">
        <ele>50.958862</ele>
        <time>2014-06-19T09:52:41.410000Z</time>
      </trkpt>
      <trkpt lat="38.8178" lon="121.148315">
        <ele>52.67258</ele>
        <time>2014-06-19T09:52:44.737000Z</time>
      </trkpt>
      <trkpt lat="38.817894" lon="121.148315">
        <ele>53.821644</ele>
        <time>2014-06-19T09:52:48.064000Z</time>
      </trkpt>
      <trkpt lat="38.81801" lon="121.148315">
        <ele>54.172157</ele>
        <time>2014-06-19T09:52:51.391000Z</time>
      </trkpt>
      <trkpt lat="38.81814" lon="121.14832">
        <ele>54.0947</ele>
        <time>2014-06-19T09:52:54.718000Z</time>
      </trkpt>
      <trkpt lat="38.81825" lon="121.14833">
        <ele>53.37798</ele>
        <time>2014-06-19T09:52:58.045000Z</time>
      </trkpt>
      <trkpt lat="38.818344" lon="121.148346">
        <ele>51.826237</ele>
        <time>2014-06-19T09:53:01.372000Z</time>
      </trkpt>
      <trkpt lat="38.818436" lon="121.14832">
        <ele>50.55886</ele>
        <time>2014-06-19T09:53:04.699000Z</time>
      </trkpt>
      <trkpt lat="38.818542" lon="121.14826">
        <ele>50.782738</ele>
        <time>2014-06-19T09:53:08.026000Z</time>
      </trkpt>
      <trkpt lat="38.81865" lon="121.14816">
        <ele>52.056</ele>
        <time>2014-06-19T09:53:11.353000Z</time>
      </trkpt>
      <trkpt lat="38.818714" lon="121.14803">
        <ele>52.79376</ele>
        <time>2014-06-19T09:53:14.680000Z</time>
      </trkpt>
      <trkpt lat="38.818745" lon="121.14788">
        <ele>52.130264</ele>
        <time>2014-06-19T09:53:18.007000Z</time>
      </trkpt>
      <trkpt lat="38.81874" lon="121.147766">
        <ele>50.715294</ele>
        <time>2014-06-19T09:53:21.334000Z</time>
      </trkpt>
      <trkpt lat="38.818703" lon="121.14764">
        <ele>49.498047</ele>
        <time>2014-06-19T09:53:24.661000Z</time>
      </trkpt>
      <trkpt lat="38.818623" lon="121.1475">
        <ele>48.87986</ele>
        <time>2014-06-19T09:53:27.988000Z</time>
      </trkpt>
      <trkpt lat="38.818546" lon="121.1474">
        <ele>48.83376</ele>
        <time>2014-06-19T09:53:31.315000Z</time>
      </trkpt>
      <trkpt lat="38.818428" lon="121.14733">
        <ele>49.080208</ele>
        <time>2014-06-19T09:53:34.642000Z</time>
      </trkpt>
      <trkpt lat="38.818314" lon="121.14733">
        <ele>49.397224</ele>
        <time>2014-06-19T09:53:37.969000Z</time>
      </trkpt>
      <trkpt lat="38.818203" lon="121.14734">
        <ele>49.83371</ele>
        <time>2014-06-19T09:53:41.296000Z</time>
      </trkpt>
      <trkpt lat="38.81809" lon="121.14735">
        <ele>50.452896</ele>
        <time>2014-06-19T09:53:44.623000Z</time>
      </trkpt>
      <trkpt lat="38.817978" lon="121.147354">
        <ele>50.91493</ele>
        <time>2014-06-19T09:53:47.950000Z</time>
      </trkpt>
      <trkpt lat="38.817867" lon="121.14734">
        <ele>50.928432</ele>
        <time>2014-06-19T09:53:51.277000Z</time>
      </trkpt>
      <trkpt lat="38.817753" lon="121.14734">
        <ele>51.03405</ele>
        <time>2014-06-19T09:53:54.604000Z</time>
      </trkpt>
      <trkpt lat="38.81766" lon="121.14733">
        <ele>51.70596</ele>
        <time>2014-06-19T09:53:57.931000Z</time>
      </trkpt>
      <trkpt lat="38.81754" lon="121.14733">
        <ele>52.508667</ele>
        <time>2014-06-19T09:54:01.258000Z</time>
      </trkpt>
      <trkpt lat="38.817444" lon="121.14736">
        <ele>52.840977</ele>
        <time>2014-06-19T09:54:04.585000Z</time>
      </trkpt>
      <trkpt lat="38.817345" lon="121.147415">
        <ele>52.61616</ele>
        <time>2014-06-19T09:54:07.912000Z</time>
      </trkpt>
      <trkpt lat="38.817257" lon="121.1475">
        <ele>52.086937</ele>
        <time>2014-06-19T09:54:11.239000Z</time>
      </trkpt>
      <trkpt lat="38.8172" lon="121.14764">
        <ele>51.51322</ele>
        <time>2014-06-19T09:54:14.566000Z</time>
      </trkpt>
      <trkpt lat="38.81718" lon="121.1478">
        <ele>50.96966</ele>
        <time>2014-06-19T09:54:17.893000Z</time>
      </trkpt>
      <trkpt lat="38.817192" lon="121.14793">
        <ele>50.556602</ele>
        <time>2014-06-19T09:54:21.220000Z</time>
      </trkpt>
      <trkpt lat="38.817238" lon="121.14805">
        <ele>50.381165</ele>
        <time>2014-06-19T09:54:24.547000Z</time>
      </trkpt>
      <trkpt lat="38.81732" lon="121.14818">
        <ele>50.353313</ele>
        <time>2014-06-19T09:54:27.874000Z</time>
      </trkpt>
      <trkpt lat="38.817413" lon="121.14827">
        <ele>50.357136</ele>
        <time>2014-06-19T09:54:31.201000Z</time>
      </trkpt>
      <trkpt lat="38.817513" lon="121.14831">
        <ele>50.453594</ele>
        <time>2014-06-19T09:54:34.528000Z</time>
      </trkpt>
      <trkpt lat="38.817616" lon="121.148315">
        <ele>50.70895</ele>
        <time>2014-06-19T09:54:37.855000Z</time>
      </trkpt>
      <trkpt lat="38.817715" lon="121.148315">
        <ele>51.047028</ele>
        <time>2014-06-19T09:54:41.182000Z</time>
      </trkpt>
      <trkpt lat="38.817825" lon="121.148315">
        <ele>51.366096</ele>
        <time>2014-06-19T09:54:44.509000Z</time>
      </trkpt>
      <trkpt lat="38.81792" lon="121.14832">
        <ele>51.583973</ele>
        <time>2014-06-19T09:54:47.836000Z</time>
      </trkpt>
      <trkpt lat="38.818035" lon="121.148315">
        <ele>51.589027</ele>
        <time>2014-06-19T09:54:51.163000Z</time>
      </trkpt>
      <trkpt lat="38.818157" lon="121.14832">
        <ele>51.33481</ele>
        <time>2014-06-19T09:54:54.490000Z</time>
      </trkpt>
      <trkpt lat="38.818253" lon="121.148346">
        <ele>50.88341</ele>
        <time>2014-06-19T09:54:57.817000Z</time>
      </trkpt>
      <trkpt lat="38.81837" lon="121.148346">
        <ele>50.272316</ele>
        <time>2014-06-19T09:55:01.144000Z</time>
      </trkpt>
      <trkpt lat="38.81847" lon="121.14832">
        <ele>49.58201</ele>
        <time>2014-06-19T09:55:04.471000Z</time>
      </trkpt>
      <trkpt lat="38.818554" lon="121.14827">
        <ele>49.44911</ele>
        <time>2014-06-19T09:55:07.798000Z</time>
      </trkpt>
      <trkpt lat="38.818653" lon="121.14816">
        <ele>50.32482</ele>
        <time>2014-06-19T09:55:11.125000Z</time>
      </trkpt>
      <trkpt lat="38.818703" lon="121.14806">
        <ele>51.556583</ele>
        <time>2014-06-19T09:55:14.452000Z</time>
      </trkpt>
      <trkpt lat="38.81875" lon="121.14793">
        <ele>52.246525</ele>
        <time>2014-06-19T09:55:17.779000Z</time>
      </trkpt>
      <trkpt lat="38.818752" lon="121.14779">
        <ele>52.03621</ele>
        <time>2014-06-19T09:55:21.106000Z</time>
      </trkpt>
      <trkpt lat="38.818726" lon="121.14765">
        <ele>51.05732</ele>
        <time>2014-06-19T09:55:24.433000Z</time>
      </trkpt>
      <trkpt lat="38.81868" lon="121.147545">
        <ele>49.77622</ele>
        <time>2014-06-19T09:55:27.760000Z</time>
      </trkpt>
      <trkpt lat="38.81859" lon="121.14743">
        <ele>48.84151</ele>
        <time>2014-06-19T09:55:31.087000Z</time>
      </trkpt>
      <trkpt lat="38.818493" lon="121.14736">
        <ele>48.696884</ele>
        <time>2014-06-19T09:55:34.414000Z</time>
      </trkpt>
      <trkpt lat="38.818405" lon="121.14732">
        <ele>49.113235</ele>
        <time>2014-06-19T09:55:37.741000Z</time>
      </trkpt>
      <trkpt lat="38.818283" lon="121.14732">
        <ele>49.17398</ele>
        <time>2014-06-19T09:55:41.068000Z</time>
      </trkpt>
      <trkpt lat="38.818176" lon="121.14733">
        <ele>48.469612</ele>
        <time>2014-06-19T09:55:44.395000Z</time>
      </trkpt>
      <trkpt lat="38.818054" lon="121.14733">
        <ele>47.958267</ele>
        <time>2014-06-19T09:55:47.722000Z</time>
      </trkpt>
      <trkpt lat="38.817944" lon="121.14733">
        <ele>48.54488</ele>
        <time>2014-06-19T09:55:51.049000Z</time>
      </trkpt>
      <trkpt lat="38.817833" lon="121.14734">
        <ele>49.800186</ele>
        <time>2014-06-19T09:55:54.376000Z</time>
      </trkpt>
      <trkpt lat="38.817715" lon="121.14733">
        <ele>50.940453</ele>
        <time>2014-06-19T09:55:57.703000Z</time>
      </trkpt>
      <trkpt lat="38.81762" lon="121.14733">
        <ele>51.321636</ele>
        <time>2014-06-19T09:56:01.030000Z</time>
      </trkpt>
      <trkpt lat="38.81751" lon="121.14735">
        <ele>50.77324</ele>
        <time>2014-06-19T09:56:04.357000Z</time>
      </trkpt>
      <trkpt lat="38.817406" lon="121.147385">
        <ele>50.058525</ele>
        <time>2014-06-19T09:56:07.684000Z</time>
      </trkpt>
      <trkpt lat="38.81731" lon="121.14745">
        <ele>49.828587</ele>
        <time>2014-06-19T09:56:11.011000Z</time>
      </trkpt>
      <trkpt lat="38.817245" lon="121.147545">
        <ele>49.91579</ele>
        <time>2014-06-19T09:56:14.338000Z</time>
      </trkpt>
      <trkpt lat="38.817204" lon="121.14766">
        <ele>49.982067</ele>
        <time>2014-06-19T09:56:17.665000Z</time>
      </trkpt>
      <trkpt lat="38.81719" lon="121.14781">
        <ele>49.83188</ele>
        <time>2014-06-19T09:56:20.992000Z</time>
      </trkpt>
      <trkpt lat="38.8172" lon="121.14796">
        <ele>49.466354</ele>
        <time>2014-06-19T09:56:24.319000Z</time>
      </trkpt>
      <trkpt lat="38.817238" lon="121.14807">
        <ele>49.172035</ele>
        <time>2014-06-19T09:56:27.646000Z</time>
      </trkpt>
      <trkpt lat="38.817295" lon="121.14818">
        <ele>49.15507</ele>
        <time>2014-06-19T09:56:30.973000Z</time>
      </trkpt>
      <trkpt lat="38.817398" lon="121.148254">
        <ele>49.3721</ele>
        <time>2014-06-19T09:56:34.300000Z</time>
      </trkpt>
      <trkpt lat="38.8175" lon="121.14829">
        <ele>50.13849</ele>
        <time>2014-06-19T09:56:37.627000Z</time>
      </trkpt>
      <trkpt lat="38.817593" lon="121.14831">
        <ele>51.626778</ele>
        <time>2014-06-19T09:56:40.954000Z</time>
      </trkpt>
      <trkpt lat="38.817703" lon="121.1483">
        <ele>53.03138</ele>
        <time>2014-06-19T09:56:44.281000Z</time>
      </trkpt>
      <trkpt lat="38.817814" lon="121.148315">
        <ele>53.742268</ele>
        <time>2014-06-19T09:56:47.608000Z</time>
      </trkpt>
      <trkpt lat="38.81791" lon="121.148315">
        <ele>53.996597</ele>
        <time>2014-06-19T09:56:50.935000Z</time>
      </trkpt>
      <trkpt lat="38.81802" lon="121.148315">
        <ele>54.196022</ele>
        <time>2014-06-19T09:56:54.262000Z</time>
      </trkpt>
      <trkpt lat="38.81812" lon="121.148315">
        <ele>54.5659</ele>
        <time>2014-06-19T09:56:57.589000Z</time>
      </trkpt>
      <trkpt lat="38.81823" lon="121.14832">
        <ele>54.98674</ele>
        <time>2014-06-19T09:57:00.916000Z</time>
      </trkpt>
      <trkpt lat="38.818348" lon="121.14833">
        <ele>55.033226</ele>
        <time>2014-06-19T09:57:04.243000Z</time>
      </trkpt>
      <trkpt lat="38.818455" lon="121.148315">
        <ele>54.063606</ele>
        <time>2014-06-19T09:57:07.570000Z</time>
      </trkpt>
      <trkpt lat="38.818542" lon="121.14827">
        <ele>51.923027</ele>
        <time>2014-06-19T09:57:10.897000Z</time>
      </trkpt>
      <trkpt lat="38.81863" lon="121.14817">
        <ele>49.653374</ele>
        <time>2014-06-19T09:57:14.224000Z</time>
      </trkpt>
      <trkpt lat="38.818687" lon="121.148056">
        <ele>48.28421</ele>
        <time>2014-06-19T09:57:17.551000Z</time>
      </trkpt>
      <trkpt lat="38.818726" lon="121.14792">
        <ele>47.74738</ele>
        <time>2014-06-19T09:57:20.878000Z</time>
      </trkpt>
      <trkpt lat="38.81874" lon="121.14778">
        <ele>47.57916</ele>
        <time>2014-06-19T09:57:24.205000Z</time>
      </trkpt>
      <trkpt lat="38.818718" lon="121.14765">
        <ele>47.527695</ele>
        <time>2014-06-19T09:57:27.532000Z</time>
      </trkpt>
      <trkpt lat="38.818665" lon="121.14756">
        <ele>47.169064</ele>
        <time>2014-06-19T09:57:30.859000Z</time>
      </trkpt>
      <trkpt lat="38.81857" lon="121.14744">
        <ele>46.242832</ele>
        <time>2014-06-19T09:57:34.186000Z</time>
      </trkpt>
      <trkpt lat="38.818474" lon="121.14737">
        <ele>45.650806</ele>
        <time>2014-06-19T09:57:37.513000Z</time>
      </trkpt>
      <trkpt lat="38.81837" lon="121.14735">
        <ele>46.127213</ele>
        <time>2014-06-19T09:57:40.840000Z</time>
      </trkpt>
      <trkpt lat="38.81825" lon="121.14734">
        <ele>46.948887</ele>
        <time>2014-06-19T09:57:44.167000Z</time>
      </trkpt>
      <trkpt lat="38.818146" lon="121.14732">
        <ele>47.31939</ele>
        <time>2014-06-19T09:57:47.494000Z</time>
      </trkpt>
      <trkpt lat="38.818035" lon="121.147316">
        <ele>47.303627</ele>
        <time>2014-06-19T09:57:50.821000Z</time>
      </trkpt>
      <trkpt lat="38.817932" lon="121.147316">
        <ele>47.186184</ele>
        <time>2014-06-19T09:57:54.148000Z</time>
      </trkpt>
      <trkpt lat="38.817814" lon="121.14731">
        <ele>47.102325</ele>
        <time>2014-06-19T09:57:57.475000Z</time>
      </trkpt>
      <trkpt lat="38.81771" lon="121.14731">
        <ele>47.0588</ele>
        <time>2014-06-19T09:58:00.802000Z</time>
      </trkpt>
      <trkpt lat="38.817585" lon="121.14731">
        <ele>47.082737</ele>
        <time>2014-06-19T09:58:04.129000Z</time>
      </trkpt>
      <trkpt lat="38.81749" lon="121.14733">
        <ele>47.71137</ele>
        <time>2014-06-19T09:58:07.456000Z</time>
      </trkpt>
      <trkpt lat="38.817375" lon="121.147385">
        <ele>49.1689</ele>
        <time>2014-06-19T09:58:10.783000Z</time>
      </trkpt>
      <trkpt lat="38.81728" lon="121.14748">
        <ele>50.32363</ele>
        <time>2014-06-19T09:58:14.110000Z</time>
      </trkpt>
      <trkpt lat="38.81721" lon="121.1476">
        <ele>50.18428</ele>
        <time>2014-06-19T09:58:17.437000Z</time>
      </trkpt>
      <trkpt lat="38.817177" lon="121.14773">
        <ele>49.299587</ele>
        <time>2014-06-19T09:58:20.764000Z</time>
      </trkpt>
      <trkpt lat="38.817173" lon="121.14787">
        <ele>48.67177</ele>
        <time>2014-06-19T09:58:24.091000Z</time>
      </trkpt>
      <trkpt lat="38.8172" lon="121.147995">
        <ele>48.632576</ele>
        <time>2014-06-19T09:58:27.418000Z</time>
      </trkpt>
      <trkpt lat="38.81725" lon="121.14811">
        <ele>48.654545</ele>
        <time>2014-06-19T09:58:30.745000Z</time>
      </trkpt>
      <trkpt lat="38.81733" lon="121.14822">
        <ele>48.265293</ele>
        <time>2014-06-19T09:58:34.072000Z</time>
      </trkpt>
      <trkpt lat="38.81742" lon="121.14828">
        <ele>48.167713</ele>
        <time>2014-06-19T09:58:37.399000Z</time>
      </trkpt>
      <trkpt lat="38.81753" lon="121.148315">
        <ele>49.1207</ele>
        <time>2014-06-19T09:58:40.726000Z</time>
      </trkpt>
      <trkpt lat="38.817642" lon="121.148315">
        <ele>50.68015</ele>
        <time>2014-06-19T09:58:44.053000Z</time>
      </trkpt>
      <trkpt lat="38.81776" lon="121.1483">
        <ele>51.839893</ele>
        <time>2014-06-19T09:58:47.380000Z</time>
      </trkpt>
      <trkpt lat="38.817863" lon="121.1483">
        <ele>51.84758</ele>
        <time>2014-06-19T09:58:50.707000Z</time>
      </trkpt>
      <trkpt lat="38.81798" lon="121.1483">
        <ele>50.81966</ele>
        <time>2014-06-19T09:58:54.034000Z</time>
      </trkpt>
      <trkpt lat="38.818092" lon="121.14831">
        <ele>49.637634</ele>
        <time>2014-06-19T09:58:57.361000Z</time>
      </trkpt>
      <trkpt lat="38.818203" lon="121.14831">
        <ele>48.857204</ele>
        <time>2014-06-19T09:59:00.688000Z</time>
      </trkpt>
      <trkpt lat="38.818306" lon="121.14831">
        <ele>48.42012</ele>
        <time>2014-06-19T09:59:04.015000Z</time>
      </trkpt>
      <trkpt lat="38.818405" lon="121.14831">
        <ele>48.460712</ele>
        <time>2014-06-19T09:59:07.342000Z</time>
      </trkpt>
      <trkpt lat="38.818504" lon="121.14828">
        <ele>49.093117</ele>
        <time>2014-06-19T09:59:10.669000Z</time>
      </trkpt>
      <trkpt lat="38.81859" lon="121.14821">
        <ele>49.910046</ele>
        <time>2014-06-19T09:59:13.996000Z</time>
      </trkpt>
      <trkpt lat="38.81866" lon="121.14811">
        <ele>50.384617</ele>
        <time>2014-06-19T09:59:17.323000Z</time>
      </trkpt>
      <trkpt lat="38.818714" lon="121.14799">
        <ele>50.520535</ele>
        <time>2014-06-19T09:59:20.650000Z</time>
      </trkpt>
      <trkpt lat="38.818737" lon="121.147835">
        <ele>50.046585</ele>
        <time>2014-06-19T09:59:23.977000Z</time>
      </trkpt>
      <trkpt lat="38.818726" lon="121.1477">
        <ele>49.367924</ele>
        <time>2014-06-19T09:59:27.304000Z</time>
      </trkpt>
      <trkpt lat="38.818684" lon="121.14757">
        <ele>49.55746</ele>
        <time>2014-06-19T09:59:30.631000Z</time>
      </trkpt>
      <trkpt lat="38.8186" lon="121.147446">
        <ele>50.6853</ele>
        <time>2014-06-19T09:59:33.958000Z</time>
      </trkpt>
      <trkpt lat="38.818512" lon="121.14738">
        <ele>51.87244</ele>
        <time>2014-06-19T09:59:37.285000Z</time>
      </trkpt>
      <trkpt lat="38.818424" lon="121.14735">
        <ele>52.358032</ele>
        <time>2014-06-19T09:59:40.612000Z</time>
      </trkpt>
      <trkpt lat="38.818314" lon="121.14734">
        <ele>51.83301</ele>
        <time>2014-06-19T09:59:43.939000Z</time>
      </trkpt>
      <trkpt lat="38.818195" lon="121.14735">
        <ele>50.864685</ele>
        <time>2014-06-19T09:59:47.266000Z</time>
      </trkpt>
      <trkpt lat="38.81809" lon="121.14735">
        <ele>50.134228</ele>
        <time>2014-06-19T09:59:50.593000Z</time>
      </trkpt>
      <trkpt lat="38.817993" lon="121.14734">
        <ele>49.778667</ele>
        <time>2014-06-19T09:59:53.920000Z</time>
      </trkpt>
      <trkpt lat="38.817875" lon="121.14734">
        <ele>49.572506</ele>
        <time>2014-06-19T09:59:57.247000Z</time>
      </trkpt>
      <trkpt lat="38.817764" lon="121.14734">
        <ele>49.26135</ele>
        <time>2014-06-19T10:00:00.574000Z</time>
      </trkpt>
      <trkpt lat="38.817673" lon="121.14733">
        <ele>48.76176</ele>
        <time>2014-06-19T10:00:03.901000Z</time>
      </trkpt>
      <trkpt lat="38.817562" lon="121.14732">
        <ele>48.172726</ele>
        <time>2014-06-19T10:00:07.228000Z</time>
      </trkpt>
      <trkpt lat="38.817455" lon="121.14735">
        <ele>47.775444</ele>
        <time>2014-06-19T10:00:10.555000Z</time>
      </trkpt>
      <trkpt lat="38.817356" lon="121.1474">
        <ele>47.767048</ele>
        <time>2014-06-19T10:00:13.882000Z</time>
      </trkpt>
      <trkpt lat="38.81727" lon="121.14748">
        <ele>48.29833</ele>
        <time>2014-06-19T10:00:17.209000Z</time>
      </trkpt>
      <trkpt lat="38.8172" lon="121.147606">
        <ele>49.09097</ele>
        <time>2014-06-19T10:00:20.536000Z</time>
      </trkpt>
      <trkpt lat="38.81717" lon="121.14776">
        <ele>49.552395</ele>
        <time>2014-06-19T10:00:23.863000Z</time>
      </trkpt>
      <trkpt lat="38.81717" lon="121.147896">
        <ele>49.49322</ele>
        <time>2014-06-19T10:00:27.190000Z</time>
      </trkpt>
      <trkpt lat="38.817204" lon="121.14801">
        <ele>49.09711</ele>
        <time>2014-06-19T10:00:30.517000Z</time>
      </trkpt>
      <trkpt lat="38.817272" lon="121.14812">
        <ele>48.53227</ele>
        <time>2014-06-19T10:00:33.844000Z</time>
      </trkpt>
      <trkpt lat="38.81735" lon="121.14822">
        <ele>48.01033</ele>
        <time>2014-06-19T10:00:37.171000Z</time>
      </trkpt>
      <trkpt lat="38.817444" lon="121.14828">
        <ele>48.35444</ele>
        <time>2014-06-19T10:00:40.498000Z</time>
      </trkpt>
      <trkpt lat="38.81755" lon="121.1483">
        <ele>49.98492</ele>
        <time>2014-06-19T10:00:43.825000Z</time>
      </trkpt>
      <trkpt lat="38.817657" lon="121.14832">
        <ele>51.817913</ele>
        <time>2014-06-19T10:00:47.152000Z</time>
      </trkpt>
      <trkpt lat="38.81776" lon="121.14833">
        <ele>52.795715</ele>
        <time>2014-06-19T10:00:50.479000Z</time>
      </trkpt>
      <trkpt lat="38.81786" lon="121.14833">
        <ele>53.052425</ele>
        <time>2014-06-19T10:00:53.806000Z</time>
      </trkpt>
      <trkpt lat="38.81797" lon="121.14833">
        <ele>53.057865</ele>
        <time>2014-06-19T10:00:57.133000Z</time>
      </trkpt>
      <trkpt lat="38.818077" lon="121.14833">
        <ele>53.05695</ele>
        <time>2014-06-19T10:01:00.460000Z</time>
      </trkpt>
      <trkpt lat="38.8182" lon="121.14834">
        <ele>52.91931</ele>
        <time>2014-06-19T10:01:03.787000Z</time>
      </trkpt>
      <trkpt lat="38.818302" lon="121.14835">
        <ele>52.135754</ele>
        <time>2014-06-19T10:01:07.114000Z</time>
      </trkpt>
      <trkpt lat="38.818413" lon="121.14834">
        <ele>50.641285</ele>
        <time>2014-06-19T10:01:10.441000Z</time>
      </trkpt>
      <trkpt lat="38.818512" lon="121.1483">
        <ele>49.52517</ele>
        <time>2014-06-19T10:01:13.768000Z</time>
      </trkpt>
      <trkpt lat="38.8186" lon="121.14824">
        <ele>49.621254</ele>
        <time>2014-06-19T10:01:17.095000Z</time>
      </trkpt>
      <trkpt lat="38.818676" lon="121.14812">
        <ele>50.352463</ele>
        <time>2014-06-19T10:01:20.422000Z</time>
      </trkpt>
      <trkpt lat="38.81871" lon="121.14797">
        <ele>51.27431</ele>
        <time>2014-06-19T10:01:23.749000Z</time>
      </trkpt>
      <trkpt lat="38.818733" lon="121.147835">
        <ele>52.488873</ele>
        <time>2014-06-19T10:01:27.076000Z</time>
      </trkpt>
      <trkpt lat="38.818733" lon="121.14769">
        <ele>53.688736</ele>
        <time>2014-06-19T10:01:30.403000Z</time>
      </trkpt>
      <trkpt lat="38.818695" lon="121.147575">
        <ele>54.368446</ele>
        <time>2014-06-19T10:01:33.730000Z</time>
      </trkpt>
      <trkpt lat="38.818604" lon="121.147446">
        <ele>54.26659</ele>
        <time>2014-06-19T10:01:37.057000Z</time>
      </trkpt>
      <trkpt lat="38.818523" lon="121.147385">
        <ele>53.21042</ele>
        <time>2014-06-19T10:01:40.384000Z</time>
      </trkpt>
      <trkpt lat="38.81842" lon="121.14735">
        <ele>51.57156</ele>
        <time>2014-06-19T10:01:43.711000Z</time>
      </trkpt>
      <trkpt lat="38.818306" lon="121.14734">
        <ele>50.206142</ele>
        <time>2014-06-19T10:01:47.038000Z</time>
      </trkpt>
      <trkpt lat="38.81819" lon="121.14734">
        <ele>49.728054</ele>
        <time>2014-06-19T10:01:50.365000Z</time>
      </trkpt>
      <trkpt lat="38.8181" lon="121.14735">
        <ele>50.199345</ele>
        <time>2014-06-19T10:01:53.692000Z</time>
      </trkpt>
      <trkpt lat="38.818005" lon="121.14735">
        <ele>51.145985</ele>
        <time>2014-06-19T10:01:57.019000Z</time>
      </trkpt>
      <trkpt lat="38.817886" lon="121.14734">
        <ele>51.799286</ele>
        <time>2014-06-19T10:02:00.346000Z</time>
      </trkpt>
      <trkpt lat="38.817783" lon="121.14733">
        <ele>51.85412</ele>
        <time>2014-06-19T10:02:03.673000Z</time>
      </trkpt>
      <trkpt lat="38.817677" lon="121.14732">
        <ele>51.619225</ele>
        <time>2014-06-19T10:02:07Z</time>
      </trkpt>
      <trkpt lat="38.81756" lon="121.14732">
        <ele>51.166973</ele>
        <time>2014-06-19T10:02:10.327000Z</time>
      </trkpt>
      <trkpt lat="38.81746" lon="121.14735">
        <ele>50.212116</ele>
        <time>2014-06-19T10:02:13.654000Z</time>
      </trkpt>
      <trkpt lat="38.817356" lon="121.14741">
        <ele>49.192406</ele>
        <time>2014-06-19T10:02:16.981000Z</time>
      </trkpt>
      <trkpt lat="38.817272" lon="121.14751">
        <ele>48.699505</ele>
        <time>2014-06-19T10:02:20.308000Z</time>
      </trkpt>
      <trkpt lat="38.81722" lon="121.14761">
        <ele>48.506866</ele>
        <time>2014-06-19T10:02:23.635000Z</time>
      </trkpt>
      <trkpt lat="38.817192" lon="121.14775">
        <ele>48.333717</ele>
        <time>2014-06-19T10:02:26.962000Z</time>
      </trkpt>
      <trkpt lat="38.81719" lon="121.14787">
        <ele>48.52494</ele>
        <time>2014-06-19T10:02:30.289000Z</time>
      </trkpt>
      <trkpt lat="38.81723" lon="121.14801">
        <ele>49.211845</ele>
        <time>2014-06-19T10:02:33.616000Z</time>
      </trkpt>
      <trkpt lat="38.8173" lon="121.148125">
        <ele>49.738136</ele>
        <time>2014-06-19T10:02:36.943000Z</time>
      </trkpt>
      <trkpt lat="38.817394" lon="121.14823">
        <ele>49.563416</ele>
        <time>2014-06-19T10:02:40.270000Z</time>
      </trkpt>
      <trkpt lat="38.8175" lon="121.14828">
        <ele>49.52848</ele>
        <time>2014-06-19T10:02:43.597000Z</time>
      </trkpt>
      <trkpt lat="38.817593" lon="121.148285">
        <ele>50.659504</ele>
        <time>2014-06-19T10:02:46.924000Z</time>
      </trkpt>
      <trkpt lat="38.817684" lon="121.14829">
        <ele>52.480457</ele>
        <time>2014-06-19T10:02:50.251000Z</time>
      </trkpt>
      <trkpt lat="38.8178" lon="121.14831">
        <ele>53.541264</ele>
        <time>2014-06-19T10:02:53.578000Z</time>
      </trkpt>
      <trkpt lat="38.81791" lon="121.14831">
        <ele>52.992294</ele>
        <time>2014-06-19T10:02:56.905000Z</time>
      </trkpt>
      <trkpt lat="38.81802" lon="121.14831">
        <ele>51.20417</ele>
        <time>2014-06-19T10:03:00.232000Z</time>
      </trkpt>
      <trkpt lat="38.81813" lon="121.14831">
        <ele>48.982357</ele>
        <time>2014-06-19T10:03:03.559000Z</time>
      </trkpt>
      <trkpt lat="38.81823" lon="121.14832">
        <ele>46.97155</ele>
        <time>2014-06-19T10:03:06.886000Z</time>
      </trkpt>
      <trkpt lat="38.81832" lon="121.14834">
        <ele>46.662674</ele>
        <time>2014-06-19T10:03:10.213000Z</time>
      </trkpt>
      <trkpt lat="38.818417" lon="121.14834">
        <ele>48.731224</ele>
        <time>2014-06-19T10:03:13.540000Z</time>
      </trkpt>
      <trkpt lat="38.818512" lon="121.148285">
        <ele>51.420624</ele>
        <time>2014-06-19T10:03:16.867000Z</time>
      </trkpt>
      <trkpt lat="38.818604" lon="121.1482">
        <ele>52.926098</ele>
        <time>2014-06-19T10:03:20.194000Z</time>
      </trkpt>
      <trkpt lat="38.81867" lon="121.14809">
        <ele>53.150875</ele>
        <time>2014-06-19T10:03:23.521000Z</time>
      </trkpt>
      <trkpt lat="38.818714" lon="121.147964">
        <ele>52.753723</ele>
        <time>2014-06-19T10:03:26.848000Z</time>
      </trkpt>
      <trkpt lat="38.818737" lon="121.147835">
        <ele>52.11909</ele>
        <time>2014-06-19T10:03:30.175000Z</time>
      </trkpt>
      <trkpt lat="38.818733" lon="121.14769">
        <ele>51.2423</ele>
        <time>2014-06-19T10:03:33.502000Z</time>
      </trkpt>
      <trkpt lat="38.818687" lon="121.14757">
        <ele>50.160896</ele>
        <time>2014-06-19T10:03:36.829000Z</time>
      </trkpt>
      <trkpt lat="38.818607" lon="121.147446">
        <ele>49.006126</ele>
        <time>2014-06-19T10:03:40.156000Z</time>
      </trkpt>
      <trkpt lat="38.81851" lon="121.14737">
        <ele>48.41587</ele>
        <time>2014-06-19T10:03:43.483000Z</time>
      </trkpt>
      <trkpt lat="38.81841" lon="121.14734">
        <ele>48.827892</ele>
        <time>2014-06-19T10:03:46.810000Z</time>
      </trkpt>
      <trkpt lat="38.81831" lon="121.14733">
        <ele>49.45582</ele>
        <time>2014-06-19T10:03:50.137000Z</time>
      </trkpt>
      <trkpt lat="38.81821" lon="121.14732">
        <ele>49.530277</ele>
        <time>2014-06-19T10:03:53.464000Z</time>
      </trkpt>
      <trkpt lat="38.81811" lon="121.14733">
        <ele>48.794296</ele>
        <time>2014-06-19T10:03:56.791000Z</time>
      </trkpt>
      <trkpt lat="38.81799" lon="121.14732">
        <ele>47.314976</ele>
        <time>2014-06-19T10:04:00.118000Z</time>
      </trkpt>
      <trkpt lat="38.817883" lon="121.147316">
        <ele>45.911407</ele>
        <time>2014-06-19T10:04:03.445000Z</time>
      </trkpt>
      <trkpt lat="38.817776" lon="121.147316">
        <ele>45.633595</ele>
        <time>2014-06-19T10:04:06.772000Z</time>
      </trkpt>
      <trkpt lat="38.81767" lon="121.147316">
        <ele>46.429928</ele>
        <time>2014-06-19T10:04:10.099000Z</time>
      </trkpt>
      <trkpt lat="38.817554" lon="121.147316">
        <ele>47.383953</ele>
        <time>2014-06-19T10:04:13.426000Z</time>
      </trkpt>
      <trkpt lat="38.817448" lon="121.14735">
        <ele>48.111305</ele>
        <time>2014-06-19T10:04:16.753000Z</time>
      </trkpt>
      <trkpt lat="38.81733" lon="121.14742">
        <ele>49.25485</ele>
        <time>2014-06-19T10:04:20.080000Z</time>
      </trkpt>
      <trkpt lat="38.817257" lon="121.147514">
        <ele>51.001328</ele>
        <time>2014-06-19T10:04:23.407000Z</time>
      </trkpt>
      <trkpt lat="38.81721" lon="121.14761">
        <ele>52.632847</ele>
        <time>2014-06-19T10:04:26.734000Z</time>
      </trkpt>
      <trkpt lat="38.817192" lon="121.14776">
        <ele>53.50953</ele>
        <time>2014-06-19T10:04:30.061000Z</time>
      </trkpt>
      <trkpt lat="38.81719" lon="121.14791">
        <ele>53.585472</ele>
        <time>2014-06-19T10:04:33.388000Z</time>
      </trkpt>
      <trkpt lat="38.817226" lon="121.148026">
        <ele>53.172737</ele>
        <time>2014-06-19T10:04:36.715000Z</time>
      </trkpt>
      <trkpt lat="38.817303" lon="121.148155">
        <ele>52.69869</ele>
        <time>2014-06-19T10:04:40.042000Z</time>
      </trkpt>
      <trkpt lat="38.81739" lon="121.14824">
        <ele>52.25279</ele>
        <time>2014-06-19T10:04:43.369000Z</time>
      </trkpt>
      <trkpt lat="38.817497" lon="121.14829">
        <ele>51.190666</ele>
        <time>2014-06-19T10:04:46.696000Z</time>
      </trkpt>
      <trkpt lat="38.817604" lon="121.14831">
        <ele>49.86975</ele>
        <time>2014-06-19T10:04:50.023000Z</time>
      </trkpt>
      <trkpt lat="38.81771" lon="121.14831">
        <ele>49.79186</ele>
        <time>2014-06-19T10:04:53.350000Z</time>
      </trkpt>
      <trkpt lat="38.817833" lon="121.14831">
        <ele>51.00706</ele>
        <time>2014-06-19T10:04:56.677000Z</time>
      </trkpt>
      <trkpt lat="38.81795" lon="121.14833">
        <ele>52.638496</ele>
        <time>2014-06-19T10:05:00.004000Z</time>
      </trkpt>
      <trkpt lat="38.818077" lon="121.14832">
        <ele>54.35067</ele>
        <time>2014-06-19T10:05:03.331000Z</time>
      </trkpt>
      <trkpt lat="38.81818" lon="121.14832">
        <ele>55.1857</ele>
        <time>2014-06-19T10:05:06.658000Z</time>
      </trkpt>
      <trkpt lat="38.818287" lon="121.14834">
        <ele>54.445904</ele>
        <time>2014-06-19T10:05:09.985000Z</time>
      </trkpt>
      <trkpt lat="38.81839" lon="121.14834">
        <ele>52.671467</ele>
        <time>2014-06-19T10:05:13.312000Z</time>
      </trkpt>
      <trkpt lat="38.818478" lon="121.148315">
        <ele>50.86152</ele>
        <time>2014-06-19T10:05:16.639000Z</time>
      </trkpt>
      <trkpt lat="38.818577" lon="121.14825">
        <ele>49.734756</ele>
        <time>2014-06-19T10:05:19.966000Z</time>
      </trkpt>
      <trkpt lat="38.81865" lon="121.14816">
        <ele>49.592567</ele>
        <time>2014-06-19T10:05:23.293000Z</time>
      </trkpt>
      <trkpt lat="38.818703" lon="121.14803">
        <ele>50.145157</ele>
        <time>2014-06-19T10:05:26.620000Z</time>
      </trkpt>
      <trkpt lat="38.818726" lon="121.147896">
        <ele>50.764805</ele>
        <time>2014-06-19T10:05:29.947000Z</time>
      </trkpt>
      <trkpt lat="38.81872" lon="121.14775">
        <ele>51.04303</ele>
        <time>2014-06-19T10:05:33.274000Z</time>
      </trkpt>
      <trkpt lat="38.81868" lon="121.14761">
        <ele>51.059353</ele>
        <time>2014-06-19T10:05:36.601000Z</time>
      </trkpt>
      <trkpt lat="38.8186" lon="121.14749">
        <ele>50.916794</ele>
        <time>2014-06-19T10:05:39.928000Z</time>
      </trkpt>
      <trkpt lat="38.8185" lon="121.147385">
        <ele>50.600327</ele>
        <time>2014-06-19T10:05:43.255000Z</time>
      </trkpt>
      <trkpt lat="38.818405" lon="121.14735">
        <ele>50.15405</ele>
        <time>2014-06-19T10:05:46.582000Z</time>
      </trkpt>
      <trkpt lat="38.818306" lon="121.14732">
        <ele>49.744675</ele>
        <time>2014-06-19T10:05:49.909000Z</time>
      </trkpt>
      <trkpt lat="38.818188" lon="121.147316">
        <ele>49.459538</ele>
        <time>2014-06-19T10:05:53.236000Z</time>
      </trkpt>
      <trkpt lat="38.818066" lon="121.147316">
        <ele>49.255272</ele>
        <time>2014-06-19T10:05:56.563000Z</time>
      </trkpt>
      <trkpt lat="38.817955" lon="121.1473">
        <ele>49.121586</ele>
        <time>2014-06-19T10:05:59.890000Z</time>
      </trkpt>
      <trkpt lat="38.81783" lon="121.1473">
        <ele>49.22311</ele>
        <time>2014-06-19T10:06:03.217000Z</time>
      </trkpt>
      <trkpt lat="38.817696" lon="121.14731">
        <ele>49.91399</ele>
        <time>2014-06-19T10:06:06.544000Z</time>
      </trkpt>
      <trkpt lat="38.817554" lon="121.14733">
        <ele>51.232986</ele>
        <time>2014-06-19T10:06:09.871000Z</time>
      </trkpt>
      <trkpt lat="38.81746" lon="121.14738">
        <ele>52.544445</ele>
        <time>2014-06-19T10:06:13.198000Z</time>
      </trkpt>
      <trkpt lat="38.817364" lon="121.14743">
        <ele>53.402805</ele>
        <time>2014-06-19T10:06:16.525000Z</time>
      </trkpt>
      <trkpt lat="38.817257" lon="121.147575">
        <ele>53.578163</ele>
        <time>2014-06-19T10:06:19.852000Z</time>
      </trkpt>
      <trkpt lat="38.817204" lon="121.14775">
        <ele>53.103233</ele>
        <time>2014-06-19T10:06:23.179000Z</time>
      </trkpt>
      <trkpt lat="38.817223" lon="121.14794">
        <ele>52.21515</ele>
        <time>2014-06-19T10:06:26.506000Z</time>
      </trkpt>
      <trkpt lat="38.81725" lon="121.148056">
        <ele>51.068188</ele>
        <time>2014-06-19T10:06:29.833000Z</time>
      </trkpt>
      <trkpt lat="38.81735" lon="121.1482">
        <ele>49.879383</ele>
        <time>2014-06-19T10:06:33.160000Z</time>
      </trkpt>
      <trkpt lat="38.81749" lon="121.14828">
        <ele>48.99469</ele>
        <time>2014-06-19T10:06:36.487000Z</time>
      </trkpt>
      <trkpt lat="38.817585" lon="121.14829">
        <ele>48.49159</ele>
        <time>2014-06-19T10:06:39.814000Z</time>
      </trkpt>
      <trkpt lat="38.81768" lon="121.14829">
        <time>2014-06-19T10:06:43.141000Z</time>
      </trkpt>
    </trkseg>
  </trk>
</gpx>