<?xml version="1.0" encoding="UTF-8"?>
<gpx xmlns="http://www.topografix.com/GPX/1/1" xmlns:gpxtpx="http://www.garmin.com/xmlschemas/TrackPointExtension/v1" xmlns:xsi="http://www.w3.org/2001/XMLSchema-instance" xsi:schemaLocation="http://www.topografix.com/GPX/1/1 http://www.topografix.com/GPX/1/1/gpx.xsd" version="1.1" creator="gpx.py -- https://github.com/tkrajina/gpxpy">
  <trk>
    <trkseg>
      <trkpt lat="38.901955" lon="111.83584">
        <ele>1421.428</ele>
        <time>2014-07-19T21:53:05.698000Z</time>
      </trkpt>
      <trkpt lat="38.901955" lon="111.83584">
        <ele>1420.1523</ele>
        <time>2014-07-19T21:53:08.836000Z</time>
      </trkpt>
      <trkpt lat="38.902103" lon="111.83578">
        <ele>1419.4177</ele>
        <time>2014-07-19T21:53:11.974000Z</time>
      </trkpt>
      <trkpt lat="38.90212" lon="111.83577">
        <ele>1420.2897</ele>
        <time>2014-07-19T21:53:15.112000Z</time>
      </trkpt>
      <trkpt lat="38.902225" lon="111.83572">
        <ele>1422.7882</ele>
        <time>2014-07-19T21:53:18.250000Z</time>
      </trkpt>
      <trkpt lat="38.902317" lon="111.83566">
        <ele>1424.7533</ele>
        <time>2014-07-19T21:53:21.388000Z</time>
      </trkpt>
      <trkpt lat="38.902412" lon="111.8356">
        <ele>1424.5059</ele>
        <time>2014-07-19T21:53:24.526000Z</time>
      </trkpt>
      <trkpt lat="38.902496" lon="111.83556">
        <ele>1422.6105</ele>
        <time>2014-07-19T21:53:27.664000Z</time>
      </trkpt>
      <trkpt lat="38.90259" lon="111.83555">
        <ele>1422.759</ele>
        <time>2014-07-19T21:53:30.802000Z</time>
      </trkpt>
      <trkpt lat="38.902645" lon="111.83566">
        <ele>1423.6368</ele>
        <time>2014-07-19T21:53:33.940000Z</time>
      </trkpt>
      <trkpt lat="38.90269" lon="111.83577">
        <ele>1424.7662</ele>
        <time>2014-07-19T21:53:37.078000Z</time>
      </trkpt>
      <trkpt lat="38.902714" lon="111.835915">
        <ele>1425.5244</ele>
        <time>2014-07-19T21:53:40.216000Z</time>
      </trkpt>
      <trkpt lat="38.902756" lon="111.83602">
        <ele>1425.934</ele>
        <time>2014-07-19T21:53:43.354000Z</time>
      </trkpt>
      <trkpt lat="38.902782" lon="111.83614">
        <ele>1426.3245</ele>
        <time>2014-07-19T21:53:46.492000Z</time>
      </trkpt>
      <trkpt lat="38.902817" lon="111.83628">
        <ele>1426.0881</ele>
        <time>2014-07-19T21:53:49.630000Z</time>
      </trkpt>
      <trkpt lat="38.902855" lon="111.836395">
        <ele>1424.5494</ele>
        <time>2014-07-19T21:53:52.768000Z</time>
      </trkpt>
      <trkpt lat="38.902893" lon="111.83652">
        <ele>1422.5642</ele>
        <time>2014-07-19T21:53:55.906000Z</time>
      </trkpt>
      <trkpt lat="38.902946" lon="111.83666">
        <ele>1421.3439</ele>
        <time>2014-07-19T21:53:59.044000Z</time>
      </trkpt>
      <trkpt lat="38.902977" lon="111.8368">
        <ele>1420.9952</ele>
        <time>2014-07-19T21:54:02.182000Z</time>
      </trkpt>
      <trkpt lat="38.903" lon="111.836914">
        <ele>1421.286</ele>
        <time>2014-07-19T21:54:05.320000Z</time>
      </trkpt>
      <trkpt lat="38.90304" lon="111.83703">
        <ele>1421.9711</ele>
        <time>2014-07-19T21:54:08.458000Z</time>
      </trkpt>
      <trkpt lat="38.903088" lon="111.83714">
        <ele>1422.3114</ele>
        <time>2014-07-19T21:54:11.596000Z</time>
      </trkpt>
      <trkpt lat="38.903122" lon="111.83725">
        <ele>1421.8579</ele>
        <time>2014-07-19T21:54:14.734000Z</time>
      </trkpt>
      <trkpt lat="38.903175" lon="111.83735">
        <ele>1421.7595</ele>
        <time>2014-07-19T21:54:17.872000Z</time>
      </trkpt>
      <trkpt lat="38.903202" lon="111.83746">
        <ele>1422.9578</ele>
        <time>2014-07-19T21:54:21.010000Z</time>
      </trkpt>
      <trkpt lat="38.903248" lon="111.83757">
        <ele>1424.0962</ele>
        <time>2014-07-19T21:54:24.148000Z</time>
      </trkpt>
      <trkpt lat="38.90329" lon="111.837685">
        <ele>1423.7253</ele>
        <time>2014-07-19T21:54:27.286000Z</time>
      </trkpt>
      <trkpt lat="38.90333" lon="111.83781">
        <ele>1422.4736</ele>
        <time>2014-07-19T21:54:30.424000Z</time>
      </trkpt>
      <trkpt lat="38.90337" lon="111.83792">
        <ele>1421.9238</ele>
        <time>2014-07-19T21:54:33.562000Z</time>
      </trkpt>
      <trkpt lat="38.90342" lon="111.83803">
        <ele>1422.7188</ele>
        <time>2014-07-19T21:54:36.700000Z</time>
      </trkpt>
      <trkpt lat="38.90347" lon="111.83816">
        <ele>1424.6407</ele>
        <time>2014-07-19T21:54:39.838000Z</time>
      </trkpt>
      <trkpt lat="38.903526" lon="111.83829">
        <ele>1427.2015</ele>
        <time>2014-07-19T21:54:42.976000Z</time>
      </trkpt>
      <trkpt lat="38.903572" lon="111.8384">
        <ele>1429.3059</ele>
        <time>2014-07-19T21:54:46.114000Z</time>
      </trkpt>
      <trkpt lat="38.903618" lon="111.838524">
        <ele>1430.0088</ele>
        <time>2014-07-19T21:54:49.252000Z</time>
      </trkpt>
      <trkpt lat="38.90366" lon="111.838646">
        <ele>1429.7454</ele>
        <time>2014-07-19T21:54:52.390000Z</time>
      </trkpt>
      <trkpt lat="38.9037" lon="111.838776">
        <ele>1429.3225</ele>
        <time>2014-07-19T21:54:55.528000Z</time>
      </trkpt>
      <trkpt lat="38.903748" lon="111.83892">
        <ele>1428.3744</ele>
        <time>2014-07-19T21:54:58.666000Z</time>
      </trkpt>
      <trkpt lat="38.903786" lon="111.839066">
        <ele>1426.2802</ele>
        <time>2014-07-19T21:55:01.804000Z</time>
      </trkpt>
      <trkpt lat="38.903816" lon="111.839195">
        <ele>1423.9083</ele>
        <time>2014-07-19T21:55:04.942000Z</time>
      </trkpt>
      <trkpt lat="38.903862" lon="111.83934">
        <ele>1423.3134</ele>
        <time>2014-07-19T21:55:08.080000Z</time>
      </trkpt>
      <trkpt lat="38.903896" lon="111.839455">
        <ele>1425.3484</ele>
        <time>2014-07-19T21:55:11.218000Z</time>
      </trkpt>
      <trkpt lat="38.90393" lon="111.83957">
        <ele>1428.4808</ele>
        <time>2014-07-19T21:55:14.356000Z</time>
      </trkpt>
      <trkpt lat="38.90397" lon="111.839676">
        <ele>1430.6046</ele>
        <time>2014-07-19T21:55:17.494000Z</time>
      </trkpt>
      <trkpt lat="38.904007" lon="111.83979">
        <ele>1431.4366</ele>
        <time>2014-07-19T21:55:20.632000Z</time>
      </trkpt>
      <trkpt lat="38.90411" lon="111.83984">
        <ele>1431.6931</ele>
        <time>2014-07-19T21:55:23.770000Z</time>
      </trkpt>
      <trkpt lat="38.904205" lon="111.83982">
        <ele>1431.0488</ele>
        <time>2014-07-19T21:55:26.908000Z</time>
      </trkpt>
      <trkpt lat="38.904312" lon="111.83978">
        <ele>1429.1432</ele>
        <time>2014-07-19T21:55:30.046000Z</time>
      </trkpt>
      <trkpt lat="38.904392" lon="111.83973">
        <ele>1427.1284</ele>
        <time>2014-07-19T21:55:33.184000Z</time>
      </trkpt>
      <trkpt lat="38.904488" lon="111.839676">
        <ele>1425.6627</ele>
        <time>2014-07-19T21:55:36.322000Z</time>
      </trkpt>
      <trkpt lat="38.904583" lon="111.83962">
        <ele>1424.2607</ele>
        <time>2014-07-19T21:55:39.460000Z</time>
      </trkpt>
      <trkpt lat="38.904675" lon="111.83957">
        <ele>1423.1567</ele>
        <time>2014-07-19T21:55:42.598000Z</time>
      </trkpt>
      <trkpt lat="38.90476" lon="111.83952">
        <ele>1422.7183</ele>
        <time>2014-07-19T21:55:45.736000Z</time>
      </trkpt>
      <trkpt lat="38.90487" lon="111.839455">
        <ele>1422.8119</ele>
        <time>2014-07-19T21:55:48.874000Z</time>
      </trkpt>
      <trkpt lat="38.90495" lon="111.8394">
        <ele>1423.2385</ele>
        <time>2014-07-19T21:55:52.012000Z</time>
      </trkpt>
      <trkpt lat="38.905033" lon="111.839355">
        <ele>1424.0107</ele>
        <time>2014-07-19T21:55:55.150000Z</time>
      </trkpt>
      <trkpt lat="38.905117" lon="111.83931">
        <ele>1425.1838</ele>
        <time>2014-07-19T21:55:58.288000Z</time>
      </trkpt>
      <trkpt lat="38.905197" lon="111.83925">
        <ele>1426.3861</ele>
        <time>2014-07-19T21:56:01.426000Z</time>
      </trkpt>
      <trkpt lat="38.90528" lon="111.839195">
        <ele>1427.1886</ele>
        <time>2014-07-19T21:56:04.564000Z</time>
      </trkpt>
      <trkpt lat="38.905365" lon="111.83915">
        <ele>1427.8529</ele>
        <time>2014-07-19T21:56:07.702000Z</time>
      </trkpt>
      <trkpt lat="38.905457" lon="111.839096">
        <ele>1428.5989</ele>
        <time>2014-07-19T21:56:10.840000Z</time>
      </trkpt>
      <trkpt lat="38.90555" lon="111.839035">
        <ele>1429.0554</ele>
        <time>2014-07-19T21:56:13.978000Z</time>
      </trkpt>
      <trkpt lat="38.90565" lon="111.839">
        <ele>1428.7946</ele>
        <time>2014-07-19T21:56:17.116000Z</time>
      </trkpt>
      <trkpt lat="38.905743" lon="111.83895">
        <ele>1427.7933</ele>
        <time>2014-07-19T21:56:20.254000Z</time>
      </trkpt>
      <trkpt lat="38.905853" lon="111.83888">
        <ele>1426.5134</ele>
        <time>2014-07-19T21:56:23.392000Z</time>
      </trkpt>
      <trkpt lat="38.905945" lon="111.83884">
        <ele>1425.6088</ele>
        <time>2014-07-19T21:56:26.530000Z</time>
      </trkpt>
      <trkpt lat="38.906036" lon="111.8388">
        <ele>1425.1223</ele>
        <time>2014-07-19T21:56:29.668000Z</time>
      </trkpt>
      <trkpt lat="38.90614" lon="111.83872">
        <ele>1424.6979</ele>
        <time>2014-07-19T21:56:32.806000Z</time>
      </trkpt>
      <trkpt lat="38.906235" lon="111.83867">
        <ele>1424.3466</ele>
        <time>2014-07-19T21:56:35.944000Z</time>
      </trkpt>
      <trkpt lat="38.906338" lon="111.83861">
        <ele>1424.3835</ele>
        <time>2014-07-19T21:56:39.082000Z</time>
      </trkpt>
      <trkpt lat="38.906437" lon="111.83856">
        <ele>1424.8456</ele>
        <time>2014-07-19T21:56:42.220000Z</time>
      </trkpt>
      <trkpt lat="38.906536" lon="111.83852">
        <ele>1425.8223</ele>
        <time>2014-07-19T21:56:45.358000Z</time>
      </trkpt>
      <trkpt lat="38.90663" lon="111.83848">
        <ele>1427.2761</ele>
        <time>2014-07-19T21:56:48.496000Z</time>
      </trkpt>
      <trkpt lat="38.90673" lon="111.838425">
        <ele>1428.0687</ele>
        <time>2014-07-19T21:56:51.634000Z</time>
      </trkpt>
      <trkpt lat="38.906837" lon="111.83836">
        <ele>1427.3524</ele>
        <time>2014-07-19T21:56:54.772000Z</time>
      </trkpt>
      <trkpt lat="38.90694" lon="111.838326">
        <ele>1425.4183</ele>
        <time>2014-07-19T21:56:57.910000Z</time>
      </trkpt>
      <trkpt lat="38.907032" lon="111.83829">
        <ele>1422.9067</ele>
        <time>2014-07-19T21:57:01.048000Z</time>
      </trkpt>
      <trkpt lat="38.90713" lon="111.838234">
        <ele>1421.2656</ele>
        <time>2014-07-19T21:57:04.186000Z</time>
      </trkpt>
      <trkpt lat="38.907227" lon="111.83818">
        <ele>1421.4412</ele>
        <time>2014-07-19T21:57:07.324000Z</time>
      </trkpt>
      <trkpt lat="38.907322" lon="111.83812">
        <ele>1422.3783</ele>
        <time>2014-07-19T21:57:10.462000Z</time>
      </trkpt>
      <trkpt lat="38.907433" lon="111.838036">
        <ele>1422.9644</ele>
        <time>2014-07-19T21:57:13.600000Z</time>
      </trkpt>
      <trkpt lat="38.90754" lon="111.83797">
        <ele>1423.0752</ele>
        <time>2014-07-19T21:57:16.738000Z</time>
      </trkpt>
      <trkpt lat="38.907635" lon="111.83791">
        <ele>1422.893</ele>
        <time>2014-07-19T21:57:19.876000Z</time>
      </trkpt>
      <trkpt lat="38.90772" lon="111.837875">
        <ele>1422.6036</ele>
        <time>2014-07-19T21:57:23.014000Z</time>
      </trkpt>
      <trkpt lat="38.907825" lon="111.83782">
        <ele>1422.8335</ele>
        <time>2014-07-19T21:57:26.152000Z</time>
      </trkpt>
      <trkpt lat="38.907913" lon="111.83777">
        <ele>1423.9161</ele>
        <time>2014-07-19T21:57:29.290000Z</time>
      </trkpt>
      <trkpt lat="38.90802" lon="111.83772">
        <ele>1425.0476</ele>
        <time>2014-07-19T21:57:32.428000Z</time>
      </trkpt>
      <trkpt lat="38.90812" lon="111.83765">
        <ele>1425.1226</ele>
        <time>2014-07-19T21:57:35.566000Z</time>
      </trkpt>
      <trkpt lat="38.908222" lon="111.83759">
        <ele>1424.0963</ele>
        <time>2014-07-19T21:57:38.704000Z</time>
      </trkpt>
      <trkpt lat="38.908337" lon="111.83753">
        <ele>1422.8629</ele>
        <time>2014-07-19T21:57:41.842000Z</time>
      </trkpt>
      <trkpt lat="38.908432" lon="111.83748">
        <ele>1422.1787</ele>
        <time>2014-07-19T21:57:44.980000Z</time>
      </trkpt>
      <trkpt lat="38.908527" lon="111.837425">
        <ele>1422.1686</ele>
        <time>2014-07-19T21:57:48.118000Z</time>
      </trkpt>
      <trkpt lat="38.908623" lon="111.83738">
        <ele>1422.9904</ele>
        <time>2014-07-19T21:57:51.256000Z</time>
      </trkpt>
      <trkpt lat="38.90873" lon="111.837326">
        <ele>1424.4147</ele>
        <time>2014-07-19T21:57:54.394000Z</time>
      </trkpt>
      <trkpt lat="38.90884" lon="111.83728">
        <ele>1425.2955</ele>
        <time>2014-07-19T21:57:57.532000Z</time>
      </trkpt>
      <trkpt lat="38.90895" lon="111.83724">
        <ele>1424.9303</ele>
        <time>2014-07-19T21:58:00.670000Z</time>
      </trkpt>
      <trkpt lat="38.909046" lon="111.837234">
        <ele>1423.9998</ele>
        <time>2014-07-19T21:58:03.808000Z</time>
      </trkpt>
      <trkpt lat="38.909103" lon="111.83732">
        <ele>1422.8945</ele>
        <time>2014-07-19T21:58:06.946000Z</time>
      </trkpt>
      <trkpt lat="38.909157" lon="111.83742">
        <ele>1421.0001</ele>
        <time>2014-07-19T21:58:10.084000Z</time>
      </trkpt>
      <trkpt lat="38.90919" lon="111.83753">
        <ele>1418.54</ele>
        <time>2014-07-19T21:58:13.222000Z</time>
      </trkpt>
      <trkpt lat="38.90924" lon="111.837654">
        <ele>1417.2549</ele>
        <time>2014-07-19T21:58:16.360000Z</time>
      </trkpt>
      <trkpt lat="38.909283" lon="111.83778">
        <ele>1418.3533</ele>
        <time>2014-07-19T21:58:19.498000Z</time>
      </trkpt>
      <trkpt lat="38.90932" lon="111.837906">
        <ele>1421.3193</ele>
        <time>2014-07-19T21:58:22.636000Z</time>
      </trkpt>
      <trkpt lat="38.90936" lon="111.83804">
        <ele>1425.0896</ele>
        <time>2014-07-19T21:58:25.774000Z</time>
      </trkpt>
      <trkpt lat="38.909397" lon="111.83818">
        <ele>1428.556</ele>
        <time>2014-07-19T21:58:28.912000Z</time>
      </trkpt>
      <trkpt lat="38.90945" lon="111.83832">
        <ele>1430.6255</ele>
        <time>2014-07-19T21:58:32.050000Z</time>
      </trkpt>
      <trkpt lat="38.909492" lon="111.83844">
        <ele>1431.2534</ele>
        <time>2014-07-19T21:58:35.188000Z</time>
      </trkpt>
      <trkpt lat="38.909542" lon="111.83859">
        <ele>1431.2462</ele>
        <time>2014-07-19T21:58:38.326000Z</time>
      </trkpt>
      <trkpt lat="38.909588" lon="111.838715">
        <ele>1431.1213</ele>
        <time>2014-07-19T21:58:41.464000Z</time>
      </trkpt>
      <trkpt lat="38.909626" lon="111.83886">
        <ele>1430.7467</ele>
        <time>2014-07-19T21:58:44.602000Z</time>
      </trkpt>
      <trkpt lat="38.909634" lon="111.83901">
        <ele>1429.8978</ele>
        <time>2014-07-19T21:58:47.740000Z</time>
      </trkpt>
      <trkpt lat="38.90965" lon="111.83916">
        <ele>1428.4606</ele>
        <time>2014-07-19T21:58:50.878000Z</time>
      </trkpt>
      <trkpt lat="38.909683" lon="111.83929">
        <ele>1427.1362</ele>
        <time>2014-07-19T21:58:54.016000Z</time>
      </trkpt>
      <trkpt lat="38.90971" lon="111.83945">
        <ele>1427.2809</ele>
        <time>2014-07-19T21:58:57.154000Z</time>
      </trkpt>
      <trkpt lat="38.909744" lon="111.83956">
        <ele>1429.2693</ele>
        <time>2014-07-19T21:59:00.292000Z</time>
      </trkpt>
      <trkpt lat="38.909786" lon="111.83969">
        <ele>1431.8342</ele>
        <time>2014-07-19T21:59:03.430000Z</time>
      </trkpt>
      <trkpt lat="38.909817" lon="111.839806">
        <ele>1432.7375</ele>
        <time>2014-07-19T21:59:06.568000Z</time>
      </trkpt>
      <trkpt lat="38.909843" lon="111.83993">
        <ele>1431.0494</ele>
        <time>2014-07-19T21:59:09.706000Z</time>
      </trkpt>
      <trkpt lat="38.90988" lon="111.84009">
        <ele>1428.6392</ele>
        <time>2014-07-19T21:59:12.844000Z</time>
      </trkpt>
      <trkpt lat="38.909924" lon="111.840195">
        <ele>1427.9491</ele>
        <time>2014-07-19T21:59:15.982000Z</time>
      </trkpt>
      <trkpt lat="38.909958" lon="111.84032">
        <ele>1428.9694</ele>
        <time>2014-07-19T21:59:19.120000Z</time>
      </trkpt>
      <trkpt lat="38.909985" lon="111.84045">
        <ele>1429.953</ele>
        <time>2014-07-19T21:59:22.258000Z</time>
      </trkpt>
      <trkpt lat="38.910015" lon="111.840576">
        <ele>1429.8158</ele>
        <time>2014-07-19T21:59:25.396000Z</time>
      </trkpt>
      <trkpt lat="38.910046" lon="111.84071">
        <ele>1428.7617</ele>
        <time>2014-07-19T21:59:28.534000Z</time>
      </trkpt>
      <trkpt lat="38.910065" lon="111.84084">
        <ele>1427.5077</ele>
        <time>2014-07-19T21:59:31.672000Z</time>
      </trkpt>
      <trkpt lat="38.910084" lon="111.841">
        <ele>1426.595</ele>
        <time>2014-07-19T21:59:34.810000Z</time>
      </trkpt>
      <trkpt lat="38.91012" lon="111.841125">
        <ele>1426.1351</ele>
        <time>2014-07-19T21:59:37.948000Z</time>
      </trkpt>
      <trkpt lat="38.91018" lon="111.84123">
        <ele>1427.1671</ele>
        <time>2014-07-19T21:59:41.086000Z</time>
      </trkpt>
      <trkpt lat="38.910255" lon="111.84137">
        <ele>1430.8142</ele>
        <time>2014-07-19T21:59:44.224000Z</time>
      </trkpt>
      <trkpt lat="38.9103" lon="111.84148">
        <ele>1436.743</ele>
        <time>2014-07-19T21:59:47.362000Z</time>
      </trkpt>
      <trkpt lat="38.910336" lon="111.84164">
        <ele>1443.0615</ele>
        <time>2014-07-19T21:59:50.500000Z</time>
      </trkpt>
      <trkpt lat="38.910366" lon="111.841774">
        <ele>1447.2612</ele>
        <time>2014-07-19T21:59:53.638000Z</time>
      </trkpt>
      <trkpt lat="38.91038" lon="111.841896">
        <ele>1448.0756</ele>
        <time>2014-07-19T21:59:56.776000Z</time>
      </trkpt>
      <trkpt lat="38.910393" lon="111.84203">
        <ele>1446.0004</ele>
        <time>2014-07-19T21:59:59.914000Z</time>
      </trkpt>
      <trkpt lat="38.9104" lon="111.842186">
        <ele>1442.6641</ele>
        <time>2014-07-19T22:00:03.052000Z</time>
      </trkpt>
      <trkpt lat="38.910454" lon="111.842316">
        <ele>1440.0538</ele>
        <time>2014-07-19T22:00:06.190000Z</time>
      </trkpt>
      <trkpt lat="38.910496" lon="111.84244">
        <ele>1439.165</ele>
        <time>2014-07-19T22:00:09.328000Z</time>
      </trkpt>
      <trkpt lat="38.910534" lon="111.84256">
        <ele>1439.7443</ele>
        <time>2014-07-19T22:00:12.466000Z</time>
      </trkpt>
      <trkpt lat="38.910572" lon="111.84268">
        <ele>1440.8652</ele>
        <time>2014-07-19T22:00:15.604000Z</time>
      </trkpt>
      <trkpt lat="38.910603" lon="111.84281">
        <ele>1441.6654</ele>
        <time>2014-07-19T22:00:18.742000Z</time>
      </trkpt>
      <trkpt lat="38.910637" lon="111.84296">
        <ele>1441.666</ele>
        <time>2014-07-19T22:00:21.880000Z</time>
      </trkpt>
      <trkpt lat="38.91067" lon="111.84308">
        <ele>1440.9164</ele>
        <time>2014-07-19T22:00:25.018000Z</time>
      </trkpt>
      <trkpt lat="38.9107" lon="111.843216">
        <ele>1440.0144</ele>
        <time>2014-07-19T22:00:28.156000Z</time>
      </trkpt>
      <trkpt lat="38.910732" lon="111.84334">
        <ele>1439.6937</ele>
        <time>2014-07-19T22:00:31.294000Z</time>
      </trkpt>
      <trkpt lat="38.91077" lon="111.843475">
        <ele>1440.1135</ele>
        <time>2014-07-19T22:00:34.432000Z</time>
      </trkpt>
      <trkpt lat="38.910812" lon="111.84361">
        <ele>1441.5013</ele>
        <time>2014-07-19T22:00:37.570000Z</time>
      </trkpt>
      <trkpt lat="38.910797" lon="111.843735">
        <ele>1443.7826</ele>
        <time>2014-07-19T22:00:40.708000Z</time>
      </trkpt>
      <trkpt lat="38.9108" lon="111.84387">
        <ele>1444.2325</ele>
        <time>2014-07-19T22:00:43.846000Z</time>
      </trkpt>
      <trkpt lat="38.91082" lon="111.84401">
        <ele>1440.5266</ele>
        <time>2014-07-19T22:00:46.984000Z</time>
      </trkpt>
      <trkpt lat="38.910847" lon="111.84413">
        <ele>1435.2213</ele>
        <time>2014-07-19T22:00:50.122000Z</time>
      </trkpt>
      <trkpt lat="38.910885" lon="111.84429">
        <ele>1431.9473</ele>
        <time>2014-07-19T22:00:53.260000Z</time>
      </trkpt>
      <trkpt lat="38.910923" lon="111.844444">
        <ele>1431.2415</ele>
        <time>2014-07-19T22:00:56.398000Z</time>
      </trkpt>
      <trkpt lat="38.910957" lon="111.84457">
        <ele>1431.945</ele>
        <time>2014-07-19T22:00:59.536000Z</time>
      </trkpt>
      <trkpt lat="38.910984" lon="111.84471">
        <ele>1432.8087</ele>
        <time>2014-07-19T22:01:02.674000Z</time>
      </trkpt>
      <trkpt lat="38.911026" lon="111.84486">
        <ele>1432.7212</ele>
        <time>2014-07-19T22:01:05.812000Z</time>
      </trkpt>
      <trkpt lat="38.91106" lon="111.84498">
        <ele>1431.3455</ele>
        <time>2014-07-19T22:01:08.950000Z</time>
      </trkpt>
      <trkpt lat="38.91109" lon="111.84511">
        <ele>1429.7284</ele>
        <time>2014-07-19T22:01:12.088000Z</time>
      </trkpt>
      <trkpt lat="38.91112" lon="111.84523">
        <ele>1428.9336</ele>
        <time>2014-07-19T22:01:15.226000Z</time>
      </trkpt>
      <trkpt lat="38.911125" lon="111.84535">
        <ele>1428.8668</ele>
        <time>2014-07-19T22:01:18.364000Z</time>
      </trkpt>
      <trkpt lat="38.91116" lon="111.8455">
        <ele>1428.9235</ele>
        <time>2014-07-19T22:01:21.502000Z</time>
      </trkpt>
      <trkpt lat="38.91119" lon="111.845665">
        <ele>1428.7635</ele>
        <time>2014-07-19T22:01:24.640000Z</time>
      </trkpt>
      <trkpt lat="38.911224" lon="111.8458">
        <ele>1428.8512</ele>
        <time>2014-07-19T22:01:27.778000Z</time>
      </trkpt>
      <trkpt lat="38.91125" lon="111.845955">
        <ele>1429.6698</ele>
        <time>2014-07-19T22:01:30.916000Z</time>
      </trkpt>
      <trkpt lat="38.911285" lon="111.8461">
        <ele>1431.4904</ele>
        <time>2014-07-19T22:01:34.054000Z</time>
      </trkpt>
      <trkpt lat="38.911324" lon="111.84625">
        <ele>1434.0956</ele>
        <time>2014-07-19T22:01:37.192000Z</time>
      </trkpt>
      <trkpt lat="38.911358" lon="111.846375">
        <ele>1436.1672</ele>
        <time>2014-07-19T22:01:40.330000Z</time>
      </trkpt>
      <trkpt lat="38.91138" lon="111.84653">
        <ele>1436.6537</ele>
        <time>2014-07-19T22:01:43.468000Z</time>
      </trkpt>
      <trkpt lat="38.911415" lon="111.84666">
        <ele>1435.3054</ele>
        <time>2014-07-19T22:01:46.606000Z</time>
      </trkpt>
      <trkpt lat="38.911446" lon="111.84679">
        <ele>1432.5427</ele>
        <time>2014-07-19T22:01:49.744000Z</time>
      </trkpt>
      <trkpt lat="38.91147" lon="111.8469">
        <ele>1429.976</ele>
        <time>2014-07-19T22:01:52.882000Z</time>
      </trkpt>
      <trkpt lat="38.911488" lon="111.84702">
        <ele>1428.1993</ele>
        <time>2014-07-19T22:01:56.020000Z</time>
      </trkpt>
      <trkpt lat="38.911522" lon="111.84717">
        <ele>1426.4838</ele>
        <time>2014-07-19T22:01:59.158000Z</time>
      </trkpt>
      <trkpt lat="38.91156" lon="111.84729">
        <ele>1425.1073</ele>
        <time>2014-07-19T22:02:02.296000Z</time>
      </trkpt>
      <trkpt lat="38.911575" lon="111.84743">
        <ele>1424.8138</ele>
        <time>2014-07-19T22:02:05.434000Z</time>
      </trkpt>
      <trkpt lat="38.91159" lon="111.847565">
        <ele>1425.4388</ele>
        <time>2014-07-19T22:02:08.572000Z</time>
      </trkpt>
      <trkpt lat="38.911617" lon="111.84771">
        <ele>1426.2349</ele>
        <time>2014-07-19T22:02:11.710000Z</time>
      </trkpt>
      <trkpt lat="38.911648" lon="111.84785">
        <ele>1426.7717</ele>
        <time>2014-07-19T22:02:14.848000Z</time>
      </trkpt>
      <trkpt lat="38.911694" lon="111.84799">
        <ele>1427.0856</ele>
        <time>2014-07-19T22:02:17.986000Z</time>
      </trkpt>
      <trkpt lat="38.911736" lon="111.84814">
        <ele>1427.2511</ele>
        <time>2014-07-19T22:02:21.124000Z</time>
      </trkpt>
      <trkpt lat="38.91177" lon="111.84828">
        <ele>1427.6074</ele>
        <time>2014-07-19T22:02:24.262000Z</time>
      </trkpt>
      <trkpt lat="38.911804" lon="111.84842">
        <ele>1428.372</ele>
        <time>2014-07-19T22:02:27.400000Z</time>
      </trkpt>
      <trkpt lat="38.911835" lon="111.84853">
        <ele>1428.9353</ele>
        <time>2014-07-19T22:02:30.538000Z</time>
      </trkpt>
      <trkpt lat="38.911865" lon="111.84868">
        <ele>1428.7643</ele>
        <time>2014-07-19T22:02:33.676000Z</time>
      </trkpt>
      <trkpt lat="38.9119" lon="111.848816">
        <ele>1428.2599</ele>
        <time>2014-07-19T22:02:36.814000Z</time>
      </trkpt>
      <trkpt lat="38.911938" lon="111.84896">
        <ele>1428.0787</ele>
        <time>2014-07-19T22:02:39.952000Z</time>
      </trkpt>
      <trkpt lat="38.91197" lon="111.84909">
        <ele>1428.36</ele>
        <time>2014-07-19T22:02:43.090000Z</time>
      </trkpt>
      <trkpt lat="38.911995" lon="111.849205">
        <ele>1428.8962</ele>
        <time>2014-07-19T22:02:46.228000Z</time>
      </trkpt>
      <trkpt lat="38.91204" lon="111.84934">
        <ele>1429.4624</ele>
        <time>2014-07-19T22:02:49.366000Z</time>
      </trkpt>
      <trkpt lat="38.91208" lon="111.84947">
        <ele>1429.8564</ele>
        <time>2014-07-19T22:02:52.504000Z</time>
      </trkpt>
      <trkpt lat="38.9121" lon="111.84961">
        <ele>1429.9277</ele>
        <time>2014-07-19T22:02:55.642000Z</time>
      </trkpt>
      <trkpt lat="38.91213" lon="111.84975">
        <ele>1429.8248</ele>
        <time>2014-07-19T22:02:58.780000Z</time>
      </trkpt>
      <trkpt lat="38.912163" lon="111.84988">
        <ele>1429.9197</ele>
        <time>2014-07-19T22:03:01.918000Z</time>
      </trkpt>
      <trkpt lat="38.912186" lon="111.85001">
        <ele>1430.3871</ele>
        <time>2014-07-19T22:03:05.056000Z</time>
      </trkpt>
      <trkpt lat="38.912205" lon="111.850136">
        <ele>1430.9626</ele>
        <time>2014-07-19T22:03:08.194000Z</time>
      </trkpt>
      <trkpt lat="38.912224" lon="111.85028">
        <ele>1431.2268</ele>
        <time>2014-07-19T22:03:11.332000Z</time>
      </trkpt>
      <trkpt lat="38.91226" lon="111.850426">
        <ele>1431.0552</ele>
        <time>2014-07-19T22:03:14.470000Z</time>
      </trkpt>
      <trkpt lat="38.912277" lon="111.85056">
        <ele>1430.7277</ele>
        <time>2014-07-19T22:03:17.608000Z</time>
      </trkpt>
      <trkpt lat="38.912308" lon="111.85068">
        <ele>1430.203</ele>
        <time>2014-07-19T22:03:20.746000Z</time>
      </trkpt>
      <trkpt lat="38.91233" lon="111.850815">
        <ele>1429.3126</ele>
        <time>2014-07-19T22:03:23.884000Z</time>
      </trkpt>
      <trkpt lat="38.912354" lon="111.85093">
        <ele>1428.4745</ele>
        <time>2014-07-19T22:03:27.022000Z</time>
      </trkpt>
      <trkpt lat="38.912384" lon="111.85106">
        <ele>1428.1195</ele>
        <time>2014-07-19T22:03:30.160000Z</time>
      </trkpt>
      <trkpt lat="38.912407" lon="111.85121">
        <ele>1427.9927</ele>
        <time>2014-07-19T22:03:33.298000Z</time>
      </trkpt>
      <trkpt lat="38.912445" lon="111.851326">
        <ele>1427.7631</ele>
        <time>2014-07-19T22:03:36.436000Z</time>
      </trkpt>
      <trkpt lat="38.91247" lon="111.85146">
        <ele>1427.423</ele>
        <time>2014-07-19T22:03:39.574000Z</time>
      </trkpt>
      <trkpt lat="38.912506" lon="111.85159">
        <ele>1427.1125</ele>
        <time>2014-07-19T22:03:42.712000Z</time>
      </trkpt>
      <trkpt lat="38.912548" lon="111.851715">
        <ele>1427.0372</ele>
        <time>2014-07-19T22:03:45.850000Z</time>
      </trkpt>
      <trkpt lat="38.912575" lon="111.851845">
        <ele>1427.5154</ele>
        <time>2014-07-19T22:03:48.988000Z</time>
      </trkpt>
      <trkpt lat="38.912605" lon="111.85199">
        <ele>1428.4347</ele>
        <time>2014-07-19T22:03:52.126000Z</time>
      </trkpt>
      <trkpt lat="38.912643" lon="111.85212">
        <ele>1429.2896</ele>
        <time>2014-07-19T22:03:55.264000Z</time>
      </trkpt>
      <trkpt lat="38.912666" lon="111.852264">
        <ele>1429.8035</ele>
        <time>2014-07-19T22:03:58.402000Z</time>
      </trkpt>
      <trkpt lat="38.91268" lon="111.85239">
        <ele>1430.0282</ele>
        <time>2014-07-19T22:04:01.540000Z</time>
      </trkpt>
      <trkpt lat="38.912712" lon="111.85253">
        <ele>1430.0658</ele>
        <time>2014-07-19T22:04:04.678000Z</time>
      </trkpt>
      <trkpt lat="38.912743" lon="111.852646">
        <ele>1429.9155</ele>
        <time>2014-07-19T22:04:07.816000Z</time>
      </trkpt>
      <trkpt lat="38.912766" lon="111.85277">
        <ele>1429.7871</ele>
        <time>2014-07-19T22:04:10.954000Z</time>
      </trkpt>
      <trkpt lat="38.912804" lon="111.852905">
        <ele>1430.0029</ele>
        <time>2014-07-19T22:04:14.092000Z</time>
      </trkpt>
      <trkpt lat="38.912834" lon="111.853035">
        <ele>1430.4092</ele>
        <time>2014-07-19T22:04:17.230000Z</time>
      </trkpt>
      <trkpt lat="38.912872" lon="111.85318">
        <ele>1430.7397</ele>
        <time>2014-07-19T22:04:20.368000Z</time>
      </trkpt>
      <trkpt lat="38.912918" lon="111.853294">
        <ele>1431.4979</ele>
        <time>2014-07-19T22:04:23.506000Z</time>
      </trkpt>
      <trkpt lat="38.91297" lon="111.85339">
        <ele>1432.9216</ele>
        <time>2014-07-19T22:04:26.644000Z</time>
      </trkpt>
      <trkpt lat="38.913033" lon="111.85352">
        <ele>1434.0594</ele>
        <time>2014-07-19T22:04:29.782000Z</time>
      </trkpt>
      <trkpt lat="38.91308" lon="111.85367">
        <ele>1434.1729</ele>
        <time>2014-07-19T22:04:32.920000Z</time>
      </trkpt>
      <trkpt lat="38.913105" lon="111.853806">
        <ele>1433.6448</ele>
        <time>2014-07-19T22:04:36.058000Z</time>
      </trkpt>
      <trkpt lat="38.913406" lon="111.85461">
        <ele>1431.0618</ele>
        <time>2014-07-19T22:04:39.196000Z</time>
      </trkpt>
      <trkpt lat="38.913406" lon="111.85461">
        <ele>1430.7145</ele>
        <time>2014-07-19T22:04:42.334000Z</time>
      </trkpt>
      <trkpt lat="38.913227" lon="111.85469">
        <ele>1430.6729</ele>
        <time>2014-07-19T22:04:45.472000Z</time>
      </trkpt>
      <trkpt lat="38.9132" lon="111.854706">
        <ele>1430.7133</ele>
        <time>2014-07-19T22:04:48.610000Z</time>
      </trkpt>
      <trkpt lat="38.913105" lon="111.85481">
        <ele>1430.671</ele>
        <time>2014-07-19T22:04:51.748000Z</time>
      </trkpt>
      <trkpt lat="38.913048" lon="111.85491">
        <ele>1430.9183</ele>
        <time>2014-07-19T22:04:54.886000Z</time>
      </trkpt>
      <trkpt lat="38.913" lon="111.85503">
        <ele>1431.4722</ele>
        <time>2014-07-19T22:04:58.024000Z</time>
      </trkpt>
      <trkpt lat="38.912945" lon="111.85513">
        <ele>1431.8851</ele>
        <time>2014-07-19T22:05:01.162000Z</time>
      </trkpt>
      <trkpt lat="38.91289" lon="111.855255">
        <ele>1432.1594</ele>
        <time>2014-07-19T22:05:04.300000Z</time>
      </trkpt>
      <trkpt lat="38.912838" lon="111.85538">
        <ele>1432.429</ele>
        <time>2014-07-19T22:05:07.438000Z</time>
      </trkpt>
      <trkpt lat="38.912785" lon="111.8555">
        <ele>1432.777</ele>
        <time>2014-07-19T22:05:10.576000Z</time>
      </trkpt>
      <trkpt lat="38.91274" lon="111.85561">
        <ele>1433.1459</ele>
        <time>2014-07-19T22:05:13.714000Z</time>
      </trkpt>
      <trkpt lat="38.91268" lon="111.855736">
        <ele>1433.6029</ele>
        <time>2014-07-19T22:05:16.852000Z</time>
      </trkpt>
      <trkpt lat="38.91263" lon="111.85584">
        <ele>1434.2396</ele>
        <time>2014-07-19T22:05:19.990000Z</time>
      </trkpt>
      <trkpt lat="38.912586" lon="111.85595">
        <ele>1434.7446</ele>
        <time>2014-07-19T22:05:23.128000Z</time>
      </trkpt>
      <trkpt lat="38.912537" lon="111.85606">
        <ele>1434.8134</ele>
        <time>2014-07-19T22:05:26.266000Z</time>
      </trkpt>
      <trkpt lat="38.912483" lon="111.856186">
        <ele>1434.4792</ele>
        <time>2014-07-19T22:05:29.404000Z</time>
      </trkpt>
      <trkpt lat="38.91243" lon="111.85631">
        <ele>1433.7755</ele>
        <time>2014-07-19T22:05:32.542000Z</time>
      </trkpt>
      <trkpt lat="38.91238" lon="111.85642">
        <ele>1432.9287</ele>
        <time>2014-07-19T22:05:35.680000Z</time>
      </trkpt>
      <trkpt lat="38.912334" lon="111.856544">
        <ele>1432.4795</ele>
        <time>2014-07-19T22:05:38.818000Z</time>
      </trkpt>
      <trkpt lat="38.91228" lon="111.85666">
        <ele>1433.0916</ele>
        <time>2014-07-19T22:05:41.956000Z</time>
      </trkpt>
      <trkpt lat="38.912228" lon="111.85679">
        <ele>1434.3636</ele>
        <time>2014-07-19T22:05:45.094000Z</time>
      </trkpt>
      <trkpt lat="38.912174" lon="111.85691">
        <ele>1435.0476</ele>
        <time>2014-07-19T22:05:48.232000Z</time>
      </trkpt>
      <trkpt lat="38.91213" lon="111.85702">
        <ele>1434.9075</ele>
        <time>2014-07-19T22:05:51.370000Z</time>
      </trkpt>
      <trkpt lat="38.912086" lon="111.85713">
        <ele>1434.6377</ele>
        <time>2014-07-19T22:05:54.508000Z</time>
      </trkpt>
      <trkpt lat="38.91204" lon="111.85725">
        <ele>1434.6438</ele>
        <time>2014-07-19T22:05:57.646000Z</time>
      </trkpt>
      <trkpt lat="38.911987" lon="111.85735">
        <ele>1435.3176</ele>
        <time>2014-07-19T22:06:00.784000Z</time>
      </trkpt>
      <trkpt lat="38.91194" lon="111.85747">
        <ele>1436.6056</ele>
        <time>2014-07-19T22:06:03.922000Z</time>
      </trkpt>
      <trkpt lat="38.9119" lon="111.857574">
        <ele>1437.7773</ele>
        <time>2014-07-19T22:06:07.060000Z</time>
      </trkpt>
      <trkpt lat="38.911858" lon="111.85768">
        <ele>1438.4589</ele>
        <time>2014-07-19T22:06:10.198000Z</time>
      </trkpt>
      <trkpt lat="38.91181" lon="111.85779">
        <ele>1438.9231</ele>
        <time>2014-07-19T22:06:13.336000Z</time>
      </trkpt>
      <trkpt lat="38.91176" lon="111.8579">
        <ele>1439.2716</ele>
        <time>2014-07-19T22:06:16.474000Z</time>
      </trkpt>
      <trkpt lat="38.9117" lon="111.85803">
        <ele>1439.3906</ele>
        <time>2014-07-19T22:06:19.612000Z</time>
      </trkpt>
      <trkpt lat="38.911655" lon="111.85814">
        <ele>1439.3118</ele>
        <time>2014-07-19T22:06:22.750000Z</time>
      </trkpt>
      <trkpt lat="38.911606" lon="111.85825">
        <ele>1438.9576</ele>
        <time>2014-07-19T22:06:25.888000Z</time>
      </trkpt>
      <trkpt lat="38.91156" lon="111.858376">
        <ele>1438.6497</ele>
        <time>2014-07-19T22:06:29.026000Z</time>
      </trkpt>
      <trkpt lat="38.91151" lon="111.858475">
        <ele>1438.6562</ele>
        <time>2014-07-19T22:06:32.164000Z</time>
      </trkpt>
      <trkpt lat="38.91147" lon="111.85858">
        <ele>1438.7769</ele>
        <time>2014-07-19T22:06:35.302000Z</time>
      </trkpt>
      <trkpt lat="38.911427" lon="111.85869">
        <ele>1438.9683</ele>
        <time>2014-07-19T22:06:38.440000Z</time>
      </trkpt>
      <trkpt lat="38.911385" lon="111.8588">
        <ele>1439.5531</ele>
        <time>2014-07-19T22:06:41.578000Z</time>
      </trkpt>
      <trkpt lat="38.91134" lon="111.85892">
        <ele>1440.4285</ele>
        <time>2014-07-19T22:06:44.716000Z</time>
      </trkpt>
      <trkpt lat="38.911297" lon="111.859024">
        <ele>1441.0579</ele>
        <time>2014-07-19T22:06:47.854000Z</time>
      </trkpt>
      <trkpt lat="38.91125" lon="111.85913">
        <ele>1441.0468</ele>
        <time>2014-07-19T22:06:50.992000Z</time>
      </trkpt>
      <trkpt lat="38.911194" lon="111.859245">
        <ele>1440.7323</ele>
        <time>2014-07-19T22:06:54.130000Z</time>
      </trkpt>
      <trkpt lat="38.911144" lon="111.859344">
        <ele>1440.3937</ele>
        <time>2014-07-19T22:06:57.268000Z</time>
      </trkpt>
      <trkpt lat="38.911102" lon="111.85946">
        <ele>1440.0336</ele>
        <time>2014-07-19T22:07:00.406000Z</time>
      </trkpt>
      <trkpt lat="38.91104" lon="111.85957">
        <ele>1439.9141</ele>
        <time>2014-07-19T22:07:03.544000Z</time>
      </trkpt>
      <trkpt lat="38.911" lon="111.85968">
        <ele>1440.2515</ele>
        <time>2014-07-19T22:07:06.682000Z</time>
      </trkpt>
      <trkpt lat="38.91096" lon="111.859795">
        <ele>1440.751</ele>
        <time>2014-07-19T22:07:09.820000Z</time>
      </trkpt>
      <trkpt lat="38.910915" lon="111.8599">
        <ele>1441.0929</ele>
        <time>2014-07-19T22:07:12.958000Z</time>
      </trkpt>
      <trkpt lat="38.91087" lon="111.86">
        <ele>1441.3281</ele>
        <time>2014-07-19T22:07:16.096000Z</time>
      </trkpt>
      <trkpt lat="38.910824" lon="111.86011">
        <ele>1441.5474</ele>
        <time>2014-07-19T22:07:19.234000Z</time>
      </trkpt>
      <trkpt lat="38.91077" lon="111.86022">
        <ele>1441.7614</ele>
        <time>2014-07-19T22:07:22.372000Z</time>
      </trkpt>
      <trkpt lat="38.910725" lon="111.86032">
        <ele>1442.105</ele>
        <time>2014-07-19T22:07:25.510000Z</time>
      </trkpt>
      <trkpt lat="38.91066" lon="111.86046">
        <ele>1442.612</ele>
        <time>2014-07-19T22:07:28.648000Z</time>
      </trkpt>
      <trkpt lat="38.910606" lon="111.86058">
        <ele>1442.8862</ele>
        <time>2014-07-19T22:07:31.786000Z</time>
      </trkpt>
      <trkpt lat="38.91057" lon="111.86069">
        <ele>1442.6805</ele>
        <time>2014-07-19T22:07:34.924000Z</time>
      </trkpt>
      <trkpt lat="38.910522" lon="111.860794">
        <ele>1442.5361</ele>
        <time>2014-07-19T22:07:38.062000Z</time>
      </trkpt>
      <trkpt lat="38.910477" lon="111.86091">
        <ele>1442.9976</ele>
        <time>2014-07-19T22:07:41.200000Z</time>
      </trkpt>
      <trkpt lat="38.91043" lon="111.861015">
        <ele>1443.6868</ele>
        <time>2014-07-19T22:07:44.338000Z</time>
      </trkpt>
      <trkpt lat="38.910366" lon="111.861145">
        <ele>1444.0729</ele>
        <time>2014-07-19T22:07:47.476000Z</time>
      </trkpt>
      <trkpt lat="38.91031" lon="111.861275">
        <ele>1444.184</ele>
        <time>2014-07-19T22:07:50.614000Z</time>
      </trkpt>
      <trkpt lat="38.910263" lon="111.8614">
        <ele>1444.2008</ele>
        <time>2014-07-19T22:07:53.752000Z</time>
      </trkpt>
      <trkpt lat="38.91021" lon="111.86149">
        <ele>1444.1776</ele>
        <time>2014-07-19T22:07:56.890000Z</time>
      </trkpt>
      <trkpt lat="38.91016" lon="111.86161">
        <ele>1443.9651</ele>
        <time>2014-07-19T22:08:00.028000Z</time>
      </trkpt>
      <trkpt lat="38.910103" lon="111.861725">
        <ele>1443.4757</ele>
        <time>2014-07-19T22:08:03.166000Z</time>
      </trkpt>
      <trkpt lat="38.91005" lon="111.86183">
        <ele>1443.0321</ele>
        <time>2014-07-19T22:08:06.304000Z</time>
      </trkpt>
      <trkpt lat="38.90998" lon="111.861946">
        <ele>1443.094</ele>
        <time>2014-07-19T22:08:09.442000Z</time>
      </trkpt>
      <trkpt lat="38.909927" lon="111.86205">
        <ele>1443.7821</ele>
        <time>2014-07-19T22:08:12.580000Z</time>
      </trkpt>
      <trkpt lat="38.909878" lon="111.86217">
        <ele>1444.6932</ele>
        <time>2014-07-19T22:08:15.718000Z</time>
      </trkpt>
      <trkpt lat="38.90982" lon="111.86227">
        <ele>1445.3314</ele>
        <time>2014-07-19T22:08:18.856000Z</time>
      </trkpt>
      <trkpt lat="38.90976" lon="111.86239">
        <ele>1445.7944</ele>
        <time>2014-07-19T22:08:21.994000Z</time>
      </trkpt>
      <trkpt lat="38.909702" lon="111.862495">
        <ele>1446.3247</ele>
        <time>2014-07-19T22:08:25.132000Z</time>
      </trkpt>
      <trkpt lat="38.90964" lon="111.8626">
        <ele>1446.6958</ele>
        <time>2014-07-19T22:08:28.270000Z</time>
      </trkpt>
      <trkpt lat="38.90959" lon="111.86271">
        <ele>1446.2905</ele>
        <time>2014-07-19T22:08:31.408000Z</time>
      </trkpt>
      <trkpt lat="38.909546" lon="111.86281">
        <ele>1445.0695</ele>
        <time>2014-07-19T22:08:34.546000Z</time>
      </trkpt>
      <trkpt lat="38.90949" lon="111.86292">
        <ele>1444.0289</ele>
        <time>2014-07-19T22:08:37.684000Z</time>
      </trkpt>
      <trkpt lat="38.90944" lon="111.86302">
        <ele>1443.982</ele>
        <time>2014-07-19T22:08:40.822000Z</time>
      </trkpt>
      <trkpt lat="38.90938" lon="111.86314">
        <ele>1444.6036</ele>
        <time>2014-07-19T22:08:43.960000Z</time>
      </trkpt>
      <trkpt lat="38.90933" lon="111.86323">
        <ele>1445.2521</ele>
        <time>2014-07-19T22:08:47.098000Z</time>
      </trkpt>
      <trkpt lat="38.909275" lon="111.86334">
        <ele>1445.7096</ele>
        <time>2014-07-19T22:08:50.236000Z</time>
      </trkpt>
      <trkpt lat="38.90921" lon="111.863464">
        <ele>1446.1934</ele>
        <time>2014-07-19T22:08:53.374000Z</time>
      </trkpt>
      <trkpt lat="38.90915" lon="111.86357">
        <ele>1447.0063</ele>
        <time>2014-07-19T22:08:56.512000Z</time>
      </trkpt>
      <trkpt lat="38.9091" lon="111.86368">
        <ele>1448.0244</ele>
        <time>2014-07-19T22:08:59.650000Z</time>
      </trkpt>
      <trkpt lat="38.90904" lon="111.86379">
        <ele>1448.3397</ele>
        <time>2014-07-19T22:09:02.788000Z</time>
      </trkpt>
      <trkpt lat="38.90898" lon="111.863884">
        <ele>1447.4937</ele>
        <time>2014-07-19T22:09:05.926000Z</time>
      </trkpt>
      <trkpt lat="38.908924" lon="111.864">
        <ele>1446.5338</ele>
        <time>2014-07-19T22:09:09.064000Z</time>
      </trkpt>
      <trkpt lat="38.908875" lon="111.86411">
        <ele>1446.5349</ele>
        <time>2014-07-19T22:09:12.202000Z</time>
      </trkpt>
      <trkpt lat="38.90882" lon="111.86422">
        <ele>1447.1288</ele>
        <time>2014-07-19T22:09:15.340000Z</time>
      </trkpt>
      <trkpt lat="38.90877" lon="111.86431">
        <ele>1447.5173</ele>
        <time>2014-07-19T22:09:18.478000Z</time>
      </trkpt>
      <trkpt lat="38.908722" lon="111.86441">
        <ele>1447.5519</ele>
        <time>2014-07-19T22:09:21.616000Z</time>
      </trkpt>
      <trkpt lat="38.90866" lon="111.864525">
        <ele>1447.6069</ele>
        <time>2014-07-19T22:09:24.754000Z</time>
      </trkpt>
      <trkpt lat="38.908592" lon="111.86463">
        <ele>1447.9473</ele>
        <time>2014-07-19T22:09:27.892000Z</time>
      </trkpt>
      <trkpt lat="38.9085" lon="111.864716">
        <ele>1448.7322</ele>
        <time>2014-07-19T22:09:31.030000Z</time>
      </trkpt>
      <trkpt lat="38.908413" lon="111.86467">
        <ele>1449.4332</ele>
        <time>2014-07-19T22:09:34.168000Z</time>
      </trkpt>
      <trkpt lat="38.908413" lon="111.86467">
        <ele>1448.978</ele>
        <time>2014-07-19T22:09:37.306000Z</time>
      </trkpt>
      <trkpt lat="38.908413" lon="111.86467">
        <ele>1448.66</ele>
        <time>2014-07-19T22:09:40.444000Z</time>
      </trkpt>
      <trkpt lat="38.908386" lon="111.86458">
        <ele>1448.2386</ele>
        <time>2014-07-19T22:09:43.582000Z</time>
      </trkpt>
      <trkpt lat="38.908337" lon="111.864456">
        <ele>1447.1116</ele>
        <time>2014-07-19T22:09:46.720000Z</time>
      </trkpt>
      <trkpt lat="38.90829" lon="111.86435">
        <ele>1446.987</ele>
        <time>2014-07-19T22:09:49.858000Z</time>
      </trkpt>
      <trkpt lat="38.908226" lon="111.86423">
        <ele>1447.8121</ele>
        <time>2014-07-19T22:09:52.996000Z</time>
      </trkpt>
      <trkpt lat="38.908188" lon="111.86412">
        <ele>1449.1884</ele>
        <time>2014-07-19T22:09:56.134000Z</time>
      </trkpt>
      <trkpt lat="38.90815" lon="111.86401">
        <ele>1450.5553</ele>
        <time>2014-07-19T22:09:59.272000Z</time>
      </trkpt>
      <trkpt lat="38.9081" lon="111.863884">
        <ele>1451.6593</ele>
        <time>2014-07-19T22:10:02.410000Z</time>
      </trkpt>
      <trkpt lat="38.908035" lon="111.86376">
        <ele>1451.9644</ele>
        <time>2014-07-19T22:10:05.548000Z</time>
      </trkpt>
      <trkpt lat="38.907986" lon="111.86366">
        <ele>1451.2949</ele>
        <time>2014-07-19T22:10:08.686000Z</time>
      </trkpt>
      <trkpt lat="38.907936" lon="111.86353">
        <ele>1450.4991</ele>
        <time>2014-07-19T22:10:11.824000Z</time>
      </trkpt>
      <trkpt lat="38.907887" lon="111.86342">
        <ele>1450.352</ele>
        <time>2014-07-19T22:10:14.962000Z</time>
      </trkpt>
      <trkpt lat="38.907833" lon="111.86328">
        <ele>1450.6268</ele>
        <time>2014-07-19T22:10:18.100000Z</time>
      </trkpt>
      <trkpt lat="38.907772" lon="111.86317">
        <ele>1450.8583</ele>
        <time>2014-07-19T22:10:21.238000Z</time>
      </trkpt>
      <trkpt lat="38.907722" lon="111.863045">
        <ele>1450.9557</ele>
        <time>2014-07-19T22:10:24.376000Z</time>
      </trkpt>
      <trkpt lat="38.907684" lon="111.86294">
        <ele>1450.9946</ele>
        <time>2014-07-19T22:10:27.514000Z</time>
      </trkpt>
      <trkpt lat="38.90764" lon="111.86281">
        <ele>1451.1079</ele>
        <time>2014-07-19T22:10:30.652000Z</time>
      </trkpt>
      <trkpt lat="38.9076" lon="111.86269">
        <ele>1451.449</ele>
        <time>2014-07-19T22:10:33.790000Z</time>
      </trkpt>
      <trkpt lat="38.907555" lon="111.86257">
        <ele>1451.8954</ele>
        <time>2014-07-19T22:10:36.928000Z</time>
      </trkpt>
      <trkpt lat="38.90751" lon="111.86245">
        <ele>1452.0217</ele>
        <time>2014-07-19T22:10:40.066000Z</time>
      </trkpt>
      <trkpt lat="38.90747" lon="111.86234">
        <ele>1451.6711</ele>
        <time>2014-07-19T22:10:43.204000Z</time>
      </trkpt>
      <trkpt lat="38.90742" lon="111.862236">
        <ele>1451.1128</ele>
        <time>2014-07-19T22:10:46.342000Z</time>
      </trkpt>
      <trkpt lat="38.907375" lon="111.86213">
        <ele>1450.8436</ele>
        <time>2014-07-19T22:10:49.480000Z</time>
      </trkpt>
      <trkpt lat="38.90732" lon="111.86199">
        <ele>1451.2719</ele>
        <time>2014-07-19T22:10:52.618000Z</time>
      </trkpt>
      <trkpt lat="38.907265" lon="111.86187">
        <ele>1452.2909</ele>
        <time>2014-07-19T22:10:55.756000Z</time>
      </trkpt>
      <trkpt lat="38.907192" lon="111.861755">
        <ele>1453.3351</ele>
        <time>2014-07-19T22:10:58.894000Z</time>
      </trkpt>
      <trkpt lat="38.90714" lon="111.86165">
        <ele>1454.0167</ele>
        <time>2014-07-19T22:11:02.032000Z</time>
      </trkpt>
      <trkpt lat="38.907074" lon="111.861534">
        <ele>1454.134</ele>
        <time>2014-07-19T22:11:05.170000Z</time>
      </trkpt>
      <trkpt lat="38.907005" lon="111.861435">
        <ele>1453.6273</ele>
        <time>2014-07-19T22:11:08.308000Z</time>
      </trkpt>
      <trkpt lat="38.906937" lon="111.861336">
        <ele>1452.6782</ele>
        <time>2014-07-19T22:11:11.446000Z</time>
      </trkpt>
      <trkpt lat="38.906853" lon="111.86124">
        <ele>1451.297</ele>
        <time>2014-07-19T22:11:14.584000Z</time>
      </trkpt>
      <trkpt lat="38.906765" lon="111.86116">
        <ele>1449.5905</ele>
        <time>2014-07-19T22:11:17.722000Z</time>
      </trkpt>
      <trkpt lat="38.906677" lon="111.861084">
        <ele>1448.2341</ele>
        <time>2014-07-19T22:11:20.860000Z</time>
      </trkpt>
      <trkpt lat="38.90659" lon="111.86101">
        <ele>1447.8827</ele>
        <time>2014-07-19T22:11:23.998000Z</time>
      </trkpt>
      <trkpt lat="38.906506" lon="111.86094">
        <ele>1448.4108</ele>
        <time>2014-07-19T22:11:27.136000Z</time>
      </trkpt>
      <trkpt lat="38.906414" lon="111.86086">
        <ele>1449.4656</ele>
        <time>2014-07-19T22:11:30.274000Z</time>
      </trkpt>
      <trkpt lat="38.906315" lon="111.860794">
        <ele>1450.3947</ele>
        <time>2014-07-19T22:11:33.412000Z</time>
      </trkpt>
      <trkpt lat="38.90622" lon="111.86074">
        <ele>1450.3785</ele>
        <time>2014-07-19T22:11:36.550000Z</time>
      </trkpt>
      <trkpt lat="38.90612" lon="111.860695">
        <ele>1449.5177</ele>
        <time>2014-07-19T22:11:39.688000Z</time>
      </trkpt>
      <trkpt lat="38.90602" lon="111.860664">
        <ele>1449.223</ele>
        <time>2014-07-19T22:11:42.826000Z</time>
      </trkpt>
      <trkpt lat="38.905922" lon="111.86064">
        <ele>1450.7158</ele>
        <time>2014-07-19T22:11:45.964000Z</time>
      </trkpt>
      <trkpt lat="38.905827" lon="111.8606">
        <ele>1453.5326</ele>
        <time>2014-07-19T22:11:49.102000Z</time>
      </trkpt>
      <trkpt lat="38.90571" lon="111.86056">
        <ele>1455.9425</ele>
        <time>2014-07-19T22:11:52.240000Z</time>
      </trkpt>
      <trkpt lat="38.905605" lon="111.86055">
        <ele>1456.8625</ele>
        <time>2014-07-19T22:11:55.378000Z</time>
      </trkpt>
      <trkpt lat="38.905518" lon="111.860504">
        <ele>1456.5416</ele>
        <time>2014-07-19T22:11:58.516000Z</time>
      </trkpt>
      <trkpt lat="38.905426" lon="111.86047">
        <ele>1455.4221</ele>
        <time>2014-07-19T22:12:01.654000Z</time>
      </trkpt>
      <trkpt lat="38.90533" lon="111.86045">
        <ele>1453.857</ele>
        <time>2014-07-19T22:12:04.792000Z</time>
      </trkpt>
      <trkpt lat="38.905224" lon="111.8604">
        <ele>1452.5592</ele>
        <time>2014-07-19T22:12:07.930000Z</time>
      </trkpt>
      <trkpt lat="38.905136" lon="111.860344">
        <ele>1451.923</ele>
        <time>2014-07-19T22:12:11.068000Z</time>
      </trkpt>
      <trkpt lat="38.90504" lon="111.860275">
        <ele>1451.3406</ele>
        <time>2014-07-19T22:12:14.206000Z</time>
      </trkpt>
      <trkpt lat="38.904953" lon="111.86021">
        <ele>1450.4645</ele>
        <time>2014-07-19T22:12:17.344000Z</time>
      </trkpt>
      <trkpt lat="38.904873" lon="111.86012">
        <ele>1449.9604</ele>
        <time>2014-07-19T22:12:20.482000Z</time>
      </trkpt>
      <trkpt lat="38.9048" lon="111.86003">
        <ele>1450.3876</ele>
        <time>2014-07-19T22:12:23.620000Z</time>
      </trkpt>
      <trkpt lat="38.904736" lon="111.85995">
        <ele>1451.2372</ele>
        <time>2014-07-19T22:12:26.758000Z</time>
      </trkpt>
      <trkpt lat="38.904686" lon="111.85985">
        <ele>1451.8186</ele>
        <time>2014-07-19T22:12:29.896000Z</time>
      </trkpt>
      <trkpt lat="38.904625" lon="111.859726">
        <ele>1451.7488</ele>
        <time>2014-07-19T22:12:33.034000Z</time>
      </trkpt>
      <trkpt lat="38.904587" lon="111.85959">
        <ele>1451.0396</ele>
        <time>2014-07-19T22:12:36.172000Z</time>
      </trkpt>
      <trkpt lat="38.904556" lon="111.85945">
        <ele>1450.261</ele>
        <time>2014-07-19T22:12:39.310000Z</time>
      </trkpt>
      <trkpt lat="38.904526" lon="111.85931">
        <ele>1449.8925</ele>
        <time>2014-07-19T22:12:42.448000Z</time>
      </trkpt>
      <trkpt lat="38.904503" lon="111.85918">
        <ele>1449.8656</ele>
        <time>2014-07-19T22:12:45.586000Z</time>
      </trkpt>
      <trkpt lat="38.904507" lon="111.85905">
        <ele>1450.2253</ele>
        <time>2014-07-19T22:12:48.724000Z</time>
      </trkpt>
      <trkpt lat="38.904507" lon="111.858894">
        <ele>1451.2465</ele>
        <time>2014-07-19T22:12:51.862000Z</time>
      </trkpt>
      <trkpt lat="38.9045" lon="111.858765">
        <ele>1452.5079</ele>
        <time>2014-07-19T22:12:55Z</time>
      </trkpt>
      <trkpt lat="38.9045" lon="111.85862">
        <ele>1453.1505</ele>
        <time>2014-07-19T22:12:58.138000Z</time>
      </trkpt>
      <trkpt lat="38.904522" lon="111.85848">
        <ele>1453.1238</ele>
        <time>2014-07-19T22:13:01.276000Z</time>
      </trkpt>
      <trkpt lat="38.904526" lon="111.858345">
        <ele>1452.8715</ele>
        <time>2014-07-19T22:13:04.414000Z</time>
      </trkpt>
      <trkpt lat="38.904533" lon="111.85821">
        <ele>1452.4366</ele>
        <time>2014-07-19T22:13:07.552000Z</time>
      </trkpt>
      <trkpt lat="38.90454" lon="111.858055">
        <ele>1451.8333</ele>
        <time>2014-07-19T22:13:10.690000Z</time>
      </trkpt>
      <trkpt lat="38.904552" lon="111.857895">
        <ele>1451.4636</ele>
        <time>2014-07-19T22:13:13.828000Z</time>
      </trkpt>
      <trkpt lat="38.904556" lon="111.85773">
        <ele>1451.5835</ele>
        <time>2014-07-19T22:13:16.966000Z</time>
      </trkpt>
      <trkpt lat="38.904568" lon="111.8576">
        <ele>1451.426</ele>
        <time>2014-07-19T22:13:20.104000Z</time>
      </trkpt>
      <trkpt lat="38.904583" lon="111.85745">
        <ele>1450.1865</ele>
        <time>2014-07-19T22:13:23.242000Z</time>
      </trkpt>
      <trkpt lat="38.9046" lon="111.857315">
        <ele>1448.4403</ele>
        <time>2014-07-19T22:13:26.380000Z</time>
      </trkpt>
      <trkpt lat="38.90461" lon="111.85718">
        <ele>1447.1875</ele>
        <time>2014-07-19T22:13:29.518000Z</time>
      </trkpt>
      <trkpt lat="38.90462" lon="111.85705">
        <ele>1446.786</ele>
        <time>2014-07-19T22:13:32.656000Z</time>
      </trkpt>
      <trkpt lat="38.904636" lon="111.85692">
        <ele>1447.0248</ele>
        <time>2014-07-19T22:13:35.794000Z</time>
      </trkpt>
      <trkpt lat="38.904655" lon="111.8568">
        <ele>1447.549</ele>
        <time>2014-07-19T22:13:38.932000Z</time>
      </trkpt>
      <trkpt lat="38.904667" lon="111.85667">
        <ele>1447.9596</ele>
        <time>2014-07-19T22:13:42.070000Z</time>
      </trkpt>
      <trkpt lat="38.90468" lon="111.856514">
        <ele>1447.9081</ele>
        <time>2014-07-19T22:13:45.208000Z</time>
      </trkpt>
      <trkpt lat="38.904694" lon="111.8564">
        <ele>1447.4226</ele>
        <time>2014-07-19T22:13:48.346000Z</time>
      </trkpt>
      <trkpt lat="38.904697" lon="111.856255">
        <ele>1446.9255</ele>
        <time>2014-07-19T22:13:51.484000Z</time>
      </trkpt>
      <trkpt lat="38.904705" lon="111.85611">
        <ele>1446.7848</ele>
        <time>2014-07-19T22:13:54.622000Z</time>
      </trkpt>
      <trkpt lat="38.9047" lon="111.855965">
        <ele>1447.1205</ele>
        <time>2014-07-19T22:13:57.760000Z</time>
      </trkpt>
      <trkpt lat="38.90471" lon="111.85582">
        <ele>1447.2938</ele>
        <time>2014-07-19T22:14:00.898000Z</time>
      </trkpt>
      <trkpt lat="38.90473" lon="111.855675">
        <ele>1446.8076</ele>
        <time>2014-07-19T22:14:04.036000Z</time>
      </trkpt>
      <trkpt lat="38.904743" lon="111.85553">
        <ele>1446.2761</ele>
        <time>2014-07-19T22:14:07.174000Z</time>
      </trkpt>
      <trkpt lat="38.904766" lon="111.85537">
        <ele>1446.43</ele>
        <time>2014-07-19T22:14:10.312000Z</time>
      </trkpt>
      <trkpt lat="38.90478" lon="111.85525">
        <ele>1447.089</ele>
        <time>2014-07-19T22:14:13.450000Z</time>
      </trkpt>
      <trkpt lat="38.9048" lon="111.85511">
        <ele>1448.7485</ele>
        <time>2014-07-19T22:14:16.588000Z</time>
      </trkpt>
      <trkpt lat="38.90481" lon="111.854965">
        <ele>1451.7861</ele>
        <time>2014-07-19T22:14:19.726000Z</time>
      </trkpt>
      <trkpt lat="38.90483" lon="111.85481">
        <ele>1453.829</ele>
        <time>2014-07-19T22:14:22.864000Z</time>
      </trkpt>
      <trkpt lat="38.90484" lon="111.854645">
        <ele>1452.3584</ele>
        <time>2014-07-19T22:14:26.002000Z</time>
      </trkpt>
      <trkpt lat="38.904846" lon="111.8545">
        <ele>1448.6582</ele>
        <time>2014-07-19T22:14:29.140000Z</time>
      </trkpt>
      <trkpt lat="38.904846" lon="111.85435">
        <ele>1445.2765</ele>
        <time>2014-07-19T22:14:32.278000Z</time>
      </trkpt>
      <trkpt lat="38.90486" lon="111.854225">
        <ele>1443.1589</ele>
        <time>2014-07-19T22:14:35.416000Z</time>
      </trkpt>
      <trkpt lat="38.90488" lon="111.85407">
        <ele>1442.3441</ele>
        <time>2014-07-19T22:14:38.554000Z</time>
      </trkpt>
      <trkpt lat="38.904903" lon="111.85394">
        <ele>1442.8638</ele>
        <time>2014-07-19T22:14:41.692000Z</time>
      </trkpt>
      <trkpt lat="38.90492" lon="111.85382">
        <ele>1443.9481</ele>
        <time>2014-07-19T22:14:44.830000Z</time>
      </trkpt>
      <trkpt lat="38.904934" lon="111.85367">
        <ele>1444.7362</ele>
        <time>2014-07-19T22:14:47.968000Z</time>
      </trkpt>
      <trkpt lat="38.904938" lon="111.85355">
        <ele>1444.994</ele>
        <time>2014-07-19T22:14:51.106000Z</time>
      </trkpt>
      <trkpt lat="38.904953" lon="111.85343">
        <ele>1445.0424</ele>
        <time>2014-07-19T22:14:54.244000Z</time>
      </trkpt>
      <trkpt lat="38.904964" lon="111.85327">
        <ele>1445.2684</ele>
        <time>2014-07-19T22:14:57.382000Z</time>
      </trkpt>
      <trkpt lat="38.904964" lon="111.85315">
        <ele>1445.6721</ele>
        <time>2014-07-19T22:15:00.520000Z</time>
      </trkpt>
      <trkpt lat="38.904972" lon="111.85302">
        <ele>1445.9038</ele>
        <time>2014-07-19T22:15:03.658000Z</time>
      </trkpt>
      <trkpt lat="38.90497" lon="111.85288">
        <ele>1445.9624</ele>
        <time>2014-07-19T22:15:06.796000Z</time>
      </trkpt>
      <trkpt lat="38.904957" lon="111.85273">
        <ele>1445.7128</ele>
        <time>2014-07-19T22:15:09.934000Z</time>
      </trkpt>
      <trkpt lat="38.90494" lon="111.85261">
        <ele>1445.079</ele>
        <time>2014-07-19T22:15:13.072000Z</time>
      </trkpt>
      <trkpt lat="38.904922" lon="111.85245">
        <ele>1444.1682</ele>
        <time>2014-07-19T22:15:16.210000Z</time>
      </trkpt>
      <trkpt lat="38.904892" lon="111.852295">
        <ele>1443.1086</ele>
        <time>2014-07-19T22:15:19.348000Z</time>
      </trkpt>
      <trkpt lat="38.904873" lon="111.85217">
        <ele>1442.158</ele>
        <time>2014-07-19T22:15:22.486000Z</time>
      </trkpt>
      <trkpt lat="38.90484" lon="111.85202">
        <ele>1441.6123</ele>
        <time>2014-07-19T22:15:25.624000Z</time>
      </trkpt>
      <trkpt lat="38.904804" lon="111.851906">
        <ele>1442.0593</ele>
        <time>2014-07-19T22:15:28.762000Z</time>
      </trkpt>
      <trkpt lat="38.904762" lon="111.851776">
        <ele>1443.7091</ele>
        <time>2014-07-19T22:15:31.900000Z</time>
      </trkpt>
      <trkpt lat="38.90472" lon="111.851654">
        <ele>1445.7446</ele>
        <time>2014-07-19T22:15:35.038000Z</time>
      </trkpt>
      <trkpt lat="38.904667" lon="111.85151">
        <ele>1447.047</ele>
        <time>2014-07-19T22:15:38.176000Z</time>
      </trkpt>
      <trkpt lat="38.90462" lon="111.85138">
        <ele>1447.1715</ele>
        <time>2014-07-19T22:15:41.314000Z</time>
      </trkpt>
      <trkpt lat="38.904583" lon="111.851265">
        <ele>1446.2585</ele>
        <time>2014-07-19T22:15:44.452000Z</time>
      </trkpt>
      <trkpt lat="38.90453" lon="111.85113">
        <ele>1444.9313</ele>
        <time>2014-07-19T22:15:47.590000Z</time>
      </trkpt>
      <trkpt lat="38.904484" lon="111.85102">
        <ele>1443.8746</ele>
        <time>2014-07-19T22:15:50.728000Z</time>
      </trkpt>
      <trkpt lat="38.90444" lon="111.85089">
        <ele>1443.4734</ele>
        <time>2014-07-19T22:15:53.866000Z</time>
      </trkpt>
      <trkpt lat="38.904396" lon="111.850746">
        <ele>1443.2422</ele>
        <time>2014-07-19T22:15:57.004000Z</time>
      </trkpt>
      <trkpt lat="38.904354" lon="111.85062">
        <ele>1442.6636</ele>
        <time>2014-07-19T22:16:00.142000Z</time>
      </trkpt>
      <trkpt lat="38.904316" lon="111.8505">
        <ele>1441.7756</ele>
        <time>2014-07-19T22:16:03.280000Z</time>
      </trkpt>
      <trkpt lat="38.904278" lon="111.85039">
        <ele>1441.0784</ele>
        <time>2014-07-19T22:16:06.418000Z</time>
      </trkpt>
      <trkpt lat="38.904236" lon="111.85024">
        <ele>1440.9623</ele>
        <time>2014-07-19T22:16:09.556000Z</time>
      </trkpt>
      <trkpt lat="38.904194" lon="111.85014">
        <ele>1441.3021</ele>
        <time>2014-07-19T22:16:12.694000Z</time>
      </trkpt>
      <trkpt lat="38.904144" lon="111.85002">
        <ele>1441.7312</ele>
        <time>2014-07-19T22:16:15.832000Z</time>
      </trkpt>
      <trkpt lat="38.904087" lon="111.849884">
        <ele>1442.4862</ele>
        <time>2014-07-19T22:16:18.970000Z</time>
      </trkpt>
      <trkpt lat="38.904034" lon="111.849754">
        <ele>1443.7374</ele>
        <time>2014-07-19T22:16:22.108000Z</time>
      </trkpt>
      <trkpt lat="38.90397" lon="111.849594">
        <ele>1444.87</ele>
        <time>2014-07-19T22:16:25.246000Z</time>
      </trkpt>
      <trkpt lat="38.903915" lon="111.84947">
        <ele>1445.3628</ele>
        <time>2014-07-19T22:16:28.384000Z</time>
      </trkpt>
      <trkpt lat="38.903862" lon="111.849365">
        <ele>1445.2938</ele>
        <time>2014-07-19T22:16:31.522000Z</time>
      </trkpt>
      <trkpt lat="38.90381" lon="111.84923">
        <ele>1444.6414</ele>
        <time>2014-07-19T22:16:34.660000Z</time>
      </trkpt>
      <trkpt lat="38.903748" lon="111.8491">
        <ele>1443.4205</ele>
        <time>2014-07-19T22:16:37.798000Z</time>
      </trkpt>
      <trkpt lat="38.903694" lon="111.84898">
        <ele>1442.2777</ele>
        <time>2014-07-19T22:16:40.936000Z</time>
      </trkpt>
      <trkpt lat="38.90363" lon="111.84886">
        <ele>1441.8761</ele>
        <time>2014-07-19T22:16:44.074000Z</time>
      </trkpt>
      <trkpt lat="38.90357" lon="111.848755">
        <ele>1442.6063</ele>
        <time>2014-07-19T22:16:47.212000Z</time>
      </trkpt>
      <trkpt lat="38.903503" lon="111.84863">
        <ele>1444.2975</ele>
        <time>2014-07-19T22:16:50.350000Z</time>
      </trkpt>
      <trkpt lat="38.903446" lon="111.84851">
        <ele>1445.294</ele>
        <time>2014-07-19T22:16:53.488000Z</time>
      </trkpt>
      <trkpt lat="38.903393" lon="111.848404">
        <ele>1443.884</ele>
        <time>2014-07-19T22:16:56.626000Z</time>
      </trkpt>
      <trkpt lat="38.903316" lon="111.8483">
        <ele>1440.9451</ele>
        <time>2014-07-19T22:16:59.764000Z</time>
      </trkpt>
      <trkpt lat="38.90324" lon="111.848175">
        <ele>1438.7473</ele>
        <time>2014-07-19T22:17:02.902000Z</time>
      </trkpt>
      <trkpt lat="38.903175" lon="111.84806">
        <ele>1438.1835</ele>
        <time>2014-07-19T22:17:06.040000Z</time>
      </trkpt>
      <trkpt lat="38.903107" lon="111.84795">
        <ele>1438.5214</ele>
        <time>2014-07-19T22:17:09.178000Z</time>
      </trkpt>
      <trkpt lat="38.903034" lon="111.84784">
        <ele>1439.0634</ele>
        <time>2014-07-19T22:17:12.316000Z</time>
      </trkpt>
      <trkpt lat="38.902954" lon="111.847725">
        <ele>1439.6969</ele>
        <time>2014-07-19T22:17:15.454000Z</time>
      </trkpt>
      <trkpt lat="38.902874" lon="111.8476">
        <ele>1440.3066</ele>
        <time>2014-07-19T22:17:18.592000Z</time>
      </trkpt>
      <trkpt lat="38.9028" lon="111.847496">
        <ele>1440.5525</ele>
        <time>2014-07-19T22:17:21.730000Z</time>
      </trkpt>
      <trkpt lat="38.902737" lon="111.84739">
        <ele>1440.3438</ele>
        <time>2014-07-19T22:17:24.868000Z</time>
      </trkpt>
      <trkpt lat="38.90267" lon="111.84729">
        <ele>1440.1465</ele>
        <time>2014-07-19T22:17:28.006000Z</time>
      </trkpt>
      <trkpt lat="38.902588" lon="111.84717">
        <ele>1440.3324</ele>
        <time>2014-07-19T22:17:31.144000Z</time>
      </trkpt>
      <trkpt lat="38.902515" lon="111.84705">
        <ele>1440.0435</ele>
        <time>2014-07-19T22:17:34.282000Z</time>
      </trkpt>
      <trkpt lat="38.90245" lon="111.84696">
        <ele>1438.6001</ele>
        <time>2014-07-19T22:17:37.420000Z</time>
      </trkpt>
      <trkpt lat="38.902367" lon="111.84684">
        <ele>1437.1305</ele>
        <time>2014-07-19T22:17:40.558000Z</time>
      </trkpt>
      <trkpt lat="38.90229" lon="111.84672">
        <ele>1436.7452</ele>
        <time>2014-07-19T22:17:43.696000Z</time>
      </trkpt>
      <trkpt lat="38.90222" lon="111.84661">
        <ele>1436.8832</ele>
        <time>2014-07-19T22:17:46.834000Z</time>
      </trkpt>
      <trkpt lat="38.902157" lon="111.846504">
        <ele>1436.8047</ele>
        <time>2014-07-19T22:17:49.972000Z</time>
      </trkpt>
      <trkpt lat="38.90209" lon="111.84639">
        <ele>1436.5486</ele>
        <time>2014-07-19T22:17:53.110000Z</time>
      </trkpt>
      <trkpt lat="38.902023" lon="111.84628">
        <ele>1436.3948</ele>
        <time>2014-07-19T22:17:56.248000Z</time>
      </trkpt>
      <trkpt lat="38.90196" lon="111.84619">
        <ele>1436.3822</ele>
        <time>2014-07-19T22:17:59.386000Z</time>
      </trkpt>
      <trkpt lat="38.90189" lon="111.84608">
        <ele>1436.8091</ele>
        <time>2014-07-19T22:18:02.524000Z</time>
      </trkpt>
      <trkpt lat="38.901817" lon="111.84597">
        <ele>1437.8307</ele>
        <time>2014-07-19T22:18:05.662000Z</time>
      </trkpt>
      <trkpt lat="38.901745" lon="111.845856">
        <ele>1438.8536</ele>
        <time>2014-07-19T22:18:08.800000Z</time>
      </trkpt>
      <trkpt lat="38.90167" lon="111.84574">
        <ele>1439.2412</ele>
        <time>2014-07-19T22:18:11.938000Z</time>
      </trkpt>
      <trkpt lat="38.901604" lon="111.84566">
        <ele>1439.1997</ele>
        <time>2014-07-19T22:18:15.076000Z</time>
      </trkpt>
      <trkpt lat="38.901535" lon="111.845535">
        <ele>1439.0753</ele>
        <time>2014-07-19T22:18:18.214000Z</time>
      </trkpt>
      <trkpt lat="38.901466" lon="111.84542">
        <ele>1438.7318</ele>
        <time>2014-07-19T22:18:21.352000Z</time>
      </trkpt>
      <trkpt lat="38.9014" lon="111.84532">
        <ele>1438.0974</ele>
        <time>2014-07-19T22:18:24.490000Z</time>
      </trkpt>
      <trkpt lat="38.90132" lon="111.845215">
        <ele>1437.627</ele>
        <time>2014-07-19T22:18:27.628000Z</time>
      </trkpt>
      <trkpt lat="38.901257" lon="111.8451">
        <ele>1437.7557</ele>
        <time>2014-07-19T22:18:30.766000Z</time>
      </trkpt>
      <trkpt lat="38.901176" lon="111.844986">
        <ele>1438.412</ele>
        <time>2014-07-19T22:18:33.904000Z</time>
      </trkpt>
      <trkpt lat="38.901104" lon="111.84487">
        <ele>1439.1938</ele>
        <time>2014-07-19T22:18:37.042000Z</time>
      </trkpt>
      <trkpt lat="38.90103" lon="111.844765">
        <ele>1439.9229</ele>
        <time>2014-07-19T22:18:40.180000Z</time>
      </trkpt>
      <trkpt lat="38.90097" lon="111.84467">
        <ele>1440.7532</ele>
        <time>2014-07-19T22:18:43.318000Z</time>
      </trkpt>
      <trkpt lat="38.900906" lon="111.84456">
        <ele>1441.6891</ele>
        <time>2014-07-19T22:18:46.456000Z</time>
      </trkpt>
      <trkpt lat="38.90084" lon="111.84447">
        <ele>1442.3926</ele>
        <time>2014-07-19T22:18:49.594000Z</time>
      </trkpt>
      <trkpt lat="38.900772" lon="111.84436">
        <ele>1442.6</ele>
        <time>2014-07-19T22:18:52.732000Z</time>
      </trkpt>
      <trkpt lat="38.900707" lon="111.84426">
        <ele>1442.2144</ele>
        <time>2014-07-19T22:18:55.870000Z</time>
      </trkpt>
      <trkpt lat="38.900654" lon="111.84417">
        <ele>1441.4456</ele>
        <time>2014-07-19T22:18:59.008000Z</time>
      </trkpt>
      <trkpt lat="38.90058" lon="111.84407">
        <ele>1440.7826</ele>
        <time>2014-07-19T22:19:02.146000Z</time>
      </trkpt>
      <trkpt lat="38.900497" lon="111.84396">
        <ele>1440.3519</ele>
        <time>2014-07-19T22:19:05.284000Z</time>
      </trkpt>
      <trkpt lat="38.900433" lon="111.84386">
        <ele>1439.8656</ele>
        <time>2014-07-19T22:19:08.422000Z</time>
      </trkpt>
      <trkpt lat="38.900383" lon="111.84375">
        <ele>1439.3187</ele>
        <time>2014-07-19T22:19:11.560000Z</time>
      </trkpt>
      <trkpt lat="38.900326" lon="111.84365">
        <ele>1438.9213</ele>
        <time>2014-07-19T22:19:14.698000Z</time>
      </trkpt>
      <trkpt lat="38.90027" lon="111.84356">
        <ele>1438.8582</ele>
        <time>2014-07-19T22:19:17.836000Z</time>
      </trkpt>
      <trkpt lat="38.90021" lon="111.84345">
        <ele>1439.1912</ele>
        <time>2014-07-19T22:19:20.974000Z</time>
      </trkpt>
      <trkpt lat="38.90014" lon="111.84334">
        <ele>1439.641</ele>
        <time>2014-07-19T22:19:24.112000Z</time>
      </trkpt>
      <trkpt lat="38.90007" lon="111.84323">
        <ele>1439.9019</ele>
        <time>2014-07-19T22:19:27.250000Z</time>
      </trkpt>
      <trkpt lat="38.9" lon="111.8431">
        <ele>1439.901</ele>
        <time>2014-07-19T22:19:30.388000Z</time>
      </trkpt>
      <trkpt lat="38.899944" lon="111.842995">
        <ele>1439.6295</ele>
        <time>2014-07-19T22:19:33.526000Z</time>
      </trkpt>
      <trkpt lat="38.89989" lon="111.84289">
        <ele>1439.0804</ele>
        <time>2014-07-19T22:19:36.664000Z</time>
      </trkpt>
      <trkpt lat="38.899822" lon="111.842766">
        <ele>1438.4214</ele>
        <time>2014-07-19T22:19:39.802000Z</time>
      </trkpt>
      <trkpt lat="38.89976" lon="111.84266">
        <ele>1437.8314</ele>
        <time>2014-07-19T22:19:42.940000Z</time>
      </trkpt>
      <trkpt lat="38.8997" lon="111.84257">
        <ele>1437.4346</ele>
        <time>2014-07-19T22:19:46.078000Z</time>
      </trkpt>
      <trkpt lat="38.899647" lon="111.84246">
        <ele>1437.228</ele>
        <time>2014-07-19T22:19:49.216000Z</time>
      </trkpt>
      <trkpt lat="38.899586" lon="111.842354">
        <ele>1437.1395</ele>
        <time>2014-07-19T22:19:52.354000Z</time>
      </trkpt>
      <trkpt lat="38.899536" lon="111.84225">
        <ele>1437.2919</ele>
        <time>2014-07-19T22:19:55.492000Z</time>
      </trkpt>
      <trkpt lat="38.899475" lon="111.84215">
        <ele>1437.5259</ele>
        <time>2014-07-19T22:19:58.630000Z</time>
      </trkpt>
      <trkpt lat="38.899406" lon="111.84202">
        <ele>1437.4178</ele>
        <time>2014-07-19T22:20:01.768000Z</time>
      </trkpt>
      <trkpt lat="38.89935" lon="111.84193">
        <ele>1437.135</ele>
        <time>2014-07-19T22:20:04.906000Z</time>
      </trkpt>
      <trkpt lat="38.899296" lon="111.84183">
        <ele>1437.0505</ele>
        <time>2014-07-19T22:20:08.044000Z</time>
      </trkpt>
      <trkpt lat="38.89924" lon="111.84173">
        <ele>1437.5587</ele>
        <time>2014-07-19T22:20:11.182000Z</time>
      </trkpt>
      <trkpt lat="38.89917" lon="111.8416">
        <ele>1438.8749</ele>
        <time>2014-07-19T22:20:14.320000Z</time>
      </trkpt>
      <trkpt lat="38.899113" lon="111.84151">
        <ele>1440.4581</ele>
        <time>2014-07-19T22:20:17.458000Z</time>
      </trkpt>
      <trkpt lat="38.899044" lon="111.84139">
        <ele>1441.9506</ele>
        <time>2014-07-19T22:20:20.596000Z</time>
      </trkpt>
      <trkpt lat="38.898983" lon="111.841286">
        <ele>1443.3359</ele>
        <time>2014-07-19T22:20:23.734000Z</time>
      </trkpt>
      <trkpt lat="38.898926" lon="111.84117">
        <ele>1444.2239</ele>
        <time>2014-07-19T22:20:26.872000Z</time>
      </trkpt>
      <trkpt lat="38.89886" lon="111.84105">
        <ele>1444.5228</ele>
        <time>2014-07-19T22:20:30.010000Z</time>
      </trkpt>
      <trkpt lat="38.898804" lon="111.84094">
        <ele>1444.7511</ele>
        <time>2014-07-19T22:20:33.148000Z</time>
      </trkpt>
      <trkpt lat="38.898735" lon="111.840836">
        <ele>1445.293</ele>
        <time>2014-07-19T22:20:36.286000Z</time>
      </trkpt>
      <trkpt lat="38.89867" lon="111.84071">
        <ele>1446.1553</ele>
        <time>2014-07-19T22:20:39.424000Z</time>
      </trkpt>
      <trkpt lat="38.898613" lon="111.840614">
        <ele>1446.9121</ele>
        <time>2014-07-19T22:20:42.562000Z</time>
      </trkpt>
      <trkpt lat="38.898563" lon="111.840515">
        <ele>1446.9926</ele>
        <time>2014-07-19T22:20:45.700000Z</time>
      </trkpt>
      <trkpt lat="38.898502" lon="111.840385">
        <ele>1446.5271</ele>
        <time>2014-07-19T22:20:48.838000Z</time>
      </trkpt>
      <trkpt lat="38.898445" lon="111.84029">
        <ele>1446.278</ele>
        <time>2014-07-19T22:20:51.976000Z</time>
      </trkpt>
      <trkpt lat="38.89837" lon="111.84018">
        <ele>1446.5521</ele>
        <time>2014-07-19T22:20:55.114000Z</time>
      </trkpt>
      <trkpt lat="38.89831" lon="111.84007">
        <ele>1447.3438</ele>
        <time>2014-07-19T22:20:58.252000Z</time>
      </trkpt>
      <trkpt lat="38.89826" lon="111.83998">
        <ele>1448.4413</ele>
        <time>2014-07-19T22:21:01.390000Z</time>
      </trkpt>
      <trkpt lat="38.898186" lon="111.83986">
        <ele>1449.338</ele>
        <time>2014-07-19T22:21:04.528000Z</time>
      </trkpt>
      <trkpt lat="38.898125" lon="111.839745">
        <ele>1450.3918</ele>
        <time>2014-07-19T22:21:07.666000Z</time>
      </trkpt>
      <trkpt lat="38.89807" lon="111.83963">
        <ele>1452.211</ele>
        <time>2014-07-19T22:21:10.804000Z</time>
      </trkpt>
      <trkpt lat="38.898003" lon="111.83952">
        <ele>1453.7639</ele>
        <time>2014-07-19T22:21:13.942000Z</time>
      </trkpt>
      <trkpt lat="38.897938" lon="111.839424">
        <ele>1454.0294</ele>
        <time>2014-07-19T22:21:17.080000Z</time>
      </trkpt>
      <trkpt lat="38.897884" lon="111.839325">
        <ele>1453.8983</ele>
        <time>2014-07-19T22:21:20.218000Z</time>
      </trkpt>
      <trkpt lat="38.89784" lon="111.839226">
        <ele>1454.3151</ele>
        <time>2014-07-19T22:21:23.356000Z</time>
      </trkpt>
      <trkpt lat="38.897793" lon="111.83913">
        <ele>1454.9357</ele>
        <time>2014-07-19T22:21:26.494000Z</time>
      </trkpt>
      <trkpt lat="38.89774" lon="111.839035">
        <ele>1455.1019</ele>
        <time>2014-07-19T22:21:29.632000Z</time>
      </trkpt>
      <trkpt lat="38.897686" lon="111.83893">
        <ele>1454.8077</ele>
        <time>2014-07-19T22:21:32.770000Z</time>
      </trkpt>
      <trkpt lat="38.897633" lon="111.83882">
        <ele>1454.4271</ele>
        <time>2014-07-19T22:21:35.908000Z</time>
      </trkpt>
      <trkpt lat="38.897564" lon="111.83869">
        <ele>1454.9558</ele>
        <time>2014-07-19T22:21:39.046000Z</time>
      </trkpt>
      <trkpt lat="38.897514" lon="111.83859">
        <ele>1456.8018</ele>
        <time>2014-07-19T22:21:42.184000Z</time>
      </trkpt>
      <trkpt lat="38.897476" lon="111.83846">
        <ele>1458.5641</ele>
        <time>2014-07-19T22:21:45.322000Z</time>
      </trkpt>
      <trkpt lat="38.89744" lon="111.83832">
        <ele>1458.8231</ele>
        <time>2014-07-19T22:21:48.460000Z</time>
      </trkpt>
      <trkpt lat="38.897427" lon="111.838196">
        <ele>1457.9647</ele>
        <time>2014-07-19T22:21:51.598000Z</time>
      </trkpt>
      <trkpt lat="38.897415" lon="111.83805">
        <ele>1457.2047</ele>
        <time>2014-07-19T22:21:54.736000Z</time>
      </trkpt>
      <trkpt lat="38.897396" lon="111.83792">
        <ele>1457.3234</ele>
        <time>2014-07-19T22:21:57.874000Z</time>
      </trkpt>
      <trkpt lat="38.897377" lon="111.837776">
        <ele>1458.2915</ele>
        <time>2014-07-19T22:22:01.012000Z</time>
      </trkpt>
      <trkpt lat="38.897358" lon="111.83766">
        <ele>1459.5452</ele>
        <time>2014-07-19T22:22:04.150000Z</time>
      </trkpt>
      <trkpt lat="38.897358" lon="111.83763">
        <ele>1459.8285</ele>
        <time>2014-07-19T22:22:07.288000Z</time>
      </trkpt>
      <trkpt lat="38.897358" lon="111.83763">
        <ele>1459.0647</ele>
        <time>2014-07-19T22:22:10.426000Z</time>
      </trkpt>
      <trkpt lat="38.897358" lon="111.83763">
        <ele>1458.5963</ele>
        <time>2014-07-19T22:22:13.564000Z</time>
      </trkpt>
      <trkpt lat="38.89737" lon="111.837494">
        <ele>1458.3075</ele>
        <time>2014-07-19T22:22:16.702000Z</time>
      </trkpt>
      <trkpt lat="38.897373" lon="111.837364">
        <ele>1458.898</ele>
        <time>2014-07-19T22:22:19.840000Z</time>
      </trkpt>
      <trkpt lat="38.897377" lon="111.83723">
        <ele>1461.0436</ele>
        <time>2014-07-19T22:22:22.978000Z</time>
      </trkpt>
      <trkpt lat="38.897377" lon="111.837074">
        <ele>1463.4308</ele>
        <time>2014-07-19T22:22:26.116000Z</time>
      </trkpt>
      <trkpt lat="38.89738" lon="111.836945">
        <ele>1464.6718</ele>
        <time>2014-07-19T22:22:29.254000Z</time>
      </trkpt>
      <trkpt lat="38.897396" lon="111.83682">
        <ele>1465.156</ele>
        <time>2014-07-19T22:22:32.392000Z</time>
      </trkpt>
      <trkpt lat="38.897404" lon="111.8367">
        <ele>1465.7804</ele>
        <time>2014-07-19T22:22:35.530000Z</time>
      </trkpt>
      <trkpt lat="38.89742" lon="111.83658">
        <ele>1466.8851</ele>
        <time>2014-07-19T22:22:38.668000Z</time>
      </trkpt>
      <trkpt lat="38.897434" lon="111.83643">
        <ele>1467.9816</ele>
        <time>2014-07-19T22:22:41.806000Z</time>
      </trkpt>
      <trkpt lat="38.897438" lon="111.8363">
        <ele>1468.4326</ele>
        <time>2014-07-19T22:22:44.944000Z</time>
      </trkpt>
      <trkpt lat="38.897446" lon="111.83615">
        <ele>1468.3617</ele>
        <time>2014-07-19T22:22:48.082000Z</time>
      </trkpt>
      <trkpt lat="38.89745" lon="111.83602">
        <ele>1468.1223</ele>
        <time>2014-07-19T22:22:51.220000Z</time>
      </trkpt>
      <trkpt lat="38.89746" lon="111.83587">
        <ele>1467.9124</ele>
        <time>2014-07-19T22:22:54.358000Z</time>
      </trkpt>
      <trkpt lat="38.89747" lon="111.83574">
        <ele>1467.8002</ele>
        <time>2014-07-19T22:22:57.496000Z</time>
      </trkpt>
      <trkpt lat="38.89748" lon="111.835594">
        <ele>1467.7903</ele>
        <time>2014-07-19T22:23:00.634000Z</time>
      </trkpt>
      <trkpt lat="38.89749" lon="111.83547">
        <ele>1467.8647</ele>
        <time>2014-07-19T22:23:03.772000Z</time>
      </trkpt>
      <trkpt lat="38.8975" lon="111.835304">
        <ele>1467.8466</ele>
        <time>2014-07-19T22:23:06.910000Z</time>
      </trkpt>
      <trkpt lat="38.897507" lon="111.835144">
        <ele>1467.6195</ele>
        <time>2014-07-19T22:23:10.048000Z</time>
      </trkpt>
      <trkpt lat="38.89751" lon="111.83501">
        <ele>1467.3602</ele>
        <time>2014-07-19T22:23:13.186000Z</time>
      </trkpt>
      <trkpt lat="38.897507" lon="111.83488">
        <ele>1467.2766</ele>
        <time>2014-07-19T22:23:16.324000Z</time>
      </trkpt>
      <trkpt lat="38.897503" lon="111.834755">
        <ele>1467.6531</ele>
        <time>2014-07-19T22:23:19.462000Z</time>
      </trkpt>
      <trkpt lat="38.897507" lon="111.8346">
        <ele>1468.6223</ele>
        <time>2014-07-19T22:23:22.600000Z</time>
      </trkpt>
      <trkpt lat="38.897514" lon="111.834435">
        <ele>1469.6799</ele>
        <time>2014-07-19T22:23:25.738000Z</time>
      </trkpt>
      <trkpt lat="38.897526" lon="111.83431">
        <ele>1470.2203</ele>
        <time>2014-07-19T22:23:28.876000Z</time>
      </trkpt>
      <trkpt lat="38.897514" lon="111.83415">
        <ele>1470.0365</ele>
        <time>2014-07-19T22:23:32.014000Z</time>
      </trkpt>
      <trkpt lat="38.897514" lon="111.83402">
        <ele>1468.8973</ele>
        <time>2014-07-19T22:23:35.152000Z</time>
      </trkpt>
      <trkpt lat="38.89751" lon="111.833885">
        <ele>1467.0216</ele>
        <time>2014-07-19T22:23:38.290000Z</time>
      </trkpt>
      <trkpt lat="38.897495" lon="111.83374">
        <ele>1465.34</ele>
        <time>2014-07-19T22:23:41.428000Z</time>
      </trkpt>
      <trkpt lat="38.897488" lon="111.83361">
        <ele>1464.4865</ele>
        <time>2014-07-19T22:23:44.566000Z</time>
      </trkpt>
      <trkpt lat="38.89748" lon="111.83346">
        <ele>1464.5024</ele>
        <time>2014-07-19T22:23:47.704000Z</time>
      </trkpt>
      <trkpt lat="38.89747" lon="111.833305">
        <ele>1465.1385</ele>
        <time>2014-07-19T22:23:50.842000Z</time>
      </trkpt>
      <trkpt lat="38.897465" lon="111.83318">
        <ele>1465.8392</ele>
        <time>2014-07-19T22:23:53.980000Z</time>
      </trkpt>
      <trkpt lat="38.89746" lon="111.83305">
        <ele>1465.9886</ele>
        <time>2014-07-19T22:23:57.118000Z</time>
      </trkpt>
      <trkpt lat="38.89746" lon="111.83289">
        <ele>1465.8439</ele>
        <time>2014-07-19T22:24:00.256000Z</time>
      </trkpt>
      <trkpt lat="38.897457" lon="111.83274">
        <ele>1466.0555</ele>
        <time>2014-07-19T22:24:03.394000Z</time>
      </trkpt>
      <trkpt lat="38.897446" lon="111.8326">
        <ele>1466.4957</ele>
        <time>2014-07-19T22:24:06.532000Z</time>
      </trkpt>
      <trkpt lat="38.897438" lon="111.83245">
        <ele>1465.8596</ele>
        <time>2014-07-19T22:24:09.670000Z</time>
      </trkpt>
      <trkpt lat="38.897427" lon="111.83234">
        <ele>1463.3481</ele>
        <time>2014-07-19T22:24:12.808000Z</time>
      </trkpt>
      <trkpt lat="38.89742" lon="111.83219">
        <ele>1460.1571</ele>
        <time>2014-07-19T22:24:15.946000Z</time>
      </trkpt>
      <trkpt lat="38.897408" lon="111.83205">
        <ele>1458.524</ele>
        <time>2014-07-19T22:24:19.084000Z</time>
      </trkpt>
      <trkpt lat="38.897404" lon="111.8319">
        <ele>1458.9401</ele>
        <time>2014-07-19T22:24:22.222000Z</time>
      </trkpt>
      <trkpt lat="38.8974" lon="111.83179">
        <ele>1459.7825</ele>
        <time>2014-07-19T22:24:25.360000Z</time>
      </trkpt>
      <trkpt lat="38.89739" lon="111.83166">
        <ele>1459.6536</ele>
        <time>2014-07-19T22:24:28.498000Z</time>
      </trkpt>
      <trkpt lat="38.89739" lon="111.83153">
        <ele>1458.9324</ele>
        <time>2014-07-19T22:24:31.636000Z</time>
      </trkpt>
      <trkpt lat="38.897373" lon="111.831406">
        <ele>1458.3986</ele>
        <time>2014-07-19T22:24:34.774000Z</time>
      </trkpt>
      <trkpt lat="38.897366" lon="111.83126">
        <ele>1458.0859</ele>
        <time>2014-07-19T22:24:37.912000Z</time>
      </trkpt>
      <trkpt lat="38.897354" lon="111.83111">
        <ele>1457.7864</ele>
        <time>2014-07-19T22:24:41.049000Z</time>
      </trkpt>
      <trkpt lat="38.897346" lon="111.83096">
        <ele>1457.2416</ele>
        <time>2014-07-19T22:24:44.186000Z</time>
      </trkpt>
      <trkpt lat="38.897343" lon="111.83083">
        <ele>1456.3795</ele>
        <time>2014-07-19T22:24:47.323000Z</time>
      </trkpt>
      <trkpt lat="38.897324" lon="111.83069">
        <ele>1455.1427</ele>
        <time>2014-07-19T22:24:50.460000Z</time>
      </trkpt>
      <trkpt lat="38.897316" lon="111.83053">
        <ele>1453.5679</ele>
        <time>2014-07-19T22:24:53.597000Z</time>
      </trkpt>
      <trkpt lat="38.897312" lon="111.83041">
        <ele>1452.1931</ele>
        <time>2014-07-19T22:24:56.734000Z</time>
      </trkpt>
      <trkpt lat="38.89731" lon="111.83027">
        <ele>1451.5214</ele>
        <time>2014-07-19T22:24:59.871000Z</time>
      </trkpt>
      <trkpt lat="38.897305" lon="111.83011">
        <ele>1451.5156</ele>
        <time>2014-07-19T22:25:03.008000Z</time>
      </trkpt>
      <trkpt lat="38.8973" lon="111.82994">
        <ele>1451.8177</ele>
        <time>2014-07-19T22:25:06.145000Z</time>
      </trkpt>
      <trkpt lat="38.89729" lon="111.8298">
        <ele>1451.4601</ele>
        <time>2014-07-19T22:25:09.282000Z</time>
      </trkpt>
      <trkpt lat="38.89728" lon="111.829666">
        <ele>1449.9342</ele>
        <time>2014-07-19T22:25:12.419000Z</time>
      </trkpt>
      <trkpt lat="38.897274" lon="111.82953">
        <ele>1448.106</ele>
        <time>2014-07-19T22:25:15.556000Z</time>
      </trkpt>
      <trkpt lat="38.89727" lon="111.829414">
        <ele>1447.0708</ele>
        <time>2014-07-19T22:25:18.693000Z</time>
      </trkpt>
      <trkpt lat="38.897266" lon="111.82929">
        <ele>1446.9888</ele>
        <time>2014-07-19T22:25:21.830000Z</time>
      </trkpt>
      <trkpt lat="38.89729" lon="111.82917">
        <ele>1446.9834</ele>
        <time>2014-07-19T22:25:24.967000Z</time>
      </trkpt>
      <trkpt lat="38.89738" lon="111.82907">
        <ele>1446.1841</ele>
        <time>2014-07-19T22:25:28.104000Z</time>
      </trkpt>
      <trkpt lat="38.897514" lon="111.829025">
        <ele>1444.381</ele>
        <time>2014-07-19T22:25:31.241000Z</time>
      </trkpt>
      <trkpt lat="38.897606" lon="111.82901">
        <ele>1441.7002</ele>
        <time>2014-07-19T22:25:34.378000Z</time>
      </trkpt>
      <trkpt lat="38.897728" lon="111.82903">
        <ele>1438.7722</ele>
        <time>2014-07-19T22:25:37.515000Z</time>
      </trkpt>
      <trkpt lat="38.897846" lon="111.82904">
        <ele>1436.7917</ele>
        <time>2014-07-19T22:25:40.652000Z</time>
      </trkpt>
      <trkpt lat="38.89797" lon="111.829056">
        <ele>1436.6721</ele>
        <time>2014-07-19T22:25:43.789000Z</time>
      </trkpt>
      <trkpt lat="38.898067" lon="111.82909">
        <ele>1438.0618</ele>
        <time>2014-07-19T22:25:46.926000Z</time>
      </trkpt>
      <trkpt lat="38.89819" lon="111.8291">
        <ele>1439.3993</ele>
        <time>2014-07-19T22:25:50.063000Z</time>
      </trkpt>
      <trkpt lat="38.89831" lon="111.82911">
        <ele>1439.7043</ele>
        <time>2014-07-19T22:25:53.200000Z</time>
      </trkpt>
      <trkpt lat="38.89842" lon="111.8291">
        <ele>1439.3883</ele>
        <time>2014-07-19T22:25:56.337000Z</time>
      </trkpt>
      <trkpt lat="38.89854" lon="111.8291">
        <ele>1438.8938</ele>
        <time>2014-07-19T22:25:59.474000Z</time>
      </trkpt>
      <trkpt lat="38.89865" lon="111.82912">
        <ele>1438.1808</ele>
        <time>2014-07-19T22:26:02.611000Z</time>
      </trkpt>
      <trkpt lat="38.898766" lon="111.82912">
        <ele>1437.5165</ele>
        <time>2014-07-19T22:26:05.748000Z</time>
      </trkpt>
      <trkpt lat="38.898865" lon="111.829124">
        <ele>1437.0295</ele>
        <time>2014-07-19T22:26:08.885000Z</time>
      </trkpt>
      <trkpt lat="38.89897" lon="111.82913">
        <ele>1436.1818</ele>
        <time>2014-07-19T22:26:12.022000Z</time>
      </trkpt>
      <trkpt lat="38.899113" lon="111.82913">
        <ele>1434.8177</ele>
        <time>2014-07-19T22:26:15.159000Z</time>
      </trkpt>
      <trkpt lat="38.899235" lon="111.82913">
        <ele>1433.4972</ele>
        <time>2014-07-19T22:26:18.296000Z</time>
      </trkpt>
      <trkpt lat="38.89933" lon="111.82918">
        <ele>1432.6339</ele>
        <time>2014-07-19T22:26:21.433000Z</time>
      </trkpt>
      <trkpt lat="38.89939" lon="111.82928">
        <ele>1432.21</ele>
        <time>2014-07-19T22:26:24.570000Z</time>
      </trkpt>
      <trkpt lat="38.899437" lon="111.829414">
        <ele>1431.6294</ele>
        <time>2014-07-19T22:26:27.707000Z</time>
      </trkpt>
      <trkpt lat="38.899487" lon="111.82953">
        <ele>1430.5469</ele>
        <time>2014-07-19T22:26:30.844000Z</time>
      </trkpt>
      <trkpt lat="38.89955" lon="111.829636">
        <ele>1429.553</ele>
        <time>2014-07-19T22:26:33.981000Z</time>
      </trkpt>
      <trkpt lat="38.89962" lon="111.82976">
        <ele>1429.2119</ele>
        <time>2014-07-19T22:26:37.118000Z</time>
      </trkpt>
      <trkpt lat="38.899673" lon="111.82986">
        <ele>1429.5422</ele>
        <time>2014-07-19T22:26:40.255000Z</time>
      </trkpt>
      <trkpt lat="38.89972" lon="111.82997">
        <ele>1430.4907</ele>
        <time>2014-07-19T22:26:43.392000Z</time>
      </trkpt>
      <trkpt lat="38.89977" lon="111.83007">
        <ele>1431.7451</ele>
        <time>2014-07-19T22:26:46.529000Z</time>
      </trkpt>
      <trkpt lat="38.899837" lon="111.83019">
        <ele>1432.8187</ele>
        <time>2014-07-19T22:26:49.666000Z</time>
      </trkpt>
      <trkpt lat="38.899887" lon="111.83029">
        <ele>1433.47</ele>
        <time>2014-07-19T22:26:52.803000Z</time>
      </trkpt>
      <trkpt lat="38.899933" lon="111.83042">
        <ele>1433.6638</ele>
        <time>2014-07-19T22:26:55.940000Z</time>
      </trkpt>
      <trkpt lat="38.899963" lon="111.830536">
        <ele>1433.4994</ele>
        <time>2014-07-19T22:26:59.077000Z</time>
      </trkpt>
      <trkpt lat="38.899998" lon="111.83066">
        <ele>1433.2067</ele>
        <time>2014-07-19T22:27:02.214000Z</time>
      </trkpt>
      <trkpt lat="38.900047" lon="111.83077">
        <ele>1432.9651</ele>
        <time>2014-07-19T22:27:05.351000Z</time>
      </trkpt>
      <trkpt lat="38.900112" lon="111.83091">
        <ele>1432.8367</ele>
        <time>2014-07-19T22:27:08.488000Z</time>
      </trkpt>
      <trkpt lat="38.90016" lon="111.83105">
        <ele>1432.8005</ele>
        <time>2014-07-19T22:27:11.625000Z</time>
      </trkpt>
      <trkpt lat="38.90021" lon="111.83119">
        <ele>1432.7944</ele>
        <time>2014-07-19T22:27:14.762000Z</time>
      </trkpt>
      <trkpt lat="38.90025" lon="111.83131">
        <ele>1432.7386</ele>
        <time>2014-07-19T22:27:17.899000Z</time>
      </trkpt>
      <trkpt lat="38.900295" lon="111.831436">
        <ele>1432.751</ele>
        <time>2014-07-19T22:27:21.036000Z</time>
      </trkpt>
      <trkpt lat="38.900322" lon="111.831566">
        <ele>1432.8317</ele>
        <time>2014-07-19T22:27:24.173000Z</time>
      </trkpt>
      <trkpt lat="38.900337" lon="111.83171">
        <ele>1432.6606</ele>
        <time>2014-07-19T22:27:27.310000Z</time>
      </trkpt>
      <trkpt lat="38.900352" lon="111.83183">
        <ele>1432.1588</ele>
        <time>2014-07-19T22:27:30.447000Z</time>
      </trkpt>
      <trkpt lat="38.900387" lon="111.83196">
        <ele>1431.5591</ele>
        <time>2014-07-19T22:27:33.584000Z</time>
      </trkpt>
      <trkpt lat="38.900425" lon="111.83209">
        <ele>1430.6705</ele>
        <time>2014-07-19T22:27:36.721000Z</time>
      </trkpt>
      <trkpt lat="38.900455" lon="111.83221">
        <ele>1429.7853</ele>
        <time>2014-07-19T22:27:39.858000Z</time>
      </trkpt>
      <trkpt lat="38.900486" lon="111.83235">
        <ele>1429.7405</ele>
        <time>2014-07-19T22:27:42.995000Z</time>
      </trkpt>
      <trkpt lat="38.90052" lon="111.83249">
        <ele>1430.4388</ele>
        <time>2014-07-19T22:27:46.132000Z</time>
      </trkpt>
      <trkpt lat="38.90056" lon="111.8326">
        <ele>1430.7322</ele>
        <time>2014-07-19T22:27:49.269000Z</time>
      </trkpt>
      <trkpt lat="38.900604" lon="111.832726">
        <ele>1430.1073</ele>
        <time>2014-07-19T22:27:52.406000Z</time>
      </trkpt>
      <trkpt lat="38.900635" lon="111.83284">
        <ele>1429.1855</ele>
        <time>2014-07-19T22:27:55.543000Z</time>
      </trkpt>
      <trkpt lat="38.90066" lon="111.83296">
        <ele>1428.4633</ele>
        <time>2014-07-19T22:27:58.680000Z</time>
      </trkpt>
      <trkpt lat="38.90069" lon="111.833084">
        <ele>1427.6312</ele>
        <time>2014-07-19T22:28:01.817000Z</time>
      </trkpt>
      <trkpt lat="38.900692" lon="111.833206">
        <ele>1426.7068</ele>
        <time>2014-07-19T22:28:04.954000Z</time>
      </trkpt>
      <trkpt lat="38.90078" lon="111.83327">
        <ele>1426.2333</ele>
        <time>2014-07-19T22:28:08.091000Z</time>
      </trkpt>
      <trkpt lat="38.900864" lon="111.83335">
        <ele>1426.4508</ele>
        <time>2014-07-19T22:28:11.228000Z</time>
      </trkpt>
      <trkpt lat="38.900875" lon="111.83348">
        <ele>1427.2805</ele>
        <time>2014-07-19T22:28:14.365000Z</time>
      </trkpt>
      <trkpt lat="38.900875" lon="111.8336">
        <ele>1428.6178</ele>
        <time>2014-07-19T22:28:17.502000Z</time>
      </trkpt>
      <trkpt lat="38.900906" lon="111.83372">
        <ele>1430.065</ele>
        <time>2014-07-19T22:28:20.639000Z</time>
      </trkpt>
      <trkpt lat="38.900932" lon="111.83387">
        <ele>1430.45</ele>
        <time>2014-07-19T22:28:23.776000Z</time>
      </trkpt>
      <trkpt lat="38.900955" lon="111.83399">
        <ele>1429.2921</ele>
        <time>2014-07-19T22:28:26.913000Z</time>
      </trkpt>
      <trkpt lat="38.900978" lon="111.83413">
        <ele>1427.8108</ele>
        <time>2014-07-19T22:28:30.050000Z</time>
      </trkpt>
      <trkpt lat="38.901005" lon="111.83425">
        <ele>1427.6461</ele>
        <time>2014-07-19T22:28:33.187000Z</time>
      </trkpt>
      <trkpt lat="38.90103" lon="111.8344">
        <ele>1429.0594</ele>
        <time>2014-07-19T22:28:36.324000Z</time>
      </trkpt>
      <trkpt lat="38.901054" lon="111.83451">
        <ele>1430.8818</ele>
        <time>2014-07-19T22:28:39.461000Z</time>
      </trkpt>
      <trkpt lat="38.901085" lon="111.834656">
        <ele>1431.9576</ele>
        <time>2014-07-19T22:28:42.598000Z</time>
      </trkpt>
      <trkpt lat="38.901108" lon="111.83478">
        <ele>1432.0471</ele>
        <time>2014-07-19T22:28:45.735000Z</time>
      </trkpt>
      <trkpt lat="38.901123" lon="111.83489">
        <ele>1431.4844</ele>
        <time>2014-07-19T22:28:48.872000Z</time>
      </trkpt>
      <trkpt lat="38.901146" lon="111.835014">
        <ele>1430.9235</ele>
        <time>2014-07-19T22:28:52.009000Z</time>
      </trkpt>
      <trkpt lat="38.901176" lon="111.83516">
        <ele>1431.1746</ele>
        <time>2014-07-19T22:28:55.146000Z</time>
      </trkpt>
      <trkpt lat="38.9012" lon="111.83529">
        <ele>1432.3855</ele>
        <time>2014-07-19T22:28:58.283000Z</time>
      </trkpt>
      <trkpt lat="38.901245" lon="111.835396">
        <time>2014-07-19T22:29:01.420000Z</time>
      </trkpt>
    </trkseg>
  </trk>
</gpx>