<?xml version="1.0" encoding="UTF-8"?>
<gpx xmlns="http://www.topografix.com/GPX/1/1" xmlns:gpxtpx="http://www.garmin.com/xmlschemas/TrackPointExtension/v1" xmlns:xsi="http://www.w3.org/2001/XMLSchema-instance" xsi:schemaLocation="http://www.topografix.com/GPX/1/1 http://www.topografix.com/GPX/1/1/gpx.xsd" version="1.1" creator="gpx.py -- https://github.com/tkrajina/gpxpy">
  <trk>
    <trkseg>
      <trkpt lat="38.902008" lon="111.83592">
        <ele>1483.5862</ele>
        <time>2014-07-16T21:54:16.546000Z</time>
      </trkpt>
      <trkpt lat="38.902008" lon="111.83592">
        <ele>1483.2048</ele>
        <time>2014-07-16T21:54:19.816000Z</time>
      </trkpt>
      <trkpt lat="38.902008" lon="111.83592">
        <ele>1482.7854</ele>
        <time>2014-07-16T21:54:23.086000Z</time>
      </trkpt>
      <trkpt lat="38.90209" lon="111.83581">
        <ele>1482.2775</ele>
        <time>2014-07-16T21:54:26.356000Z</time>
      </trkpt>
      <trkpt lat="38.902176" lon="111.83578">
        <ele>1474.5181</ele>
        <time>2014-07-16T21:54:29.626000Z</time>
      </trkpt>
      <trkpt lat="38.902267" lon="111.83573">
        <ele>1454.8506</ele>
        <time>2014-07-16T21:54:32.896000Z</time>
      </trkpt>
      <trkpt lat="38.90236" lon="111.83569">
        <ele>1434.2833</ele>
        <time>2014-07-16T21:54:36.166000Z</time>
      </trkpt>
      <trkpt lat="38.902454" lon="111.83564">
        <ele>1423.7762</ele>
        <time>2014-07-16T21:54:39.436000Z</time>
      </trkpt>
      <trkpt lat="38.902534" lon="111.83559">
        <ele>1420.7935</ele>
        <time>2014-07-16T21:54:42.706000Z</time>
      </trkpt>
      <trkpt lat="38.90263" lon="111.83559">
        <ele>1420.4669</ele>
        <time>2014-07-16T21:54:45.976000Z</time>
      </trkpt>
      <trkpt lat="38.90267" lon="111.835724">
        <ele>1421.4641</ele>
        <time>2014-07-16T21:54:49.246000Z</time>
      </trkpt>
      <trkpt lat="38.902718" lon="111.83584">
        <ele>1424.0585</ele>
        <time>2014-07-16T21:54:52.516000Z</time>
      </trkpt>
      <trkpt lat="38.90276" lon="111.83598">
        <ele>1427.2288</ele>
        <time>2014-07-16T21:54:55.786000Z</time>
      </trkpt>
      <trkpt lat="38.902798" lon="111.8361">
        <ele>1429.6978</ele>
        <time>2014-07-16T21:54:59.056000Z</time>
      </trkpt>
      <trkpt lat="38.902824" lon="111.83622">
        <ele>1430.2673</ele>
        <time>2014-07-16T21:55:02.326000Z</time>
      </trkpt>
      <trkpt lat="38.902863" lon="111.83637">
        <ele>1428.6034</ele>
        <time>2014-07-16T21:55:05.596000Z</time>
      </trkpt>
      <trkpt lat="38.90289" lon="111.83652">
        <ele>1426.6666</ele>
        <time>2014-07-16T21:55:08.866000Z</time>
      </trkpt>
      <trkpt lat="38.902935" lon="111.83664">
        <ele>1426.1624</ele>
        <time>2014-07-16T21:55:12.136000Z</time>
      </trkpt>
      <trkpt lat="38.90299" lon="111.836754">
        <ele>1426.6923</ele>
        <time>2014-07-16T21:55:15.406000Z</time>
      </trkpt>
      <trkpt lat="38.90303" lon="111.83691">
        <ele>1427.3406</ele>
        <time>2014-07-16T21:55:18.676000Z</time>
      </trkpt>
      <trkpt lat="38.903084" lon="111.83704">
        <ele>1427.7114</ele>
        <time>2014-07-16T21:55:21.946000Z</time>
      </trkpt>
      <trkpt lat="38.90313" lon="111.83717">
        <ele>1427.71</ele>
        <time>2014-07-16T21:55:25.216000Z</time>
      </trkpt>
      <trkpt lat="38.903164" lon="111.83729">
        <ele>1427.4143</ele>
        <time>2014-07-16T21:55:28.486000Z</time>
      </trkpt>
      <trkpt lat="38.903214" lon="111.83739">
        <ele>1427.3407</ele>
        <time>2014-07-16T21:55:31.756000Z</time>
      </trkpt>
      <trkpt lat="38.90326" lon="111.83752">
        <ele>1427.9192</ele>
        <time>2014-07-16T21:55:35.026000Z</time>
      </trkpt>
      <trkpt lat="38.903297" lon="111.83765">
        <ele>1428.6987</ele>
        <time>2014-07-16T21:55:38.296000Z</time>
      </trkpt>
      <trkpt lat="38.903328" lon="111.83776">
        <ele>1429.1019</ele>
        <time>2014-07-16T21:55:41.566000Z</time>
      </trkpt>
      <trkpt lat="38.903347" lon="111.83789">
        <ele>1428.9844</ele>
        <time>2014-07-16T21:55:44.836000Z</time>
      </trkpt>
      <trkpt lat="38.903393" lon="111.838005">
        <ele>1428.535</ele>
        <time>2014-07-16T21:55:48.106000Z</time>
      </trkpt>
      <trkpt lat="38.903435" lon="111.83812">
        <ele>1428.0981</ele>
        <time>2014-07-16T21:55:51.376000Z</time>
      </trkpt>
      <trkpt lat="38.903435" lon="111.83812">
        <ele>1427.6543</ele>
        <time>2014-07-16T21:55:54.646000Z</time>
      </trkpt>
      <trkpt lat="38.903503" lon="111.838234">
        <ele>1427.0499</ele>
        <time>2014-07-16T21:55:57.916000Z</time>
      </trkpt>
      <trkpt lat="38.90354" lon="111.838356">
        <ele>1426.5839</ele>
        <time>2014-07-16T21:56:01.186000Z</time>
      </trkpt>
      <trkpt lat="38.90354" lon="111.838356">
        <ele>1426.4486</ele>
        <time>2014-07-16T21:56:04.456000Z</time>
      </trkpt>
      <trkpt lat="38.903584" lon="111.83847">
        <ele>1426.5029</ele>
        <time>2014-07-16T21:56:07.726000Z</time>
      </trkpt>
      <trkpt lat="38.903645" lon="111.8386">
        <ele>1427.0172</ele>
        <time>2014-07-16T21:56:10.996000Z</time>
      </trkpt>
      <trkpt lat="38.90368" lon="111.83875">
        <ele>1428.1941</ele>
        <time>2014-07-16T21:56:14.266000Z</time>
      </trkpt>
      <trkpt lat="38.903717" lon="111.83889">
        <ele>1429.3989</ele>
        <time>2014-07-16T21:56:17.536000Z</time>
      </trkpt>
      <trkpt lat="38.903748" lon="111.83901">
        <ele>1429.9017</ele>
        <time>2014-07-16T21:56:20.806000Z</time>
      </trkpt>
      <trkpt lat="38.90379" lon="111.83912">
        <ele>1429.7347</ele>
        <time>2014-07-16T21:56:24.076000Z</time>
      </trkpt>
      <trkpt lat="38.90382" lon="111.839226">
        <ele>1429.0767</ele>
        <time>2014-07-16T21:56:27.346000Z</time>
      </trkpt>
      <trkpt lat="38.903854" lon="111.83934">
        <ele>1428.1412</ele>
        <time>2014-07-16T21:56:30.616000Z</time>
      </trkpt>
      <trkpt lat="38.90389" lon="111.839455">
        <ele>1427.3567</ele>
        <time>2014-07-16T21:56:33.886000Z</time>
      </trkpt>
      <trkpt lat="38.903927" lon="111.83958">
        <ele>1427.0234</ele>
        <time>2014-07-16T21:56:37.156000Z</time>
      </trkpt>
      <trkpt lat="38.90398" lon="111.83971">
        <ele>1426.8391</ele>
        <time>2014-07-16T21:56:40.426000Z</time>
      </trkpt>
      <trkpt lat="38.904045" lon="111.839836">
        <ele>1426.5137</ele>
        <time>2014-07-16T21:56:43.696000Z</time>
      </trkpt>
      <trkpt lat="38.904163" lon="111.839874">
        <ele>1426.5804</ele>
        <time>2014-07-16T21:56:46.966000Z</time>
      </trkpt>
      <trkpt lat="38.904278" lon="111.83982">
        <ele>1427.4845</ele>
        <time>2014-07-16T21:56:50.236000Z</time>
      </trkpt>
      <trkpt lat="38.904377" lon="111.83976">
        <ele>1428.3038</ele>
        <time>2014-07-16T21:56:53.506000Z</time>
      </trkpt>
      <trkpt lat="38.90447" lon="111.839714">
        <ele>1427.3965</ele>
        <time>2014-07-16T21:56:56.776000Z</time>
      </trkpt>
      <trkpt lat="38.904575" lon="111.83965">
        <ele>1424.7494</ele>
        <time>2014-07-16T21:57:00.046000Z</time>
      </trkpt>
      <trkpt lat="38.904663" lon="111.8396">
        <ele>1422.2192</ele>
        <time>2014-07-16T21:57:03.316000Z</time>
      </trkpt>
      <trkpt lat="38.904747" lon="111.83955">
        <ele>1421.4258</ele>
        <time>2014-07-16T21:57:06.586000Z</time>
      </trkpt>
      <trkpt lat="38.90485" lon="111.839485">
        <ele>1421.8945</ele>
        <time>2014-07-16T21:57:09.856000Z</time>
      </trkpt>
      <trkpt lat="38.90495" lon="111.839424">
        <ele>1422.3667</ele>
        <time>2014-07-16T21:57:13.126000Z</time>
      </trkpt>
      <trkpt lat="38.905037" lon="111.83938">
        <ele>1422.3762</ele>
        <time>2014-07-16T21:57:16.396000Z</time>
      </trkpt>
      <trkpt lat="38.90515" lon="111.83932">
        <ele>1421.9285</ele>
        <time>2014-07-16T21:57:19.666000Z</time>
      </trkpt>
      <trkpt lat="38.905247" lon="111.839264">
        <ele>1421.0642</ele>
        <time>2014-07-16T21:57:22.936000Z</time>
      </trkpt>
      <trkpt lat="38.90535" lon="111.83921">
        <ele>1420.9684</ele>
        <time>2014-07-16T21:57:26.206000Z</time>
      </trkpt>
      <trkpt lat="38.90545" lon="111.83916">
        <ele>1422.6958</ele>
        <time>2014-07-16T21:57:29.476000Z</time>
      </trkpt>
      <trkpt lat="38.90556" lon="111.8391">
        <ele>1425.3295</ele>
        <time>2014-07-16T21:57:32.746000Z</time>
      </trkpt>
      <trkpt lat="38.905643" lon="111.839066">
        <ele>1426.6843</ele>
        <time>2014-07-16T21:57:36.016000Z</time>
      </trkpt>
      <trkpt lat="38.905743" lon="111.83899">
        <ele>1426.0437</ele>
        <time>2014-07-16T21:57:39.286000Z</time>
      </trkpt>
      <trkpt lat="38.905857" lon="111.838905">
        <ele>1424.7422</ele>
        <time>2014-07-16T21:57:42.556000Z</time>
      </trkpt>
      <trkpt lat="38.905945" lon="111.83885">
        <ele>1424.2451</ele>
        <time>2014-07-16T21:57:45.826000Z</time>
      </trkpt>
      <trkpt lat="38.906025" lon="111.83879">
        <ele>1424.9987</ele>
        <time>2014-07-16T21:57:49.096000Z</time>
      </trkpt>
      <trkpt lat="38.906113" lon="111.83876">
        <ele>1426.531</ele>
        <time>2014-07-16T21:57:52.366000Z</time>
      </trkpt>
      <trkpt lat="38.90622" lon="111.838715">
        <ele>1427.6548</ele>
        <time>2014-07-16T21:57:55.636000Z</time>
      </trkpt>
      <trkpt lat="38.906303" lon="111.838646">
        <ele>1427.778</ele>
        <time>2014-07-16T21:57:58.906000Z</time>
      </trkpt>
      <trkpt lat="38.9064" lon="111.83857">
        <ele>1427.5966</ele>
        <time>2014-07-16T21:58:02.176000Z</time>
      </trkpt>
      <trkpt lat="38.906494" lon="111.8385">
        <ele>1427.7961</ele>
        <time>2014-07-16T21:58:05.446000Z</time>
      </trkpt>
      <trkpt lat="38.906574" lon="111.83844">
        <ele>1428.1752</ele>
        <time>2014-07-16T21:58:08.716000Z</time>
      </trkpt>
      <trkpt lat="38.90668" lon="111.83838">
        <ele>1428.2635</ele>
        <time>2014-07-16T21:58:11.986000Z</time>
      </trkpt>
      <trkpt lat="38.906776" lon="111.83834">
        <ele>1427.7949</ele>
        <time>2014-07-16T21:58:15.256000Z</time>
      </trkpt>
      <trkpt lat="38.90688" lon="111.838326">
        <ele>1426.6323</ele>
        <time>2014-07-16T21:58:18.526000Z</time>
      </trkpt>
      <trkpt lat="38.90698" lon="111.838295">
        <ele>1425.1542</ele>
        <time>2014-07-16T21:58:21.796000Z</time>
      </trkpt>
      <trkpt lat="38.90707" lon="111.838264">
        <ele>1423.6619</ele>
        <time>2014-07-16T21:58:25.066000Z</time>
      </trkpt>
      <trkpt lat="38.90716" lon="111.838234">
        <ele>1422.1675</ele>
        <time>2014-07-16T21:58:28.336000Z</time>
      </trkpt>
      <trkpt lat="38.907265" lon="111.83819">
        <ele>1421.0125</ele>
        <time>2014-07-16T21:58:31.606000Z</time>
      </trkpt>
      <trkpt lat="38.907368" lon="111.83813">
        <ele>1420.4634</ele>
        <time>2014-07-16T21:58:34.876000Z</time>
      </trkpt>
      <trkpt lat="38.907475" lon="111.838066">
        <ele>1420.1017</ele>
        <time>2014-07-16T21:58:38.146000Z</time>
      </trkpt>
      <trkpt lat="38.90756" lon="111.83801">
        <ele>1419.6051</ele>
        <time>2014-07-16T21:58:41.416000Z</time>
      </trkpt>
      <trkpt lat="38.90765" lon="111.837975">
        <ele>1419.104</ele>
        <time>2014-07-16T21:58:44.686000Z</time>
      </trkpt>
      <trkpt lat="38.90774" lon="111.83792">
        <ele>1418.9125</ele>
        <time>2014-07-16T21:58:47.956000Z</time>
      </trkpt>
      <trkpt lat="38.90783" lon="111.83788">
        <ele>1419.1088</ele>
        <time>2014-07-16T21:58:51.226000Z</time>
      </trkpt>
      <trkpt lat="38.907932" lon="111.83784">
        <ele>1419.4789</ele>
        <time>2014-07-16T21:58:54.496000Z</time>
      </trkpt>
      <trkpt lat="38.908028" lon="111.837776">
        <ele>1419.8438</ele>
        <time>2014-07-16T21:58:57.766000Z</time>
      </trkpt>
      <trkpt lat="38.908123" lon="111.83771">
        <ele>1420.1947</ele>
        <time>2014-07-16T21:59:01.036000Z</time>
      </trkpt>
      <trkpt lat="38.908222" lon="111.837654">
        <ele>1420.8142</ele>
        <time>2014-07-16T21:59:04.306000Z</time>
      </trkpt>
      <trkpt lat="38.90831" lon="111.8376">
        <ele>1421.8419</ele>
        <time>2014-07-16T21:59:07.576000Z</time>
      </trkpt>
      <trkpt lat="38.908405" lon="111.837555">
        <ele>1422.6917</ele>
        <time>2014-07-16T21:59:10.846000Z</time>
      </trkpt>
      <trkpt lat="38.908516" lon="111.83748">
        <ele>1422.6896</ele>
        <time>2014-07-16T21:59:14.116000Z</time>
      </trkpt>
      <trkpt lat="38.90861" lon="111.837425">
        <ele>1422.0472</ele>
        <time>2014-07-16T21:59:17.386000Z</time>
      </trkpt>
      <trkpt lat="38.908688" lon="111.83734">
        <ele>1421.5186</ele>
        <time>2014-07-16T21:59:20.656000Z</time>
      </trkpt>
      <trkpt lat="38.908783" lon="111.83729">
        <ele>1421.5162</ele>
        <time>2014-07-16T21:59:23.926000Z</time>
      </trkpt>
      <trkpt lat="38.9089" lon="111.837234">
        <ele>1421.7865</ele>
        <time>2014-07-16T21:59:27.196000Z</time>
      </trkpt>
      <trkpt lat="38.909008" lon="111.837204">
        <ele>1422.1874</ele>
        <time>2014-07-16T21:59:30.466000Z</time>
      </trkpt>
      <trkpt lat="38.909092" lon="111.837265">
        <ele>1422.7603</ele>
        <time>2014-07-16T21:59:33.736000Z</time>
      </trkpt>
      <trkpt lat="38.909115" lon="111.83738">
        <ele>1423.2611</ele>
        <time>2014-07-16T21:59:37.006000Z</time>
      </trkpt>
      <trkpt lat="38.909138" lon="111.8375">
        <ele>1423.891</ele>
        <time>2014-07-16T21:59:40.276000Z</time>
      </trkpt>
      <trkpt lat="38.909187" lon="111.837654">
        <ele>1424.9935</ele>
        <time>2014-07-16T21:59:43.546000Z</time>
      </trkpt>
      <trkpt lat="38.909218" lon="111.83779">
        <ele>1425.8231</ele>
        <time>2014-07-16T21:59:46.816000Z</time>
      </trkpt>
      <trkpt lat="38.90924" lon="111.83793">
        <ele>1425.6486</ele>
        <time>2014-07-16T21:59:50.086000Z</time>
      </trkpt>
      <trkpt lat="38.909264" lon="111.83804">
        <ele>1424.885</ele>
        <time>2014-07-16T21:59:53.356000Z</time>
      </trkpt>
      <trkpt lat="38.909294" lon="111.83817">
        <ele>1424.1779</ele>
        <time>2014-07-16T21:59:56.626000Z</time>
      </trkpt>
      <trkpt lat="38.909332" lon="111.838295">
        <ele>1424.1752</ele>
        <time>2014-07-16T21:59:59.896000Z</time>
      </trkpt>
      <trkpt lat="38.90937" lon="111.838425">
        <ele>1425.9697</ele>
        <time>2014-07-16T22:00:03.166000Z</time>
      </trkpt>
      <trkpt lat="38.909416" lon="111.838554">
        <ele>1429.5011</ele>
        <time>2014-07-16T22:00:06.436000Z</time>
      </trkpt>
      <trkpt lat="38.90945" lon="111.83867">
        <ele>1432.7584</ele>
        <time>2014-07-16T22:00:09.706000Z</time>
      </trkpt>
      <trkpt lat="38.9095" lon="111.838776">
        <ele>1434.2349</ele>
        <time>2014-07-16T22:00:12.976000Z</time>
      </trkpt>
      <trkpt lat="38.909546" lon="111.83889">
        <ele>1433.6055</ele>
        <time>2014-07-16T22:00:16.246000Z</time>
      </trkpt>
      <trkpt lat="38.90958" lon="111.83905">
        <ele>1431.3373</ele>
        <time>2014-07-16T22:00:19.516000Z</time>
      </trkpt>
      <trkpt lat="38.909603" lon="111.83917">
        <ele>1429.0692</ele>
        <time>2014-07-16T22:00:22.786000Z</time>
      </trkpt>
      <trkpt lat="38.90964" lon="111.83931">
        <ele>1428.0878</ele>
        <time>2014-07-16T22:00:26.056000Z</time>
      </trkpt>
      <trkpt lat="38.90969" lon="111.83948">
        <ele>1428.1401</ele>
        <time>2014-07-16T22:00:29.326000Z</time>
      </trkpt>
      <trkpt lat="38.909737" lon="111.8396">
        <ele>1429.5247</ele>
        <time>2014-07-16T22:00:32.596000Z</time>
      </trkpt>
      <trkpt lat="38.909782" lon="111.83974">
        <ele>1433.1357</ele>
        <time>2014-07-16T22:00:35.866000Z</time>
      </trkpt>
      <trkpt lat="38.909817" lon="111.83988">
        <ele>1437.8434</ele>
        <time>2014-07-16T22:00:39.136000Z</time>
      </trkpt>
      <trkpt lat="38.90985" lon="111.84">
        <ele>1441.1097</ele>
        <time>2014-07-16T22:00:42.406000Z</time>
      </trkpt>
      <trkpt lat="38.9099" lon="111.84013">
        <ele>1442.0687</ele>
        <time>2014-07-16T22:00:45.676000Z</time>
      </trkpt>
      <trkpt lat="38.909935" lon="111.84029">
        <ele>1441.189</ele>
        <time>2014-07-16T22:00:48.946000Z</time>
      </trkpt>
      <trkpt lat="38.90996" lon="111.84043">
        <ele>1438.7566</ele>
        <time>2014-07-16T22:00:52.216000Z</time>
      </trkpt>
      <trkpt lat="38.909985" lon="111.84057">
        <ele>1434.964</ele>
        <time>2014-07-16T22:00:55.486000Z</time>
      </trkpt>
      <trkpt lat="38.910004" lon="111.8407">
        <ele>1430.3994</ele>
        <time>2014-07-16T22:00:58.756000Z</time>
      </trkpt>
      <trkpt lat="38.910027" lon="111.84083">
        <ele>1426.3638</ele>
        <time>2014-07-16T22:01:02.026000Z</time>
      </trkpt>
      <trkpt lat="38.910057" lon="111.84096">
        <ele>1424.1133</ele>
        <time>2014-07-16T22:01:05.296000Z</time>
      </trkpt>
      <trkpt lat="38.910072" lon="111.84111">
        <ele>1423.6412</ele>
        <time>2014-07-16T22:01:08.566000Z</time>
      </trkpt>
      <trkpt lat="38.910145" lon="111.8412">
        <ele>1424.1016</ele>
        <time>2014-07-16T22:01:11.836000Z</time>
      </trkpt>
      <trkpt lat="38.910202" lon="111.84129">
        <ele>1425.8252</ele>
        <time>2014-07-16T22:01:15.106000Z</time>
      </trkpt>
      <trkpt lat="38.910282" lon="111.84142">
        <ele>1430.2357</ele>
        <time>2014-07-16T22:01:18.376000Z</time>
      </trkpt>
      <trkpt lat="38.91032" lon="111.84159">
        <ele>1437.8523</ele>
        <time>2014-07-16T22:01:21.646000Z</time>
      </trkpt>
      <trkpt lat="38.910347" lon="111.84173">
        <ele>1446.2648</ele>
        <time>2014-07-16T22:01:24.916000Z</time>
      </trkpt>
      <trkpt lat="38.91038" lon="111.84185">
        <ele>1451.5658</ele>
        <time>2014-07-16T22:01:28.186000Z</time>
      </trkpt>
      <trkpt lat="38.910404" lon="111.84197">
        <ele>1452.6085</ele>
        <time>2014-07-16T22:01:31.456000Z</time>
      </trkpt>
      <trkpt lat="38.910416" lon="111.84212">
        <ele>1451.5641</ele>
        <time>2014-07-16T22:01:34.726000Z</time>
      </trkpt>
      <trkpt lat="38.91041" lon="111.84225">
        <ele>1449.9427</ele>
        <time>2014-07-16T22:01:37.996000Z</time>
      </trkpt>
      <trkpt lat="38.910442" lon="111.84236">
        <ele>1447.077</ele>
        <time>2014-07-16T22:01:41.266000Z</time>
      </trkpt>
      <trkpt lat="38.91048" lon="111.84249">
        <ele>1443.0306</ele>
        <time>2014-07-16T22:01:44.536000Z</time>
      </trkpt>
      <trkpt lat="38.91053" lon="111.84263">
        <ele>1439.93</ele>
        <time>2014-07-16T22:01:47.806000Z</time>
      </trkpt>
      <trkpt lat="38.91057" lon="111.84277">
        <ele>1439.091</ele>
        <time>2014-07-16T22:01:51.076000Z</time>
      </trkpt>
      <trkpt lat="38.910595" lon="111.84291">
        <ele>1439.9836</ele>
        <time>2014-07-16T22:01:54.346000Z</time>
      </trkpt>
      <trkpt lat="38.91063" lon="111.84303">
        <ele>1441.2715</ele>
        <time>2014-07-16T22:01:57.616000Z</time>
      </trkpt>
      <trkpt lat="38.910652" lon="111.843155">
        <ele>1441.6099</ele>
        <time>2014-07-16T22:02:00.886000Z</time>
      </trkpt>
      <trkpt lat="38.910675" lon="111.84327">
        <ele>1440.75</ele>
        <time>2014-07-16T22:02:04.156000Z</time>
      </trkpt>
      <trkpt lat="38.9107" lon="111.84342">
        <ele>1439.465</ele>
        <time>2014-07-16T22:02:07.426000Z</time>
      </trkpt>
      <trkpt lat="38.91073" lon="111.84359">
        <ele>1438.7621</ele>
        <time>2014-07-16T22:02:10.696000Z</time>
      </trkpt>
      <trkpt lat="38.91075" lon="111.84374">
        <ele>1439.178</ele>
        <time>2014-07-16T22:02:13.966000Z</time>
      </trkpt>
      <trkpt lat="38.910755" lon="111.84389">
        <ele>1440.1356</ele>
        <time>2014-07-16T22:02:17.236000Z</time>
      </trkpt>
      <trkpt lat="38.91079" lon="111.84401">
        <ele>1440.0283</ele>
        <time>2014-07-16T22:02:20.506000Z</time>
      </trkpt>
      <trkpt lat="38.910828" lon="111.84414">
        <ele>1438.1743</ele>
        <time>2014-07-16T22:02:23.776000Z</time>
      </trkpt>
      <trkpt lat="38.91087" lon="111.84426">
        <ele>1436.022</ele>
        <time>2014-07-16T22:02:27.046000Z</time>
      </trkpt>
      <trkpt lat="38.9109" lon="111.844406">
        <ele>1435.043</ele>
        <time>2014-07-16T22:02:30.316000Z</time>
      </trkpt>
      <trkpt lat="38.91094" lon="111.84453">
        <ele>1435.1881</ele>
        <time>2014-07-16T22:02:33.586000Z</time>
      </trkpt>
      <trkpt lat="38.91097" lon="111.84467">
        <ele>1435.7445</ele>
        <time>2014-07-16T22:02:36.856000Z</time>
      </trkpt>
      <trkpt lat="38.91099" lon="111.8448">
        <ele>1435.7976</ele>
        <time>2014-07-16T22:02:40.126000Z</time>
      </trkpt>
      <trkpt lat="38.91101" lon="111.84495">
        <ele>1435.122</ele>
        <time>2014-07-16T22:02:43.396000Z</time>
      </trkpt>
      <trkpt lat="38.911037" lon="111.84509">
        <ele>1434.2085</ele>
        <time>2014-07-16T22:02:46.666000Z</time>
      </trkpt>
      <trkpt lat="38.911068" lon="111.845215">
        <ele>1433.4181</ele>
        <time>2014-07-16T22:02:49.936000Z</time>
      </trkpt>
      <trkpt lat="38.911083" lon="111.84534">
        <ele>1432.5743</ele>
        <time>2014-07-16T22:02:53.206000Z</time>
      </trkpt>
      <trkpt lat="38.91112" lon="111.845474">
        <ele>1431.545</ele>
        <time>2014-07-16T22:02:56.476000Z</time>
      </trkpt>
      <trkpt lat="38.91116" lon="111.84562">
        <ele>1430.6781</ele>
        <time>2014-07-16T22:02:59.746000Z</time>
      </trkpt>
      <trkpt lat="38.911175" lon="111.84573">
        <ele>1430.8132</ele>
        <time>2014-07-16T22:03:03.016000Z</time>
      </trkpt>
      <trkpt lat="38.911205" lon="111.845894">
        <ele>1432.364</ele>
        <time>2014-07-16T22:03:06.286000Z</time>
      </trkpt>
      <trkpt lat="38.91125" lon="111.84604">
        <ele>1434.4725</ele>
        <time>2014-07-16T22:03:09.556000Z</time>
      </trkpt>
      <trkpt lat="38.91132" lon="111.84617">
        <ele>1436.0215</ele>
        <time>2014-07-16T22:03:12.826000Z</time>
      </trkpt>
      <trkpt lat="38.911377" lon="111.84627">
        <ele>1436.8677</ele>
        <time>2014-07-16T22:03:16.096000Z</time>
      </trkpt>
      <trkpt lat="38.911415" lon="111.846405">
        <ele>1437.1603</ele>
        <time>2014-07-16T22:03:19.366000Z</time>
      </trkpt>
      <trkpt lat="38.911434" lon="111.846535">
        <ele>1436.5629</ele>
        <time>2014-07-16T22:03:22.636000Z</time>
      </trkpt>
      <trkpt lat="38.911446" lon="111.846695">
        <ele>1434.9493</ele>
        <time>2014-07-16T22:03:25.906000Z</time>
      </trkpt>
      <trkpt lat="38.911488" lon="111.846855">
        <ele>1433.2734</ele>
        <time>2014-07-16T22:03:29.176000Z</time>
      </trkpt>
      <trkpt lat="38.9115" lon="111.84698">
        <ele>1432.4232</ele>
        <time>2014-07-16T22:03:32.446000Z</time>
      </trkpt>
      <trkpt lat="38.911522" lon="111.84711">
        <ele>1431.7356</ele>
        <time>2014-07-16T22:03:35.716000Z</time>
      </trkpt>
      <trkpt lat="38.911545" lon="111.84725">
        <ele>1430.5522</ele>
        <time>2014-07-16T22:03:38.986000Z</time>
      </trkpt>
      <trkpt lat="38.911568" lon="111.847374">
        <ele>1429.5791</ele>
        <time>2014-07-16T22:03:42.256000Z</time>
      </trkpt>
      <trkpt lat="38.911594" lon="111.84752">
        <ele>1429.4615</ele>
        <time>2014-07-16T22:03:45.526000Z</time>
      </trkpt>
      <trkpt lat="38.91163" lon="111.847664">
        <ele>1429.6505</ele>
        <time>2014-07-16T22:03:48.796000Z</time>
      </trkpt>
      <trkpt lat="38.911663" lon="111.8478">
        <ele>1429.5493</ele>
        <time>2014-07-16T22:03:52.066000Z</time>
      </trkpt>
      <trkpt lat="38.911697" lon="111.84793">
        <ele>1429.5493</ele>
        <time>2014-07-16T22:03:55.336000Z</time>
      </trkpt>
      <trkpt lat="38.911724" lon="111.84807">
        <ele>1430.4019</ele>
        <time>2014-07-16T22:03:58.606000Z</time>
      </trkpt>
      <trkpt lat="38.911755" lon="111.84819">
        <ele>1431.889</ele>
        <time>2014-07-16T22:04:01.876000Z</time>
      </trkpt>
      <trkpt lat="38.911785" lon="111.848335">
        <ele>1432.6803</ele>
        <time>2014-07-16T22:04:05.146000Z</time>
      </trkpt>
      <trkpt lat="38.911804" lon="111.84844">
        <ele>1431.9115</ele>
        <time>2014-07-16T22:04:08.416000Z</time>
      </trkpt>
      <trkpt lat="38.911835" lon="111.84858">
        <ele>1429.953</ele>
        <time>2014-07-16T22:04:11.686000Z</time>
      </trkpt>
      <trkpt lat="38.911854" lon="111.84872">
        <ele>1427.7618</ele>
        <time>2014-07-16T22:04:14.956000Z</time>
      </trkpt>
      <trkpt lat="38.911892" lon="111.848854">
        <ele>1426.219</ele>
        <time>2014-07-16T22:04:18.226000Z</time>
      </trkpt>
      <trkpt lat="38.91193" lon="111.84898">
        <ele>1425.9617</ele>
        <time>2014-07-16T22:04:21.496000Z</time>
      </trkpt>
      <trkpt lat="38.911964" lon="111.849106">
        <ele>1426.9132</ele>
        <time>2014-07-16T22:04:24.766000Z</time>
      </trkpt>
      <trkpt lat="38.912006" lon="111.84925">
        <ele>1428.3068</ele>
        <time>2014-07-16T22:04:28.036000Z</time>
      </trkpt>
      <trkpt lat="38.912045" lon="111.849396">
        <ele>1429.3575</ele>
        <time>2014-07-16T22:04:31.306000Z</time>
      </trkpt>
      <trkpt lat="38.912052" lon="111.84953">
        <ele>1429.534</ele>
        <time>2014-07-16T22:04:34.575000Z</time>
      </trkpt>
      <trkpt lat="38.912064" lon="111.849686">
        <ele>1428.7913</ele>
        <time>2014-07-16T22:04:37.844000Z</time>
      </trkpt>
      <trkpt lat="38.912094" lon="111.849815">
        <ele>1427.8898</ele>
        <time>2014-07-16T22:04:41.113000Z</time>
      </trkpt>
      <trkpt lat="38.912125" lon="111.849945">
        <ele>1427.5095</ele>
        <time>2014-07-16T22:04:44.382000Z</time>
      </trkpt>
      <trkpt lat="38.912155" lon="111.85008">
        <ele>1427.7634</ele>
        <time>2014-07-16T22:04:47.651000Z</time>
      </trkpt>
      <trkpt lat="38.912193" lon="111.85021">
        <ele>1428.4276</ele>
        <time>2014-07-16T22:04:50.920000Z</time>
      </trkpt>
      <trkpt lat="38.912224" lon="111.85035">
        <ele>1428.8137</ele>
        <time>2014-07-16T22:04:54.189000Z</time>
      </trkpt>
      <trkpt lat="38.912254" lon="111.850464">
        <ele>1428.526</ele>
        <time>2014-07-16T22:04:57.458000Z</time>
      </trkpt>
      <trkpt lat="38.912296" lon="111.85059">
        <ele>1428.0768</ele>
        <time>2014-07-16T22:05:00.727000Z</time>
      </trkpt>
      <trkpt lat="38.91233" lon="111.85072">
        <ele>1427.9949</ele>
        <time>2014-07-16T22:05:03.996000Z</time>
      </trkpt>
      <trkpt lat="38.91236" lon="111.85086">
        <ele>1428.5011</ele>
        <time>2014-07-16T22:05:07.265000Z</time>
      </trkpt>
      <trkpt lat="38.91238" lon="111.851">
        <ele>1429.5293</ele>
        <time>2014-07-16T22:05:10.534000Z</time>
      </trkpt>
      <trkpt lat="38.912415" lon="111.85114">
        <ele>1430.4102</ele>
        <time>2014-07-16T22:05:13.803000Z</time>
      </trkpt>
      <trkpt lat="38.91245" lon="111.85128">
        <ele>1430.6313</ele>
        <time>2014-07-16T22:05:17.072000Z</time>
      </trkpt>
      <trkpt lat="38.91247" lon="111.8514">
        <ele>1430.3483</ele>
        <time>2014-07-16T22:05:20.341000Z</time>
      </trkpt>
      <trkpt lat="38.9125" lon="111.851524">
        <ele>1429.6267</ele>
        <time>2014-07-16T22:05:23.610000Z</time>
      </trkpt>
      <trkpt lat="38.912533" lon="111.851654">
        <ele>1428.6234</ele>
        <time>2014-07-16T22:05:26.879000Z</time>
      </trkpt>
      <trkpt lat="38.912563" lon="111.85177">
        <ele>1428.0818</ele>
        <time>2014-07-16T22:05:30.148000Z</time>
      </trkpt>
      <trkpt lat="38.9126" lon="111.85189">
        <ele>1428.4005</ele>
        <time>2014-07-16T22:05:33.417000Z</time>
      </trkpt>
      <trkpt lat="38.912636" lon="111.85204">
        <ele>1429.0762</ele>
        <time>2014-07-16T22:05:36.686000Z</time>
      </trkpt>
      <trkpt lat="38.912666" lon="111.85219">
        <ele>1429.4922</ele>
        <time>2014-07-16T22:05:39.955000Z</time>
      </trkpt>
      <trkpt lat="38.912697" lon="111.852325">
        <ele>1429.5858</ele>
        <time>2014-07-16T22:05:43.224000Z</time>
      </trkpt>
      <trkpt lat="38.91272" lon="111.852455">
        <ele>1429.6906</ele>
        <time>2014-07-16T22:05:46.493000Z</time>
      </trkpt>
      <trkpt lat="38.91275" lon="111.85259">
        <ele>1429.9778</ele>
        <time>2014-07-16T22:05:49.762000Z</time>
      </trkpt>
      <trkpt lat="38.912785" lon="111.8527">
        <ele>1430.2224</ele>
        <time>2014-07-16T22:05:53.031000Z</time>
      </trkpt>
      <trkpt lat="38.912815" lon="111.85285">
        <ele>1430.2808</ele>
        <time>2014-07-16T22:05:56.300000Z</time>
      </trkpt>
      <trkpt lat="38.912846" lon="111.85298">
        <ele>1430.3475</ele>
        <time>2014-07-16T22:05:59.569000Z</time>
      </trkpt>
      <trkpt lat="38.912872" lon="111.85311">
        <ele>1430.7205</ele>
        <time>2014-07-16T22:06:02.838000Z</time>
      </trkpt>
      <trkpt lat="38.912903" lon="111.85325">
        <ele>1431.3278</ele>
        <time>2014-07-16T22:06:06.107000Z</time>
      </trkpt>
      <trkpt lat="38.912937" lon="111.8534">
        <ele>1431.5413</ele>
        <time>2014-07-16T22:06:09.376000Z</time>
      </trkpt>
      <trkpt lat="38.912983" lon="111.853516">
        <ele>1430.9429</ele>
        <time>2014-07-16T22:06:12.645000Z</time>
      </trkpt>
      <trkpt lat="38.91304" lon="111.85363">
        <ele>1430.0835</ele>
        <time>2014-07-16T22:06:15.914000Z</time>
      </trkpt>
      <trkpt lat="38.91309" lon="111.853745">
        <ele>1429.5803</ele>
        <time>2014-07-16T22:06:19.183000Z</time>
      </trkpt>
      <trkpt lat="38.913326" lon="111.85481">
        <ele>1426.8452</ele>
        <time>2014-07-16T22:06:22.452000Z</time>
      </trkpt>
      <trkpt lat="38.913326" lon="111.85481">
        <ele>1426.4092</ele>
        <time>2014-07-16T22:06:25.721000Z</time>
      </trkpt>
      <trkpt lat="38.913216" lon="111.85487">
        <ele>1426.1942</ele>
        <time>2014-07-16T22:06:28.990000Z</time>
      </trkpt>
      <trkpt lat="38.913193" lon="111.85489">
        <ele>1426.7655</ele>
        <time>2014-07-16T22:06:32.259000Z</time>
      </trkpt>
      <trkpt lat="38.91309" lon="111.85495">
        <ele>1428.6233</ele>
        <time>2014-07-16T22:06:35.528000Z</time>
      </trkpt>
      <trkpt lat="38.913006" lon="111.85504">
        <ele>1430.9153</ele>
        <time>2014-07-16T22:06:38.797000Z</time>
      </trkpt>
      <trkpt lat="38.91296" lon="111.855156">
        <ele>1432.4756</ele>
        <time>2014-07-16T22:06:42.066000Z</time>
      </trkpt>
      <trkpt lat="38.912907" lon="111.85526">
        <ele>1433.3588</ele>
        <time>2014-07-16T22:06:45.335000Z</time>
      </trkpt>
      <trkpt lat="38.912865" lon="111.85538">
        <ele>1433.9829</ele>
        <time>2014-07-16T22:06:48.604000Z</time>
      </trkpt>
      <trkpt lat="38.912804" lon="111.85551">
        <ele>1434.4204</ele>
        <time>2014-07-16T22:06:51.873000Z</time>
      </trkpt>
      <trkpt lat="38.912754" lon="111.85561">
        <ele>1434.8074</ele>
        <time>2014-07-16T22:06:55.142000Z</time>
      </trkpt>
      <trkpt lat="38.912693" lon="111.855736">
        <ele>1435.2626</ele>
        <time>2014-07-16T22:06:58.411000Z</time>
      </trkpt>
      <trkpt lat="38.912647" lon="111.85585">
        <ele>1435.5942</ele>
        <time>2014-07-16T22:07:01.680000Z</time>
      </trkpt>
      <trkpt lat="38.9126" lon="111.855965">
        <ele>1435.5297</ele>
        <time>2014-07-16T22:07:04.949000Z</time>
      </trkpt>
      <trkpt lat="38.912556" lon="111.85607">
        <ele>1435.2433</ele>
        <time>2014-07-16T22:07:08.218000Z</time>
      </trkpt>
      <trkpt lat="38.91252" lon="111.856186">
        <ele>1435.4097</ele>
        <time>2014-07-16T22:07:11.487000Z</time>
      </trkpt>
      <trkpt lat="38.91248" lon="111.85629">
        <ele>1436.2081</ele>
        <time>2014-07-16T22:07:14.756000Z</time>
      </trkpt>
      <trkpt lat="38.912437" lon="111.85641">
        <ele>1436.9901</ele>
        <time>2014-07-16T22:07:18.025000Z</time>
      </trkpt>
      <trkpt lat="38.912384" lon="111.85654">
        <ele>1437.3218</ele>
        <time>2014-07-16T22:07:21.294000Z</time>
      </trkpt>
      <trkpt lat="38.912327" lon="111.85664">
        <ele>1437.0947</ele>
        <time>2014-07-16T22:07:24.563000Z</time>
      </trkpt>
      <trkpt lat="38.912262" lon="111.85677">
        <ele>1436.0944</ele>
        <time>2014-07-16T22:07:27.832000Z</time>
      </trkpt>
      <trkpt lat="38.912216" lon="111.85689">
        <ele>1434.8464</ele>
        <time>2014-07-16T22:07:31.101000Z</time>
      </trkpt>
      <trkpt lat="38.912167" lon="111.85701">
        <ele>1434.3129</ele>
        <time>2014-07-16T22:07:34.370000Z</time>
      </trkpt>
      <trkpt lat="38.91211" lon="111.85714">
        <ele>1434.831</ele>
        <time>2014-07-16T22:07:37.639000Z</time>
      </trkpt>
      <trkpt lat="38.912064" lon="111.85724">
        <ele>1436.4745</ele>
        <time>2014-07-16T22:07:40.908000Z</time>
      </trkpt>
      <trkpt lat="38.91201" lon="111.857346">
        <ele>1438.7783</ele>
        <time>2014-07-16T22:07:44.177000Z</time>
      </trkpt>
      <trkpt lat="38.911945" lon="111.857475">
        <ele>1440.5536</ele>
        <time>2014-07-16T22:07:47.446000Z</time>
      </trkpt>
      <trkpt lat="38.911892" lon="111.85762">
        <ele>1441.2039</ele>
        <time>2014-07-16T22:07:50.715000Z</time>
      </trkpt>
      <trkpt lat="38.911842" lon="111.85774">
        <ele>1441.1229</ele>
        <time>2014-07-16T22:07:53.984000Z</time>
      </trkpt>
      <trkpt lat="38.911785" lon="111.85788">
        <ele>1440.728</ele>
        <time>2014-07-16T22:07:57.253000Z</time>
      </trkpt>
      <trkpt lat="38.911736" lon="111.858">
        <ele>1440.1658</ele>
        <time>2014-07-16T22:08:00.522000Z</time>
      </trkpt>
      <trkpt lat="38.91168" lon="111.85814">
        <ele>1439.3855</ele>
        <time>2014-07-16T22:08:03.791000Z</time>
      </trkpt>
      <trkpt lat="38.911613" lon="111.85826">
        <ele>1438.4579</ele>
        <time>2014-07-16T22:08:07.060000Z</time>
      </trkpt>
      <trkpt lat="38.911552" lon="111.85839">
        <ele>1437.7303</ele>
        <time>2014-07-16T22:08:10.329000Z</time>
      </trkpt>
      <trkpt lat="38.91149" lon="111.858505">
        <ele>1437.8771</ele>
        <time>2014-07-16T22:08:13.598000Z</time>
      </trkpt>
      <trkpt lat="38.91144" lon="111.85864">
        <ele>1438.5503</ele>
        <time>2014-07-16T22:08:16.867000Z</time>
      </trkpt>
      <trkpt lat="38.9114" lon="111.85876">
        <ele>1438.6061</ele>
        <time>2014-07-16T22:08:20.136000Z</time>
      </trkpt>
      <trkpt lat="38.911358" lon="111.858864">
        <ele>1437.8363</ele>
        <time>2014-07-16T22:08:23.405000Z</time>
      </trkpt>
      <trkpt lat="38.911293" lon="111.85899">
        <ele>1436.9791</ele>
        <time>2014-07-16T22:08:26.674000Z</time>
      </trkpt>
      <trkpt lat="38.911236" lon="111.85913">
        <ele>1436.4241</ele>
        <time>2014-07-16T22:08:29.943000Z</time>
      </trkpt>
      <trkpt lat="38.911186" lon="111.85924">
        <ele>1436.7064</ele>
        <time>2014-07-16T22:08:33.212000Z</time>
      </trkpt>
      <trkpt lat="38.911137" lon="111.85936">
        <ele>1438.2262</ele>
        <time>2014-07-16T22:08:36.481000Z</time>
      </trkpt>
      <trkpt lat="38.911087" lon="111.85947">
        <ele>1440.2605</ele>
        <time>2014-07-16T22:08:39.750000Z</time>
      </trkpt>
      <trkpt lat="38.911037" lon="111.85957">
        <ele>1441.1625</ele>
        <time>2014-07-16T22:08:43.019000Z</time>
      </trkpt>
      <trkpt lat="38.910984" lon="111.85971">
        <ele>1440.4036</ele>
        <time>2014-07-16T22:08:46.288000Z</time>
      </trkpt>
      <trkpt lat="38.910946" lon="111.85982">
        <ele>1439.2753</ele>
        <time>2014-07-16T22:08:49.557000Z</time>
      </trkpt>
      <trkpt lat="38.91088" lon="111.85995">
        <ele>1438.9434</ele>
        <time>2014-07-16T22:08:52.826000Z</time>
      </trkpt>
      <trkpt lat="38.910835" lon="111.860054">
        <ele>1439.2616</ele>
        <time>2014-07-16T22:08:56.095000Z</time>
      </trkpt>
      <trkpt lat="38.910774" lon="111.86019">
        <ele>1439.7516</ele>
        <time>2014-07-16T22:08:59.364000Z</time>
      </trkpt>
      <trkpt lat="38.910732" lon="111.86031">
        <ele>1440.1135</ele>
        <time>2014-07-16T22:09:02.633000Z</time>
      </trkpt>
      <trkpt lat="38.91068" lon="111.86043">
        <ele>1440.1749</ele>
        <time>2014-07-16T22:09:05.902000Z</time>
      </trkpt>
      <trkpt lat="38.91062" lon="111.86055">
        <ele>1439.9861</ele>
        <time>2014-07-16T22:09:09.171000Z</time>
      </trkpt>
      <trkpt lat="38.910576" lon="111.86067">
        <ele>1439.9614</ele>
        <time>2014-07-16T22:09:12.440000Z</time>
      </trkpt>
      <trkpt lat="38.91052" lon="111.86081">
        <ele>1440.4596</ele>
        <time>2014-07-16T22:09:15.709000Z</time>
      </trkpt>
      <trkpt lat="38.91048" lon="111.860916">
        <ele>1441.4427</ele>
        <time>2014-07-16T22:09:18.978000Z</time>
      </trkpt>
      <trkpt lat="38.910427" lon="111.86104">
        <ele>1442.5746</ele>
        <time>2014-07-16T22:09:22.247000Z</time>
      </trkpt>
      <trkpt lat="38.910374" lon="111.861176">
        <ele>1443.3341</ele>
        <time>2014-07-16T22:09:25.516000Z</time>
      </trkpt>
      <trkpt lat="38.91031" lon="111.8613">
        <ele>1443.4714</ele>
        <time>2014-07-16T22:09:28.785000Z</time>
      </trkpt>
      <trkpt lat="38.91025" lon="111.8614">
        <ele>1443.1995</ele>
        <time>2014-07-16T22:09:32.054000Z</time>
      </trkpt>
      <trkpt lat="38.91019" lon="111.86153">
        <ele>1442.7838</ele>
        <time>2014-07-16T22:09:35.323000Z</time>
      </trkpt>
      <trkpt lat="38.91014" lon="111.86163">
        <ele>1442.7979</ele>
        <time>2014-07-16T22:09:38.592000Z</time>
      </trkpt>
      <trkpt lat="38.910088" lon="111.86175">
        <ele>1443.5522</ele>
        <time>2014-07-16T22:09:41.861000Z</time>
      </trkpt>
      <trkpt lat="38.91003" lon="111.861855">
        <ele>1444.3843</ele>
        <time>2014-07-16T22:09:45.130000Z</time>
      </trkpt>
      <trkpt lat="38.90997" lon="111.861984">
        <ele>1444.6472</ele>
        <time>2014-07-16T22:09:48.399000Z</time>
      </trkpt>
      <trkpt lat="38.909904" lon="111.86211">
        <ele>1444.5016</ele>
        <time>2014-07-16T22:09:51.668000Z</time>
      </trkpt>
      <trkpt lat="38.90985" lon="111.86221">
        <ele>1444.3545</ele>
        <time>2014-07-16T22:09:54.937000Z</time>
      </trkpt>
      <trkpt lat="38.909786" lon="111.862305">
        <ele>1444.5979</ele>
        <time>2014-07-16T22:09:58.206000Z</time>
      </trkpt>
      <trkpt lat="38.909737" lon="111.862404">
        <ele>1445.2622</ele>
        <time>2014-07-16T22:10:01.475000Z</time>
      </trkpt>
      <trkpt lat="38.909676" lon="111.86253">
        <ele>1445.8986</ele>
        <time>2014-07-16T22:10:04.744000Z</time>
      </trkpt>
      <trkpt lat="38.909615" lon="111.86264">
        <ele>1446.1979</ele>
        <time>2014-07-16T22:10:08.013000Z</time>
      </trkpt>
      <trkpt lat="38.909554" lon="111.86277">
        <ele>1446.2606</ele>
        <time>2014-07-16T22:10:11.282000Z</time>
      </trkpt>
      <trkpt lat="38.909496" lon="111.862885">
        <ele>1446.2755</ele>
        <time>2014-07-16T22:10:14.551000Z</time>
      </trkpt>
      <trkpt lat="38.909435" lon="111.863">
        <ele>1446.3485</ele>
        <time>2014-07-16T22:10:17.820000Z</time>
      </trkpt>
      <trkpt lat="38.909374" lon="111.86312">
        <ele>1446.4032</ele>
        <time>2014-07-16T22:10:21.089000Z</time>
      </trkpt>
      <trkpt lat="38.909317" lon="111.863235">
        <ele>1446.1204</ele>
        <time>2014-07-16T22:10:24.358000Z</time>
      </trkpt>
      <trkpt lat="38.909267" lon="111.86333">
        <ele>1445.3677</ele>
        <time>2014-07-16T22:10:27.627000Z</time>
      </trkpt>
      <trkpt lat="38.909218" lon="111.863434">
        <ele>1444.5444</ele>
        <time>2014-07-16T22:10:30.896000Z</time>
      </trkpt>
      <trkpt lat="38.90917" lon="111.86353">
        <ele>1444.42</ele>
        <time>2014-07-16T22:10:34.165000Z</time>
      </trkpt>
      <trkpt lat="38.909115" lon="111.86365">
        <ele>1445.1871</ele>
        <time>2014-07-16T22:10:37.434000Z</time>
      </trkpt>
      <trkpt lat="38.90905" lon="111.86377">
        <ele>1446.1167</ele>
        <time>2014-07-16T22:10:40.703000Z</time>
      </trkpt>
      <trkpt lat="38.909004" lon="111.86388">
        <ele>1446.4105</ele>
        <time>2014-07-16T22:10:43.972000Z</time>
      </trkpt>
      <trkpt lat="38.90895" lon="111.863976">
        <ele>1446.0715</ele>
        <time>2014-07-16T22:10:47.241000Z</time>
      </trkpt>
      <trkpt lat="38.9089" lon="111.86408">
        <ele>1445.8854</ele>
        <time>2014-07-16T22:10:50.510000Z</time>
      </trkpt>
      <trkpt lat="38.908836" lon="111.864204">
        <ele>1446.5531</ele>
        <time>2014-07-16T22:10:53.779000Z</time>
      </trkpt>
      <trkpt lat="38.90877" lon="111.86431">
        <ele>1447.6947</ele>
        <time>2014-07-16T22:10:57.048000Z</time>
      </trkpt>
      <trkpt lat="38.908714" lon="111.86441">
        <ele>1448.5848</ele>
        <time>2014-07-16T22:11:00.317000Z</time>
      </trkpt>
      <trkpt lat="38.908665" lon="111.86451">
        <ele>1449.2706</ele>
        <time>2014-07-16T22:11:03.586000Z</time>
      </trkpt>
      <trkpt lat="38.908615" lon="111.86461">
        <ele>1450.0013</ele>
        <time>2014-07-16T22:11:06.855000Z</time>
      </trkpt>
      <trkpt lat="38.90854" lon="111.864685">
        <ele>1450.5718</ele>
        <time>2014-07-16T22:11:10.124000Z</time>
      </trkpt>
      <trkpt lat="38.908443" lon="111.86465">
        <ele>1448.5491</ele>
        <time>2014-07-16T22:11:13.393000Z</time>
      </trkpt>
      <trkpt lat="38.908443" lon="111.86465">
        <ele>1448.2994</ele>
        <time>2014-07-16T22:11:16.662000Z</time>
      </trkpt>
      <trkpt lat="38.90835" lon="111.864494">
        <ele>1448.0741</ele>
        <time>2014-07-16T22:11:19.931000Z</time>
      </trkpt>
      <trkpt lat="38.90834" lon="111.86447">
        <ele>1447.7897</ele>
        <time>2014-07-16T22:11:23.200000Z</time>
      </trkpt>
      <trkpt lat="38.9083" lon="111.86435">
        <ele>1447.7816</ele>
        <time>2014-07-16T22:11:26.469000Z</time>
      </trkpt>
      <trkpt lat="38.90825" lon="111.86422">
        <ele>1448.2483</ele>
        <time>2014-07-16T22:11:29.738000Z</time>
      </trkpt>
      <trkpt lat="38.9082" lon="111.8641">
        <ele>1448.8226</ele>
        <time>2014-07-16T22:11:33.007000Z</time>
      </trkpt>
      <trkpt lat="38.908146" lon="111.86397">
        <ele>1449.1538</ele>
        <time>2014-07-16T22:11:36.276000Z</time>
      </trkpt>
      <trkpt lat="38.908092" lon="111.86385">
        <ele>1449.4052</ele>
        <time>2014-07-16T22:11:39.545000Z</time>
      </trkpt>
      <trkpt lat="38.908035" lon="111.86373">
        <ele>1449.9734</ele>
        <time>2014-07-16T22:11:42.814000Z</time>
      </trkpt>
      <trkpt lat="38.907986" lon="111.8636">
        <ele>1450.8662</ele>
        <time>2014-07-16T22:11:46.083000Z</time>
      </trkpt>
      <trkpt lat="38.907948" lon="111.863495">
        <ele>1451.5961</ele>
        <time>2014-07-16T22:11:49.352000Z</time>
      </trkpt>
      <trkpt lat="38.9079" lon="111.86337">
        <ele>1452.0576</ele>
        <time>2014-07-16T22:11:52.621000Z</time>
      </trkpt>
      <trkpt lat="38.90786" lon="111.86325">
        <ele>1452.2817</ele>
        <time>2014-07-16T22:11:55.890000Z</time>
      </trkpt>
      <trkpt lat="38.907814" lon="111.863144">
        <ele>1451.898</ele>
        <time>2014-07-16T22:11:59.159000Z</time>
      </trkpt>
      <trkpt lat="38.907776" lon="111.86304">
        <ele>1450.2897</ele>
        <time>2014-07-16T22:12:02.428000Z</time>
      </trkpt>
      <trkpt lat="38.90773" lon="111.86291">
        <ele>1447.6974</ele>
        <time>2014-07-16T22:12:05.697000Z</time>
      </trkpt>
      <trkpt lat="38.907684" lon="111.862785">
        <ele>1445.526</ele>
        <time>2014-07-16T22:12:08.966000Z</time>
      </trkpt>
      <trkpt lat="38.907627" lon="111.86264">
        <ele>1445.2991</ele>
        <time>2014-07-16T22:12:12.235000Z</time>
      </trkpt>
      <trkpt lat="38.90757" lon="111.86251">
        <ele>1447.2004</ele>
        <time>2014-07-16T22:12:15.504000Z</time>
      </trkpt>
      <trkpt lat="38.90751" lon="111.86238">
        <ele>1449.85</ele>
        <time>2014-07-16T22:12:18.773000Z</time>
      </trkpt>
      <trkpt lat="38.907463" lon="111.862274">
        <ele>1451.6433</ele>
        <time>2014-07-16T22:12:22.042000Z</time>
      </trkpt>
      <trkpt lat="38.907417" lon="111.86216">
        <ele>1452.3358</ele>
        <time>2014-07-16T22:12:25.311000Z</time>
      </trkpt>
      <trkpt lat="38.90736" lon="111.86203">
        <ele>1452.4143</ele>
        <time>2014-07-16T22:12:28.580000Z</time>
      </trkpt>
      <trkpt lat="38.907303" lon="111.861916">
        <ele>1451.99</ele>
        <time>2014-07-16T22:12:31.849000Z</time>
      </trkpt>
      <trkpt lat="38.90724" lon="111.8618">
        <ele>1450.721</ele>
        <time>2014-07-16T22:12:35.118000Z</time>
      </trkpt>
      <trkpt lat="38.90718" lon="111.861694">
        <ele>1448.8685</ele>
        <time>2014-07-16T22:12:38.387000Z</time>
      </trkpt>
      <trkpt lat="38.90713" lon="111.861595">
        <ele>1447.415</ele>
        <time>2014-07-16T22:12:41.656000Z</time>
      </trkpt>
      <trkpt lat="38.907074" lon="111.8615">
        <ele>1447.0145</ele>
        <time>2014-07-16T22:12:44.925000Z</time>
      </trkpt>
      <trkpt lat="38.907" lon="111.8614">
        <ele>1447.4785</ele>
        <time>2014-07-16T22:12:48.194000Z</time>
      </trkpt>
      <trkpt lat="38.906937" lon="111.86132">
        <ele>1448.131</ele>
        <time>2014-07-16T22:12:51.463000Z</time>
      </trkpt>
      <trkpt lat="38.906853" lon="111.86123">
        <ele>1448.6503</ele>
        <time>2014-07-16T22:12:54.732000Z</time>
      </trkpt>
      <trkpt lat="38.906757" lon="111.86114">
        <ele>1449.2927</ele>
        <time>2014-07-16T22:12:58.001000Z</time>
      </trkpt>
      <trkpt lat="38.906685" lon="111.86107">
        <ele>1450.0476</ele>
        <time>2014-07-16T22:13:01.270000Z</time>
      </trkpt>
      <trkpt lat="38.906586" lon="111.86097">
        <ele>1450.5156</ele>
        <time>2014-07-16T22:13:04.539000Z</time>
      </trkpt>
      <trkpt lat="38.90651" lon="111.8609">
        <ele>1450.5483</ele>
        <time>2014-07-16T22:13:07.808000Z</time>
      </trkpt>
      <trkpt lat="38.906418" lon="111.86084">
        <ele>1450.6195</ele>
        <time>2014-07-16T22:13:11.077000Z</time>
      </trkpt>
      <trkpt lat="38.906322" lon="111.86079">
        <ele>1451.1034</ele>
        <time>2014-07-16T22:13:14.346000Z</time>
      </trkpt>
      <trkpt lat="38.906208" lon="111.86072">
        <ele>1451.6848</ele>
        <time>2014-07-16T22:13:17.615000Z</time>
      </trkpt>
      <trkpt lat="38.906086" lon="111.86068">
        <ele>1451.8458</ele>
        <time>2014-07-16T22:13:20.884000Z</time>
      </trkpt>
      <trkpt lat="38.90598" lon="111.86065">
        <ele>1451.5259</ele>
        <time>2014-07-16T22:13:24.153000Z</time>
      </trkpt>
      <trkpt lat="38.90589" lon="111.86062">
        <ele>1450.8878</ele>
        <time>2014-07-16T22:13:27.422000Z</time>
      </trkpt>
      <trkpt lat="38.905804" lon="111.86059">
        <ele>1450.1252</ele>
        <time>2014-07-16T22:13:30.691000Z</time>
      </trkpt>
      <trkpt lat="38.905685" lon="111.86055">
        <ele>1449.4868</ele>
        <time>2014-07-16T22:13:33.960000Z</time>
      </trkpt>
      <trkpt lat="38.90558" lon="111.86052">
        <ele>1449.1573</ele>
        <time>2014-07-16T22:13:37.229000Z</time>
      </trkpt>
      <trkpt lat="38.90547" lon="111.860504">
        <ele>1449.4271</ele>
        <time>2014-07-16T22:13:40.498000Z</time>
      </trkpt>
      <trkpt lat="38.90536" lon="111.86046">
        <ele>1450.3873</ele>
        <time>2014-07-16T22:13:43.767000Z</time>
      </trkpt>
      <trkpt lat="38.905262" lon="111.86042">
        <ele>1451.2201</ele>
        <time>2014-07-16T22:13:47.036000Z</time>
      </trkpt>
      <trkpt lat="38.90517" lon="111.860374">
        <ele>1451.257</ele>
        <time>2014-07-16T22:13:50.305000Z</time>
      </trkpt>
      <trkpt lat="38.905083" lon="111.86033">
        <ele>1451.1282</ele>
        <time>2014-07-16T22:13:53.574000Z</time>
      </trkpt>
      <trkpt lat="38.905" lon="111.86026">
        <ele>1451.7264</ele>
        <time>2014-07-16T22:13:56.843000Z</time>
      </trkpt>
      <trkpt lat="38.904907" lon="111.86017">
        <ele>1452.9099</ele>
        <time>2014-07-16T22:14:00.112000Z</time>
      </trkpt>
      <trkpt lat="38.90484" lon="111.86008">
        <ele>1453.7646</ele>
        <time>2014-07-16T22:14:03.381000Z</time>
      </trkpt>
      <trkpt lat="38.904774" lon="111.86">
        <ele>1453.8663</ele>
        <time>2014-07-16T22:14:06.650000Z</time>
      </trkpt>
      <trkpt lat="38.904716" lon="111.8599">
        <ele>1453.5771</ele>
        <time>2014-07-16T22:14:09.919000Z</time>
      </trkpt>
      <trkpt lat="38.904663" lon="111.859795">
        <ele>1453.1226</ele>
        <time>2014-07-16T22:14:13.188000Z</time>
      </trkpt>
      <trkpt lat="38.90462" lon="111.859695">
        <ele>1452.4941</ele>
        <time>2014-07-16T22:14:16.457000Z</time>
      </trkpt>
      <trkpt lat="38.90457" lon="111.859566">
        <ele>1451.9518</ele>
        <time>2014-07-16T22:14:19.726000Z</time>
      </trkpt>
      <trkpt lat="38.90453" lon="111.85944">
        <ele>1451.6652</ele>
        <time>2014-07-16T22:14:22.995000Z</time>
      </trkpt>
      <trkpt lat="38.9045" lon="111.85929">
        <ele>1451.4971</ele>
        <time>2014-07-16T22:14:26.264000Z</time>
      </trkpt>
      <trkpt lat="38.904495" lon="111.85914">
        <ele>1451.4949</ele>
        <time>2014-07-16T22:14:29.533000Z</time>
      </trkpt>
      <trkpt lat="38.904495" lon="111.859">
        <ele>1451.727</ele>
        <time>2014-07-16T22:14:32.802000Z</time>
      </trkpt>
      <trkpt lat="38.9045" lon="111.85888">
        <ele>1452.021</ele>
        <time>2014-07-16T22:14:36.071000Z</time>
      </trkpt>
      <trkpt lat="38.904503" lon="111.85874">
        <ele>1452.1517</ele>
        <time>2014-07-16T22:14:39.340000Z</time>
      </trkpt>
      <trkpt lat="38.90451" lon="111.85861">
        <ele>1451.881</ele>
        <time>2014-07-16T22:14:42.609000Z</time>
      </trkpt>
      <trkpt lat="38.904514" lon="111.85846">
        <ele>1451.0021</ele>
        <time>2014-07-16T22:14:45.878000Z</time>
      </trkpt>
      <trkpt lat="38.90452" lon="111.85834">
        <ele>1450.0375</ele>
        <time>2014-07-16T22:14:49.147000Z</time>
      </trkpt>
      <trkpt lat="38.904533" lon="111.85822">
        <ele>1449.6499</ele>
        <time>2014-07-16T22:14:52.416000Z</time>
      </trkpt>
      <trkpt lat="38.904545" lon="111.85808">
        <ele>1449.6698</ele>
        <time>2014-07-16T22:14:55.685000Z</time>
      </trkpt>
      <trkpt lat="38.904556" lon="111.85795">
        <ele>1449.2223</ele>
        <time>2014-07-16T22:14:58.954000Z</time>
      </trkpt>
      <trkpt lat="38.904568" lon="111.857834">
        <ele>1447.9993</ele>
        <time>2014-07-16T22:15:02.223000Z</time>
      </trkpt>
      <trkpt lat="38.90458" lon="111.857704">
        <ele>1446.8832</ele>
        <time>2014-07-16T22:15:05.492000Z</time>
      </trkpt>
      <trkpt lat="38.90459" lon="111.857574">
        <ele>1446.7032</ele>
        <time>2014-07-16T22:15:08.761000Z</time>
      </trkpt>
      <trkpt lat="38.904602" lon="111.85746">
        <ele>1447.0933</ele>
        <time>2014-07-16T22:15:12.030000Z</time>
      </trkpt>
      <trkpt lat="38.904613" lon="111.85732">
        <ele>1447.5638</ele>
        <time>2014-07-16T22:15:15.299000Z</time>
      </trkpt>
      <trkpt lat="38.904625" lon="111.85719">
        <ele>1447.9845</ele>
        <time>2014-07-16T22:15:18.568000Z</time>
      </trkpt>
      <trkpt lat="38.90463" lon="111.85706">
        <ele>1448.2627</ele>
        <time>2014-07-16T22:15:21.837000Z</time>
      </trkpt>
      <trkpt lat="38.90465" lon="111.85691">
        <ele>1448.4429</ele>
        <time>2014-07-16T22:15:25.106000Z</time>
      </trkpt>
      <trkpt lat="38.904667" lon="111.85679">
        <ele>1448.497</ele>
        <time>2014-07-16T22:15:28.375000Z</time>
      </trkpt>
      <trkpt lat="38.90467" lon="111.85665">
        <ele>1448.2296</ele>
        <time>2014-07-16T22:15:31.644000Z</time>
      </trkpt>
      <trkpt lat="38.90468" lon="111.85652">
        <ele>1447.5332</ele>
        <time>2014-07-16T22:15:34.913000Z</time>
      </trkpt>
      <trkpt lat="38.904682" lon="111.8564">
        <ele>1446.5897</ele>
        <time>2014-07-16T22:15:38.182000Z</time>
      </trkpt>
      <trkpt lat="38.904697" lon="111.85626">
        <ele>1446.3143</ele>
        <time>2014-07-16T22:15:41.451000Z</time>
      </trkpt>
      <trkpt lat="38.904713" lon="111.85615">
        <ele>1447.2772</ele>
        <time>2014-07-16T22:15:44.720000Z</time>
      </trkpt>
      <trkpt lat="38.904728" lon="111.856">
        <ele>1448.2178</ele>
        <time>2014-07-16T22:15:47.989000Z</time>
      </trkpt>
      <trkpt lat="38.904736" lon="111.85584">
        <ele>1448.0054</ele>
        <time>2014-07-16T22:15:51.258000Z</time>
      </trkpt>
      <trkpt lat="38.904755" lon="111.855705">
        <ele>1447.3789</ele>
        <time>2014-07-16T22:15:54.527000Z</time>
      </trkpt>
      <trkpt lat="38.904766" lon="111.855576">
        <ele>1447.2458</ele>
        <time>2014-07-16T22:15:57.796000Z</time>
      </trkpt>
      <trkpt lat="38.904774" lon="111.85546">
        <ele>1447.474</ele>
        <time>2014-07-16T22:16:01.065000Z</time>
      </trkpt>
      <trkpt lat="38.904785" lon="111.85535">
        <ele>1447.5629</ele>
        <time>2014-07-16T22:16:04.334000Z</time>
      </trkpt>
      <trkpt lat="38.904797" lon="111.85521">
        <ele>1447.6356</ele>
        <time>2014-07-16T22:16:07.603000Z</time>
      </trkpt>
      <trkpt lat="38.904797" lon="111.85509">
        <ele>1448.3658</ele>
        <time>2014-07-16T22:16:10.872000Z</time>
      </trkpt>
      <trkpt lat="38.9048" lon="111.85495">
        <ele>1449.6997</ele>
        <time>2014-07-16T22:16:14.141000Z</time>
      </trkpt>
      <trkpt lat="38.904808" lon="111.85481">
        <ele>1450.501</ele>
        <time>2014-07-16T22:16:17.410000Z</time>
      </trkpt>
      <trkpt lat="38.90481" lon="111.85469">
        <ele>1449.8881</ele>
        <time>2014-07-16T22:16:20.679000Z</time>
      </trkpt>
      <trkpt lat="38.904823" lon="111.85456">
        <ele>1448.3062</ele>
        <time>2014-07-16T22:16:23.948000Z</time>
      </trkpt>
      <trkpt lat="38.904835" lon="111.85444">
        <ele>1447.0526</ele>
        <time>2014-07-16T22:16:27.217000Z</time>
      </trkpt>
      <trkpt lat="38.904854" lon="111.8543">
        <ele>1446.7422</ele>
        <time>2014-07-16T22:16:30.486000Z</time>
      </trkpt>
      <trkpt lat="38.904873" lon="111.854195">
        <ele>1446.8159</ele>
        <time>2014-07-16T22:16:33.755000Z</time>
      </trkpt>
      <trkpt lat="38.904892" lon="111.85406">
        <ele>1446.4863</ele>
        <time>2014-07-16T22:16:37.024000Z</time>
      </trkpt>
      <trkpt lat="38.90491" lon="111.85392">
        <ele>1445.7002</ele>
        <time>2014-07-16T22:16:40.293000Z</time>
      </trkpt>
      <trkpt lat="38.90493" lon="111.85377">
        <ele>1444.8931</ele>
        <time>2014-07-16T22:16:43.562000Z</time>
      </trkpt>
      <trkpt lat="38.904945" lon="111.853645">
        <ele>1444.2582</ele>
        <time>2014-07-16T22:16:46.831000Z</time>
      </trkpt>
      <trkpt lat="38.90496" lon="111.85352">
        <ele>1443.8601</ele>
        <time>2014-07-16T22:16:50.100000Z</time>
      </trkpt>
      <trkpt lat="38.904964" lon="111.85341">
        <ele>1443.7347</ele>
        <time>2014-07-16T22:16:53.369000Z</time>
      </trkpt>
      <trkpt lat="38.904976" lon="111.85327">
        <ele>1443.7925</ele>
        <time>2014-07-16T22:16:56.638000Z</time>
      </trkpt>
      <trkpt lat="38.90497" lon="111.85315">
        <ele>1443.749</ele>
        <time>2014-07-16T22:16:59.907000Z</time>
      </trkpt>
      <trkpt lat="38.904964" lon="111.85302">
        <ele>1443.3612</ele>
        <time>2014-07-16T22:17:03.176000Z</time>
      </trkpt>
      <trkpt lat="38.90497" lon="111.85289">
        <ele>1442.8478</ele>
        <time>2014-07-16T22:17:06.445000Z</time>
      </trkpt>
      <trkpt lat="38.904976" lon="111.852745">
        <ele>1442.8727</ele>
        <time>2014-07-16T22:17:09.714000Z</time>
      </trkpt>
      <trkpt lat="38.904976" lon="111.852615">
        <ele>1443.7141</ele>
        <time>2014-07-16T22:17:12.983000Z</time>
      </trkpt>
      <trkpt lat="38.904957" lon="111.8525">
        <ele>1444.845</ele>
        <time>2014-07-16T22:17:16.252000Z</time>
      </trkpt>
      <trkpt lat="38.90493" lon="111.852356">
        <ele>1445.5624</ele>
        <time>2014-07-16T22:17:19.521000Z</time>
      </trkpt>
      <trkpt lat="38.9049" lon="111.852234">
        <ele>1445.6719</ele>
        <time>2014-07-16T22:17:22.790000Z</time>
      </trkpt>
      <trkpt lat="38.904865" lon="111.85211">
        <ele>1445.4912</ele>
        <time>2014-07-16T22:17:26.059000Z</time>
      </trkpt>
      <trkpt lat="38.90483" lon="111.85198">
        <ele>1445.0715</ele>
        <time>2014-07-16T22:17:29.328000Z</time>
      </trkpt>
      <trkpt lat="38.904797" lon="111.85187">
        <ele>1444.1487</ele>
        <time>2014-07-16T22:17:32.597000Z</time>
      </trkpt>
      <trkpt lat="38.90476" lon="111.85175">
        <ele>1442.9628</ele>
        <time>2014-07-16T22:17:35.866000Z</time>
      </trkpt>
      <trkpt lat="38.904713" lon="111.85161">
        <ele>1442.0293</ele>
        <time>2014-07-16T22:17:39.135000Z</time>
      </trkpt>
      <trkpt lat="38.904675" lon="111.85149">
        <ele>1441.5138</ele>
        <time>2014-07-16T22:17:42.404000Z</time>
      </trkpt>
      <trkpt lat="38.90463" lon="111.851364">
        <ele>1441.5814</ele>
        <time>2014-07-16T22:17:45.673000Z</time>
      </trkpt>
      <trkpt lat="38.904587" lon="111.85125">
        <ele>1442.1064</ele>
        <time>2014-07-16T22:17:48.942000Z</time>
      </trkpt>
      <trkpt lat="38.90455" lon="111.85114">
        <ele>1442.8147</ele>
        <time>2014-07-16T22:17:52.211000Z</time>
      </trkpt>
      <trkpt lat="38.90449" lon="111.851006">
        <ele>1443.3132</ele>
        <time>2014-07-16T22:17:55.480000Z</time>
      </trkpt>
      <trkpt lat="38.904438" lon="111.850876">
        <ele>1443.1617</ele>
        <time>2014-07-16T22:17:58.749000Z</time>
      </trkpt>
      <trkpt lat="38.904396" lon="111.85077">
        <ele>1442.4954</ele>
        <time>2014-07-16T22:18:02.018000Z</time>
      </trkpt>
      <trkpt lat="38.90435" lon="111.850624">
        <ele>1441.9746</ele>
        <time>2014-07-16T22:18:05.287000Z</time>
      </trkpt>
      <trkpt lat="38.904312" lon="111.85052">
        <ele>1441.8918</ele>
        <time>2014-07-16T22:18:08.556000Z</time>
      </trkpt>
      <trkpt lat="38.90427" lon="111.85041">
        <ele>1442.0544</ele>
        <time>2014-07-16T22:18:11.825000Z</time>
      </trkpt>
      <trkpt lat="38.90424" lon="111.850296">
        <ele>1442.1565</ele>
        <time>2014-07-16T22:18:15.094000Z</time>
      </trkpt>
      <trkpt lat="38.9042" lon="111.85019">
        <ele>1441.8717</ele>
        <time>2014-07-16T22:18:18.363000Z</time>
      </trkpt>
      <trkpt lat="38.90416" lon="111.850075">
        <ele>1441.1426</ele>
        <time>2014-07-16T22:18:21.632000Z</time>
      </trkpt>
      <trkpt lat="38.904114" lon="111.849945">
        <ele>1440.7155</ele>
        <time>2014-07-16T22:18:24.901000Z</time>
      </trkpt>
      <trkpt lat="38.904064" lon="111.84982">
        <ele>1441.1516</ele>
        <time>2014-07-16T22:18:28.170000Z</time>
      </trkpt>
      <trkpt lat="38.904007" lon="111.84969">
        <ele>1441.7365</ele>
        <time>2014-07-16T22:18:31.439000Z</time>
      </trkpt>
      <trkpt lat="38.90396" lon="111.84957">
        <ele>1441.7427</ele>
        <time>2014-07-16T22:18:34.708000Z</time>
      </trkpt>
      <trkpt lat="38.903923" lon="111.849464">
        <ele>1441.4104</ele>
        <time>2014-07-16T22:18:37.977000Z</time>
      </trkpt>
      <trkpt lat="38.903862" lon="111.84933">
        <ele>1441.1572</ele>
        <time>2014-07-16T22:18:41.246000Z</time>
      </trkpt>
      <trkpt lat="38.903816" lon="111.84921">
        <ele>1441.0144</ele>
        <time>2014-07-16T22:18:44.515000Z</time>
      </trkpt>
      <trkpt lat="38.903767" lon="111.8491">
        <ele>1440.898</ele>
        <time>2014-07-16T22:18:47.784000Z</time>
      </trkpt>
      <trkpt lat="38.903717" lon="111.849">
        <ele>1440.8744</ele>
        <time>2014-07-16T22:18:51.053000Z</time>
      </trkpt>
      <trkpt lat="38.903667" lon="111.848885">
        <ele>1441.0043</ele>
        <time>2014-07-16T22:18:54.322000Z</time>
      </trkpt>
      <trkpt lat="38.903618" lon="111.84877">
        <ele>1441.0522</ele>
        <time>2014-07-16T22:18:57.591000Z</time>
      </trkpt>
      <trkpt lat="38.903564" lon="111.84868">
        <ele>1440.817</ele>
        <time>2014-07-16T22:19:00.860000Z</time>
      </trkpt>
      <trkpt lat="38.903503" lon="111.84858">
        <ele>1440.0865</ele>
        <time>2014-07-16T22:19:04.129000Z</time>
      </trkpt>
      <trkpt lat="38.903435" lon="111.84847">
        <ele>1438.8612</ele>
        <time>2014-07-16T22:19:07.398000Z</time>
      </trkpt>
      <trkpt lat="38.903374" lon="111.84838">
        <ele>1438.2393</ele>
        <time>2014-07-16T22:19:10.667000Z</time>
      </trkpt>
      <trkpt lat="38.90332" lon="111.84828">
        <ele>1439.0171</ele>
        <time>2014-07-16T22:19:13.936000Z</time>
      </trkpt>
      <trkpt lat="38.90327" lon="111.848175">
        <ele>1439.7964</ele>
        <time>2014-07-16T22:19:17.205000Z</time>
      </trkpt>
      <trkpt lat="38.903202" lon="111.84808">
        <ele>1439.2961</ele>
        <time>2014-07-16T22:19:20.474000Z</time>
      </trkpt>
      <trkpt lat="38.90313" lon="111.847984">
        <ele>1438.455</ele>
        <time>2014-07-16T22:19:23.743000Z</time>
      </trkpt>
      <trkpt lat="38.90307" lon="111.84789">
        <ele>1438.7268</ele>
        <time>2014-07-16T22:19:27.012000Z</time>
      </trkpt>
      <trkpt lat="38.90301" lon="111.847786">
        <ele>1440.0383</ele>
        <time>2014-07-16T22:19:30.281000Z</time>
      </trkpt>
      <trkpt lat="38.90295" lon="111.847694">
        <ele>1441.0233</ele>
        <time>2014-07-16T22:19:33.550000Z</time>
      </trkpt>
      <trkpt lat="38.90287" lon="111.84757">
        <ele>1440.6178</ele>
        <time>2014-07-16T22:19:36.819000Z</time>
      </trkpt>
      <trkpt lat="38.902805" lon="111.84748">
        <ele>1439.2612</ele>
        <time>2014-07-16T22:19:40.088000Z</time>
      </trkpt>
      <trkpt lat="38.902744" lon="111.84739">
        <ele>1437.9674</ele>
        <time>2014-07-16T22:19:43.357000Z</time>
      </trkpt>
      <trkpt lat="38.902668" lon="111.84728">
        <ele>1437.16</ele>
        <time>2014-07-16T22:19:46.626000Z</time>
      </trkpt>
      <trkpt lat="38.902607" lon="111.84718">
        <ele>1436.6473</ele>
        <time>2014-07-16T22:19:49.895000Z</time>
      </trkpt>
      <trkpt lat="38.90253" lon="111.84707">
        <ele>1436.2048</ele>
        <time>2014-07-16T22:19:53.164000Z</time>
      </trkpt>
      <trkpt lat="38.902466" lon="111.84696">
        <ele>1435.7072</ele>
        <time>2014-07-16T22:19:56.433000Z</time>
      </trkpt>
      <trkpt lat="38.902405" lon="111.84686">
        <ele>1435.166</ele>
        <time>2014-07-16T22:19:59.702000Z</time>
      </trkpt>
      <trkpt lat="38.902348" lon="111.84676">
        <ele>1434.5231</ele>
        <time>2014-07-16T22:20:02.971000Z</time>
      </trkpt>
      <trkpt lat="38.902267" lon="111.84665">
        <ele>1433.7917</ele>
        <time>2014-07-16T22:20:06.240000Z</time>
      </trkpt>
      <trkpt lat="38.9022" lon="111.84654">
        <ele>1433.5396</ele>
        <time>2014-07-16T22:20:09.509000Z</time>
      </trkpt>
      <trkpt lat="38.90212" lon="111.84642">
        <ele>1434.5317</ele>
        <time>2014-07-16T22:20:12.778000Z</time>
      </trkpt>
      <trkpt lat="38.902058" lon="111.84633">
        <ele>1436.3517</ele>
        <time>2014-07-16T22:20:16.047000Z</time>
      </trkpt>
      <trkpt lat="38.901993" lon="111.846245">
        <ele>1437.8005</ele>
        <time>2014-07-16T22:20:19.316000Z</time>
      </trkpt>
      <trkpt lat="38.90193" lon="111.84615">
        <ele>1438.6698</ele>
        <time>2014-07-16T22:20:22.585000Z</time>
      </trkpt>
      <trkpt lat="38.90187" lon="111.846054">
        <ele>1439.4635</ele>
        <time>2014-07-16T22:20:25.854000Z</time>
      </trkpt>
      <trkpt lat="38.901814" lon="111.84596">
        <ele>1440.1111</ele>
        <time>2014-07-16T22:20:29.123000Z</time>
      </trkpt>
      <trkpt lat="38.901733" lon="111.84584">
        <ele>1440.2355</ele>
        <time>2014-07-16T22:20:32.392000Z</time>
      </trkpt>
      <trkpt lat="38.901665" lon="111.84574">
        <ele>1440.0322</ele>
        <time>2014-07-16T22:20:35.661000Z</time>
      </trkpt>
      <trkpt lat="38.9016" lon="111.84564">
        <ele>1439.9675</ele>
        <time>2014-07-16T22:20:38.930000Z</time>
      </trkpt>
      <trkpt lat="38.901535" lon="111.84554">
        <ele>1440.1172</ele>
        <time>2014-07-16T22:20:42.199000Z</time>
      </trkpt>
      <trkpt lat="38.901463" lon="111.84542">
        <ele>1439.903</ele>
        <time>2014-07-16T22:20:45.468000Z</time>
      </trkpt>
      <trkpt lat="38.901398" lon="111.84533">
        <ele>1438.7544</ele>
        <time>2014-07-16T22:20:48.737000Z</time>
      </trkpt>
      <trkpt lat="38.901337" lon="111.845215">
        <ele>1437.0408</ele>
        <time>2014-07-16T22:20:52.006000Z</time>
      </trkpt>
      <trkpt lat="38.90127" lon="111.845116">
        <ele>1436.0007</ele>
        <time>2014-07-16T22:20:55.275000Z</time>
      </trkpt>
      <trkpt lat="38.901196" lon="111.845">
        <ele>1436.1979</ele>
        <time>2014-07-16T22:20:58.544000Z</time>
      </trkpt>
      <trkpt lat="38.90113" lon="111.84492">
        <ele>1437.0952</ele>
        <time>2014-07-16T22:21:01.813000Z</time>
      </trkpt>
      <trkpt lat="38.901066" lon="111.84482">
        <ele>1437.9591</ele>
        <time>2014-07-16T22:21:05.082000Z</time>
      </trkpt>
      <trkpt lat="38.901012" lon="111.84472">
        <ele>1438.4662</ele>
        <time>2014-07-16T22:21:08.351000Z</time>
      </trkpt>
      <trkpt lat="38.900936" lon="111.844604">
        <ele>1438.6373</ele>
        <time>2014-07-16T22:21:11.620000Z</time>
      </trkpt>
      <trkpt lat="38.900867" lon="111.84451">
        <ele>1439.0391</ele>
        <time>2014-07-16T22:21:14.889000Z</time>
      </trkpt>
      <trkpt lat="38.900803" lon="111.8444">
        <ele>1440.1052</ele>
        <time>2014-07-16T22:21:18.158000Z</time>
      </trkpt>
      <trkpt lat="38.900734" lon="111.84429">
        <ele>1441.5638</ele>
        <time>2014-07-16T22:21:21.427000Z</time>
      </trkpt>
      <trkpt lat="38.900658" lon="111.84418">
        <ele>1442.8655</ele>
        <time>2014-07-16T22:21:24.696000Z</time>
      </trkpt>
      <trkpt lat="38.90058" lon="111.84406">
        <ele>1443.0817</ele>
        <time>2014-07-16T22:21:27.965000Z</time>
      </trkpt>
      <trkpt lat="38.90052" lon="111.84396">
        <ele>1441.7097</ele>
        <time>2014-07-16T22:21:31.234000Z</time>
      </trkpt>
      <trkpt lat="38.900463" lon="111.84387">
        <ele>1439.873</ele>
        <time>2014-07-16T22:21:34.503000Z</time>
      </trkpt>
      <trkpt lat="38.90041" lon="111.843765">
        <ele>1438.7438</ele>
        <time>2014-07-16T22:21:37.772000Z</time>
      </trkpt>
      <trkpt lat="38.900352" lon="111.843666">
        <ele>1438.3225</ele>
        <time>2014-07-16T22:21:41.041000Z</time>
      </trkpt>
      <trkpt lat="38.9003" lon="111.84357">
        <ele>1438.2761</ele>
        <time>2014-07-16T22:21:44.310000Z</time>
      </trkpt>
      <trkpt lat="38.900234" lon="111.84347">
        <ele>1438.1184</ele>
        <time>2014-07-16T22:21:47.579000Z</time>
      </trkpt>
      <trkpt lat="38.90017" lon="111.84335">
        <ele>1437.5259</ele>
        <time>2014-07-16T22:21:50.848000Z</time>
      </trkpt>
      <trkpt lat="38.90011" lon="111.84323">
        <ele>1436.7902</ele>
        <time>2014-07-16T22:21:54.117000Z</time>
      </trkpt>
      <trkpt lat="38.90004" lon="111.843124">
        <ele>1436.1868</ele>
        <time>2014-07-16T22:21:57.386000Z</time>
      </trkpt>
      <trkpt lat="38.89997" lon="111.84301">
        <ele>1435.8009</ele>
        <time>2014-07-16T22:22:00.655000Z</time>
      </trkpt>
      <trkpt lat="38.899914" lon="111.8429">
        <ele>1435.8726</ele>
        <time>2014-07-16T22:22:03.924000Z</time>
      </trkpt>
      <trkpt lat="38.89986" lon="111.8428">
        <ele>1436.351</ele>
        <time>2014-07-16T22:22:07.193000Z</time>
      </trkpt>
      <trkpt lat="38.899807" lon="111.84269">
        <ele>1436.9094</ele>
        <time>2014-07-16T22:22:10.462000Z</time>
      </trkpt>
      <trkpt lat="38.899742" lon="111.842575">
        <ele>1437.5463</ele>
        <time>2014-07-16T22:22:13.731000Z</time>
      </trkpt>
      <trkpt lat="38.89969" lon="111.842476">
        <ele>1438.2598</ele>
        <time>2014-07-16T22:22:17Z</time>
      </trkpt>
      <trkpt lat="38.89962" lon="111.842354">
        <ele>1438.77</ele>
        <time>2014-07-16T22:22:20.269000Z</time>
      </trkpt>
      <trkpt lat="38.89956" lon="111.842255">
        <ele>1438.5109</ele>
        <time>2014-07-16T22:22:23.538000Z</time>
      </trkpt>
      <trkpt lat="38.899494" lon="111.84215">
        <ele>1437.387</ele>
        <time>2014-07-16T22:22:26.807000Z</time>
      </trkpt>
      <trkpt lat="38.89945" lon="111.84205">
        <ele>1436.0969</ele>
        <time>2014-07-16T22:22:30.076000Z</time>
      </trkpt>
      <trkpt lat="38.8994" lon="111.84195">
        <ele>1435.3085</ele>
        <time>2014-07-16T22:22:33.345000Z</time>
      </trkpt>
      <trkpt lat="38.899334" lon="111.84184">
        <ele>1435.0587</ele>
        <time>2014-07-16T22:22:36.614000Z</time>
      </trkpt>
      <trkpt lat="38.89928" lon="111.84174">
        <ele>1435.4012</ele>
        <time>2014-07-16T22:22:39.883000Z</time>
      </trkpt>
      <trkpt lat="38.899216" lon="111.841644">
        <ele>1436.9006</ele>
        <time>2014-07-16T22:22:43.152000Z</time>
      </trkpt>
      <trkpt lat="38.899147" lon="111.84152">
        <ele>1439.4489</ele>
        <time>2014-07-16T22:22:46.421000Z</time>
      </trkpt>
      <trkpt lat="38.899082" lon="111.84142">
        <ele>1441.6129</ele>
        <time>2014-07-16T22:22:49.690000Z</time>
      </trkpt>
      <trkpt lat="38.89902" lon="111.84133">
        <ele>1442.5333</ele>
        <time>2014-07-16T22:22:52.959000Z</time>
      </trkpt>
      <trkpt lat="38.898968" lon="111.84124">
        <ele>1442.644</ele>
        <time>2014-07-16T22:22:56.228000Z</time>
      </trkpt>
      <trkpt lat="38.898907" lon="111.84112">
        <ele>1442.414</ele>
        <time>2014-07-16T22:22:59.497000Z</time>
      </trkpt>
      <trkpt lat="38.89884" lon="111.840996">
        <ele>1442.0793</ele>
        <time>2014-07-16T22:23:02.766000Z</time>
      </trkpt>
      <trkpt lat="38.89878" lon="111.84088">
        <ele>1442.296</ele>
        <time>2014-07-16T22:23:06.035000Z</time>
      </trkpt>
      <trkpt lat="38.898712" lon="111.84077">
        <ele>1443.6243</ele>
        <time>2014-07-16T22:23:09.304000Z</time>
      </trkpt>
      <trkpt lat="38.898647" lon="111.840645">
        <ele>1445.3938</ele>
        <time>2014-07-16T22:23:12.573000Z</time>
      </trkpt>
      <trkpt lat="38.89858" lon="111.84052">
        <ele>1446.5403</ele>
        <time>2014-07-16T22:23:15.842000Z</time>
      </trkpt>
      <trkpt lat="38.89852" lon="111.84043">
        <ele>1446.709</ele>
        <time>2014-07-16T22:23:19.111000Z</time>
      </trkpt>
      <trkpt lat="38.89846" lon="111.84032">
        <ele>1446.5345</ele>
        <time>2014-07-16T22:23:22.380000Z</time>
      </trkpt>
      <trkpt lat="38.8984" lon="111.8402">
        <ele>1446.9227</ele>
        <time>2014-07-16T22:23:25.649000Z</time>
      </trkpt>
      <trkpt lat="38.898346" lon="111.8401">
        <ele>1447.9926</ele>
        <time>2014-07-16T22:23:28.918000Z</time>
      </trkpt>
      <trkpt lat="38.89827" lon="111.84">
        <ele>1449.292</ele>
        <time>2014-07-16T22:23:32.187000Z</time>
      </trkpt>
      <trkpt lat="38.898205" lon="111.839874">
        <ele>1450.399</ele>
        <time>2014-07-16T22:23:35.456000Z</time>
      </trkpt>
      <trkpt lat="38.89814" lon="111.83975">
        <ele>1451.0698</ele>
        <time>2014-07-16T22:23:38.725000Z</time>
      </trkpt>
      <trkpt lat="38.898083" lon="111.83964">
        <ele>1451.5139</ele>
        <time>2014-07-16T22:23:41.994000Z</time>
      </trkpt>
      <trkpt lat="38.898018" lon="111.83952">
        <ele>1452.164</ele>
        <time>2014-07-16T22:23:45.263000Z</time>
      </trkpt>
      <trkpt lat="38.89796" lon="111.839424">
        <ele>1453.1831</ele>
        <time>2014-07-16T22:23:48.532000Z</time>
      </trkpt>
      <trkpt lat="38.897896" lon="111.8393">
        <ele>1454.1667</ele>
        <time>2014-07-16T22:23:51.801000Z</time>
      </trkpt>
      <trkpt lat="38.89784" lon="111.83917">
        <ele>1454.7258</ele>
        <time>2014-07-16T22:23:55.070000Z</time>
      </trkpt>
      <trkpt lat="38.897774" lon="111.83905">
        <ele>1454.9009</ele>
        <time>2014-07-16T22:23:58.339000Z</time>
      </trkpt>
      <trkpt lat="38.897705" lon="111.83893">
        <ele>1454.6448</ele>
        <time>2014-07-16T22:24:01.608000Z</time>
      </trkpt>
      <trkpt lat="38.897648" lon="111.838806">
        <ele>1454.0074</ele>
        <time>2014-07-16T22:24:04.877000Z</time>
      </trkpt>
      <trkpt lat="38.897594" lon="111.83871">
        <ele>1453.5222</ele>
        <time>2014-07-16T22:24:08.146000Z</time>
      </trkpt>
      <trkpt lat="38.89755" lon="111.8386">
        <ele>1453.9336</ele>
        <time>2014-07-16T22:24:11.415000Z</time>
      </trkpt>
      <trkpt lat="38.8975" lon="111.83849">
        <ele>1455.2997</ele>
        <time>2014-07-16T22:24:14.684000Z</time>
      </trkpt>
      <trkpt lat="38.897446" lon="111.838356">
        <ele>1456.9362</ele>
        <time>2014-07-16T22:24:17.953000Z</time>
      </trkpt>
      <trkpt lat="38.89742" lon="111.838234">
        <ele>1458.6808</ele>
        <time>2014-07-16T22:24:21.222000Z</time>
      </trkpt>
      <trkpt lat="38.897396" lon="111.83808">
        <ele>1460.9548</ele>
        <time>2014-07-16T22:24:24.491000Z</time>
      </trkpt>
      <trkpt lat="38.89738" lon="111.83796">
        <ele>1463.3081</ele>
        <time>2014-07-16T22:24:27.760000Z</time>
      </trkpt>
      <trkpt lat="38.89737" lon="111.837814">
        <ele>1464.7963</ele>
        <time>2014-07-16T22:24:31.029000Z</time>
      </trkpt>
      <trkpt lat="38.89737" lon="111.83769">
        <ele>1465.1544</ele>
        <time>2014-07-16T22:24:34.298000Z</time>
      </trkpt>
      <trkpt lat="38.897373" lon="111.837555">
        <ele>1464.794</ele>
        <time>2014-07-16T22:24:37.567000Z</time>
      </trkpt>
      <trkpt lat="38.897366" lon="111.83742">
        <ele>1464.3025</ele>
        <time>2014-07-16T22:24:40.836000Z</time>
      </trkpt>
      <trkpt lat="38.897354" lon="111.837296">
        <ele>1464.3289</ele>
        <time>2014-07-16T22:24:44.105000Z</time>
      </trkpt>
      <trkpt lat="38.897366" lon="111.83717">
        <ele>1465.0187</ele>
        <time>2014-07-16T22:24:47.374000Z</time>
      </trkpt>
      <trkpt lat="38.897377" lon="111.83704">
        <ele>1465.5018</ele>
        <time>2014-07-16T22:24:50.643000Z</time>
      </trkpt>
      <trkpt lat="38.89738" lon="111.83691">
        <ele>1465.1102</ele>
        <time>2014-07-16T22:24:53.912000Z</time>
      </trkpt>
      <trkpt lat="38.89736" lon="111.836784">
        <ele>1464.7539</ele>
        <time>2014-07-16T22:24:57.181000Z</time>
      </trkpt>
      <trkpt lat="38.897366" lon="111.83667">
        <ele>1465.5594</ele>
        <time>2014-07-16T22:25:00.450000Z</time>
      </trkpt>
      <trkpt lat="38.897373" lon="111.83654">
        <ele>1467.1318</ele>
        <time>2014-07-16T22:25:03.719000Z</time>
      </trkpt>
      <trkpt lat="38.897385" lon="111.8364">
        <ele>1468.2278</ele>
        <time>2014-07-16T22:25:06.988000Z</time>
      </trkpt>
      <trkpt lat="38.897385" lon="111.83625">
        <ele>1468.332</ele>
        <time>2014-07-16T22:25:10.257000Z</time>
      </trkpt>
      <trkpt lat="38.89739" lon="111.83612">
        <ele>1467.8689</ele>
        <time>2014-07-16T22:25:13.526000Z</time>
      </trkpt>
      <trkpt lat="38.897392" lon="111.836">
        <ele>1467.3096</ele>
        <time>2014-07-16T22:25:16.795000Z</time>
      </trkpt>
      <trkpt lat="38.897392" lon="111.83587">
        <ele>1466.7643</ele>
        <time>2014-07-16T22:25:20.064000Z</time>
      </trkpt>
      <trkpt lat="38.8974" lon="111.83574">
        <ele>1466.1714</ele>
        <time>2014-07-16T22:25:23.333000Z</time>
      </trkpt>
      <trkpt lat="38.8974" lon="111.8356">
        <ele>1465.5083</ele>
        <time>2014-07-16T22:25:26.602000Z</time>
      </trkpt>
      <trkpt lat="38.89743" lon="111.83548">
        <ele>1464.898</ele>
        <time>2014-07-16T22:25:29.871000Z</time>
      </trkpt>
      <trkpt lat="38.89746" lon="111.83535">
        <ele>1464.5414</ele>
        <time>2014-07-16T22:25:33.140000Z</time>
      </trkpt>
      <trkpt lat="38.897476" lon="111.83523">
        <ele>1464.8999</ele>
        <time>2014-07-16T22:25:36.409000Z</time>
      </trkpt>
      <trkpt lat="38.89749" lon="111.835106">
        <ele>1466.0889</ele>
        <time>2014-07-16T22:25:39.678000Z</time>
      </trkpt>
      <trkpt lat="38.897507" lon="111.834984">
        <ele>1467.2668</ele>
        <time>2014-07-16T22:25:42.947000Z</time>
      </trkpt>
      <trkpt lat="38.89751" lon="111.83486">
        <ele>1467.7471</ele>
        <time>2014-07-16T22:25:46.216000Z</time>
      </trkpt>
      <trkpt lat="38.89752" lon="111.83476">
        <ele>1466.2307</ele>
        <time>2014-07-16T22:25:49.485000Z</time>
      </trkpt>
      <trkpt lat="38.897522" lon="111.83457">
        <ele>1466.0227</ele>
        <time>2014-07-16T22:25:52.754000Z</time>
      </trkpt>
      <trkpt lat="38.89752" lon="111.83445">
        <ele>1466.2559</ele>
        <time>2014-07-16T22:25:56.023000Z</time>
      </trkpt>
      <trkpt lat="38.897514" lon="111.83433">
        <ele>1466.2307</ele>
        <time>2014-07-16T22:25:59.292000Z</time>
      </trkpt>
      <trkpt lat="38.897514" lon="111.83433">
        <ele>1465.8845</ele>
        <time>2014-07-16T22:26:02.561000Z</time>
      </trkpt>
      <trkpt lat="38.897514" lon="111.83418">
        <ele>1465.3284</ele>
        <time>2014-07-16T22:26:05.830000Z</time>
      </trkpt>
      <trkpt lat="38.89752" lon="111.83406">
        <ele>1464.9249</ele>
        <time>2014-07-16T22:26:09.099000Z</time>
      </trkpt>
      <trkpt lat="38.89751" lon="111.83394">
        <ele>1464.8959</ele>
        <time>2014-07-16T22:26:12.368000Z</time>
      </trkpt>
      <trkpt lat="38.897503" lon="111.83381">
        <ele>1465.2388</ele>
        <time>2014-07-16T22:26:15.637000Z</time>
      </trkpt>
      <trkpt lat="38.897495" lon="111.83369">
        <ele>1465.686</ele>
        <time>2014-07-16T22:26:18.906000Z</time>
      </trkpt>
      <trkpt lat="38.897495" lon="111.83369">
        <ele>1465.6074</ele>
        <time>2014-07-16T22:26:22.175000Z</time>
      </trkpt>
      <trkpt lat="38.8975" lon="111.83354">
        <ele>1464.9192</ele>
        <time>2014-07-16T22:26:25.444000Z</time>
      </trkpt>
      <trkpt lat="38.8975" lon="111.83341">
        <ele>1464.2329</ele>
        <time>2014-07-16T22:26:28.713000Z</time>
      </trkpt>
      <trkpt lat="38.89749" lon="111.833275">
        <ele>1464.0216</ele>
        <time>2014-07-16T22:26:31.982000Z</time>
      </trkpt>
      <trkpt lat="38.89749" lon="111.833275">
        <ele>1464.1177</ele>
        <time>2014-07-16T22:26:35.251000Z</time>
      </trkpt>
      <trkpt lat="38.89748" lon="111.83314">
        <ele>1463.9778</ele>
        <time>2014-07-16T22:26:38.520000Z</time>
      </trkpt>
      <trkpt lat="38.897476" lon="111.83302">
        <ele>1463.4846</ele>
        <time>2014-07-16T22:26:41.789000Z</time>
      </trkpt>
      <trkpt lat="38.897476" lon="111.83288">
        <ele>1463.0354</ele>
        <time>2014-07-16T22:26:45.058000Z</time>
      </trkpt>
      <trkpt lat="38.89747" lon="111.83273">
        <ele>1462.9814</ele>
        <time>2014-07-16T22:26:48.327000Z</time>
      </trkpt>
      <trkpt lat="38.89746" lon="111.8326">
        <ele>1463.0116</ele>
        <time>2014-07-16T22:26:51.596000Z</time>
      </trkpt>
      <trkpt lat="38.897446" lon="111.83249">
        <ele>1462.9171</ele>
        <time>2014-07-16T22:26:54.865000Z</time>
      </trkpt>
      <trkpt lat="38.897434" lon="111.832344">
        <ele>1462.7892</ele>
        <time>2014-07-16T22:26:58.134000Z</time>
      </trkpt>
      <trkpt lat="38.89743" lon="111.83223">
        <ele>1462.155</ele>
        <time>2014-07-16T22:27:01.403000Z</time>
      </trkpt>
      <trkpt lat="38.89743" lon="111.8321">
        <ele>1460.8545</ele>
        <time>2014-07-16T22:27:04.672000Z</time>
      </trkpt>
      <trkpt lat="38.897404" lon="111.83198">
        <ele>1459.7666</ele>
        <time>2014-07-16T22:27:07.941000Z</time>
      </trkpt>
      <trkpt lat="38.8974" lon="111.831856">
        <ele>1458.8702</ele>
        <time>2014-07-16T22:27:11.210000Z</time>
      </trkpt>
      <trkpt lat="38.8974" lon="111.83173">
        <ele>1457.6747</ele>
        <time>2014-07-16T22:27:14.479000Z</time>
      </trkpt>
      <trkpt lat="38.897392" lon="111.83159">
        <ele>1456.5981</ele>
        <time>2014-07-16T22:27:17.748000Z</time>
      </trkpt>
      <trkpt lat="38.897392" lon="111.83145">
        <ele>1456.1584</ele>
        <time>2014-07-16T22:27:21.017000Z</time>
      </trkpt>
      <trkpt lat="38.89738" lon="111.83131">
        <ele>1455.7648</ele>
        <time>2014-07-16T22:27:24.286000Z</time>
      </trkpt>
      <trkpt lat="38.89737" lon="111.83117">
        <ele>1454.8798</ele>
        <time>2014-07-16T22:27:27.555000Z</time>
      </trkpt>
      <trkpt lat="38.89736" lon="111.83103">
        <ele>1453.7896</ele>
        <time>2014-07-16T22:27:30.824000Z</time>
      </trkpt>
      <trkpt lat="38.897346" lon="111.8309">
        <ele>1452.9418</ele>
        <time>2014-07-16T22:27:34.093000Z</time>
      </trkpt>
      <trkpt lat="38.89735" lon="111.83078">
        <ele>1452.3923</ele>
        <time>2014-07-16T22:27:37.362000Z</time>
      </trkpt>
      <trkpt lat="38.89735" lon="111.830635">
        <ele>1452.0076</ele>
        <time>2014-07-16T22:27:40.631000Z</time>
      </trkpt>
      <trkpt lat="38.897335" lon="111.830505">
        <ele>1451.2214</ele>
        <time>2014-07-16T22:27:43.900000Z</time>
      </trkpt>
      <trkpt lat="38.89733" lon="111.83036">
        <ele>1449.684</ele>
        <time>2014-07-16T22:27:47.169000Z</time>
      </trkpt>
      <trkpt lat="38.897327" lon="111.83023">
        <ele>1447.913</ele>
        <time>2014-07-16T22:27:50.438000Z</time>
      </trkpt>
      <trkpt lat="38.897316" lon="111.83007">
        <ele>1446.6913</ele>
        <time>2014-07-16T22:27:53.707000Z</time>
      </trkpt>
      <trkpt lat="38.89731" lon="111.829956">
        <ele>1446.594</ele>
        <time>2014-07-16T22:27:56.976000Z</time>
      </trkpt>
      <trkpt lat="38.897297" lon="111.82983">
        <ele>1447.6082</ele>
        <time>2014-07-16T22:28:00.245000Z</time>
      </trkpt>
      <trkpt lat="38.897285" lon="111.829704">
        <ele>1448.1296</ele>
        <time>2014-07-16T22:28:03.514000Z</time>
      </trkpt>
      <trkpt lat="38.897278" lon="111.82958">
        <ele>1446.9951</ele>
        <time>2014-07-16T22:28:06.783000Z</time>
      </trkpt>
      <trkpt lat="38.897278" lon="111.82945">
        <ele>1445.4923</ele>
        <time>2014-07-16T22:28:10.052000Z</time>
      </trkpt>
      <trkpt lat="38.897266" lon="111.82932">
        <ele>1445.0507</ele>
        <time>2014-07-16T22:28:13.321000Z</time>
      </trkpt>
      <trkpt lat="38.897278" lon="111.829185">
        <ele>1445.4178</ele>
        <time>2014-07-16T22:28:16.590000Z</time>
      </trkpt>
      <trkpt lat="38.897373" lon="111.82911">
        <ele>1445.3523</ele>
        <time>2014-07-16T22:28:19.859000Z</time>
      </trkpt>
      <trkpt lat="38.89746" lon="111.829056">
        <ele>1443.7489</ele>
        <time>2014-07-16T22:28:23.128000Z</time>
      </trkpt>
      <trkpt lat="38.897568" lon="111.829025">
        <ele>1441.1508</ele>
        <time>2014-07-16T22:28:26.397000Z</time>
      </trkpt>
      <trkpt lat="38.89768" lon="111.82901">
        <ele>1438.9169</ele>
        <time>2014-07-16T22:28:29.666000Z</time>
      </trkpt>
      <trkpt lat="38.8978" lon="111.82903">
        <ele>1437.0874</ele>
        <time>2014-07-16T22:28:32.935000Z</time>
      </trkpt>
      <trkpt lat="38.89791" lon="111.82905">
        <ele>1435.3269</ele>
        <time>2014-07-16T22:28:36.204000Z</time>
      </trkpt>
      <trkpt lat="38.898003" lon="111.82906">
        <ele>1434.1138</ele>
        <time>2014-07-16T22:28:39.473000Z</time>
      </trkpt>
      <trkpt lat="38.89811" lon="111.82909">
        <ele>1433.7324</ele>
        <time>2014-07-16T22:28:42.742000Z</time>
      </trkpt>
      <trkpt lat="38.8982" lon="111.829124">
        <ele>1434.1648</ele>
        <time>2014-07-16T22:28:46.011000Z</time>
      </trkpt>
      <trkpt lat="38.898327" lon="111.82913">
        <ele>1435.2239</ele>
        <time>2014-07-16T22:28:49.280000Z</time>
      </trkpt>
      <trkpt lat="38.898434" lon="111.82913">
        <ele>1436.1937</ele>
        <time>2014-07-16T22:28:52.549000Z</time>
      </trkpt>
      <trkpt lat="38.898552" lon="111.82913">
        <ele>1436.4929</ele>
        <time>2014-07-16T22:28:55.818000Z</time>
      </trkpt>
      <trkpt lat="38.89866" lon="111.82912">
        <ele>1436.093</ele>
        <time>2014-07-16T22:28:59.087000Z</time>
      </trkpt>
      <trkpt lat="38.89876" lon="111.82911">
        <ele>1435.3018</ele>
        <time>2014-07-16T22:29:02.356000Z</time>
      </trkpt>
      <trkpt lat="38.898853" lon="111.82912">
        <ele>1434.644</ele>
        <time>2014-07-16T22:29:05.625000Z</time>
      </trkpt>
      <trkpt lat="38.898945" lon="111.829124">
        <ele>1434.5494</ele>
        <time>2014-07-16T22:29:08.894000Z</time>
      </trkpt>
      <trkpt lat="38.899048" lon="111.829124">
        <ele>1434.6985</ele>
        <time>2014-07-16T22:29:12.163000Z</time>
      </trkpt>
      <trkpt lat="38.89916" lon="111.829094">
        <ele>1433.8479</ele>
        <time>2014-07-16T22:29:15.432000Z</time>
      </trkpt>
      <trkpt lat="38.899273" lon="111.82913">
        <ele>1431.7147</ele>
        <time>2014-07-16T22:29:18.701000Z</time>
      </trkpt>
      <trkpt lat="38.899345" lon="111.829216">
        <ele>1430.0991</ele>
        <time>2014-07-16T22:29:21.970000Z</time>
      </trkpt>
      <trkpt lat="38.89941" lon="111.82934">
        <ele>1430.1823</ele>
        <time>2014-07-16T22:29:25.239000Z</time>
      </trkpt>
      <trkpt lat="38.899467" lon="111.82946">
        <ele>1430.875</ele>
        <time>2014-07-16T22:29:28.508000Z</time>
      </trkpt>
      <trkpt lat="38.899517" lon="111.82956">
        <ele>1430.9326</ele>
        <time>2014-07-16T22:29:31.777000Z</time>
      </trkpt>
      <trkpt lat="38.899567" lon="111.82966">
        <ele>1430.209</ele>
        <time>2014-07-16T22:29:35.046000Z</time>
      </trkpt>
      <trkpt lat="38.89963" lon="111.82978">
        <ele>1429.1246</ele>
        <time>2014-07-16T22:29:38.315000Z</time>
      </trkpt>
      <trkpt lat="38.89969" lon="111.82992">
        <ele>1428.6055</ele>
        <time>2014-07-16T22:29:41.584000Z</time>
      </trkpt>
      <trkpt lat="38.899734" lon="111.830025">
        <ele>1429.2969</ele>
        <time>2014-07-16T22:29:44.853000Z</time>
      </trkpt>
      <trkpt lat="38.899807" lon="111.83014">
        <ele>1430.7859</ele>
        <time>2014-07-16T22:29:48.122000Z</time>
      </trkpt>
      <trkpt lat="38.899876" lon="111.83025">
        <ele>1432.2479</ele>
        <time>2014-07-16T22:29:51.391000Z</time>
      </trkpt>
      <trkpt lat="38.899925" lon="111.83036">
        <ele>1433.0996</ele>
        <time>2014-07-16T22:29:54.660000Z</time>
      </trkpt>
      <trkpt lat="38.899967" lon="111.83047">
        <ele>1433.2577</ele>
        <time>2014-07-16T22:29:57.929000Z</time>
      </trkpt>
      <trkpt lat="38.900005" lon="111.830605">
        <ele>1433.2511</ele>
        <time>2014-07-16T22:30:01.198000Z</time>
      </trkpt>
      <trkpt lat="38.900066" lon="111.83074">
        <ele>1433.4839</ele>
        <time>2014-07-16T22:30:04.467000Z</time>
      </trkpt>
      <trkpt lat="38.900105" lon="111.830864">
        <ele>1433.8365</ele>
        <time>2014-07-16T22:30:07.736000Z</time>
      </trkpt>
      <trkpt lat="38.900158" lon="111.83096">
        <ele>1434.4371</ele>
        <time>2014-07-16T22:30:11.005000Z</time>
      </trkpt>
      <trkpt lat="38.900204" lon="111.831116">
        <ele>1435.4769</ele>
        <time>2014-07-16T22:30:14.274000Z</time>
      </trkpt>
      <trkpt lat="38.90024" lon="111.83124">
        <ele>1435.5465</ele>
        <time>2014-07-16T22:30:17.543000Z</time>
      </trkpt>
      <trkpt lat="38.900276" lon="111.83135">
        <ele>1433.6344</ele>
        <time>2014-07-16T22:30:20.812000Z</time>
      </trkpt>
      <trkpt lat="38.90031" lon="111.831505">
        <ele>1431.7445</ele>
        <time>2014-07-16T22:30:24.081000Z</time>
      </trkpt>
      <trkpt lat="38.900345" lon="111.831635">
        <ele>1431.9796</ele>
        <time>2014-07-16T22:30:27.350000Z</time>
      </trkpt>
      <trkpt lat="38.900375" lon="111.83177">
        <ele>1433.3711</ele>
        <time>2014-07-16T22:30:30.619000Z</time>
      </trkpt>
      <trkpt lat="38.9004" lon="111.83192">
        <ele>1433.9553</ele>
        <time>2014-07-16T22:30:33.888000Z</time>
      </trkpt>
      <trkpt lat="38.90044" lon="111.83203">
        <ele>1433.2256</ele>
        <time>2014-07-16T22:30:37.157000Z</time>
      </trkpt>
      <trkpt lat="38.900475" lon="111.83216">
        <ele>1431.7689</ele>
        <time>2014-07-16T22:30:40.426000Z</time>
      </trkpt>
      <trkpt lat="38.90049" lon="111.832275">
        <ele>1430.3295</ele>
        <time>2014-07-16T22:30:43.695000Z</time>
      </trkpt>
      <trkpt lat="38.900513" lon="111.83243">
        <ele>1429.3828</ele>
        <time>2014-07-16T22:30:46.964000Z</time>
      </trkpt>
      <trkpt lat="38.90056" lon="111.83253">
        <ele>1428.927</ele>
        <time>2014-07-16T22:30:50.233000Z</time>
      </trkpt>
      <trkpt lat="38.90059" lon="111.83266">
        <ele>1428.4087</ele>
        <time>2014-07-16T22:30:53.502000Z</time>
      </trkpt>
      <trkpt lat="38.90062" lon="111.83279">
        <ele>1427.7001</ele>
        <time>2014-07-16T22:30:56.771000Z</time>
      </trkpt>
      <trkpt lat="38.900646" lon="111.83293">
        <ele>1427.1283</ele>
        <time>2014-07-16T22:31:00.040000Z</time>
      </trkpt>
      <trkpt lat="38.90067" lon="111.83305">
        <ele>1426.8184</ele>
        <time>2014-07-16T22:31:03.309000Z</time>
      </trkpt>
      <trkpt lat="38.90067" lon="111.83317">
        <ele>1426.5524</ele>
        <time>2014-07-16T22:31:06.578000Z</time>
      </trkpt>
      <trkpt lat="38.900703" lon="111.83328">
        <ele>1426.4093</ele>
        <time>2014-07-16T22:31:09.847000Z</time>
      </trkpt>
      <trkpt lat="38.9008" lon="111.83324">
        <ele>1426.7194</ele>
        <time>2014-07-16T22:31:13.116000Z</time>
      </trkpt>
      <trkpt lat="38.90088" lon="111.83316">
        <ele>1427.5182</ele>
        <time>2014-07-16T22:31:16.385000Z</time>
      </trkpt>
      <trkpt lat="38.900894" lon="111.83328">
        <ele>1427.7269</ele>
        <time>2014-07-16T22:31:19.654000Z</time>
      </trkpt>
      <trkpt lat="38.9009" lon="111.833435">
        <ele>1426.8315</ele>
        <time>2014-07-16T22:31:22.923000Z</time>
      </trkpt>
      <trkpt lat="38.90089" lon="111.83358">
        <ele>1425.6606</ele>
        <time>2014-07-16T22:31:26.192000Z</time>
      </trkpt>
      <trkpt lat="38.900906" lon="111.83372">
        <ele>1425.9608</ele>
        <time>2014-07-16T22:31:29.461000Z</time>
      </trkpt>
      <trkpt lat="38.90093" lon="111.83383">
        <ele>1426.8351</ele>
        <time>2014-07-16T22:31:32.730000Z</time>
      </trkpt>
      <trkpt lat="38.90095" lon="111.833954">
        <ele>1428.0634</ele>
        <time>2014-07-16T22:31:35.999000Z</time>
      </trkpt>
      <trkpt lat="38.900978" lon="111.83408">
        <ele>1429.2031</ele>
        <time>2014-07-16T22:31:39.268000Z</time>
      </trkpt>
      <trkpt lat="38.90101" lon="111.83422">
        <ele>1429.8998</ele>
        <time>2014-07-16T22:31:42.537000Z</time>
      </trkpt>
      <trkpt lat="38.901043" lon="111.83437">
        <ele>1430.0897</ele>
        <time>2014-07-16T22:31:45.806000Z</time>
      </trkpt>
      <trkpt lat="38.901066" lon="111.83449">
        <ele>1429.6603</ele>
        <time>2014-07-16T22:31:49.075000Z</time>
      </trkpt>
      <trkpt lat="38.90109" lon="111.83461">
        <ele>1429.0256</ele>
        <time>2014-07-16T22:31:52.344000Z</time>
      </trkpt>
      <trkpt lat="38.90111" lon="111.834724">
        <ele>1428.9188</ele>
        <time>2014-07-16T22:31:55.613000Z</time>
      </trkpt>
      <trkpt lat="38.901134" lon="111.834854">
        <ele>1429.3756</ele>
        <time>2014-07-16T22:31:58.882000Z</time>
      </trkpt>
      <trkpt lat="38.901165" lon="111.83498">
        <ele>1429.8405</ele>
        <time>2014-07-16T22:32:02.151000Z</time>
      </trkpt>
      <trkpt lat="38.901184" lon="111.83512">
        <ele>1430.0508</ele>
        <time>2014-07-16T22:32:05.420000Z</time>
      </trkpt>
      <trkpt lat="38.9012" lon="111.83525">
        <ele>1429.9019</ele>
        <time>2014-07-16T22:32:08.689000Z</time>
      </trkpt>
      <trkpt lat="38.901237" lon="111.83536">
        <ele>1429.4976</ele>
        <time>2014-07-16T22:32:11.958000Z</time>
      </trkpt>
      <trkpt lat="38.901268" lon="111.83548">
        <ele>1429.2184</ele>
        <time>2014-07-16T22:32:15.227000Z</time>
      </trkpt>
      <trkpt lat="38.901295" lon="111.8356">
        <ele>1429.2058</ele>
        <time>2014-07-16T22:32:18.496000Z</time>
      </trkpt>
      <trkpt lat="38.901318" lon="111.835724">
        <ele>1429.4031</ele>
        <time>2014-07-16T22:32:21.765000Z</time>
      </trkpt>
      <trkpt lat="38.90139" lon="111.83581">
        <ele>1429.7908</ele>
        <time>2014-07-16T22:32:25.034000Z</time>
      </trkpt>
      <trkpt lat="38.901485" lon="111.835754">
        <ele>1430.1534</ele>
        <time>2014-07-16T22:32:28.303000Z</time>
      </trkpt>
      <trkpt lat="38.901585" lon="111.835724">
        <ele>1430.1552</ele>
        <time>2014-07-16T22:32:31.572000Z</time>
      </trkpt>
      <trkpt lat="38.90165" lon="111.83583">
        <ele>1429.7561</ele>
        <time>2014-07-16T22:32:34.841000Z</time>
      </trkpt>
      <trkpt lat="38.901695" lon="111.83594">
        <time>2014-07-16T22:32:38.110000Z</time>
      </trkpt>
    </trkseg>
  </trk>
</gpx>