<?xml version="1.0" encoding="UTF-8"?>
<gpx xmlns="http://www.topografix.com/GPX/1/1" xmlns:gpxtpx="http://www.garmin.com/xmlschemas/TrackPointExtension/v1" xmlns:xsi="http://www.w3.org/2001/XMLSchema-instance" xsi:schemaLocation="http://www.topografix.com/GPX/1/1 http://www.topografix.com/GPX/1/1/gpx.xsd" version="1.1" creator="gpx.py -- https://github.com/tkrajina/gpxpy">
  <trk>
    <trkseg>
      <trkpt lat="38.902004" lon="111.83576">
        <ele>1440.2513</ele>
        <time>2014-07-27T22:11:42.578000Z</time>
      </trkpt>
      <trkpt lat="38.902084" lon="111.83575">
        <ele>1445.4209</ele>
        <time>2014-07-27T22:11:45.614000Z</time>
      </trkpt>
      <trkpt lat="38.902115" lon="111.83574">
        <ele>1441.8931</ele>
        <time>2014-07-27T22:11:48.650000Z</time>
      </trkpt>
      <trkpt lat="38.902203" lon="111.83572">
        <ele>1434.2449</ele>
        <time>2014-07-27T22:11:51.686000Z</time>
      </trkpt>
      <trkpt lat="38.902203" lon="111.83572">
        <ele>1429.3676</ele>
        <time>2014-07-27T22:11:54.722000Z</time>
      </trkpt>
      <trkpt lat="38.902298" lon="111.83567">
        <ele>1427.5841</ele>
        <time>2014-07-27T22:11:57.758000Z</time>
      </trkpt>
      <trkpt lat="38.902412" lon="111.83562">
        <ele>1426.555</ele>
        <time>2014-07-27T22:12:00.794000Z</time>
      </trkpt>
      <trkpt lat="38.902515" lon="111.83559">
        <ele>1424.5509</ele>
        <time>2014-07-27T22:12:03.830000Z</time>
      </trkpt>
      <trkpt lat="38.902588" lon="111.83567">
        <ele>1422.1178</ele>
        <time>2014-07-27T22:12:06.866000Z</time>
      </trkpt>
      <trkpt lat="38.90264" lon="111.83579">
        <ele>1420.6962</ele>
        <time>2014-07-27T22:12:09.902000Z</time>
      </trkpt>
      <trkpt lat="38.90269" lon="111.8359">
        <ele>1421.139</ele>
        <time>2014-07-27T22:12:12.938000Z</time>
      </trkpt>
      <trkpt lat="38.902744" lon="111.836">
        <ele>1423.1128</ele>
        <time>2014-07-27T22:12:15.974000Z</time>
      </trkpt>
      <trkpt lat="38.902794" lon="111.83613">
        <ele>1425.8212</ele>
        <time>2014-07-27T22:12:19.010000Z</time>
      </trkpt>
      <trkpt lat="38.90284" lon="111.83627">
        <ele>1428.7094</ele>
        <time>2014-07-27T22:12:22.046000Z</time>
      </trkpt>
      <trkpt lat="38.90289" lon="111.83641">
        <ele>1431.1073</ele>
        <time>2014-07-27T22:12:25.082000Z</time>
      </trkpt>
      <trkpt lat="38.90293" lon="111.83654">
        <ele>1432.3097</ele>
        <time>2014-07-27T22:12:28.118000Z</time>
      </trkpt>
      <trkpt lat="38.902966" lon="111.836655">
        <ele>1432.2686</ele>
        <time>2014-07-27T22:12:31.154000Z</time>
      </trkpt>
      <trkpt lat="38.902996" lon="111.83678">
        <ele>1431.3055</ele>
        <time>2014-07-27T22:12:34.190000Z</time>
      </trkpt>
      <trkpt lat="38.90301" lon="111.83689">
        <ele>1430.0165</ele>
        <time>2014-07-27T22:12:37.226000Z</time>
      </trkpt>
      <trkpt lat="38.903038" lon="111.837006">
        <ele>1428.442</ele>
        <time>2014-07-27T22:12:40.262000Z</time>
      </trkpt>
      <trkpt lat="38.903076" lon="111.83711">
        <ele>1426.5542</ele>
        <time>2014-07-27T22:12:43.298000Z</time>
      </trkpt>
      <trkpt lat="38.903126" lon="111.83723">
        <ele>1425.5502</ele>
        <time>2014-07-27T22:12:46.334000Z</time>
      </trkpt>
      <trkpt lat="38.90317" lon="111.83734">
        <ele>1426.637</ele>
        <time>2014-07-27T22:12:49.370000Z</time>
      </trkpt>
      <trkpt lat="38.90322" lon="111.83747">
        <ele>1428.952</ele>
        <time>2014-07-27T22:12:52.406000Z</time>
      </trkpt>
      <trkpt lat="38.903255" lon="111.83758">
        <ele>1430.2874</ele>
        <time>2014-07-27T22:12:55.442000Z</time>
      </trkpt>
      <trkpt lat="38.903297" lon="111.83769">
        <ele>1429.7378</ele>
        <time>2014-07-27T22:12:58.478000Z</time>
      </trkpt>
      <trkpt lat="38.903324" lon="111.8378">
        <ele>1428.6694</ele>
        <time>2014-07-27T22:13:01.514000Z</time>
      </trkpt>
      <trkpt lat="38.903366" lon="111.83791">
        <ele>1428.4081</ele>
        <time>2014-07-27T22:13:04.550000Z</time>
      </trkpt>
      <trkpt lat="38.90341" lon="111.83802">
        <ele>1428.6122</ele>
        <time>2014-07-27T22:13:07.586000Z</time>
      </trkpt>
      <trkpt lat="38.903458" lon="111.83812">
        <ele>1428.6326</ele>
        <time>2014-07-27T22:13:10.622000Z</time>
      </trkpt>
      <trkpt lat="38.903503" lon="111.838234">
        <ele>1428.5353</ele>
        <time>2014-07-27T22:13:13.658000Z</time>
      </trkpt>
      <trkpt lat="38.90354" lon="111.83834">
        <ele>1428.7899</ele>
        <time>2014-07-27T22:13:16.694000Z</time>
      </trkpt>
      <trkpt lat="38.90357" lon="111.83848">
        <ele>1429.4872</ele>
        <time>2014-07-27T22:13:19.730000Z</time>
      </trkpt>
      <trkpt lat="38.903606" lon="111.838585">
        <ele>1430.0786</ele>
        <time>2014-07-27T22:13:22.766000Z</time>
      </trkpt>
      <trkpt lat="38.90364" lon="111.83871">
        <ele>1430.1547</ele>
        <time>2014-07-27T22:13:25.802000Z</time>
      </trkpt>
      <trkpt lat="38.90369" lon="111.83884">
        <ele>1429.9491</ele>
        <time>2014-07-27T22:13:28.838000Z</time>
      </trkpt>
      <trkpt lat="38.90373" lon="111.83896">
        <ele>1429.9259</ele>
        <time>2014-07-27T22:13:31.874000Z</time>
      </trkpt>
      <trkpt lat="38.90376" lon="111.83909">
        <ele>1430.4152</ele>
        <time>2014-07-27T22:13:34.910000Z</time>
      </trkpt>
      <trkpt lat="38.903793" lon="111.83921">
        <ele>1431.25</ele>
        <time>2014-07-27T22:13:37.946000Z</time>
      </trkpt>
      <trkpt lat="38.903843" lon="111.839355">
        <ele>1431.8304</ele>
        <time>2014-07-27T22:13:40.982000Z</time>
      </trkpt>
      <trkpt lat="38.903877" lon="111.83948">
        <ele>1431.8694</ele>
        <time>2014-07-27T22:13:44.018000Z</time>
      </trkpt>
      <trkpt lat="38.90391" lon="111.839584">
        <ele>1431.6418</ele>
        <time>2014-07-27T22:13:47.054000Z</time>
      </trkpt>
      <trkpt lat="38.903957" lon="111.8397">
        <ele>1431.5312</ele>
        <time>2014-07-27T22:13:50.090000Z</time>
      </trkpt>
      <trkpt lat="38.904003" lon="111.83982">
        <ele>1431.6359</ele>
        <time>2014-07-27T22:13:53.126000Z</time>
      </trkpt>
      <trkpt lat="38.90415" lon="111.839874">
        <ele>1431.75</ele>
        <time>2014-07-27T22:13:56.162000Z</time>
      </trkpt>
      <trkpt lat="38.904247" lon="111.83987">
        <ele>1431.0546</ele>
        <time>2014-07-27T22:13:59.198000Z</time>
      </trkpt>
      <trkpt lat="38.904354" lon="111.83981">
        <ele>1429.0206</ele>
        <time>2014-07-27T22:14:02.234000Z</time>
      </trkpt>
      <trkpt lat="38.90444" lon="111.83975">
        <ele>1426.3193</ele>
        <time>2014-07-27T22:14:05.270000Z</time>
      </trkpt>
      <trkpt lat="38.904526" lon="111.83969">
        <ele>1423.9625</ele>
        <time>2014-07-27T22:14:08.306000Z</time>
      </trkpt>
      <trkpt lat="38.904617" lon="111.839645">
        <ele>1422.4539</ele>
        <time>2014-07-27T22:14:11.342000Z</time>
      </trkpt>
      <trkpt lat="38.904716" lon="111.83958">
        <ele>1422.0226</ele>
        <time>2014-07-27T22:14:14.378000Z</time>
      </trkpt>
      <trkpt lat="38.904808" lon="111.839516">
        <ele>1422.6744</ele>
        <time>2014-07-27T22:14:17.414000Z</time>
      </trkpt>
      <trkpt lat="38.90487" lon="111.839424">
        <ele>1424.4445</ele>
        <time>2014-07-27T22:14:20.450000Z</time>
      </trkpt>
      <trkpt lat="38.90495" lon="111.83934">
        <ele>1427.8455</ele>
        <time>2014-07-27T22:14:23.486000Z</time>
      </trkpt>
      <trkpt lat="38.90505" lon="111.83927">
        <ele>1432.7539</ele>
        <time>2014-07-27T22:14:26.522000Z</time>
      </trkpt>
      <trkpt lat="38.90516" lon="111.8392">
        <ele>1437.365</ele>
        <time>2014-07-27T22:14:29.558000Z</time>
      </trkpt>
      <trkpt lat="38.90525" lon="111.839134">
        <ele>1440.0139</ele>
        <time>2014-07-27T22:14:32.594000Z</time>
      </trkpt>
      <trkpt lat="38.90535" lon="111.83907">
        <ele>1440.3368</ele>
        <time>2014-07-27T22:14:35.630000Z</time>
      </trkpt>
      <trkpt lat="38.90544" lon="111.83902">
        <ele>1438.3353</ele>
        <time>2014-07-27T22:14:38.666000Z</time>
      </trkpt>
      <trkpt lat="38.905544" lon="111.839">
        <ele>1434.8347</ele>
        <time>2014-07-27T22:14:41.702000Z</time>
      </trkpt>
      <trkpt lat="38.905655" lon="111.838974">
        <ele>1431.5021</ele>
        <time>2014-07-27T22:14:44.738000Z</time>
      </trkpt>
      <trkpt lat="38.905766" lon="111.838936">
        <ele>1429.1663</ele>
        <time>2014-07-27T22:14:47.774000Z</time>
      </trkpt>
      <trkpt lat="38.905865" lon="111.83888">
        <ele>1427.9471</ele>
        <time>2014-07-27T22:14:50.810000Z</time>
      </trkpt>
      <trkpt lat="38.90596" lon="111.83881">
        <ele>1427.925</ele>
        <time>2014-07-27T22:14:53.846000Z</time>
      </trkpt>
      <trkpt lat="38.90606" lon="111.83877">
        <ele>1428.7289</ele>
        <time>2014-07-27T22:14:56.882000Z</time>
      </trkpt>
      <trkpt lat="38.90615" lon="111.83872">
        <ele>1429.6761</ele>
        <time>2014-07-27T22:14:59.918000Z</time>
      </trkpt>
      <trkpt lat="38.90625" lon="111.83867">
        <ele>1429.8517</ele>
        <time>2014-07-27T22:15:02.954000Z</time>
      </trkpt>
      <trkpt lat="38.906345" lon="111.83863">
        <ele>1428.8073</ele>
        <time>2014-07-27T22:15:05.990000Z</time>
      </trkpt>
      <trkpt lat="38.90644" lon="111.83858">
        <ele>1427.3489</ele>
        <time>2014-07-27T22:15:09.026000Z</time>
      </trkpt>
      <trkpt lat="38.90654" lon="111.8385">
        <ele>1426.3026</ele>
        <time>2014-07-27T22:15:12.062000Z</time>
      </trkpt>
      <trkpt lat="38.906635" lon="111.838425">
        <ele>1425.5005</ele>
        <time>2014-07-27T22:15:15.098000Z</time>
      </trkpt>
      <trkpt lat="38.906746" lon="111.838356">
        <ele>1424.636</ele>
        <time>2014-07-27T22:15:18.134000Z</time>
      </trkpt>
      <trkpt lat="38.906853" lon="111.83831">
        <ele>1423.9098</ele>
        <time>2014-07-27T22:15:21.170000Z</time>
      </trkpt>
      <trkpt lat="38.906944" lon="111.83827">
        <ele>1423.7219</ele>
        <time>2014-07-27T22:15:24.206000Z</time>
      </trkpt>
      <trkpt lat="38.90706" lon="111.83823">
        <ele>1424.0724</ele>
        <time>2014-07-27T22:15:27.242000Z</time>
      </trkpt>
      <trkpt lat="38.907173" lon="111.83817">
        <ele>1424.5643</ele>
        <time>2014-07-27T22:15:30.278000Z</time>
      </trkpt>
      <trkpt lat="38.907284" lon="111.83812">
        <ele>1424.7168</ele>
        <time>2014-07-27T22:15:33.314000Z</time>
      </trkpt>
      <trkpt lat="38.90739" lon="111.83806">
        <ele>1424.3132</ele>
        <time>2014-07-27T22:15:36.350000Z</time>
      </trkpt>
      <trkpt lat="38.907475" lon="111.838">
        <ele>1423.5339</ele>
        <time>2014-07-27T22:15:39.386000Z</time>
      </trkpt>
      <trkpt lat="38.90757" lon="111.83796">
        <ele>1423.0596</ele>
        <time>2014-07-27T22:15:42.422000Z</time>
      </trkpt>
      <trkpt lat="38.90767" lon="111.83792">
        <ele>1423.304</ele>
        <time>2014-07-27T22:15:45.458000Z</time>
      </trkpt>
      <trkpt lat="38.907764" lon="111.83785">
        <ele>1423.6747</ele>
        <time>2014-07-27T22:15:48.494000Z</time>
      </trkpt>
      <trkpt lat="38.90785" lon="111.83778">
        <ele>1423.6012</ele>
        <time>2014-07-27T22:15:51.530000Z</time>
      </trkpt>
      <trkpt lat="38.907944" lon="111.83776">
        <ele>1423.4409</ele>
        <time>2014-07-27T22:15:54.566000Z</time>
      </trkpt>
      <trkpt lat="38.908062" lon="111.837715">
        <ele>1423.625</ele>
        <time>2014-07-27T22:15:57.602000Z</time>
      </trkpt>
      <trkpt lat="38.908165" lon="111.837654">
        <ele>1423.6443</ele>
        <time>2014-07-27T22:16:00.638000Z</time>
      </trkpt>
      <trkpt lat="38.908253" lon="111.837585">
        <ele>1423.0171</ele>
        <time>2014-07-27T22:16:03.674000Z</time>
      </trkpt>
      <trkpt lat="38.908337" lon="111.83754">
        <ele>1422.21</ele>
        <time>2014-07-27T22:16:06.710000Z</time>
      </trkpt>
      <trkpt lat="38.908424" lon="111.83748">
        <ele>1421.8259</ele>
        <time>2014-07-27T22:16:09.746000Z</time>
      </trkpt>
      <trkpt lat="38.908527" lon="111.837425">
        <ele>1421.9749</ele>
        <time>2014-07-27T22:16:12.782000Z</time>
      </trkpt>
      <trkpt lat="38.90863" lon="111.83738">
        <ele>1422.5071</ele>
        <time>2014-07-27T22:16:15.818000Z</time>
      </trkpt>
      <trkpt lat="38.90873" lon="111.83733">
        <ele>1423.1018</ele>
        <time>2014-07-27T22:16:18.854000Z</time>
      </trkpt>
      <trkpt lat="38.908833" lon="111.83728">
        <ele>1424.0085</ele>
        <time>2014-07-27T22:16:21.890000Z</time>
      </trkpt>
      <trkpt lat="38.90894" lon="111.83723">
        <ele>1425.6305</ele>
        <time>2014-07-27T22:16:24.926000Z</time>
      </trkpt>
      <trkpt lat="38.909046" lon="111.83716">
        <ele>1427.5817</ele>
        <time>2014-07-27T22:16:27.962000Z</time>
      </trkpt>
      <trkpt lat="38.909153" lon="111.8371">
        <ele>1429.1232</ele>
        <time>2014-07-27T22:16:30.998000Z</time>
      </trkpt>
      <trkpt lat="38.90926" lon="111.837036">
        <ele>1429.941</ele>
        <time>2014-07-27T22:16:34.034000Z</time>
      </trkpt>
      <trkpt lat="38.909367" lon="111.837">
        <ele>1429.91</ele>
        <time>2014-07-27T22:16:37.070000Z</time>
      </trkpt>
      <trkpt lat="38.909492" lon="111.83692">
        <ele>1429.1704</ele>
        <time>2014-07-27T22:16:40.106000Z</time>
      </trkpt>
      <trkpt lat="38.9096" lon="111.836845">
        <ele>1428.0045</ele>
        <time>2014-07-27T22:16:43.142000Z</time>
      </trkpt>
      <trkpt lat="38.909676" lon="111.83677">
        <ele>1426.9664</ele>
        <time>2014-07-27T22:16:46.178000Z</time>
      </trkpt>
      <trkpt lat="38.90974" lon="111.83666">
        <ele>1426.5717</ele>
        <time>2014-07-27T22:16:49.214000Z</time>
      </trkpt>
      <trkpt lat="38.90984" lon="111.836586">
        <ele>1427.154</ele>
        <time>2014-07-27T22:16:52.250000Z</time>
      </trkpt>
      <trkpt lat="38.909943" lon="111.83651">
        <ele>1428.5618</ele>
        <time>2014-07-27T22:16:55.286000Z</time>
      </trkpt>
      <trkpt lat="38.91004" lon="111.83644">
        <ele>1430.0032</ele>
        <time>2014-07-27T22:16:58.322000Z</time>
      </trkpt>
      <trkpt lat="38.910133" lon="111.83638">
        <ele>1430.6791</ele>
        <time>2014-07-27T22:17:01.358000Z</time>
      </trkpt>
      <trkpt lat="38.910236" lon="111.83634">
        <ele>1430.643</ele>
        <time>2014-07-27T22:17:04.394000Z</time>
      </trkpt>
      <trkpt lat="38.91034" lon="111.836296">
        <ele>1430.1357</ele>
        <time>2014-07-27T22:17:07.430000Z</time>
      </trkpt>
      <trkpt lat="38.91046" lon="111.83625">
        <ele>1429.3326</ele>
        <time>2014-07-27T22:17:10.466000Z</time>
      </trkpt>
      <trkpt lat="38.910564" lon="111.83623">
        <ele>1428.0306</ele>
        <time>2014-07-27T22:17:13.502000Z</time>
      </trkpt>
      <trkpt lat="38.910667" lon="111.836205">
        <ele>1426.1215</ele>
        <time>2014-07-27T22:17:16.538000Z</time>
      </trkpt>
      <trkpt lat="38.910763" lon="111.83616">
        <ele>1424.4249</ele>
        <time>2014-07-27T22:17:19.574000Z</time>
      </trkpt>
      <trkpt lat="38.91087" lon="111.83607">
        <ele>1423.6636</ele>
        <time>2014-07-27T22:17:22.610000Z</time>
      </trkpt>
      <trkpt lat="38.910927" lon="111.83595">
        <ele>1423.6631</ele>
        <time>2014-07-27T22:17:25.646000Z</time>
      </trkpt>
      <trkpt lat="38.911026" lon="111.83586">
        <ele>1424.8499</ele>
        <time>2014-07-27T22:17:28.682000Z</time>
      </trkpt>
      <trkpt lat="38.91112" lon="111.83581">
        <ele>1427.2595</ele>
        <time>2014-07-27T22:17:31.718000Z</time>
      </trkpt>
      <trkpt lat="38.91121" lon="111.83572">
        <ele>1429.2827</ele>
        <time>2014-07-27T22:17:34.754000Z</time>
      </trkpt>
      <trkpt lat="38.911297" lon="111.83567">
        <ele>1429.6595</ele>
        <time>2014-07-27T22:17:37.790000Z</time>
      </trkpt>
      <trkpt lat="38.911404" lon="111.83562">
        <ele>1428.8396</ele>
        <time>2014-07-27T22:17:40.826000Z</time>
      </trkpt>
      <trkpt lat="38.91151" lon="111.835556">
        <ele>1427.8948</ele>
        <time>2014-07-27T22:17:43.862000Z</time>
      </trkpt>
      <trkpt lat="38.911606" lon="111.83553">
        <ele>1427.6302</ele>
        <time>2014-07-27T22:17:46.898000Z</time>
      </trkpt>
      <trkpt lat="38.91173" lon="111.83551">
        <ele>1428.0433</ele>
        <time>2014-07-27T22:17:49.934000Z</time>
      </trkpt>
      <trkpt lat="38.91186" lon="111.83551">
        <ele>1428.1866</ele>
        <time>2014-07-27T22:17:52.970000Z</time>
      </trkpt>
      <trkpt lat="38.911957" lon="111.83548">
        <ele>1427.4706</ele>
        <time>2014-07-27T22:17:56.006000Z</time>
      </trkpt>
      <trkpt lat="38.912064" lon="111.83541">
        <ele>1426.5581</ele>
        <time>2014-07-27T22:17:59.042000Z</time>
      </trkpt>
      <trkpt lat="38.91216" lon="111.83535">
        <ele>1426.1652</ele>
        <time>2014-07-27T22:18:02.078000Z</time>
      </trkpt>
      <trkpt lat="38.912243" lon="111.83527">
        <ele>1426.1776</ele>
        <time>2014-07-27T22:18:05.114000Z</time>
      </trkpt>
      <trkpt lat="38.912357" lon="111.83523">
        <ele>1426.1653</ele>
        <time>2014-07-27T22:18:08.150000Z</time>
      </trkpt>
      <trkpt lat="38.912457" lon="111.83519">
        <ele>1425.696</ele>
        <time>2014-07-27T22:18:11.186000Z</time>
      </trkpt>
      <trkpt lat="38.91255" lon="111.83514">
        <ele>1424.2197</ele>
        <time>2014-07-27T22:18:14.222000Z</time>
      </trkpt>
      <trkpt lat="38.912647" lon="111.8351">
        <ele>1421.9106</ele>
        <time>2014-07-27T22:18:17.258000Z</time>
      </trkpt>
      <trkpt lat="38.91277" lon="111.83505">
        <ele>1419.9736</ele>
        <time>2014-07-27T22:18:20.294000Z</time>
      </trkpt>
      <trkpt lat="38.912865" lon="111.83501">
        <ele>1419.1981</ele>
        <time>2014-07-27T22:18:23.330000Z</time>
      </trkpt>
      <trkpt lat="38.912968" lon="111.834946">
        <ele>1419.1952</ele>
        <time>2014-07-27T22:18:26.366000Z</time>
      </trkpt>
      <trkpt lat="38.91305" lon="111.83487">
        <ele>1419.4211</ele>
        <time>2014-07-27T22:18:29.402000Z</time>
      </trkpt>
      <trkpt lat="38.913166" lon="111.834816">
        <ele>1419.5406</ele>
        <time>2014-07-27T22:18:32.438000Z</time>
      </trkpt>
      <trkpt lat="38.913254" lon="111.83475">
        <ele>1419.5497</ele>
        <time>2014-07-27T22:18:35.474000Z</time>
      </trkpt>
      <trkpt lat="38.91335" lon="111.8347">
        <ele>1419.6276</ele>
        <time>2014-07-27T22:18:38.510000Z</time>
      </trkpt>
      <trkpt lat="38.91346" lon="111.83461">
        <ele>1419.9156</ele>
        <time>2014-07-27T22:18:41.546000Z</time>
      </trkpt>
      <trkpt lat="38.913544" lon="111.834526">
        <ele>1420.4282</ele>
        <time>2014-07-27T22:18:44.582000Z</time>
      </trkpt>
      <trkpt lat="38.91363" lon="111.83445">
        <ele>1421.0178</ele>
        <time>2014-07-27T22:18:47.618000Z</time>
      </trkpt>
      <trkpt lat="38.91376" lon="111.834404">
        <ele>1421.4034</ele>
        <time>2014-07-27T22:18:50.654000Z</time>
      </trkpt>
      <trkpt lat="38.91387" lon="111.83438">
        <ele>1421.5273</ele>
        <time>2014-07-27T22:18:53.690000Z</time>
      </trkpt>
      <trkpt lat="38.913975" lon="111.83435">
        <ele>1421.0828</ele>
        <time>2014-07-27T22:18:56.726000Z</time>
      </trkpt>
      <trkpt lat="38.914078" lon="111.83429">
        <ele>1419.9186</ele>
        <time>2014-07-27T22:18:59.762000Z</time>
      </trkpt>
      <trkpt lat="38.91416" lon="111.834236">
        <ele>1419.2168</ele>
        <time>2014-07-27T22:19:02.798000Z</time>
      </trkpt>
      <trkpt lat="38.914265" lon="111.83419">
        <ele>1419.9026</ele>
        <time>2014-07-27T22:19:05.834000Z</time>
      </trkpt>
      <trkpt lat="38.91437" lon="111.834175">
        <ele>1421.0725</ele>
        <time>2014-07-27T22:19:08.870000Z</time>
      </trkpt>
      <trkpt lat="38.914474" lon="111.83416">
        <ele>1421.6007</ele>
        <time>2014-07-27T22:19:11.906000Z</time>
      </trkpt>
      <trkpt lat="38.91459" lon="111.83411">
        <ele>1421.4279</ele>
        <time>2014-07-27T22:19:14.942000Z</time>
      </trkpt>
      <trkpt lat="38.914696" lon="111.834045">
        <ele>1420.7545</ele>
        <time>2014-07-27T22:19:17.978000Z</time>
      </trkpt>
      <trkpt lat="38.9148" lon="111.833984">
        <ele>1419.7845</ele>
        <time>2014-07-27T22:19:21.014000Z</time>
      </trkpt>
      <trkpt lat="38.914886" lon="111.83394">
        <ele>1418.9167</ele>
        <time>2014-07-27T22:19:24.050000Z</time>
      </trkpt>
      <trkpt lat="38.914986" lon="111.833885">
        <ele>1418.4211</ele>
        <time>2014-07-27T22:19:27.086000Z</time>
      </trkpt>
      <trkpt lat="38.915085" lon="111.833824">
        <ele>1418.2046</ele>
        <time>2014-07-27T22:19:30.122000Z</time>
      </trkpt>
      <trkpt lat="38.91519" lon="111.8337">
        <ele>1418.3439</ele>
        <time>2014-07-27T22:19:33.158000Z</time>
      </trkpt>
      <trkpt lat="38.915283" lon="111.83361">
        <ele>1419.0349</ele>
        <time>2014-07-27T22:19:36.194000Z</time>
      </trkpt>
      <trkpt lat="38.91536" lon="111.83353">
        <ele>1420.1418</ele>
        <time>2014-07-27T22:19:39.230000Z</time>
      </trkpt>
      <trkpt lat="38.915443" lon="111.83348">
        <ele>1421.3777</ele>
        <time>2014-07-27T22:19:42.266000Z</time>
      </trkpt>
      <trkpt lat="38.915554" lon="111.83343">
        <ele>1422.5216</ele>
        <time>2014-07-27T22:19:45.302000Z</time>
      </trkpt>
      <trkpt lat="38.91566" lon="111.83338">
        <ele>1422.9393</ele>
        <time>2014-07-27T22:19:48.338000Z</time>
      </trkpt>
      <trkpt lat="38.915756" lon="111.833336">
        <ele>1422.3253</ele>
        <time>2014-07-27T22:19:51.374000Z</time>
      </trkpt>
      <trkpt lat="38.915867" lon="111.833275">
        <ele>1421.3287</ele>
        <time>2014-07-27T22:19:54.410000Z</time>
      </trkpt>
      <trkpt lat="38.91596" lon="111.833244">
        <ele>1420.4675</ele>
        <time>2014-07-27T22:19:57.446000Z</time>
      </trkpt>
      <trkpt lat="38.916065" lon="111.83319">
        <ele>1419.54</ele>
        <time>2014-07-27T22:20:00.482000Z</time>
      </trkpt>
      <trkpt lat="38.916164" lon="111.83319">
        <ele>1418.753</ele>
        <time>2014-07-27T22:20:03.518000Z</time>
      </trkpt>
      <trkpt lat="38.916275" lon="111.83319">
        <ele>1418.788</ele>
        <time>2014-07-27T22:20:06.554000Z</time>
      </trkpt>
      <trkpt lat="38.916386" lon="111.833176">
        <ele>1419.6027</ele>
        <time>2014-07-27T22:20:09.590000Z</time>
      </trkpt>
      <trkpt lat="38.9165" lon="111.83314">
        <ele>1420.4257</ele>
        <time>2014-07-27T22:20:12.626000Z</time>
      </trkpt>
      <trkpt lat="38.91659" lon="111.83308">
        <ele>1420.461</ele>
        <time>2014-07-27T22:20:15.662000Z</time>
      </trkpt>
      <trkpt lat="38.91669" lon="111.833">
        <ele>1419.5278</ele>
        <time>2014-07-27T22:20:18.698000Z</time>
      </trkpt>
      <trkpt lat="38.91683" lon="111.83295">
        <ele>1418.8296</ele>
        <time>2014-07-27T22:20:21.734000Z</time>
      </trkpt>
      <trkpt lat="38.916943" lon="111.83294">
        <ele>1419.6476</ele>
        <time>2014-07-27T22:20:24.770000Z</time>
      </trkpt>
      <trkpt lat="38.917027" lon="111.83301">
        <ele>1421.472</ele>
        <time>2014-07-27T22:20:27.806000Z</time>
      </trkpt>
      <trkpt lat="38.91708" lon="111.83315">
        <ele>1422.9413</ele>
        <time>2014-07-27T22:20:30.842000Z</time>
      </trkpt>
      <trkpt lat="38.91712" lon="111.833275">
        <ele>1423.221</ele>
        <time>2014-07-27T22:20:33.878000Z</time>
      </trkpt>
      <trkpt lat="38.91717" lon="111.83339">
        <ele>1422.6919</ele>
        <time>2014-07-27T22:20:36.914000Z</time>
      </trkpt>
      <trkpt lat="38.917233" lon="111.83349">
        <ele>1422.3708</ele>
        <time>2014-07-27T22:20:39.950000Z</time>
      </trkpt>
      <trkpt lat="38.91729" lon="111.833595">
        <ele>1422.631</ele>
        <time>2014-07-27T22:20:42.986000Z</time>
      </trkpt>
      <trkpt lat="38.917374" lon="111.83374">
        <ele>1423.3562</ele>
        <time>2014-07-27T22:20:46.022000Z</time>
      </trkpt>
      <trkpt lat="38.917454" lon="111.833885">
        <ele>1425.1177</ele>
        <time>2014-07-27T22:20:49.058000Z</time>
      </trkpt>
      <trkpt lat="38.91753" lon="111.83402">
        <ele>1427.8484</ele>
        <time>2014-07-27T22:20:52.094000Z</time>
      </trkpt>
      <trkpt lat="38.9176" lon="111.83414">
        <ele>1431.6606</ele>
        <time>2014-07-27T22:20:55.130000Z</time>
      </trkpt>
      <trkpt lat="38.917667" lon="111.834274">
        <ele>1436.8046</ele>
        <time>2014-07-27T22:20:58.166000Z</time>
      </trkpt>
      <trkpt lat="38.917725" lon="111.83437">
        <ele>1441.7745</ele>
        <time>2014-07-27T22:21:01.202000Z</time>
      </trkpt>
      <trkpt lat="38.91778" lon="111.834496">
        <ele>1444.695</ele>
        <time>2014-07-27T22:21:04.238000Z</time>
      </trkpt>
      <trkpt lat="38.917816" lon="111.83461">
        <ele>1445.9623</ele>
        <time>2014-07-27T22:21:07.274000Z</time>
      </trkpt>
      <trkpt lat="38.917866" lon="111.83474">
        <ele>1446.6006</ele>
        <time>2014-07-27T22:21:10.310000Z</time>
      </trkpt>
      <trkpt lat="38.917915" lon="111.83488">
        <ele>1446.9736</ele>
        <time>2014-07-27T22:21:13.346000Z</time>
      </trkpt>
      <trkpt lat="38.91796" lon="111.83503">
        <ele>1446.8658</ele>
        <time>2014-07-27T22:21:16.382000Z</time>
      </trkpt>
      <trkpt lat="38.91801" lon="111.83516">
        <ele>1446.3577</ele>
        <time>2014-07-27T22:21:19.418000Z</time>
      </trkpt>
      <trkpt lat="38.918064" lon="111.83528">
        <ele>1446.0435</ele>
        <time>2014-07-27T22:21:22.454000Z</time>
      </trkpt>
      <trkpt lat="38.918102" lon="111.8354">
        <ele>1446.7529</ele>
        <time>2014-07-27T22:21:25.490000Z</time>
      </trkpt>
      <trkpt lat="38.918125" lon="111.83552">
        <ele>1448.4508</ele>
        <time>2014-07-27T22:21:28.526000Z</time>
      </trkpt>
      <trkpt lat="38.918125" lon="111.835655">
        <ele>1450.2089</ele>
        <time>2014-07-27T22:21:31.562000Z</time>
      </trkpt>
      <trkpt lat="38.918144" lon="111.835785">
        <ele>1451.2175</ele>
        <time>2014-07-27T22:21:34.598000Z</time>
      </trkpt>
      <trkpt lat="38.918182" lon="111.83591">
        <ele>1449.8817</ele>
        <time>2014-07-27T22:21:37.634000Z</time>
      </trkpt>
      <trkpt lat="38.918224" lon="111.836044">
        <ele>1445.7059</ele>
        <time>2014-07-27T22:21:40.670000Z</time>
      </trkpt>
      <trkpt lat="38.918266" lon="111.836174">
        <ele>1440.7626</ele>
        <time>2014-07-27T22:21:43.706000Z</time>
      </trkpt>
      <trkpt lat="38.9183" lon="111.836296">
        <ele>1436.2938</ele>
        <time>2014-07-27T22:21:46.742000Z</time>
      </trkpt>
      <trkpt lat="38.918312" lon="111.83642">
        <ele>1431.9885</ele>
        <time>2014-07-27T22:21:49.778000Z</time>
      </trkpt>
      <trkpt lat="38.918327" lon="111.83655">
        <ele>1428.297</ele>
        <time>2014-07-27T22:21:52.814000Z</time>
      </trkpt>
      <trkpt lat="38.918343" lon="111.8367">
        <ele>1425.836</ele>
        <time>2014-07-27T22:21:55.850000Z</time>
      </trkpt>
      <trkpt lat="38.918354" lon="111.83687">
        <ele>1425.2538</ele>
        <time>2014-07-27T22:21:58.886000Z</time>
      </trkpt>
      <trkpt lat="38.91837" lon="111.837036">
        <ele>1426.8029</ele>
        <time>2014-07-27T22:22:01.922000Z</time>
      </trkpt>
      <trkpt lat="38.918373" lon="111.83719">
        <ele>1429.3822</ele>
        <time>2014-07-27T22:22:04.958000Z</time>
      </trkpt>
      <trkpt lat="38.918377" lon="111.83732">
        <ele>1431.304</ele>
        <time>2014-07-27T22:22:07.994000Z</time>
      </trkpt>
      <trkpt lat="38.918392" lon="111.83746">
        <ele>1432.0167</ele>
        <time>2014-07-27T22:22:11.030000Z</time>
      </trkpt>
      <trkpt lat="38.918407" lon="111.837616">
        <ele>1431.6158</ele>
        <time>2014-07-27T22:22:14.066000Z</time>
      </trkpt>
      <trkpt lat="38.918415" lon="111.83777">
        <ele>1430.1671</ele>
        <time>2014-07-27T22:22:17.102000Z</time>
      </trkpt>
      <trkpt lat="38.918423" lon="111.83789">
        <ele>1428.167</ele>
        <time>2014-07-27T22:22:20.138000Z</time>
      </trkpt>
      <trkpt lat="38.918427" lon="111.83801">
        <ele>1426.6691</ele>
        <time>2014-07-27T22:22:23.174000Z</time>
      </trkpt>
      <trkpt lat="38.918396" lon="111.83813">
        <ele>1426.5725</ele>
        <time>2014-07-27T22:22:26.210000Z</time>
      </trkpt>
      <trkpt lat="38.91837" lon="111.83829">
        <ele>1427.9211</ele>
        <time>2014-07-27T22:22:29.246000Z</time>
      </trkpt>
      <trkpt lat="38.918365" lon="111.83844">
        <ele>1430.414</ele>
        <time>2014-07-27T22:22:32.282000Z</time>
      </trkpt>
      <trkpt lat="38.91836" lon="111.8386">
        <ele>1433.4332</ele>
        <time>2014-07-27T22:22:35.318000Z</time>
      </trkpt>
      <trkpt lat="38.91835" lon="111.838745">
        <ele>1434.618</ele>
        <time>2014-07-27T22:22:38.354000Z</time>
      </trkpt>
      <trkpt lat="38.918358" lon="111.83887">
        <ele>1431.8774</ele>
        <time>2014-07-27T22:22:41.390000Z</time>
      </trkpt>
      <trkpt lat="38.91839" lon="111.839">
        <ele>1426.9059</ele>
        <time>2014-07-27T22:22:44.426000Z</time>
      </trkpt>
      <trkpt lat="38.91843" lon="111.839134">
        <ele>1424.9208</ele>
        <time>2014-07-27T22:22:47.462000Z</time>
      </trkpt>
      <trkpt lat="38.918453" lon="111.83926">
        <ele>1429.1538</ele>
        <time>2014-07-27T22:22:50.498000Z</time>
      </trkpt>
      <trkpt lat="38.91846" lon="111.83943">
        <ele>1437.483</ele>
        <time>2014-07-27T22:22:53.534000Z</time>
      </trkpt>
      <trkpt lat="38.91845" lon="111.83957">
        <ele>1445.3024</ele>
        <time>2014-07-27T22:22:56.570000Z</time>
      </trkpt>
      <trkpt lat="38.918423" lon="111.83972">
        <ele>1448.6138</ele>
        <time>2014-07-27T22:22:59.606000Z</time>
      </trkpt>
      <trkpt lat="38.918377" lon="111.83984">
        <ele>1446.0408</ele>
        <time>2014-07-27T22:23:02.642000Z</time>
      </trkpt>
      <trkpt lat="38.918377" lon="111.83997">
        <ele>1439.9343</ele>
        <time>2014-07-27T22:23:05.678000Z</time>
      </trkpt>
      <trkpt lat="38.918385" lon="111.84011">
        <ele>1433.8638</ele>
        <time>2014-07-27T22:23:08.714000Z</time>
      </trkpt>
      <trkpt lat="38.918373" lon="111.84025">
        <ele>1430.0369</ele>
        <time>2014-07-27T22:23:11.750000Z</time>
      </trkpt>
      <trkpt lat="38.918346" lon="111.84036">
        <ele>1428.6418</ele>
        <time>2014-07-27T22:23:14.786000Z</time>
      </trkpt>
      <trkpt lat="38.918335" lon="111.84052">
        <ele>1428.5862</ele>
        <time>2014-07-27T22:23:17.822000Z</time>
      </trkpt>
      <trkpt lat="38.91836" lon="111.84065">
        <ele>1429.0927</ele>
        <time>2014-07-27T22:23:20.858000Z</time>
      </trkpt>
      <trkpt lat="38.91839" lon="111.84079">
        <ele>1430.7261</ele>
        <time>2014-07-27T22:23:23.894000Z</time>
      </trkpt>
      <trkpt lat="38.918404" lon="111.84092">
        <ele>1433.7343</ele>
        <time>2014-07-27T22:23:26.930000Z</time>
      </trkpt>
      <trkpt lat="38.918396" lon="111.84108">
        <ele>1436.6704</ele>
        <time>2014-07-27T22:23:29.966000Z</time>
      </trkpt>
      <trkpt lat="38.91838" lon="111.84127">
        <ele>1438.0367</ele>
        <time>2014-07-27T22:23:33.002000Z</time>
      </trkpt>
      <trkpt lat="38.918377" lon="111.84141">
        <ele>1437.3523</ele>
        <time>2014-07-27T22:23:36.038000Z</time>
      </trkpt>
      <trkpt lat="38.91836" lon="111.84152">
        <ele>1435.0211</ele>
        <time>2014-07-27T22:23:39.074000Z</time>
      </trkpt>
      <trkpt lat="38.918335" lon="111.84166">
        <ele>1432.5365</ele>
        <time>2014-07-27T22:23:42.110000Z</time>
      </trkpt>
      <trkpt lat="38.918327" lon="111.841805">
        <ele>1430.7256</ele>
        <time>2014-07-27T22:23:45.146000Z</time>
      </trkpt>
      <trkpt lat="38.918335" lon="111.84197">
        <ele>1429.0101</ele>
        <time>2014-07-27T22:23:48.182000Z</time>
      </trkpt>
      <trkpt lat="38.91836" lon="111.84214">
        <ele>1427.1327</ele>
        <time>2014-07-27T22:23:51.218000Z</time>
      </trkpt>
      <trkpt lat="38.918365" lon="111.84229">
        <ele>1426.8662</ele>
        <time>2014-07-27T22:23:54.254000Z</time>
      </trkpt>
      <trkpt lat="38.91837" lon="111.84242">
        <ele>1429.165</ele>
        <time>2014-07-27T22:23:57.289000Z</time>
      </trkpt>
      <trkpt lat="38.91839" lon="111.84254">
        <ele>1431.7383</ele>
        <time>2014-07-27T22:24:00.324000Z</time>
      </trkpt>
      <trkpt lat="38.91839" lon="111.842705">
        <ele>1432.411</ele>
        <time>2014-07-27T22:24:03.359000Z</time>
      </trkpt>
      <trkpt lat="38.91839" lon="111.84286">
        <ele>1431.7683</ele>
        <time>2014-07-27T22:24:06.394000Z</time>
      </trkpt>
      <trkpt lat="38.918373" lon="111.842995">
        <ele>1431.1921</ele>
        <time>2014-07-27T22:24:09.429000Z</time>
      </trkpt>
      <trkpt lat="38.918365" lon="111.84315">
        <ele>1432.226</ele>
        <time>2014-07-27T22:24:12.464000Z</time>
      </trkpt>
      <trkpt lat="38.91834" lon="111.843285">
        <ele>1435.1439</ele>
        <time>2014-07-27T22:24:15.499000Z</time>
      </trkpt>
      <trkpt lat="38.918274" lon="111.84343">
        <ele>1436.7192</ele>
        <time>2014-07-27T22:24:18.534000Z</time>
      </trkpt>
      <trkpt lat="38.918198" lon="111.84355">
        <ele>1434.4652</ele>
        <time>2014-07-27T22:24:21.569000Z</time>
      </trkpt>
      <trkpt lat="38.918156" lon="111.843666">
        <ele>1430.5648</ele>
        <time>2014-07-27T22:24:24.604000Z</time>
      </trkpt>
      <trkpt lat="38.9181" lon="111.843796">
        <ele>1427.9995</ele>
        <time>2014-07-27T22:24:27.639000Z</time>
      </trkpt>
      <trkpt lat="38.918056" lon="111.84391">
        <ele>1427.4182</ele>
        <time>2014-07-27T22:24:30.674000Z</time>
      </trkpt>
      <trkpt lat="38.917995" lon="111.84402">
        <ele>1428.0958</ele>
        <time>2014-07-27T22:24:33.709000Z</time>
      </trkpt>
      <trkpt lat="38.917923" lon="111.84413">
        <ele>1428.1824</ele>
        <time>2014-07-27T22:24:36.744000Z</time>
      </trkpt>
      <trkpt lat="38.917866" lon="111.84424">
        <ele>1426.6727</ele>
        <time>2014-07-27T22:24:39.779000Z</time>
      </trkpt>
      <trkpt lat="38.917828" lon="111.84435">
        <ele>1425.0671</ele>
        <time>2014-07-27T22:24:42.814000Z</time>
      </trkpt>
      <trkpt lat="38.917778" lon="111.84447">
        <ele>1424.8453</ele>
        <time>2014-07-27T22:24:45.849000Z</time>
      </trkpt>
      <trkpt lat="38.917725" lon="111.8446">
        <ele>1425.0021</ele>
        <time>2014-07-27T22:24:48.884000Z</time>
      </trkpt>
      <trkpt lat="38.917675" lon="111.84473">
        <ele>1424.3795</ele>
        <time>2014-07-27T22:24:51.919000Z</time>
      </trkpt>
      <trkpt lat="38.917606" lon="111.84486">
        <ele>1424.0697</ele>
        <time>2014-07-27T22:24:54.954000Z</time>
      </trkpt>
      <trkpt lat="38.917553" lon="111.844986">
        <ele>1425.248</ele>
        <time>2014-07-27T22:24:57.989000Z</time>
      </trkpt>
      <trkpt lat="38.917507" lon="111.84509">
        <ele>1426.9055</ele>
        <time>2014-07-27T22:25:01.024000Z</time>
      </trkpt>
      <trkpt lat="38.917454" lon="111.84522">
        <ele>1427.824</ele>
        <time>2014-07-27T22:25:04.059000Z</time>
      </trkpt>
      <trkpt lat="38.917397" lon="111.84534">
        <ele>1428.1753</ele>
        <time>2014-07-27T22:25:07.094000Z</time>
      </trkpt>
      <trkpt lat="38.917347" lon="111.84546">
        <ele>1428.5068</ele>
        <time>2014-07-27T22:25:10.129000Z</time>
      </trkpt>
      <trkpt lat="38.917305" lon="111.84557">
        <ele>1428.9546</ele>
        <time>2014-07-27T22:25:13.164000Z</time>
      </trkpt>
      <trkpt lat="38.91725" lon="111.845695">
        <ele>1429.3112</ele>
        <time>2014-07-27T22:25:16.199000Z</time>
      </trkpt>
      <trkpt lat="38.917213" lon="111.84582">
        <ele>1429.503</ele>
        <time>2014-07-27T22:25:19.234000Z</time>
      </trkpt>
      <trkpt lat="38.91716" lon="111.84594">
        <ele>1429.6409</ele>
        <time>2014-07-27T22:25:22.269000Z</time>
      </trkpt>
      <trkpt lat="38.917095" lon="111.84606">
        <ele>1429.4891</ele>
        <time>2014-07-27T22:25:25.304000Z</time>
      </trkpt>
      <trkpt lat="38.91704" lon="111.84616">
        <ele>1428.8687</ele>
        <time>2014-07-27T22:25:28.339000Z</time>
      </trkpt>
      <trkpt lat="38.916985" lon="111.84627">
        <ele>1428.5288</ele>
        <time>2014-07-27T22:25:31.374000Z</time>
      </trkpt>
      <trkpt lat="38.916927" lon="111.84641">
        <ele>1429.0714</ele>
        <time>2014-07-27T22:25:34.409000Z</time>
      </trkpt>
      <trkpt lat="38.916874" lon="111.84654">
        <ele>1429.9119</ele>
        <time>2014-07-27T22:25:37.444000Z</time>
      </trkpt>
      <trkpt lat="38.916817" lon="111.84666">
        <ele>1430.6226</ele>
        <time>2014-07-27T22:25:40.479000Z</time>
      </trkpt>
      <trkpt lat="38.916763" lon="111.84677">
        <ele>1431.3497</ele>
        <time>2014-07-27T22:25:43.514000Z</time>
      </trkpt>
      <trkpt lat="38.916702" lon="111.84688">
        <ele>1431.8035</ele>
        <time>2014-07-27T22:25:46.549000Z</time>
      </trkpt>
      <trkpt lat="38.916615" lon="111.84696">
        <ele>1431.5306</ele>
        <time>2014-07-27T22:25:49.584000Z</time>
      </trkpt>
      <trkpt lat="38.91654" lon="111.847046">
        <ele>1430.221</ele>
        <time>2014-07-27T22:25:52.619000Z</time>
      </trkpt>
      <trkpt lat="38.916485" lon="111.84716">
        <ele>1428.1681</ele>
        <time>2014-07-27T22:25:55.654000Z</time>
      </trkpt>
      <trkpt lat="38.91643" lon="111.84728">
        <ele>1426.5262</ele>
        <time>2014-07-27T22:25:58.689000Z</time>
      </trkpt>
      <trkpt lat="38.91639" lon="111.8474">
        <ele>1425.9713</ele>
        <time>2014-07-27T22:26:01.724000Z</time>
      </trkpt>
      <trkpt lat="38.91634" lon="111.847534">
        <ele>1425.7971</ele>
        <time>2014-07-27T22:26:04.759000Z</time>
      </trkpt>
      <trkpt lat="38.916298" lon="111.84766">
        <ele>1425.1237</ele>
        <time>2014-07-27T22:26:07.794000Z</time>
      </trkpt>
      <trkpt lat="38.91625" lon="111.84776">
        <ele>1423.9303</ele>
        <time>2014-07-27T22:26:10.829000Z</time>
      </trkpt>
      <trkpt lat="38.9162" lon="111.84787">
        <ele>1422.7252</ele>
        <time>2014-07-27T22:26:13.864000Z</time>
      </trkpt>
      <trkpt lat="38.916153" lon="111.84799">
        <ele>1421.937</ele>
        <time>2014-07-27T22:26:16.899000Z</time>
      </trkpt>
      <trkpt lat="38.916103" lon="111.8481">
        <ele>1421.7405</ele>
        <time>2014-07-27T22:26:19.934000Z</time>
      </trkpt>
      <trkpt lat="38.91605" lon="111.84823">
        <ele>1422.1643</ele>
        <time>2014-07-27T22:26:22.969000Z</time>
      </trkpt>
      <trkpt lat="38.916004" lon="111.84833">
        <ele>1423.1753</ele>
        <time>2014-07-27T22:26:26.004000Z</time>
      </trkpt>
      <trkpt lat="38.915955" lon="111.84844">
        <ele>1424.393</ele>
        <time>2014-07-27T22:26:29.039000Z</time>
      </trkpt>
      <trkpt lat="38.9159" lon="111.84855">
        <ele>1425.2349</ele>
        <time>2014-07-27T22:26:32.074000Z</time>
      </trkpt>
      <trkpt lat="38.915844" lon="111.84868">
        <ele>1425.5536</ele>
        <time>2014-07-27T22:26:35.109000Z</time>
      </trkpt>
      <trkpt lat="38.915794" lon="111.848785">
        <ele>1425.4901</ele>
        <time>2014-07-27T22:26:38.144000Z</time>
      </trkpt>
      <trkpt lat="38.915745" lon="111.84891">
        <ele>1425.2346</ele>
        <time>2014-07-27T22:26:41.179000Z</time>
      </trkpt>
      <trkpt lat="38.91569" lon="111.84903">
        <ele>1425.0583</ele>
        <time>2014-07-27T22:26:44.214000Z</time>
      </trkpt>
      <trkpt lat="38.915638" lon="111.84916">
        <ele>1425.2664</ele>
        <time>2014-07-27T22:26:47.249000Z</time>
      </trkpt>
      <trkpt lat="38.915596" lon="111.84927">
        <ele>1425.6659</ele>
        <time>2014-07-27T22:26:50.284000Z</time>
      </trkpt>
      <trkpt lat="38.915543" lon="111.84939">
        <ele>1425.7817</ele>
        <time>2014-07-27T22:26:53.319000Z</time>
      </trkpt>
      <trkpt lat="38.915485" lon="111.84952">
        <ele>1425.5599</ele>
        <time>2014-07-27T22:26:56.354000Z</time>
      </trkpt>
      <trkpt lat="38.91544" lon="111.84964">
        <ele>1425.3218</ele>
        <time>2014-07-27T22:26:59.389000Z</time>
      </trkpt>
      <trkpt lat="38.91539" lon="111.849754">
        <ele>1425.4332</ele>
        <time>2014-07-27T22:27:02.424000Z</time>
      </trkpt>
      <trkpt lat="38.915344" lon="111.84986">
        <ele>1425.9757</ele>
        <time>2014-07-27T22:27:05.459000Z</time>
      </trkpt>
      <trkpt lat="38.91529" lon="111.849976">
        <ele>1426.5345</ele>
        <time>2014-07-27T22:27:08.494000Z</time>
      </trkpt>
      <trkpt lat="38.91523" lon="111.8501">
        <ele>1426.797</ele>
        <time>2014-07-27T22:27:11.529000Z</time>
      </trkpt>
      <trkpt lat="38.915173" lon="111.85021">
        <ele>1426.6078</ele>
        <time>2014-07-27T22:27:14.564000Z</time>
      </trkpt>
      <trkpt lat="38.915115" lon="111.85032">
        <ele>1425.977</ele>
        <time>2014-07-27T22:27:17.599000Z</time>
      </trkpt>
      <trkpt lat="38.91507" lon="111.85044">
        <ele>1425.4525</ele>
        <time>2014-07-27T22:27:20.634000Z</time>
      </trkpt>
      <trkpt lat="38.915024" lon="111.850555">
        <ele>1425.4553</ele>
        <time>2014-07-27T22:27:23.669000Z</time>
      </trkpt>
      <trkpt lat="38.914967" lon="111.850685">
        <ele>1425.7245</ele>
        <time>2014-07-27T22:27:26.704000Z</time>
      </trkpt>
      <trkpt lat="38.914913" lon="111.850815">
        <ele>1425.8668</ele>
        <time>2014-07-27T22:27:29.739000Z</time>
      </trkpt>
      <trkpt lat="38.91486" lon="111.850945">
        <ele>1425.7144</ele>
        <time>2014-07-27T22:27:32.774000Z</time>
      </trkpt>
      <trkpt lat="38.914818" lon="111.85107">
        <ele>1425.3624</ele>
        <time>2014-07-27T22:27:35.809000Z</time>
      </trkpt>
      <trkpt lat="38.914772" lon="111.85117">
        <ele>1425.0653</ele>
        <time>2014-07-27T22:27:38.844000Z</time>
      </trkpt>
      <trkpt lat="38.91472" lon="111.851295">
        <ele>1425.2792</ele>
        <time>2014-07-27T22:27:41.879000Z</time>
      </trkpt>
      <trkpt lat="38.914658" lon="111.85142">
        <ele>1426.2728</ele>
        <time>2014-07-27T22:27:44.914000Z</time>
      </trkpt>
      <trkpt lat="38.9146" lon="111.85155">
        <ele>1427.5786</ele>
        <time>2014-07-27T22:27:47.949000Z</time>
      </trkpt>
      <trkpt lat="38.914562" lon="111.85166">
        <ele>1428.5905</ele>
        <time>2014-07-27T22:27:50.984000Z</time>
      </trkpt>
      <trkpt lat="38.914513" lon="111.85176">
        <ele>1429.461</ele>
        <time>2014-07-27T22:27:54.019000Z</time>
      </trkpt>
      <trkpt lat="38.914455" lon="111.85188">
        <ele>1430.4019</ele>
        <time>2014-07-27T22:27:57.054000Z</time>
      </trkpt>
      <trkpt lat="38.914402" lon="111.85202">
        <ele>1430.9329</ele>
        <time>2014-07-27T22:28:00.089000Z</time>
      </trkpt>
      <trkpt lat="38.914352" lon="111.85215">
        <ele>1430.6504</ele>
        <time>2014-07-27T22:28:03.124000Z</time>
      </trkpt>
      <trkpt lat="38.9143" lon="111.85228">
        <ele>1429.6802</ele>
        <time>2014-07-27T22:28:06.159000Z</time>
      </trkpt>
      <trkpt lat="38.914246" lon="111.85241">
        <ele>1428.4073</ele>
        <time>2014-07-27T22:28:09.194000Z</time>
      </trkpt>
      <trkpt lat="38.914196" lon="111.852516">
        <ele>1427.792</ele>
        <time>2014-07-27T22:28:12.229000Z</time>
      </trkpt>
      <trkpt lat="38.91414" lon="111.852646">
        <ele>1428.7256</ele>
        <time>2014-07-27T22:28:15.264000Z</time>
      </trkpt>
      <trkpt lat="38.914085" lon="111.85276">
        <ele>1430.6188</ele>
        <time>2014-07-27T22:28:18.299000Z</time>
      </trkpt>
      <trkpt lat="38.914032" lon="111.85287">
        <ele>1431.9305</ele>
        <time>2014-07-27T22:28:21.334000Z</time>
      </trkpt>
      <trkpt lat="38.91397" lon="111.85299">
        <ele>1432.0039</ele>
        <time>2014-07-27T22:28:24.369000Z</time>
      </trkpt>
      <trkpt lat="38.913914" lon="111.85313">
        <ele>1431.4413</ele>
        <time>2014-07-27T22:28:27.404000Z</time>
      </trkpt>
      <trkpt lat="38.91387" lon="111.85323">
        <ele>1430.7156</ele>
        <time>2014-07-27T22:28:30.439000Z</time>
      </trkpt>
      <trkpt lat="38.913826" lon="111.853355">
        <ele>1429.8639</ele>
        <time>2014-07-27T22:28:33.474000Z</time>
      </trkpt>
      <trkpt lat="38.913773" lon="111.853455">
        <ele>1429.1539</ele>
        <time>2014-07-27T22:28:36.509000Z</time>
      </trkpt>
      <trkpt lat="38.913723" lon="111.85357">
        <ele>1429.1112</ele>
        <time>2014-07-27T22:28:39.544000Z</time>
      </trkpt>
      <trkpt lat="38.91367" lon="111.85368">
        <ele>1429.796</ele>
        <time>2014-07-27T22:28:42.579000Z</time>
      </trkpt>
      <trkpt lat="38.913628" lon="111.853806">
        <ele>1430.5677</ele>
        <time>2014-07-27T22:28:45.614000Z</time>
      </trkpt>
      <trkpt lat="38.913464" lon="111.85465">
        <ele>1429.5109</ele>
        <time>2014-07-27T22:28:48.649000Z</time>
      </trkpt>
      <trkpt lat="38.913464" lon="111.85465">
        <ele>1427.683</ele>
        <time>2014-07-27T22:28:51.684000Z</time>
      </trkpt>
      <trkpt lat="38.913296" lon="111.85469">
        <ele>1426.8055</ele>
        <time>2014-07-27T22:28:54.719000Z</time>
      </trkpt>
      <trkpt lat="38.913265" lon="111.85472">
        <ele>1427.6721</ele>
        <time>2014-07-27T22:28:57.754000Z</time>
      </trkpt>
      <trkpt lat="38.913174" lon="111.85482">
        <ele>1429.8341</ele>
        <time>2014-07-27T22:29:00.789000Z</time>
      </trkpt>
      <trkpt lat="38.913113" lon="111.85491">
        <ele>1432.2234</ele>
        <time>2014-07-27T22:29:03.824000Z</time>
      </trkpt>
      <trkpt lat="38.913113" lon="111.85491">
        <ele>1433.6742</ele>
        <time>2014-07-27T22:29:06.859000Z</time>
      </trkpt>
      <trkpt lat="38.91304" lon="111.85501">
        <ele>1434.151</ele>
        <time>2014-07-27T22:29:09.894000Z</time>
      </trkpt>
      <trkpt lat="38.912964" lon="111.85513">
        <ele>1434.2231</ele>
        <time>2014-07-27T22:29:12.929000Z</time>
      </trkpt>
      <trkpt lat="38.91291" lon="111.85525">
        <ele>1434.2561</ele>
        <time>2014-07-27T22:29:15.964000Z</time>
      </trkpt>
      <trkpt lat="38.912853" lon="111.85537">
        <ele>1434.5566</ele>
        <time>2014-07-27T22:29:18.999000Z</time>
      </trkpt>
      <trkpt lat="38.9128" lon="111.85549">
        <ele>1434.7478</ele>
        <time>2014-07-27T22:29:22.034000Z</time>
      </trkpt>
      <trkpt lat="38.912743" lon="111.855606">
        <ele>1434.3776</ele>
        <time>2014-07-27T22:29:25.069000Z</time>
      </trkpt>
      <trkpt lat="38.912697" lon="111.855736">
        <ele>1434.0055</ele>
        <time>2014-07-27T22:29:28.104000Z</time>
      </trkpt>
      <trkpt lat="38.912647" lon="111.85585">
        <ele>1434.466</ele>
        <time>2014-07-27T22:29:31.139000Z</time>
      </trkpt>
      <trkpt lat="38.912598" lon="111.855965">
        <ele>1435.6241</ele>
        <time>2014-07-27T22:29:34.174000Z</time>
      </trkpt>
      <trkpt lat="38.912544" lon="111.85609">
        <ele>1436.3474</ele>
        <time>2014-07-27T22:29:37.209000Z</time>
      </trkpt>
      <trkpt lat="38.912483" lon="111.8562">
        <ele>1435.5994</ele>
        <time>2014-07-27T22:29:40.244000Z</time>
      </trkpt>
      <trkpt lat="38.912437" lon="111.85631">
        <ele>1434.2412</ele>
        <time>2014-07-27T22:29:43.279000Z</time>
      </trkpt>
      <trkpt lat="38.912388" lon="111.85643">
        <ele>1433.8368</ele>
        <time>2014-07-27T22:29:46.314000Z</time>
      </trkpt>
      <trkpt lat="38.912342" lon="111.85655">
        <ele>1434.5729</ele>
        <time>2014-07-27T22:29:49.349000Z</time>
      </trkpt>
      <trkpt lat="38.912296" lon="111.85667">
        <ele>1435.4839</ele>
        <time>2014-07-27T22:29:52.384000Z</time>
      </trkpt>
      <trkpt lat="38.912247" lon="111.856766">
        <ele>1436.0482</ele>
        <time>2014-07-27T22:29:55.419000Z</time>
      </trkpt>
      <trkpt lat="38.912197" lon="111.85689">
        <ele>1436.2731</ele>
        <time>2014-07-27T22:29:58.454000Z</time>
      </trkpt>
      <trkpt lat="38.91215" lon="111.85702">
        <ele>1436.3003</ele>
        <time>2014-07-27T22:30:01.489000Z</time>
      </trkpt>
      <trkpt lat="38.9121" lon="111.85714">
        <ele>1436.0387</ele>
        <time>2014-07-27T22:30:04.524000Z</time>
      </trkpt>
      <trkpt lat="38.912045" lon="111.857254">
        <ele>1435.1819</ele>
        <time>2014-07-27T22:30:07.559000Z</time>
      </trkpt>
      <trkpt lat="38.911987" lon="111.85737">
        <ele>1433.911</ele>
        <time>2014-07-27T22:30:10.594000Z</time>
      </trkpt>
      <trkpt lat="38.911945" lon="111.85748">
        <ele>1432.9818</ele>
        <time>2014-07-27T22:30:13.629000Z</time>
      </trkpt>
      <trkpt lat="38.91189" lon="111.8576">
        <ele>1432.8076</ele>
        <time>2014-07-27T22:30:16.664000Z</time>
      </trkpt>
      <trkpt lat="38.911835" lon="111.85772">
        <ele>1433.2836</ele>
        <time>2014-07-27T22:30:19.699000Z</time>
      </trkpt>
      <trkpt lat="38.91178" lon="111.857834">
        <ele>1433.9448</ele>
        <time>2014-07-27T22:30:22.734000Z</time>
      </trkpt>
      <trkpt lat="38.911736" lon="111.857956">
        <ele>1434.6115</ele>
        <time>2014-07-27T22:30:25.769000Z</time>
      </trkpt>
      <trkpt lat="38.911686" lon="111.85807">
        <ele>1435.6089</ele>
        <time>2014-07-27T22:30:28.804000Z</time>
      </trkpt>
      <trkpt lat="38.91164" lon="111.85818">
        <ele>1436.9462</ele>
        <time>2014-07-27T22:30:31.839000Z</time>
      </trkpt>
      <trkpt lat="38.91158" lon="111.8583">
        <ele>1438.0602</ele>
        <time>2014-07-27T22:30:34.874000Z</time>
      </trkpt>
      <trkpt lat="38.911522" lon="111.85843">
        <ele>1438.6144</ele>
        <time>2014-07-27T22:30:37.909000Z</time>
      </trkpt>
      <trkpt lat="38.911465" lon="111.85857">
        <ele>1438.7343</ele>
        <time>2014-07-27T22:30:40.944000Z</time>
      </trkpt>
      <trkpt lat="38.911415" lon="111.8587">
        <ele>1438.5973</ele>
        <time>2014-07-27T22:30:43.979000Z</time>
      </trkpt>
      <trkpt lat="38.91138" lon="111.85882">
        <ele>1438.3394</ele>
        <time>2014-07-27T22:30:47.014000Z</time>
      </trkpt>
      <trkpt lat="38.91133" lon="111.85893">
        <ele>1438.1444</ele>
        <time>2014-07-27T22:30:50.049000Z</time>
      </trkpt>
      <trkpt lat="38.91128" lon="111.85905">
        <ele>1438.1643</ele>
        <time>2014-07-27T22:30:53.084000Z</time>
      </trkpt>
      <trkpt lat="38.911205" lon="111.859184">
        <ele>1438.3007</ele>
        <time>2014-07-27T22:30:56.119000Z</time>
      </trkpt>
      <trkpt lat="38.91115" lon="111.8593">
        <ele>1438.39</ele>
        <time>2014-07-27T22:30:59.154000Z</time>
      </trkpt>
      <trkpt lat="38.911102" lon="111.85941">
        <ele>1438.4332</ele>
        <time>2014-07-27T22:31:02.189000Z</time>
      </trkpt>
      <trkpt lat="38.911045" lon="111.85954">
        <ele>1438.6315</ele>
        <time>2014-07-27T22:31:05.224000Z</time>
      </trkpt>
      <trkpt lat="38.91098" lon="111.85967">
        <ele>1439.0577</ele>
        <time>2014-07-27T22:31:08.259000Z</time>
      </trkpt>
      <trkpt lat="38.910934" lon="111.859795">
        <ele>1439.5911</ele>
        <time>2014-07-27T22:31:11.294000Z</time>
      </trkpt>
      <trkpt lat="38.91089" lon="111.85992">
        <ele>1440.2782</ele>
        <time>2014-07-27T22:31:14.329000Z</time>
      </trkpt>
      <trkpt lat="38.91084" lon="111.86003">
        <ele>1441.1235</ele>
        <time>2014-07-27T22:31:17.364000Z</time>
      </trkpt>
      <trkpt lat="38.910793" lon="111.86015">
        <ele>1441.7617</ele>
        <time>2014-07-27T22:31:20.399000Z</time>
      </trkpt>
      <trkpt lat="38.910748" lon="111.86026">
        <ele>1441.9153</ele>
        <time>2014-07-27T22:31:23.434000Z</time>
      </trkpt>
      <trkpt lat="38.910698" lon="111.86038">
        <ele>1441.7886</ele>
        <time>2014-07-27T22:31:26.469000Z</time>
      </trkpt>
      <trkpt lat="38.910645" lon="111.860504">
        <ele>1441.6019</ele>
        <time>2014-07-27T22:31:29.504000Z</time>
      </trkpt>
      <trkpt lat="38.9106" lon="111.86063">
        <ele>1441.3297</ele>
        <time>2014-07-27T22:31:32.539000Z</time>
      </trkpt>
      <trkpt lat="38.910534" lon="111.860756">
        <ele>1441.0347</ele>
        <time>2014-07-27T22:31:35.574000Z</time>
      </trkpt>
      <trkpt lat="38.91049" lon="111.86087">
        <ele>1440.8093</ele>
        <time>2014-07-27T22:31:38.609000Z</time>
      </trkpt>
      <trkpt lat="38.91044" lon="111.860985">
        <ele>1440.574</ele>
        <time>2014-07-27T22:31:41.644000Z</time>
      </trkpt>
      <trkpt lat="38.910378" lon="111.8611">
        <ele>1440.3804</ele>
        <time>2014-07-27T22:31:44.679000Z</time>
      </trkpt>
      <trkpt lat="38.910328" lon="111.861206">
        <ele>1440.5381</ele>
        <time>2014-07-27T22:31:47.714000Z</time>
      </trkpt>
      <trkpt lat="38.910282" lon="111.86131">
        <ele>1441.3658</ele>
        <time>2014-07-27T22:31:50.749000Z</time>
      </trkpt>
      <trkpt lat="38.91022" lon="111.861435">
        <ele>1442.5806</ele>
        <time>2014-07-27T22:31:53.784000Z</time>
      </trkpt>
      <trkpt lat="38.910175" lon="111.861534">
        <ele>1443.5143</ele>
        <time>2014-07-27T22:31:56.819000Z</time>
      </trkpt>
      <trkpt lat="38.91013" lon="111.86165">
        <ele>1443.8544</ele>
        <time>2014-07-27T22:31:59.854000Z</time>
      </trkpt>
      <trkpt lat="38.910072" lon="111.86178">
        <ele>1443.9703</ele>
        <time>2014-07-27T22:32:02.889000Z</time>
      </trkpt>
      <trkpt lat="38.910015" lon="111.86188">
        <ele>1444.3387</ele>
        <time>2014-07-27T22:32:05.924000Z</time>
      </trkpt>
      <trkpt lat="38.909958" lon="111.861984">
        <ele>1444.8353</ele>
        <time>2014-07-27T22:32:08.959000Z</time>
      </trkpt>
      <trkpt lat="38.909893" lon="111.862114">
        <ele>1445.0059</ele>
        <time>2014-07-27T22:32:11.994000Z</time>
      </trkpt>
      <trkpt lat="38.909836" lon="111.862236">
        <ele>1444.7113</ele>
        <time>2014-07-27T22:32:15.029000Z</time>
      </trkpt>
      <trkpt lat="38.909786" lon="111.862335">
        <ele>1444.2582</ele>
        <time>2014-07-27T22:32:18.064000Z</time>
      </trkpt>
      <trkpt lat="38.909733" lon="111.862434">
        <ele>1443.8555</ele>
        <time>2014-07-27T22:32:21.099000Z</time>
      </trkpt>
      <trkpt lat="38.90968" lon="111.86255">
        <ele>1443.404</ele>
        <time>2014-07-27T22:32:24.134000Z</time>
      </trkpt>
      <trkpt lat="38.909615" lon="111.86267">
        <ele>1443.0419</ele>
        <time>2014-07-27T22:32:27.169000Z</time>
      </trkpt>
      <trkpt lat="38.909557" lon="111.86278">
        <ele>1443.4232</ele>
        <time>2014-07-27T22:32:30.204000Z</time>
      </trkpt>
      <trkpt lat="38.9095" lon="111.8629">
        <ele>1444.6924</ele>
        <time>2014-07-27T22:32:33.239000Z</time>
      </trkpt>
      <trkpt lat="38.90945" lon="111.863">
        <ele>1446.0128</ele>
        <time>2014-07-27T22:32:36.274000Z</time>
      </trkpt>
      <trkpt lat="38.909393" lon="111.86312">
        <ele>1446.8281</ele>
        <time>2014-07-27T22:32:39.309000Z</time>
      </trkpt>
      <trkpt lat="38.909336" lon="111.86323">
        <ele>1447.406</ele>
        <time>2014-07-27T22:32:42.344000Z</time>
      </trkpt>
      <trkpt lat="38.909275" lon="111.863335">
        <ele>1447.5929</ele>
        <time>2014-07-27T22:32:45.379000Z</time>
      </trkpt>
      <trkpt lat="38.909214" lon="111.86346">
        <ele>1447.0704</ele>
        <time>2014-07-27T22:32:48.414000Z</time>
      </trkpt>
      <trkpt lat="38.909153" lon="111.86356">
        <ele>1446.1857</ele>
        <time>2014-07-27T22:32:51.449000Z</time>
      </trkpt>
      <trkpt lat="38.909107" lon="111.86366">
        <ele>1445.517</ele>
        <time>2014-07-27T22:32:54.484000Z</time>
      </trkpt>
      <trkpt lat="38.90904" lon="111.8638">
        <ele>1445.3473</ele>
        <time>2014-07-27T22:32:57.519000Z</time>
      </trkpt>
      <trkpt lat="38.908974" lon="111.86391">
        <ele>1445.3708</ele>
        <time>2014-07-27T22:33:00.554000Z</time>
      </trkpt>
      <trkpt lat="38.90891" lon="111.86402">
        <ele>1445.3512</ele>
        <time>2014-07-27T22:33:03.589000Z</time>
      </trkpt>
      <trkpt lat="38.90886" lon="111.86413">
        <ele>1445.4476</ele>
        <time>2014-07-27T22:33:06.624000Z</time>
      </trkpt>
      <trkpt lat="38.90879" lon="111.86424">
        <ele>1445.6017</ele>
        <time>2014-07-27T22:33:09.659000Z</time>
      </trkpt>
      <trkpt lat="38.908737" lon="111.86436">
        <ele>1445.4095</ele>
        <time>2014-07-27T22:33:12.694000Z</time>
      </trkpt>
      <trkpt lat="38.908703" lon="111.86447">
        <ele>1444.8707</ele>
        <time>2014-07-27T22:33:15.729000Z</time>
      </trkpt>
      <trkpt lat="38.90868" lon="111.8646">
        <ele>1444.6881</ele>
        <time>2014-07-27T22:33:18.764000Z</time>
      </trkpt>
      <trkpt lat="38.90865" lon="111.86472">
        <ele>1445.7401</ele>
        <time>2014-07-27T22:33:21.799000Z</time>
      </trkpt>
      <trkpt lat="38.908623" lon="111.86484">
        <ele>1447.6337</ele>
        <time>2014-07-27T22:33:24.834000Z</time>
      </trkpt>
      <trkpt lat="38.908817" lon="111.86532">
        <ele>1442.605</ele>
        <time>2014-07-27T22:33:27.869000Z</time>
      </trkpt>
      <trkpt lat="38.90883" lon="111.865295">
        <ele>1442.6204</ele>
        <time>2014-07-27T22:33:30.904000Z</time>
      </trkpt>
      <trkpt lat="38.908905" lon="111.86518">
        <ele>1442.5637</ele>
        <time>2014-07-27T22:33:33.939000Z</time>
      </trkpt>
      <trkpt lat="38.908905" lon="111.86518">
        <ele>1442.295</ele>
        <time>2014-07-27T22:33:36.974000Z</time>
      </trkpt>
      <trkpt lat="38.90899" lon="111.86506">
        <ele>1441.6987</ele>
        <time>2014-07-27T22:33:40.009000Z</time>
      </trkpt>
      <trkpt lat="38.909054" lon="111.86495">
        <ele>1441.1051</ele>
        <time>2014-07-27T22:33:43.044000Z</time>
      </trkpt>
      <trkpt lat="38.909122" lon="111.86482">
        <ele>1440.9534</ele>
        <time>2014-07-27T22:33:46.079000Z</time>
      </trkpt>
      <trkpt lat="38.909195" lon="111.8647">
        <ele>1441.5494</ele>
        <time>2014-07-27T22:33:49.114000Z</time>
      </trkpt>
      <trkpt lat="38.909256" lon="111.86461">
        <ele>1443.1635</ele>
        <time>2014-07-27T22:33:52.149000Z</time>
      </trkpt>
      <trkpt lat="38.909313" lon="111.86451">
        <ele>1445.486</ele>
        <time>2014-07-27T22:33:55.184000Z</time>
      </trkpt>
      <trkpt lat="38.90938" lon="111.8644">
        <ele>1447.6077</ele>
        <time>2014-07-27T22:33:58.219000Z</time>
      </trkpt>
      <trkpt lat="38.909443" lon="111.864296">
        <ele>1448.8553</ele>
        <time>2014-07-27T22:34:01.254000Z</time>
      </trkpt>
      <trkpt lat="38.909515" lon="111.86417">
        <ele>1448.9075</ele>
        <time>2014-07-27T22:34:04.289000Z</time>
      </trkpt>
      <trkpt lat="38.90959" lon="111.864044">
        <ele>1447.7501</ele>
        <time>2014-07-27T22:34:07.324000Z</time>
      </trkpt>
      <trkpt lat="38.909657" lon="111.86394">
        <ele>1446.0873</ele>
        <time>2014-07-27T22:34:10.359000Z</time>
      </trkpt>
      <trkpt lat="38.909714" lon="111.86382">
        <ele>1444.9136</ele>
        <time>2014-07-27T22:34:13.394000Z</time>
      </trkpt>
      <trkpt lat="38.909775" lon="111.863716">
        <ele>1444.722</ele>
        <time>2014-07-27T22:34:16.429000Z</time>
      </trkpt>
      <trkpt lat="38.909836" lon="111.86361">
        <ele>1445.4723</ele>
        <time>2014-07-27T22:34:19.464000Z</time>
      </trkpt>
      <trkpt lat="38.9099" lon="111.863495">
        <ele>1446.6152</ele>
        <time>2014-07-27T22:34:22.499000Z</time>
      </trkpt>
      <trkpt lat="38.909966" lon="111.86336">
        <ele>1447.2574</ele>
        <time>2014-07-27T22:34:25.534000Z</time>
      </trkpt>
      <trkpt lat="38.910027" lon="111.86322">
        <ele>1447.0388</ele>
        <time>2014-07-27T22:34:28.569000Z</time>
      </trkpt>
      <trkpt lat="38.91009" lon="111.86309">
        <ele>1446.323</ele>
        <time>2014-07-27T22:34:31.604000Z</time>
      </trkpt>
      <trkpt lat="38.910145" lon="111.86297">
        <ele>1445.8506</ele>
        <time>2014-07-27T22:34:34.639000Z</time>
      </trkpt>
      <trkpt lat="38.91021" lon="111.86285">
        <ele>1445.9805</ele>
        <time>2014-07-27T22:34:37.674000Z</time>
      </trkpt>
      <trkpt lat="38.910267" lon="111.86272">
        <ele>1446.4716</ele>
        <time>2014-07-27T22:34:40.709000Z</time>
      </trkpt>
      <trkpt lat="38.910324" lon="111.862595">
        <ele>1446.8344</ele>
        <time>2014-07-27T22:34:43.744000Z</time>
      </trkpt>
      <trkpt lat="38.91038" lon="111.862465">
        <ele>1446.788</ele>
        <time>2014-07-27T22:34:46.779000Z</time>
      </trkpt>
      <trkpt lat="38.910442" lon="111.86233">
        <ele>1446.3959</ele>
        <time>2014-07-27T22:34:49.814000Z</time>
      </trkpt>
      <trkpt lat="38.9105" lon="111.8622">
        <ele>1445.6332</ele>
        <time>2014-07-27T22:34:52.849000Z</time>
      </trkpt>
      <trkpt lat="38.91056" lon="111.86206">
        <ele>1444.2855</ele>
        <time>2014-07-27T22:34:55.884000Z</time>
      </trkpt>
      <trkpt lat="38.910614" lon="111.86194">
        <ele>1442.8275</ele>
        <time>2014-07-27T22:34:58.919000Z</time>
      </trkpt>
      <trkpt lat="38.91067" lon="111.86182">
        <ele>1441.6748</ele>
        <time>2014-07-27T22:35:01.954000Z</time>
      </trkpt>
      <trkpt lat="38.910732" lon="111.861694">
        <ele>1440.6161</ele>
        <time>2014-07-27T22:35:04.989000Z</time>
      </trkpt>
      <trkpt lat="38.910786" lon="111.861565">
        <ele>1439.6741</ele>
        <time>2014-07-27T22:35:08.024000Z</time>
      </trkpt>
      <trkpt lat="38.910843" lon="111.86143">
        <ele>1439.2926</ele>
        <time>2014-07-27T22:35:11.059000Z</time>
      </trkpt>
      <trkpt lat="38.910904" lon="111.861305">
        <ele>1439.6444</ele>
        <time>2014-07-27T22:35:14.094000Z</time>
      </trkpt>
      <trkpt lat="38.910965" lon="111.861176">
        <ele>1440.3092</ele>
        <time>2014-07-27T22:35:17.129000Z</time>
      </trkpt>
      <trkpt lat="38.911037" lon="111.86104">
        <ele>1441.0132</ele>
        <time>2014-07-27T22:35:20.164000Z</time>
      </trkpt>
      <trkpt lat="38.91109" lon="111.86093">
        <ele>1441.7876</ele>
        <time>2014-07-27T22:35:23.199000Z</time>
      </trkpt>
      <trkpt lat="38.911144" lon="111.8608">
        <ele>1442.2333</ele>
        <time>2014-07-27T22:35:26.234000Z</time>
      </trkpt>
      <trkpt lat="38.911194" lon="111.86067">
        <ele>1442.032</ele>
        <time>2014-07-27T22:35:29.269000Z</time>
      </trkpt>
      <trkpt lat="38.911243" lon="111.86055">
        <ele>1441.4625</ele>
        <time>2014-07-27T22:35:32.304000Z</time>
      </trkpt>
      <trkpt lat="38.911285" lon="111.86043">
        <ele>1441.0757</ele>
        <time>2014-07-27T22:35:35.339000Z</time>
      </trkpt>
      <trkpt lat="38.91134" lon="111.86029">
        <ele>1440.6654</ele>
        <time>2014-07-27T22:35:38.374000Z</time>
      </trkpt>
      <trkpt lat="38.911392" lon="111.86017">
        <ele>1439.7928</ele>
        <time>2014-07-27T22:35:41.409000Z</time>
      </trkpt>
      <trkpt lat="38.911438" lon="111.86005">
        <ele>1438.9471</ele>
        <time>2014-07-27T22:35:44.444000Z</time>
      </trkpt>
      <trkpt lat="38.911488" lon="111.85995">
        <ele>1438.689</ele>
        <time>2014-07-27T22:35:47.479000Z</time>
      </trkpt>
      <trkpt lat="38.911537" lon="111.85983">
        <ele>1438.721</ele>
        <time>2014-07-27T22:35:50.514000Z</time>
      </trkpt>
      <trkpt lat="38.911594" lon="111.85972">
        <ele>1438.6659</ele>
        <time>2014-07-27T22:35:53.549000Z</time>
      </trkpt>
      <trkpt lat="38.911674" lon="111.8596">
        <ele>1438.4938</ele>
        <time>2014-07-27T22:35:56.584000Z</time>
      </trkpt>
      <trkpt lat="38.91174" lon="111.85946">
        <ele>1438.3615</ele>
        <time>2014-07-27T22:35:59.619000Z</time>
      </trkpt>
      <trkpt lat="38.911808" lon="111.85932">
        <ele>1438.0652</ele>
        <time>2014-07-27T22:36:02.654000Z</time>
      </trkpt>
      <trkpt lat="38.91185" lon="111.859215">
        <ele>1437.3612</ele>
        <time>2014-07-27T22:36:05.689000Z</time>
      </trkpt>
      <trkpt lat="38.911907" lon="111.85908">
        <ele>1436.661</ele>
        <time>2014-07-27T22:36:08.724000Z</time>
      </trkpt>
      <trkpt lat="38.911953" lon="111.85896">
        <ele>1437.1667</ele>
        <time>2014-07-27T22:36:11.759000Z</time>
      </trkpt>
      <trkpt lat="38.912006" lon="111.858826">
        <ele>1439.2081</ele>
        <time>2014-07-27T22:36:14.794000Z</time>
      </trkpt>
      <trkpt lat="38.912052" lon="111.85872">
        <ele>1440.8484</ele>
        <time>2014-07-27T22:36:17.829000Z</time>
      </trkpt>
      <trkpt lat="38.912098" lon="111.85861">
        <ele>1440.3602</ele>
        <time>2014-07-27T22:36:20.864000Z</time>
      </trkpt>
      <trkpt lat="38.91215" lon="111.858475">
        <ele>1438.548</ele>
        <time>2014-07-27T22:36:23.899000Z</time>
      </trkpt>
      <trkpt lat="38.912205" lon="111.85834">
        <ele>1437.1764</ele>
        <time>2014-07-27T22:36:26.934000Z</time>
      </trkpt>
      <trkpt lat="38.912273" lon="111.85821">
        <ele>1436.8992</ele>
        <time>2014-07-27T22:36:29.969000Z</time>
      </trkpt>
      <trkpt lat="38.912342" lon="111.85808">
        <ele>1437.2098</ele>
        <time>2014-07-27T22:36:33.004000Z</time>
      </trkpt>
      <trkpt lat="38.912407" lon="111.857956">
        <ele>1437.4188</ele>
        <time>2014-07-27T22:36:36.039000Z</time>
      </trkpt>
      <trkpt lat="38.912457" lon="111.857834">
        <ele>1437.5055</ele>
        <time>2014-07-27T22:36:39.074000Z</time>
      </trkpt>
      <trkpt lat="38.91252" lon="111.85772">
        <ele>1437.5764</ele>
        <time>2014-07-27T22:36:42.109000Z</time>
      </trkpt>
      <trkpt lat="38.91258" lon="111.85759">
        <ele>1437.5062</ele>
        <time>2014-07-27T22:36:45.144000Z</time>
      </trkpt>
      <trkpt lat="38.912643" lon="111.85745">
        <ele>1437.2924</ele>
        <time>2014-07-27T22:36:48.179000Z</time>
      </trkpt>
      <trkpt lat="38.912697" lon="111.857346">
        <ele>1437.0579</ele>
        <time>2014-07-27T22:36:51.214000Z</time>
      </trkpt>
      <trkpt lat="38.91276" lon="111.85722">
        <ele>1436.5569</ele>
        <time>2014-07-27T22:36:54.249000Z</time>
      </trkpt>
      <trkpt lat="38.91282" lon="111.8571">
        <ele>1435.7253</ele>
        <time>2014-07-27T22:36:57.284000Z</time>
      </trkpt>
      <trkpt lat="38.912884" lon="111.85698">
        <ele>1434.9612</ele>
        <time>2014-07-27T22:37:00.319000Z</time>
      </trkpt>
      <trkpt lat="38.912956" lon="111.856865">
        <ele>1434.4683</ele>
        <time>2014-07-27T22:37:03.354000Z</time>
      </trkpt>
      <trkpt lat="38.91301" lon="111.85676">
        <ele>1434.0278</ele>
        <time>2014-07-27T22:37:06.389000Z</time>
      </trkpt>
      <trkpt lat="38.91308" lon="111.85665">
        <ele>1433.8062</ele>
        <time>2014-07-27T22:37:09.424000Z</time>
      </trkpt>
      <trkpt lat="38.913147" lon="111.85654">
        <ele>1433.9956</ele>
        <time>2014-07-27T22:37:12.459000Z</time>
      </trkpt>
      <trkpt lat="38.913204" lon="111.85643">
        <ele>1434.5652</ele>
        <time>2014-07-27T22:37:15.494000Z</time>
      </trkpt>
      <trkpt lat="38.913273" lon="111.85633">
        <ele>1435.548</ele>
        <time>2014-07-27T22:37:18.529000Z</time>
      </trkpt>
      <trkpt lat="38.91335" lon="111.85622">
        <ele>1436.8163</ele>
        <time>2014-07-27T22:37:21.564000Z</time>
      </trkpt>
      <trkpt lat="38.913406" lon="111.856125">
        <ele>1437.9265</ele>
        <time>2014-07-27T22:37:24.599000Z</time>
      </trkpt>
      <trkpt lat="38.91345" lon="111.856">
        <ele>1438.491</ele>
        <time>2014-07-27T22:37:27.634000Z</time>
      </trkpt>
      <trkpt lat="38.913322" lon="111.854675">
        <ele>1432.6285</ele>
        <time>2014-07-27T22:37:30.669000Z</time>
      </trkpt>
      <trkpt lat="38.91331" lon="111.85465">
        <ele>1432.0253</ele>
        <time>2014-07-27T22:37:33.704000Z</time>
      </trkpt>
      <trkpt lat="38.913265" lon="111.85454">
        <ele>1431.7982</ele>
        <time>2014-07-27T22:37:36.739000Z</time>
      </trkpt>
      <trkpt lat="38.91322" lon="111.8544">
        <ele>1430.8271</ele>
        <time>2014-07-27T22:37:39.774000Z</time>
      </trkpt>
      <trkpt lat="38.91317" lon="111.854256">
        <ele>1430.3086</ele>
        <time>2014-07-27T22:37:42.809000Z</time>
      </trkpt>
      <trkpt lat="38.913143" lon="111.854126">
        <ele>1430.1273</ele>
        <time>2014-07-27T22:37:45.844000Z</time>
      </trkpt>
      <trkpt lat="38.913113" lon="111.85398">
        <ele>1430.1565</ele>
        <time>2014-07-27T22:37:48.879000Z</time>
      </trkpt>
      <trkpt lat="38.913074" lon="111.85383">
        <ele>1430.3235</ele>
        <time>2014-07-27T22:37:51.914000Z</time>
      </trkpt>
      <trkpt lat="38.913044" lon="111.85371">
        <ele>1430.614</ele>
        <time>2014-07-27T22:37:54.949000Z</time>
      </trkpt>
      <trkpt lat="38.913013" lon="111.85357">
        <ele>1430.6105</ele>
        <time>2014-07-27T22:37:57.984000Z</time>
      </trkpt>
      <trkpt lat="38.912983" lon="111.853424">
        <ele>1429.7794</ele>
        <time>2014-07-27T22:38:01.019000Z</time>
      </trkpt>
      <trkpt lat="38.912937" lon="111.85325">
        <ele>1428.4257</ele>
        <time>2014-07-27T22:38:04.054000Z</time>
      </trkpt>
      <trkpt lat="38.91291" lon="111.85313">
        <ele>1427.164</ele>
        <time>2014-07-27T22:38:07.089000Z</time>
      </trkpt>
      <trkpt lat="38.912876" lon="111.85298">
        <ele>1426.1704</ele>
        <time>2014-07-27T22:38:10.124000Z</time>
      </trkpt>
      <trkpt lat="38.912846" lon="111.85284">
        <ele>1425.5472</ele>
        <time>2014-07-27T22:38:13.159000Z</time>
      </trkpt>
      <trkpt lat="38.912823" lon="111.85272">
        <ele>1425.5406</ele>
        <time>2014-07-27T22:38:16.194000Z</time>
      </trkpt>
      <trkpt lat="38.91279" lon="111.85258">
        <ele>1426.1002</ele>
        <time>2014-07-27T22:38:19.229000Z</time>
      </trkpt>
      <trkpt lat="38.912754" lon="111.85245">
        <ele>1426.9648</ele>
        <time>2014-07-27T22:38:22.264000Z</time>
      </trkpt>
      <trkpt lat="38.912727" lon="111.85231">
        <ele>1427.9657</ele>
        <time>2014-07-27T22:38:25.299000Z</time>
      </trkpt>
      <trkpt lat="38.912693" lon="111.85216">
        <ele>1428.9185</ele>
        <time>2014-07-27T22:38:28.334000Z</time>
      </trkpt>
      <trkpt lat="38.912663" lon="111.85202">
        <ele>1429.288</ele>
        <time>2014-07-27T22:38:31.369000Z</time>
      </trkpt>
      <trkpt lat="38.912624" lon="111.851875">
        <ele>1428.8999</ele>
        <time>2014-07-27T22:38:34.404000Z</time>
      </trkpt>
      <trkpt lat="38.91258" lon="111.85174">
        <ele>1428.3577</ele>
        <time>2014-07-27T22:38:37.439000Z</time>
      </trkpt>
      <trkpt lat="38.912544" lon="111.85159">
        <ele>1428.2316</ele>
        <time>2014-07-27T22:38:40.474000Z</time>
      </trkpt>
      <trkpt lat="38.91253" lon="111.85145">
        <ele>1428.6028</ele>
        <time>2014-07-27T22:38:43.509000Z</time>
      </trkpt>
      <trkpt lat="38.912495" lon="111.8513">
        <ele>1429.2594</ele>
        <time>2014-07-27T22:38:46.544000Z</time>
      </trkpt>
      <trkpt lat="38.912457" lon="111.85117">
        <ele>1429.7667</ele>
        <time>2014-07-27T22:38:49.579000Z</time>
      </trkpt>
      <trkpt lat="38.91242" lon="111.85102">
        <ele>1429.8855</ele>
        <time>2014-07-27T22:38:52.614000Z</time>
      </trkpt>
      <trkpt lat="38.91239" lon="111.85087">
        <ele>1429.8815</ele>
        <time>2014-07-27T22:38:55.649000Z</time>
      </trkpt>
      <trkpt lat="38.91236" lon="111.850746">
        <ele>1430.0144</ele>
        <time>2014-07-27T22:38:58.684000Z</time>
      </trkpt>
      <trkpt lat="38.91233" lon="111.85062">
        <ele>1430.0272</ele>
        <time>2014-07-27T22:39:01.719000Z</time>
      </trkpt>
      <trkpt lat="38.912296" lon="111.850464">
        <ele>1429.3293</ele>
        <time>2014-07-27T22:39:04.754000Z</time>
      </trkpt>
      <trkpt lat="38.91226" lon="111.850334">
        <ele>1428.1</ele>
        <time>2014-07-27T22:39:07.789000Z</time>
      </trkpt>
      <trkpt lat="38.912212" lon="111.8502">
        <ele>1427.2275</ele>
        <time>2014-07-27T22:39:10.824000Z</time>
      </trkpt>
      <trkpt lat="38.912174" lon="111.85007">
        <ele>1427.1384</ele>
        <time>2014-07-27T22:39:13.859000Z</time>
      </trkpt>
      <trkpt lat="38.912155" lon="111.84992">
        <ele>1427.6781</ele>
        <time>2014-07-27T22:39:16.894000Z</time>
      </trkpt>
      <trkpt lat="38.91213" lon="111.849785">
        <ele>1428.3956</ele>
        <time>2014-07-27T22:39:19.929000Z</time>
      </trkpt>
      <trkpt lat="38.912098" lon="111.84966">
        <ele>1428.744</ele>
        <time>2014-07-27T22:39:22.964000Z</time>
      </trkpt>
      <trkpt lat="38.912064" lon="111.84951">
        <ele>1428.398</ele>
        <time>2014-07-27T22:39:25.999000Z</time>
      </trkpt>
      <trkpt lat="38.91203" lon="111.84936">
        <ele>1427.4364</ele>
        <time>2014-07-27T22:39:29.034000Z</time>
      </trkpt>
      <trkpt lat="38.91199" lon="111.84923">
        <ele>1426.3578</ele>
        <time>2014-07-27T22:39:32.069000Z</time>
      </trkpt>
      <trkpt lat="38.911972" lon="111.849075">
        <ele>1425.715</ele>
        <time>2014-07-27T22:39:35.104000Z</time>
      </trkpt>
      <trkpt lat="38.911938" lon="111.84893">
        <ele>1425.772</ele>
        <time>2014-07-27T22:39:38.139000Z</time>
      </trkpt>
      <trkpt lat="38.9119" lon="111.848816">
        <ele>1426.3995</ele>
        <time>2014-07-27T22:39:41.174000Z</time>
      </trkpt>
      <trkpt lat="38.911865" lon="111.84869">
        <ele>1427.0498</ele>
        <time>2014-07-27T22:39:44.209000Z</time>
      </trkpt>
      <trkpt lat="38.91182" lon="111.84853">
        <ele>1427.3248</ele>
        <time>2014-07-27T22:39:47.244000Z</time>
      </trkpt>
      <trkpt lat="38.911777" lon="111.8484">
        <ele>1427.1829</ele>
        <time>2014-07-27T22:39:50.279000Z</time>
      </trkpt>
      <trkpt lat="38.911747" lon="111.84827">
        <ele>1426.8185</ele>
        <time>2014-07-27T22:39:53.314000Z</time>
      </trkpt>
      <trkpt lat="38.911724" lon="111.848114">
        <ele>1426.5157</ele>
        <time>2014-07-27T22:39:56.349000Z</time>
      </trkpt>
      <trkpt lat="38.91171" lon="111.84798">
        <ele>1425.9419</ele>
        <time>2014-07-27T22:39:59.384000Z</time>
      </trkpt>
      <trkpt lat="38.911682" lon="111.84784">
        <ele>1424.3398</ele>
        <time>2014-07-27T22:40:02.419000Z</time>
      </trkpt>
      <trkpt lat="38.91165" lon="111.84771">
        <ele>1422.0646</ele>
        <time>2014-07-27T22:40:05.454000Z</time>
      </trkpt>
      <trkpt lat="38.91161" lon="111.84754">
        <ele>1420.6703</ele>
        <time>2014-07-27T22:40:08.489000Z</time>
      </trkpt>
      <trkpt lat="38.91157" lon="111.84741">
        <ele>1421.0123</ele>
        <time>2014-07-27T22:40:11.524000Z</time>
      </trkpt>
      <trkpt lat="38.911537" lon="111.84729">
        <ele>1422.3524</ele>
        <time>2014-07-27T22:40:14.559000Z</time>
      </trkpt>
      <trkpt lat="38.911514" lon="111.84716">
        <ele>1423.8188</ele>
        <time>2014-07-27T22:40:17.594000Z</time>
      </trkpt>
      <trkpt lat="38.91148" lon="111.847015">
        <ele>1424.8188</ele>
        <time>2014-07-27T22:40:20.629000Z</time>
      </trkpt>
      <trkpt lat="38.911438" lon="111.84687">
        <ele>1425.2747</ele>
        <time>2014-07-27T22:40:23.664000Z</time>
      </trkpt>
      <trkpt lat="38.911404" lon="111.84674">
        <ele>1425.9395</ele>
        <time>2014-07-27T22:40:26.699000Z</time>
      </trkpt>
      <trkpt lat="38.911366" lon="111.84658">
        <ele>1427.0371</ele>
        <time>2014-07-27T22:40:29.734000Z</time>
      </trkpt>
      <trkpt lat="38.91132" lon="111.84644">
        <ele>1428.0319</ele>
        <time>2014-07-27T22:40:32.769000Z</time>
      </trkpt>
      <trkpt lat="38.91128" lon="111.84631">
        <ele>1428.7208</ele>
        <time>2014-07-27T22:40:35.804000Z</time>
      </trkpt>
      <trkpt lat="38.911255" lon="111.84619">
        <ele>1429.0574</ele>
        <time>2014-07-27T22:40:38.839000Z</time>
      </trkpt>
      <trkpt lat="38.911213" lon="111.84607">
        <ele>1429.9617</ele>
        <time>2014-07-27T22:40:41.874000Z</time>
      </trkpt>
      <trkpt lat="38.911186" lon="111.845955">
        <ele>1432.7881</ele>
        <time>2014-07-27T22:40:44.909000Z</time>
      </trkpt>
      <trkpt lat="38.911156" lon="111.84582">
        <ele>1436.9248</ele>
        <time>2014-07-27T22:40:47.944000Z</time>
      </trkpt>
      <trkpt lat="38.911125" lon="111.8457">
        <ele>1440.6793</ele>
        <time>2014-07-27T22:40:50.979000Z</time>
      </trkpt>
      <trkpt lat="38.911083" lon="111.84557">
        <ele>1444.0457</ele>
        <time>2014-07-27T22:40:54.014000Z</time>
      </trkpt>
      <trkpt lat="38.911057" lon="111.84544">
        <ele>1447.3666</ele>
        <time>2014-07-27T22:40:57.049000Z</time>
      </trkpt>
      <trkpt lat="38.911015" lon="111.84531">
        <ele>1449.3408</ele>
        <time>2014-07-27T22:41:00.084000Z</time>
      </trkpt>
      <trkpt lat="38.910973" lon="111.84517">
        <ele>1448.7585</ele>
        <time>2014-07-27T22:41:03.119000Z</time>
      </trkpt>
      <trkpt lat="38.910923" lon="111.84505">
        <ele>1446.4955</ele>
        <time>2014-07-27T22:41:06.154000Z</time>
      </trkpt>
      <trkpt lat="38.910873" lon="111.844894">
        <ele>1445.3572</ele>
        <time>2014-07-27T22:41:09.189000Z</time>
      </trkpt>
      <trkpt lat="38.910824" lon="111.844765">
        <ele>1447.1395</ele>
        <time>2014-07-27T22:41:12.224000Z</time>
      </trkpt>
      <trkpt lat="38.910786" lon="111.84462">
        <ele>1450.312</ele>
        <time>2014-07-27T22:41:15.259000Z</time>
      </trkpt>
      <trkpt lat="38.91076" lon="111.84449">
        <ele>1452.633</ele>
        <time>2014-07-27T22:41:18.294000Z</time>
      </trkpt>
      <trkpt lat="38.91073" lon="111.844345">
        <ele>1453.6259</ele>
        <time>2014-07-27T22:41:21.329000Z</time>
      </trkpt>
      <trkpt lat="38.910706" lon="111.84419">
        <ele>1453.7141</ele>
        <time>2014-07-27T22:41:24.364000Z</time>
      </trkpt>
      <trkpt lat="38.910694" lon="111.84402">
        <ele>1452.8595</ele>
        <time>2014-07-27T22:41:27.399000Z</time>
      </trkpt>
      <trkpt lat="38.910675" lon="111.84389">
        <ele>1449.9576</ele>
        <time>2014-07-27T22:41:30.434000Z</time>
      </trkpt>
      <trkpt lat="38.910656" lon="111.843735">
        <ele>1444.7688</ele>
        <time>2014-07-27T22:41:33.469000Z</time>
      </trkpt>
      <trkpt lat="38.910625" lon="111.843605">
        <ele>1439.5721</ele>
        <time>2014-07-27T22:41:36.504000Z</time>
      </trkpt>
      <trkpt lat="38.91058" lon="111.84346">
        <ele>1436.9083</ele>
        <time>2014-07-27T22:41:39.539000Z</time>
      </trkpt>
      <trkpt lat="38.91055" lon="111.843346">
        <ele>1437.1971</ele>
        <time>2014-07-27T22:41:42.574000Z</time>
      </trkpt>
      <trkpt lat="38.910534" lon="111.843216">
        <ele>1438.9879</ele>
        <time>2014-07-27T22:41:45.609000Z</time>
      </trkpt>
      <trkpt lat="38.91051" lon="111.84308">
        <ele>1440.297</ele>
        <time>2014-07-27T22:41:48.644000Z</time>
      </trkpt>
      <trkpt lat="38.91048" lon="111.84295">
        <ele>1439.484</ele>
        <time>2014-07-27T22:41:51.679000Z</time>
      </trkpt>
      <trkpt lat="38.91043" lon="111.842804">
        <ele>1436.7039</ele>
        <time>2014-07-27T22:41:54.714000Z</time>
      </trkpt>
      <trkpt lat="38.91039" lon="111.84269">
        <ele>1434.4858</ele>
        <time>2014-07-27T22:41:57.749000Z</time>
      </trkpt>
      <trkpt lat="38.910347" lon="111.842545">
        <ele>1434.4984</ele>
        <time>2014-07-27T22:42:00.784000Z</time>
      </trkpt>
      <trkpt lat="38.91032" lon="111.84241">
        <ele>1435.8048</ele>
        <time>2014-07-27T22:42:03.819000Z</time>
      </trkpt>
      <trkpt lat="38.91029" lon="111.842255">
        <ele>1436.6782</ele>
        <time>2014-07-27T22:42:06.854000Z</time>
      </trkpt>
      <trkpt lat="38.910263" lon="111.84212">
        <ele>1436.3159</ele>
        <time>2014-07-27T22:42:09.889000Z</time>
      </trkpt>
      <trkpt lat="38.910233" lon="111.84197">
        <ele>1435.086</ele>
        <time>2014-07-27T22:42:12.924000Z</time>
      </trkpt>
      <trkpt lat="38.910206" lon="111.84184">
        <ele>1433.7759</ele>
        <time>2014-07-27T22:42:15.959000Z</time>
      </trkpt>
      <trkpt lat="38.91018" lon="111.841705">
        <ele>1432.8667</ele>
        <time>2014-07-27T22:42:18.994000Z</time>
      </trkpt>
      <trkpt lat="38.91014" lon="111.84155">
        <ele>1432.9475</ele>
        <time>2014-07-27T22:42:22.029000Z</time>
      </trkpt>
      <trkpt lat="38.9101" lon="111.84143">
        <ele>1434.1385</ele>
        <time>2014-07-27T22:42:25.064000Z</time>
      </trkpt>
      <trkpt lat="38.91005" lon="111.8413">
        <ele>1435.7706</ele>
        <time>2014-07-27T22:42:28.099000Z</time>
      </trkpt>
      <trkpt lat="38.910027" lon="111.84119">
        <ele>1437.0052</ele>
        <time>2014-07-27T22:42:31.134000Z</time>
      </trkpt>
      <trkpt lat="38.91002" lon="111.841064">
        <ele>1437.2043</ele>
        <time>2014-07-27T22:42:34.169000Z</time>
      </trkpt>
      <trkpt lat="38.909996" lon="111.84093">
        <ele>1435.9568</ele>
        <time>2014-07-27T22:42:37.204000Z</time>
      </trkpt>
      <trkpt lat="38.90999" lon="111.8408">
        <ele>1433.6589</ele>
        <time>2014-07-27T22:42:40.239000Z</time>
      </trkpt>
      <trkpt lat="38.90997" lon="111.84066">
        <ele>1431.1862</ele>
        <time>2014-07-27T22:42:43.274000Z</time>
      </trkpt>
      <trkpt lat="38.90993" lon="111.84051">
        <ele>1429.0526</ele>
        <time>2014-07-27T22:42:46.309000Z</time>
      </trkpt>
      <trkpt lat="38.9099" lon="111.84038">
        <ele>1427.4354</ele>
        <time>2014-07-27T22:42:49.344000Z</time>
      </trkpt>
      <trkpt lat="38.909866" lon="111.84024">
        <ele>1426.4639</ele>
        <time>2014-07-27T22:42:52.379000Z</time>
      </trkpt>
      <trkpt lat="38.90982" lon="111.8401">
        <ele>1426.1208</ele>
        <time>2014-07-27T22:42:55.414000Z</time>
      </trkpt>
      <trkpt lat="38.909775" lon="111.83999">
        <ele>1426.3859</ele>
        <time>2014-07-27T22:42:58.449000Z</time>
      </trkpt>
      <trkpt lat="38.909733" lon="111.83988">
        <ele>1427.5648</ele>
        <time>2014-07-27T22:43:01.484000Z</time>
      </trkpt>
      <trkpt lat="38.90969" lon="111.83975">
        <ele>1429.5079</ele>
        <time>2014-07-27T22:43:04.519000Z</time>
      </trkpt>
      <trkpt lat="38.90965" lon="111.83962">
        <ele>1432.1018</ele>
        <time>2014-07-27T22:43:07.554000Z</time>
      </trkpt>
      <trkpt lat="38.909607" lon="111.839485">
        <ele>1436.0723</ele>
        <time>2014-07-27T22:43:10.589000Z</time>
      </trkpt>
      <trkpt lat="38.90957" lon="111.83935">
        <ele>1440.9806</ele>
        <time>2014-07-27T22:43:13.624000Z</time>
      </trkpt>
      <trkpt lat="38.909527" lon="111.83921">
        <ele>1445.3423</ele>
        <time>2014-07-27T22:43:16.659000Z</time>
      </trkpt>
      <trkpt lat="38.909485" lon="111.83905">
        <ele>1448.5157</ele>
        <time>2014-07-27T22:43:19.694000Z</time>
      </trkpt>
      <trkpt lat="38.909447" lon="111.83894">
        <ele>1449.8567</ele>
        <time>2014-07-27T22:43:22.729000Z</time>
      </trkpt>
      <trkpt lat="38.909393" lon="111.83882">
        <ele>1449.206</ele>
        <time>2014-07-27T22:43:25.764000Z</time>
      </trkpt>
      <trkpt lat="38.909336" lon="111.838684">
        <ele>1449.1914</ele>
        <time>2014-07-27T22:43:28.799000Z</time>
      </trkpt>
      <trkpt lat="38.909306" lon="111.83858">
        <ele>1452.3688</ele>
        <time>2014-07-27T22:43:31.834000Z</time>
      </trkpt>
      <trkpt lat="38.909264" lon="111.83846">
        <ele>1457.2517</ele>
        <time>2014-07-27T22:43:34.869000Z</time>
      </trkpt>
      <trkpt lat="38.90921" lon="111.83835">
        <ele>1460.586</ele>
        <time>2014-07-27T22:43:37.904000Z</time>
      </trkpt>
      <trkpt lat="38.909176" lon="111.83824">
        <ele>1461.5289</ele>
        <time>2014-07-27T22:43:40.939000Z</time>
      </trkpt>
      <trkpt lat="38.90915" lon="111.83809">
        <ele>1461.1924</ele>
        <time>2014-07-27T22:43:43.974000Z</time>
      </trkpt>
      <trkpt lat="38.909126" lon="111.83792">
        <ele>1459.9337</ele>
        <time>2014-07-27T22:43:47.009000Z</time>
      </trkpt>
      <trkpt lat="38.909103" lon="111.83781">
        <ele>1456.1127</ele>
        <time>2014-07-27T22:43:50.044000Z</time>
      </trkpt>
      <trkpt lat="38.90908" lon="111.83766">
        <ele>1448.6156</ele>
        <time>2014-07-27T22:43:53.079000Z</time>
      </trkpt>
      <trkpt lat="38.909065" lon="111.83751">
        <ele>1439.44</ele>
        <time>2014-07-27T22:43:56.114000Z</time>
      </trkpt>
      <trkpt lat="38.90905" lon="111.837364">
        <ele>1431.1014</ele>
        <time>2014-07-27T22:43:59.149000Z</time>
      </trkpt>
      <trkpt lat="38.90899" lon="111.837265">
        <ele>1424.7305</ele>
        <time>2014-07-27T22:44:02.184000Z</time>
      </trkpt>
      <trkpt lat="38.90887" lon="111.83727">
        <ele>1420.9847</ele>
        <time>2014-07-27T22:44:05.219000Z</time>
      </trkpt>
      <trkpt lat="38.908764" lon="111.83731">
        <ele>1419.3384</ele>
        <time>2014-07-27T22:44:08.254000Z</time>
      </trkpt>
      <trkpt lat="38.90866" lon="111.83737">
        <ele>1418.4321</ele>
        <time>2014-07-27T22:44:11.289000Z</time>
      </trkpt>
      <trkpt lat="38.90857" lon="111.83744">
        <ele>1418.7133</ele>
        <time>2014-07-27T22:44:14.324000Z</time>
      </trkpt>
      <trkpt lat="38.908463" lon="111.83752">
        <ele>1420.7164</ele>
        <time>2014-07-27T22:44:17.359000Z</time>
      </trkpt>
      <trkpt lat="38.90835" lon="111.83756">
        <ele>1423.276</ele>
        <time>2014-07-27T22:44:20.394000Z</time>
      </trkpt>
      <trkpt lat="38.908237" lon="111.83761">
        <ele>1425.4661</ele>
        <time>2014-07-27T22:44:23.429000Z</time>
      </trkpt>
      <trkpt lat="38.908146" lon="111.83766">
        <ele>1426.9174</ele>
        <time>2014-07-27T22:44:26.464000Z</time>
      </trkpt>
      <trkpt lat="38.908043" lon="111.83773">
        <ele>1427.6206</ele>
        <time>2014-07-27T22:44:29.499000Z</time>
      </trkpt>
      <trkpt lat="38.907932" lon="111.83779">
        <ele>1428.8398</ele>
        <time>2014-07-27T22:44:32.534000Z</time>
      </trkpt>
      <trkpt lat="38.90781" lon="111.83784">
        <ele>1430.9629</ele>
        <time>2014-07-27T22:44:35.569000Z</time>
      </trkpt>
      <trkpt lat="38.907703" lon="111.837906">
        <ele>1432.8224</ele>
        <time>2014-07-27T22:44:38.604000Z</time>
      </trkpt>
      <trkpt lat="38.907597" lon="111.83796">
        <ele>1433.6205</ele>
        <time>2014-07-27T22:44:41.639000Z</time>
      </trkpt>
      <trkpt lat="38.9075" lon="111.83803">
        <ele>1433.6283</ele>
        <time>2014-07-27T22:44:44.674000Z</time>
      </trkpt>
      <trkpt lat="38.907406" lon="111.83809">
        <ele>1433.413</ele>
        <time>2014-07-27T22:44:47.709000Z</time>
      </trkpt>
      <trkpt lat="38.907307" lon="111.83814">
        <ele>1433.3468</ele>
        <time>2014-07-27T22:44:50.744000Z</time>
      </trkpt>
      <trkpt lat="38.907207" lon="111.83819">
        <ele>1433.364</ele>
        <time>2014-07-27T22:44:53.779000Z</time>
      </trkpt>
      <trkpt lat="38.907097" lon="111.83825">
        <ele>1432.3595</ele>
        <time>2014-07-27T22:44:56.814000Z</time>
      </trkpt>
      <trkpt lat="38.906998" lon="111.83832">
        <ele>1429.7424</ele>
        <time>2014-07-27T22:44:59.849000Z</time>
      </trkpt>
      <trkpt lat="38.906887" lon="111.83838">
        <ele>1427.096</ele>
        <time>2014-07-27T22:45:02.884000Z</time>
      </trkpt>
      <trkpt lat="38.906754" lon="111.838425">
        <ele>1426.1007</ele>
        <time>2014-07-27T22:45:05.919000Z</time>
      </trkpt>
      <trkpt lat="38.906654" lon="111.83848">
        <ele>1426.8163</ele>
        <time>2014-07-27T22:45:08.954000Z</time>
      </trkpt>
      <trkpt lat="38.906555" lon="111.838524">
        <ele>1428.477</ele>
        <time>2014-07-27T22:45:11.989000Z</time>
      </trkpt>
      <trkpt lat="38.90644" lon="111.83858">
        <ele>1431.0557</ele>
        <time>2014-07-27T22:45:15.024000Z</time>
      </trkpt>
      <trkpt lat="38.90634" lon="111.83863">
        <ele>1435.1133</ele>
        <time>2014-07-27T22:45:18.059000Z</time>
      </trkpt>
      <trkpt lat="38.906258" lon="111.838684">
        <ele>1439.8439</ele>
        <time>2014-07-27T22:45:21.094000Z</time>
      </trkpt>
      <trkpt lat="38.906155" lon="111.838745">
        <ele>1443.732</ele>
        <time>2014-07-27T22:45:24.129000Z</time>
      </trkpt>
      <trkpt lat="38.906055" lon="111.8388">
        <ele>1446.4021</ele>
        <time>2014-07-27T22:45:27.164000Z</time>
      </trkpt>
      <trkpt lat="38.905968" lon="111.83885">
        <ele>1447.8229</ele>
        <time>2014-07-27T22:45:30.199000Z</time>
      </trkpt>
      <trkpt lat="38.905865" lon="111.8389">
        <ele>1447.4048</ele>
        <time>2014-07-27T22:45:33.234000Z</time>
      </trkpt>
      <trkpt lat="38.905743" lon="111.83896">
        <ele>1445.2406</ele>
        <time>2014-07-27T22:45:36.269000Z</time>
      </trkpt>
      <trkpt lat="38.905613" lon="111.839005">
        <ele>1442.7614</ele>
        <time>2014-07-27T22:45:39.304000Z</time>
      </trkpt>
      <trkpt lat="38.905514" lon="111.83906">
        <ele>1440.9236</ele>
        <time>2014-07-27T22:45:42.339000Z</time>
      </trkpt>
      <trkpt lat="38.905403" lon="111.83913">
        <ele>1439.595</ele>
        <time>2014-07-27T22:45:45.374000Z</time>
      </trkpt>
      <trkpt lat="38.90531" lon="111.83918">
        <ele>1438.7245</ele>
        <time>2014-07-27T22:45:48.409000Z</time>
      </trkpt>
      <trkpt lat="38.905216" lon="111.83923">
        <ele>1438.6481</ele>
        <time>2014-07-27T22:45:51.444000Z</time>
      </trkpt>
      <trkpt lat="38.905094" lon="111.83927">
        <ele>1439.44</ele>
        <time>2014-07-27T22:45:54.479000Z</time>
      </trkpt>
      <trkpt lat="38.904987" lon="111.839325">
        <ele>1440.6069</ele>
        <time>2014-07-27T22:45:57.514000Z</time>
      </trkpt>
      <trkpt lat="38.904884" lon="111.83938">
        <ele>1441.55</ele>
        <time>2014-07-27T22:46:00.549000Z</time>
      </trkpt>
      <trkpt lat="38.904793" lon="111.83943">
        <ele>1442.3657</ele>
        <time>2014-07-27T22:46:03.584000Z</time>
      </trkpt>
      <trkpt lat="38.904697" lon="111.839516">
        <ele>1443.2329</ele>
        <time>2014-07-27T22:46:06.619000Z</time>
      </trkpt>
      <trkpt lat="38.904594" lon="111.8396">
        <ele>1443.5212</ele>
        <time>2014-07-27T22:46:09.654000Z</time>
      </trkpt>
      <trkpt lat="38.904495" lon="111.83964">
        <ele>1440.7909</ele>
        <time>2014-07-27T22:46:12.689000Z</time>
      </trkpt>
      <trkpt lat="38.904392" lon="111.83968">
        <ele>1434.4836</ele>
        <time>2014-07-27T22:46:15.724000Z</time>
      </trkpt>
      <trkpt lat="38.904285" lon="111.83974">
        <ele>1428.4309</ele>
        <time>2014-07-27T22:46:18.759000Z</time>
      </trkpt>
      <trkpt lat="38.90417" lon="111.839806">
        <ele>1426.4248</ele>
        <time>2014-07-27T22:46:21.794000Z</time>
      </trkpt>
      <trkpt lat="38.904083" lon="111.83984">
        <time>2014-07-27T22:46:24.829000Z</time>
      </trkpt>
    </trkseg>
  </trk>
</gpx>