<?xml version="1.0" encoding="UTF-8"?>
<gpx xmlns="http://www.topografix.com/GPX/1/1" xmlns:gpxtpx="http://www.garmin.com/xmlschemas/TrackPointExtension/v1" xmlns:xsi="http://www.w3.org/2001/XMLSchema-instance" xsi:schemaLocation="http://www.topografix.com/GPX/1/1 http://www.topografix.com/GPX/1/1/gpx.xsd" version="1.1" creator="gpx.py -- https://github.com/tkrajina/gpxpy">
  <trk>
    <trkseg>
      <trkpt lat="38.818604" lon="121.14745">
        <ele>44.49633</ele>
        <time>2014-09-03T09:44:02.694000Z</time>
      </trkpt>
      <trkpt lat="38.81859" lon="121.147446">
        <ele>45.21781</ele>
        <time>2014-09-03T09:44:05.684000Z</time>
      </trkpt>
      <trkpt lat="38.81859" lon="121.147446">
        <ele>46.47644</ele>
        <time>2014-09-03T09:44:08.674000Z</time>
      </trkpt>
      <trkpt lat="38.81851" lon="121.14736">
        <ele>47.46403</ele>
        <time>2014-09-03T09:44:11.664000Z</time>
      </trkpt>
      <trkpt lat="38.818417" lon="121.14733">
        <ele>47.61617</ele>
        <time>2014-09-03T09:44:14.654000Z</time>
      </trkpt>
      <trkpt lat="38.818314" lon="121.14731">
        <ele>47.39406</ele>
        <time>2014-09-03T09:44:17.644000Z</time>
      </trkpt>
      <trkpt lat="38.81822" lon="121.14731">
        <ele>47.785667</ele>
        <time>2014-09-03T09:44:20.634000Z</time>
      </trkpt>
      <trkpt lat="38.81811" lon="121.14731">
        <ele>48.79504</ele>
        <time>2014-09-03T09:44:23.624000Z</time>
      </trkpt>
      <trkpt lat="38.818" lon="121.147316">
        <ele>49.756126</ele>
        <time>2014-09-03T09:44:26.614000Z</time>
      </trkpt>
      <trkpt lat="38.81791" lon="121.14731">
        <ele>50.372498</ele>
        <time>2014-09-03T09:44:29.604000Z</time>
      </trkpt>
      <trkpt lat="38.817795" lon="121.14731">
        <ele>50.6648</ele>
        <time>2014-09-03T09:44:32.594000Z</time>
      </trkpt>
      <trkpt lat="38.817707" lon="121.14729">
        <ele>51.02607</ele>
        <time>2014-09-03T09:44:35.584000Z</time>
      </trkpt>
      <trkpt lat="38.817585" lon="121.147285">
        <ele>51.619587</ele>
        <time>2014-09-03T09:44:38.574000Z</time>
      </trkpt>
      <trkpt lat="38.817482" lon="121.14731">
        <ele>52.20817</ele>
        <time>2014-09-03T09:44:41.564000Z</time>
      </trkpt>
      <trkpt lat="38.817368" lon="121.14738">
        <ele>52.717205</ele>
        <time>2014-09-03T09:44:44.554000Z</time>
      </trkpt>
      <trkpt lat="38.817287" lon="121.14745">
        <ele>53.228214</ele>
        <time>2014-09-03T09:44:47.544000Z</time>
      </trkpt>
      <trkpt lat="38.81723" lon="121.14755">
        <ele>53.627182</ele>
        <time>2014-09-03T09:44:50.534000Z</time>
      </trkpt>
      <trkpt lat="38.81719" lon="121.14766">
        <ele>53.656776</ele>
        <time>2014-09-03T09:44:53.524000Z</time>
      </trkpt>
      <trkpt lat="38.817165" lon="121.1478">
        <ele>53.076324</ele>
        <time>2014-09-03T09:44:56.514000Z</time>
      </trkpt>
      <trkpt lat="38.81719" lon="121.147934">
        <ele>51.565155</ele>
        <time>2014-09-03T09:44:59.503000Z</time>
      </trkpt>
      <trkpt lat="38.817234" lon="121.14806">
        <ele>49.249477</ele>
        <time>2014-09-03T09:45:02.492000Z</time>
      </trkpt>
      <trkpt lat="38.8173" lon="121.14817">
        <ele>46.732105</ele>
        <time>2014-09-03T09:45:05.481000Z</time>
      </trkpt>
      <trkpt lat="38.817375" lon="121.14825">
        <ele>44.676395</ele>
        <time>2014-09-03T09:45:08.470000Z</time>
      </trkpt>
      <trkpt lat="38.817448" lon="121.148315">
        <ele>43.49871</ele>
        <time>2014-09-03T09:45:11.459000Z</time>
      </trkpt>
      <trkpt lat="38.81755" lon="121.14833">
        <ele>43.4655</ele>
        <time>2014-09-03T09:45:14.448000Z</time>
      </trkpt>
      <trkpt lat="38.817657" lon="121.148346">
        <ele>44.100452</ele>
        <time>2014-09-03T09:45:17.437000Z</time>
      </trkpt>
      <trkpt lat="38.817772" lon="121.14835">
        <ele>44.683186</ele>
        <time>2014-09-03T09:45:20.426000Z</time>
      </trkpt>
      <trkpt lat="38.817886" lon="121.14835">
        <ele>45.10596</ele>
        <time>2014-09-03T09:45:23.415000Z</time>
      </trkpt>
      <trkpt lat="38.818" lon="121.14835">
        <ele>45.475456</ele>
        <time>2014-09-03T09:45:26.404000Z</time>
      </trkpt>
      <trkpt lat="38.818096" lon="121.14836">
        <ele>45.663673</ele>
        <time>2014-09-03T09:45:29.393000Z</time>
      </trkpt>
      <trkpt lat="38.81819" lon="121.14836">
        <ele>45.906765</ele>
        <time>2014-09-03T09:45:32.382000Z</time>
      </trkpt>
      <trkpt lat="38.818306" lon="121.14837">
        <ele>46.344154</ele>
        <time>2014-09-03T09:45:35.371000Z</time>
      </trkpt>
      <trkpt lat="38.818413" lon="121.14836">
        <ele>46.42454</ele>
        <time>2014-09-03T09:45:38.360000Z</time>
      </trkpt>
      <trkpt lat="38.818516" lon="121.14831">
        <ele>45.590313</ele>
        <time>2014-09-03T09:45:41.349000Z</time>
      </trkpt>
      <trkpt lat="38.818607" lon="121.148224">
        <ele>44.179493</ele>
        <time>2014-09-03T09:45:44.338000Z</time>
      </trkpt>
      <trkpt lat="38.818707" lon="121.1481">
        <ele>42.94724</ele>
        <time>2014-09-03T09:45:47.327000Z</time>
      </trkpt>
      <trkpt lat="38.81874" lon="121.14796">
        <ele>42.343815</ele>
        <time>2014-09-03T09:45:50.316000Z</time>
      </trkpt>
      <trkpt lat="38.81876" lon="121.147835">
        <ele>42.60523</ele>
        <time>2014-09-03T09:45:53.305000Z</time>
      </trkpt>
      <trkpt lat="38.818756" lon="121.14771">
        <ele>43.488934</ele>
        <time>2014-09-03T09:45:56.294000Z</time>
      </trkpt>
      <trkpt lat="38.818718" lon="121.14759">
        <ele>44.43008</ele>
        <time>2014-09-03T09:45:59.283000Z</time>
      </trkpt>
      <trkpt lat="38.81865" lon="121.14747">
        <ele>45.547756</ele>
        <time>2014-09-03T09:46:02.272000Z</time>
      </trkpt>
      <trkpt lat="38.81857" lon="121.147385">
        <ele>47.31363</ele>
        <time>2014-09-03T09:46:05.261000Z</time>
      </trkpt>
      <trkpt lat="38.81849" lon="121.14734">
        <ele>49.22368</ele>
        <time>2014-09-03T09:46:08.250000Z</time>
      </trkpt>
      <trkpt lat="38.818386" lon="121.14732">
        <ele>50.155125</ele>
        <time>2014-09-03T09:46:11.239000Z</time>
      </trkpt>
      <trkpt lat="38.818275" lon="121.14732">
        <ele>49.79494</ele>
        <time>2014-09-03T09:46:14.228000Z</time>
      </trkpt>
      <trkpt lat="38.81817" lon="121.14732">
        <ele>48.916443</ele>
        <time>2014-09-03T09:46:17.217000Z</time>
      </trkpt>
      <trkpt lat="38.81805" lon="121.14733">
        <ele>48.32948</ele>
        <time>2014-09-03T09:46:20.206000Z</time>
      </trkpt>
      <trkpt lat="38.81793" lon="121.147316">
        <ele>48.272602</ele>
        <time>2014-09-03T09:46:23.195000Z</time>
      </trkpt>
      <trkpt lat="38.81783" lon="121.147316">
        <ele>48.87945</ele>
        <time>2014-09-03T09:46:26.184000Z</time>
      </trkpt>
      <trkpt lat="38.81772" lon="121.14729">
        <ele>49.97075</ele>
        <time>2014-09-03T09:46:29.173000Z</time>
      </trkpt>
      <trkpt lat="38.817608" lon="121.14728">
        <ele>50.69555</ele>
        <time>2014-09-03T09:46:32.162000Z</time>
      </trkpt>
      <trkpt lat="38.8175" lon="121.1473">
        <ele>50.551945</ele>
        <time>2014-09-03T09:46:35.151000Z</time>
      </trkpt>
      <trkpt lat="38.817406" lon="121.14735">
        <ele>50.03357</ele>
        <time>2014-09-03T09:46:38.140000Z</time>
      </trkpt>
      <trkpt lat="38.81731" lon="121.14744">
        <ele>49.35699</ele>
        <time>2014-09-03T09:46:41.129000Z</time>
      </trkpt>
      <trkpt lat="38.817245" lon="121.14752">
        <ele>48.388836</ele>
        <time>2014-09-03T09:46:44.118000Z</time>
      </trkpt>
      <trkpt lat="38.817207" lon="121.147644">
        <ele>47.154343</ele>
        <time>2014-09-03T09:46:47.107000Z</time>
      </trkpt>
      <trkpt lat="38.817184" lon="121.147766">
        <ele>46.156902</ele>
        <time>2014-09-03T09:46:50.096000Z</time>
      </trkpt>
      <trkpt lat="38.81719" lon="121.147896">
        <ele>45.956287</ele>
        <time>2014-09-03T09:46:53.085000Z</time>
      </trkpt>
      <trkpt lat="38.817215" lon="121.14802">
        <ele>46.309177</ele>
        <time>2014-09-03T09:46:56.074000Z</time>
      </trkpt>
      <trkpt lat="38.817272" lon="121.14814">
        <ele>46.560875</ele>
        <time>2014-09-03T09:46:59.063000Z</time>
      </trkpt>
      <trkpt lat="38.817337" lon="121.148224">
        <ele>46.2564</ele>
        <time>2014-09-03T09:47:02.052000Z</time>
      </trkpt>
      <trkpt lat="38.817432" lon="121.148285">
        <ele>45.02483</ele>
        <time>2014-09-03T09:47:05.041000Z</time>
      </trkpt>
      <trkpt lat="38.817535" lon="121.14832">
        <ele>43.618782</ele>
        <time>2014-09-03T09:47:08.030000Z</time>
      </trkpt>
      <trkpt lat="38.817627" lon="121.14833">
        <ele>43.02351</ele>
        <time>2014-09-03T09:47:11.019000Z</time>
      </trkpt>
      <trkpt lat="38.817745" lon="121.14834">
        <ele>43.14617</ele>
        <time>2014-09-03T09:47:14.008000Z</time>
      </trkpt>
      <trkpt lat="38.817837" lon="121.14834">
        <ele>43.926594</ele>
        <time>2014-09-03T09:47:16.997000Z</time>
      </trkpt>
      <trkpt lat="38.817947" lon="121.148346">
        <ele>45.357483</ele>
        <time>2014-09-03T09:47:19.986000Z</time>
      </trkpt>
      <trkpt lat="38.818054" lon="121.14835">
        <ele>46.406048</ele>
        <time>2014-09-03T09:47:22.975000Z</time>
      </trkpt>
      <trkpt lat="38.818157" lon="121.14837">
        <ele>46.29467</ele>
        <time>2014-09-03T09:47:25.964000Z</time>
      </trkpt>
      <trkpt lat="38.81825" lon="121.14837">
        <ele>45.307236</ele>
        <time>2014-09-03T09:47:28.953000Z</time>
      </trkpt>
      <trkpt lat="38.81836" lon="121.14836">
        <ele>44.055466</ele>
        <time>2014-09-03T09:47:31.942000Z</time>
      </trkpt>
      <trkpt lat="38.818462" lon="121.14832">
        <ele>43.188663</ele>
        <time>2014-09-03T09:47:34.931000Z</time>
      </trkpt>
      <trkpt lat="38.81856" lon="121.148254">
        <ele>42.990173</ele>
        <time>2014-09-03T09:47:37.920000Z</time>
      </trkpt>
      <trkpt lat="38.818672" lon="121.14814">
        <ele>43.62638</ele>
        <time>2014-09-03T09:47:40.909000Z</time>
      </trkpt>
      <trkpt lat="38.81873" lon="121.148026">
        <ele>44.86425</ele>
        <time>2014-09-03T09:47:43.898000Z</time>
      </trkpt>
      <trkpt lat="38.818745" lon="121.147896">
        <ele>45.73327</ele>
        <time>2014-09-03T09:47:46.887000Z</time>
      </trkpt>
      <trkpt lat="38.81875" lon="121.14774">
        <ele>45.836014</ele>
        <time>2014-09-03T09:47:49.876000Z</time>
      </trkpt>
      <trkpt lat="38.818714" lon="121.147606">
        <ele>45.816177</ele>
        <time>2014-09-03T09:47:52.865000Z</time>
      </trkpt>
      <trkpt lat="38.81867" lon="121.14749">
        <ele>46.050804</ele>
        <time>2014-09-03T09:47:55.854000Z</time>
      </trkpt>
      <trkpt lat="38.818592" lon="121.14741">
        <ele>46.383392</ele>
        <time>2014-09-03T09:47:58.843000Z</time>
      </trkpt>
      <trkpt lat="38.818512" lon="121.147354">
        <ele>46.91882</ele>
        <time>2014-09-03T09:48:01.832000Z</time>
      </trkpt>
      <trkpt lat="38.81841" lon="121.14732">
        <ele>47.92832</ele>
        <time>2014-09-03T09:48:04.821000Z</time>
      </trkpt>
      <trkpt lat="38.8183" lon="121.1473">
        <ele>48.978195</ele>
        <time>2014-09-03T09:48:07.810000Z</time>
      </trkpt>
      <trkpt lat="38.818176" lon="121.14729">
        <ele>49.40541</ele>
        <time>2014-09-03T09:48:10.799000Z</time>
      </trkpt>
      <trkpt lat="38.818066" lon="121.1473">
        <ele>49.198143</ele>
        <time>2014-09-03T09:48:13.788000Z</time>
      </trkpt>
      <trkpt lat="38.817963" lon="121.1473">
        <ele>48.864586</ele>
        <time>2014-09-03T09:48:16.777000Z</time>
      </trkpt>
      <trkpt lat="38.817863" lon="121.14729">
        <ele>49.098694</ele>
        <time>2014-09-03T09:48:19.766000Z</time>
      </trkpt>
      <trkpt lat="38.81775" lon="121.14729">
        <ele>49.99375</ele>
        <time>2014-09-03T09:48:22.755000Z</time>
      </trkpt>
      <trkpt lat="38.817627" lon="121.147285">
        <ele>50.848545</ele>
        <time>2014-09-03T09:48:25.744000Z</time>
      </trkpt>
      <trkpt lat="38.817516" lon="121.147285">
        <ele>51.114857</ele>
        <time>2014-09-03T09:48:28.733000Z</time>
      </trkpt>
      <trkpt lat="38.817406" lon="121.14732">
        <ele>50.598858</ele>
        <time>2014-09-03T09:48:31.722000Z</time>
      </trkpt>
      <trkpt lat="38.817303" lon="121.1474">
        <ele>49.4173</ele>
        <time>2014-09-03T09:48:34.711000Z</time>
      </trkpt>
      <trkpt lat="38.81724" lon="121.1475">
        <ele>48.30225</ele>
        <time>2014-09-03T09:48:37.700000Z</time>
      </trkpt>
      <trkpt lat="38.81719" lon="121.14765">
        <ele>47.74188</ele>
        <time>2014-09-03T09:48:40.689000Z</time>
      </trkpt>
      <trkpt lat="38.81717" lon="121.1478">
        <ele>47.709213</ele>
        <time>2014-09-03T09:48:43.678000Z</time>
      </trkpt>
      <trkpt lat="38.817177" lon="121.147934">
        <ele>47.938778</ele>
        <time>2014-09-03T09:48:46.667000Z</time>
      </trkpt>
      <trkpt lat="38.81722" lon="121.14806">
        <ele>47.630493</ele>
        <time>2014-09-03T09:48:49.656000Z</time>
      </trkpt>
      <trkpt lat="38.817265" lon="121.14818">
        <ele>46.515697</ele>
        <time>2014-09-03T09:48:52.645000Z</time>
      </trkpt>
      <trkpt lat="38.81736" lon="121.148254">
        <ele>45.16691</ele>
        <time>2014-09-03T09:48:55.634000Z</time>
      </trkpt>
      <trkpt lat="38.817455" lon="121.148315">
        <ele>43.949287</ele>
        <time>2014-09-03T09:48:58.623000Z</time>
      </trkpt>
      <trkpt lat="38.817562" lon="121.14834">
        <ele>43.052326</ele>
        <time>2014-09-03T09:49:01.612000Z</time>
      </trkpt>
      <trkpt lat="38.817654" lon="121.148346">
        <ele>42.69796</ele>
        <time>2014-09-03T09:49:04.601000Z</time>
      </trkpt>
      <trkpt lat="38.81777" lon="121.148346">
        <ele>42.90569</ele>
        <time>2014-09-03T09:49:07.590000Z</time>
      </trkpt>
      <trkpt lat="38.817875" lon="121.14833">
        <ele>43.8516</ele>
        <time>2014-09-03T09:49:10.579000Z</time>
      </trkpt>
      <trkpt lat="38.817993" lon="121.14833">
        <ele>45.269123</ele>
        <time>2014-09-03T09:49:13.568000Z</time>
      </trkpt>
      <trkpt lat="38.818104" lon="121.14833">
        <ele>46.28174</ele>
        <time>2014-09-03T09:49:16.557000Z</time>
      </trkpt>
      <trkpt lat="38.818207" lon="121.14834">
        <ele>46.54642</ele>
        <time>2014-09-03T09:49:19.546000Z</time>
      </trkpt>
      <trkpt lat="38.81831" lon="121.148346">
        <ele>46.70279</ele>
        <time>2014-09-03T09:49:22.535000Z</time>
      </trkpt>
      <trkpt lat="38.818424" lon="121.14833">
        <ele>47.200417</ele>
        <time>2014-09-03T09:49:25.524000Z</time>
      </trkpt>
      <trkpt lat="38.81854" lon="121.14827">
        <ele>47.38686</ele>
        <time>2014-09-03T09:49:28.513000Z</time>
      </trkpt>
      <trkpt lat="38.818657" lon="121.148186">
        <ele>46.495327</ele>
        <time>2014-09-03T09:49:31.502000Z</time>
      </trkpt>
      <trkpt lat="38.81874" lon="121.14809">
        <ele>45.069283</ele>
        <time>2014-09-03T09:49:34.491000Z</time>
      </trkpt>
      <trkpt lat="38.81876" lon="121.14795">
        <ele>44.23079</ele>
        <time>2014-09-03T09:49:37.480000Z</time>
      </trkpt>
      <trkpt lat="38.81875" lon="121.14782">
        <ele>44.28268</ele>
        <time>2014-09-03T09:49:40.469000Z</time>
      </trkpt>
      <trkpt lat="38.818726" lon="121.14768">
        <ele>44.819416</ele>
        <time>2014-09-03T09:49:43.458000Z</time>
      </trkpt>
      <trkpt lat="38.818676" lon="121.147545">
        <ele>46.075123</ele>
        <time>2014-09-03T09:49:46.447000Z</time>
      </trkpt>
      <trkpt lat="38.818604" lon="121.14744">
        <ele>48.446793</ele>
        <time>2014-09-03T09:49:49.436000Z</time>
      </trkpt>
      <trkpt lat="38.818516" lon="121.14738">
        <ele>50.98308</ele>
        <time>2014-09-03T09:49:52.425000Z</time>
      </trkpt>
      <trkpt lat="38.81841" lon="121.14734">
        <ele>52.536575</ele>
        <time>2014-09-03T09:49:55.414000Z</time>
      </trkpt>
      <trkpt lat="38.818283" lon="121.14732">
        <ele>52.76831</ele>
        <time>2014-09-03T09:49:58.403000Z</time>
      </trkpt>
      <trkpt lat="38.81817" lon="121.14732">
        <ele>51.907665</ele>
        <time>2014-09-03T09:50:01.392000Z</time>
      </trkpt>
      <trkpt lat="38.81804" lon="121.14732">
        <ele>50.77791</ele>
        <time>2014-09-03T09:50:04.381000Z</time>
      </trkpt>
      <trkpt lat="38.81793" lon="121.14731">
        <ele>50.054836</ele>
        <time>2014-09-03T09:50:07.370000Z</time>
      </trkpt>
      <trkpt lat="38.81782" lon="121.14731">
        <ele>49.72102</ele>
        <time>2014-09-03T09:50:10.359000Z</time>
      </trkpt>
      <trkpt lat="38.81772" lon="121.1473">
        <ele>49.563194</ele>
        <time>2014-09-03T09:50:13.348000Z</time>
      </trkpt>
      <trkpt lat="38.817604" lon="121.14731">
        <ele>49.083843</ele>
        <time>2014-09-03T09:50:16.337000Z</time>
      </trkpt>
      <trkpt lat="38.81749" lon="121.14732">
        <ele>48.09238</ele>
        <time>2014-09-03T09:50:19.326000Z</time>
      </trkpt>
      <trkpt lat="38.817368" lon="121.147385">
        <ele>47.353706</ele>
        <time>2014-09-03T09:50:22.315000Z</time>
      </trkpt>
      <trkpt lat="38.817272" lon="121.14747">
        <ele>47.9426</ele>
        <time>2014-09-03T09:50:25.304000Z</time>
      </trkpt>
      <trkpt lat="38.817207" lon="121.147575">
        <ele>49.68991</ele>
        <time>2014-09-03T09:50:28.293000Z</time>
      </trkpt>
      <trkpt lat="38.81717" lon="121.1477">
        <ele>51.24494</ele>
        <time>2014-09-03T09:50:31.282000Z</time>
      </trkpt>
      <trkpt lat="38.817158" lon="121.14786">
        <ele>51.24293</ele>
        <time>2014-09-03T09:50:34.271000Z</time>
      </trkpt>
      <trkpt lat="38.817173" lon="121.147995">
        <ele>49.71387</ele>
        <time>2014-09-03T09:50:37.260000Z</time>
      </trkpt>
      <trkpt lat="38.81723" lon="121.14813">
        <ele>47.53895</ele>
        <time>2014-09-03T09:50:40.249000Z</time>
      </trkpt>
      <trkpt lat="38.817295" lon="121.14823">
        <ele>45.101093</ele>
        <time>2014-09-03T09:50:43.238000Z</time>
      </trkpt>
      <trkpt lat="38.817406" lon="121.14828">
        <ele>42.747177</ele>
        <time>2014-09-03T09:50:46.227000Z</time>
      </trkpt>
      <trkpt lat="38.817497" lon="121.14832">
        <ele>41.733734</ele>
        <time>2014-09-03T09:50:49.216000Z</time>
      </trkpt>
      <trkpt lat="38.817593" lon="121.14833">
        <ele>42.59186</ele>
        <time>2014-09-03T09:50:52.205000Z</time>
      </trkpt>
      <trkpt lat="38.817696" lon="121.14833">
        <ele>44.160404</ele>
        <time>2014-09-03T09:50:55.194000Z</time>
      </trkpt>
      <trkpt lat="38.817818" lon="121.14833">
        <ele>45.19241</ele>
        <time>2014-09-03T09:50:58.183000Z</time>
      </trkpt>
      <trkpt lat="38.81792" lon="121.14833">
        <ele>45.622932</ele>
        <time>2014-09-03T09:51:01.172000Z</time>
      </trkpt>
      <trkpt lat="38.818035" lon="121.14834">
        <ele>45.756973</ele>
        <time>2014-09-03T09:51:04.161000Z</time>
      </trkpt>
      <trkpt lat="38.81814" lon="121.14834">
        <ele>45.501583</ele>
        <time>2014-09-03T09:51:07.150000Z</time>
      </trkpt>
      <trkpt lat="38.818245" lon="121.148346">
        <ele>44.838737</ele>
        <time>2014-09-03T09:51:10.139000Z</time>
      </trkpt>
      <trkpt lat="38.818348" lon="121.14835">
        <ele>44.227013</ele>
        <time>2014-09-03T09:51:13.128000Z</time>
      </trkpt>
      <trkpt lat="38.818455" lon="121.14833">
        <ele>44.3756</ele>
        <time>2014-09-03T09:51:16.117000Z</time>
      </trkpt>
      <trkpt lat="38.81855" lon="121.14826">
        <ele>45.544857</ele>
        <time>2014-09-03T09:51:19.106000Z</time>
      </trkpt>
      <trkpt lat="38.818653" lon="121.148155">
        <ele>47.123142</ele>
        <time>2014-09-03T09:51:22.095000Z</time>
      </trkpt>
      <trkpt lat="38.818733" lon="121.148056">
        <ele>47.92374</ele>
        <time>2014-09-03T09:51:25.084000Z</time>
      </trkpt>
      <trkpt lat="38.818745" lon="121.147896">
        <ele>47.568176</ele>
        <time>2014-09-03T09:51:28.073000Z</time>
      </trkpt>
      <trkpt lat="38.818745" lon="121.14776">
        <ele>46.8218</ele>
        <time>2014-09-03T09:51:31.062000Z</time>
      </trkpt>
      <trkpt lat="38.818718" lon="121.14761">
        <ele>46.450897</ele>
        <time>2014-09-03T09:51:34.051000Z</time>
      </trkpt>
      <trkpt lat="38.81866" lon="121.147484">
        <ele>46.493027</ele>
        <time>2014-09-03T09:51:37.040000Z</time>
      </trkpt>
      <trkpt lat="38.818592" lon="121.1474">
        <ele>46.80836</ele>
        <time>2014-09-03T09:51:40.029000Z</time>
      </trkpt>
      <trkpt lat="38.81849" lon="121.14734">
        <ele>47.278084</ele>
        <time>2014-09-03T09:51:43.018000Z</time>
      </trkpt>
      <trkpt lat="38.818375" lon="121.147316">
        <ele>47.673492</ele>
        <time>2014-09-03T09:51:46.007000Z</time>
      </trkpt>
      <trkpt lat="38.818245" lon="121.14731">
        <ele>47.676617</ele>
        <time>2014-09-03T09:51:48.996000Z</time>
      </trkpt>
      <trkpt lat="38.81812" lon="121.14731">
        <ele>47.169014</ele>
        <time>2014-09-03T09:51:51.985000Z</time>
      </trkpt>
      <trkpt lat="38.818027" lon="121.14731">
        <ele>46.44045</ele>
        <time>2014-09-03T09:51:54.974000Z</time>
      </trkpt>
      <trkpt lat="38.817913" lon="121.1473">
        <ele>46.037785</ele>
        <time>2014-09-03T09:51:57.963000Z</time>
      </trkpt>
      <trkpt lat="38.8178" lon="121.147285">
        <ele>46.129223</ele>
        <time>2014-09-03T09:52:00.952000Z</time>
      </trkpt>
      <trkpt lat="38.817684" lon="121.14727">
        <ele>46.3081</ele>
        <time>2014-09-03T09:52:03.941000Z</time>
      </trkpt>
      <trkpt lat="38.81759" lon="121.14728">
        <ele>46.221382</ele>
        <time>2014-09-03T09:52:06.930000Z</time>
      </trkpt>
      <trkpt lat="38.817467" lon="121.14731">
        <ele>45.97974</ele>
        <time>2014-09-03T09:52:09.919000Z</time>
      </trkpt>
      <trkpt lat="38.81736" lon="121.14738">
        <ele>45.828712</ele>
        <time>2014-09-03T09:52:12.908000Z</time>
      </trkpt>
      <trkpt lat="38.817257" lon="121.14748">
        <ele>45.843952</ele>
        <time>2014-09-03T09:52:15.897000Z</time>
      </trkpt>
      <trkpt lat="38.81719" lon="121.14763">
        <ele>45.94166</ele>
        <time>2014-09-03T09:52:18.886000Z</time>
      </trkpt>
      <trkpt lat="38.81716" lon="121.1478">
        <ele>45.991306</ele>
        <time>2014-09-03T09:52:21.875000Z</time>
      </trkpt>
      <trkpt lat="38.817165" lon="121.14795">
        <ele>45.788815</ele>
        <time>2014-09-03T09:52:24.864000Z</time>
      </trkpt>
      <trkpt lat="38.81721" lon="121.14809">
        <ele>45.264435</ele>
        <time>2014-09-03T09:52:27.853000Z</time>
      </trkpt>
      <trkpt lat="38.817276" lon="121.14817">
        <ele>44.611485</ele>
        <time>2014-09-03T09:52:30.842000Z</time>
      </trkpt>
      <trkpt lat="38.81738" lon="121.148254">
        <ele>44.15747</ele>
        <time>2014-09-03T09:52:33.831000Z</time>
      </trkpt>
      <trkpt lat="38.817482" lon="121.14831">
        <ele>44.406837</ele>
        <time>2014-09-03T09:52:36.820000Z</time>
      </trkpt>
      <trkpt lat="38.817593" lon="121.148315">
        <ele>45.405678</ele>
        <time>2014-09-03T09:52:39.809000Z</time>
      </trkpt>
      <trkpt lat="38.817715" lon="121.148315">
        <ele>46.3202</ele>
        <time>2014-09-03T09:52:42.798000Z</time>
      </trkpt>
      <trkpt lat="38.817814" lon="121.14832">
        <ele>46.354855</ele>
        <time>2014-09-03T09:52:45.787000Z</time>
      </trkpt>
      <trkpt lat="38.81794" lon="121.14833">
        <ele>45.78645</ele>
        <time>2014-09-03T09:52:48.776000Z</time>
      </trkpt>
      <trkpt lat="38.81794" lon="121.14833">
        <ele>45.43439</ele>
        <time>2014-09-03T09:52:51.765000Z</time>
      </trkpt>
      <trkpt lat="38.818058" lon="121.14833">
        <ele>45.499</ele>
        <time>2014-09-03T09:52:54.754000Z</time>
      </trkpt>
      <trkpt lat="38.81817" lon="121.148346">
        <ele>45.576775</ele>
        <time>2014-09-03T09:52:57.743000Z</time>
      </trkpt>
      <trkpt lat="38.818287" lon="121.14835">
        <ele>45.49503</ele>
        <time>2014-09-03T09:53:00.732000Z</time>
      </trkpt>
      <trkpt lat="38.818287" lon="121.14835">
        <ele>45.371136</ele>
        <time>2014-09-03T09:53:03.721000Z</time>
      </trkpt>
      <trkpt lat="38.818386" lon="121.14835">
        <ele>45.495777</ele>
        <time>2014-09-03T09:53:06.710000Z</time>
      </trkpt>
      <trkpt lat="38.818592" lon="121.14728">
        <ele>47.367638</ele>
        <time>2014-09-03T09:53:09.699000Z</time>
      </trkpt>
      <trkpt lat="38.818592" lon="121.14728">
        <ele>47.174706</ele>
        <time>2014-09-03T09:53:12.688000Z</time>
      </trkpt>
      <trkpt lat="38.818466" lon="121.1473">
        <ele>46.294544</ele>
        <time>2014-09-03T09:53:15.677000Z</time>
      </trkpt>
      <trkpt lat="38.818424" lon="121.1473">
        <ele>44.56475</ele>
        <time>2014-09-03T09:53:18.666000Z</time>
      </trkpt>
      <trkpt lat="38.818283" lon="121.14729">
        <ele>42.850723</ele>
        <time>2014-09-03T09:53:21.655000Z</time>
      </trkpt>
      <trkpt lat="38.818134" lon="121.14729">
        <ele>42.260033</ele>
        <time>2014-09-03T09:53:24.644000Z</time>
      </trkpt>
      <trkpt lat="38.818134" lon="121.14729">
        <ele>42.766376</ele>
        <time>2014-09-03T09:53:27.633000Z</time>
      </trkpt>
      <trkpt lat="38.81801" lon="121.14729">
        <ele>43.504093</ele>
        <time>2014-09-03T09:53:30.622000Z</time>
      </trkpt>
      <trkpt lat="38.817883" lon="121.14729">
        <ele>43.80191</ele>
        <time>2014-09-03T09:53:33.611000Z</time>
      </trkpt>
      <trkpt lat="38.81777" lon="121.14728">
        <ele>43.7769</ele>
        <time>2014-09-03T09:53:36.600000Z</time>
      </trkpt>
      <trkpt lat="38.817654" lon="121.147285">
        <ele>43.71407</ele>
        <time>2014-09-03T09:53:39.589000Z</time>
      </trkpt>
      <trkpt lat="38.817524" lon="121.1473">
        <ele>43.717556</ele>
        <time>2014-09-03T09:53:42.578000Z</time>
      </trkpt>
      <trkpt lat="38.8174" lon="121.14734">
        <ele>43.778027</ele>
        <time>2014-09-03T09:53:45.567000Z</time>
      </trkpt>
      <trkpt lat="38.817287" lon="121.14741">
        <ele>43.973537</ele>
        <time>2014-09-03T09:53:48.556000Z</time>
      </trkpt>
      <trkpt lat="38.817207" lon="121.14753">
        <ele>44.43228</ele>
        <time>2014-09-03T09:53:51.545000Z</time>
      </trkpt>
      <trkpt lat="38.817146" lon="121.14768">
        <ele>45.01609</ele>
        <time>2014-09-03T09:53:54.534000Z</time>
      </trkpt>
      <trkpt lat="38.81713" lon="121.14784">
        <ele>45.31642</ele>
        <time>2014-09-03T09:53:57.523000Z</time>
      </trkpt>
      <trkpt lat="38.81715" lon="121.14798">
        <ele>45.06809</ele>
        <time>2014-09-03T09:54:00.512000Z</time>
      </trkpt>
      <trkpt lat="38.817196" lon="121.14813">
        <ele>44.388134</ele>
        <time>2014-09-03T09:54:03.501000Z</time>
      </trkpt>
      <trkpt lat="38.817287" lon="121.14824">
        <ele>43.683506</ele>
        <time>2014-09-03T09:54:06.490000Z</time>
      </trkpt>
      <trkpt lat="38.817413" lon="121.148315">
        <ele>43.273922</ele>
        <time>2014-09-03T09:54:09.479000Z</time>
      </trkpt>
      <trkpt lat="38.81754" lon="121.148346">
        <ele>43.139698</ele>
        <time>2014-09-03T09:54:12.468000Z</time>
      </trkpt>
      <trkpt lat="38.817665" lon="121.148346">
        <ele>43.105446</ele>
        <time>2014-09-03T09:54:15.457000Z</time>
      </trkpt>
      <trkpt lat="38.817776" lon="121.148346">
        <ele>43.269073</ele>
        <time>2014-09-03T09:54:18.446000Z</time>
      </trkpt>
      <trkpt lat="38.8179" lon="121.148346">
        <ele>43.7319</ele>
        <time>2014-09-03T09:54:21.435000Z</time>
      </trkpt>
      <trkpt lat="38.818016" lon="121.148346">
        <ele>44.208622</ele>
        <time>2014-09-03T09:54:24.424000Z</time>
      </trkpt>
      <trkpt lat="38.81814" lon="121.14836">
        <ele>44.43</ele>
        <time>2014-09-03T09:54:27.413000Z</time>
      </trkpt>
      <trkpt lat="38.818253" lon="121.14836">
        <ele>44.45782</ele>
        <time>2014-09-03T09:54:30.402000Z</time>
      </trkpt>
      <trkpt lat="38.81838" lon="121.14835">
        <ele>44.5066</ele>
        <time>2014-09-03T09:54:33.391000Z</time>
      </trkpt>
      <trkpt lat="38.8185" lon="121.14829">
        <ele>44.763603</ele>
        <time>2014-09-03T09:54:36.380000Z</time>
      </trkpt>
      <trkpt lat="38.81861" lon="121.14821">
        <ele>45.144634</ele>
        <time>2014-09-03T09:54:39.369000Z</time>
      </trkpt>
      <trkpt lat="38.81871" lon="121.14809">
        <ele>45.095562</ele>
        <time>2014-09-03T09:54:42.358000Z</time>
      </trkpt>
      <trkpt lat="38.818737" lon="121.14794">
        <ele>44.3533</ele>
        <time>2014-09-03T09:54:45.347000Z</time>
      </trkpt>
      <trkpt lat="38.81875" lon="121.14781">
        <ele>43.76171</ele>
        <time>2014-09-03T09:54:48.336000Z</time>
      </trkpt>
      <trkpt lat="38.818733" lon="121.14767">
        <ele>44.09015</ele>
        <time>2014-09-03T09:54:51.325000Z</time>
      </trkpt>
      <trkpt lat="38.818684" lon="121.14753">
        <ele>44.878296</ele>
        <time>2014-09-03T09:54:54.314000Z</time>
      </trkpt>
      <trkpt lat="38.81859" lon="121.147415">
        <ele>45.186073</ele>
        <time>2014-09-03T09:54:57.303000Z</time>
      </trkpt>
      <trkpt lat="38.818485" lon="121.14736">
        <ele>44.740665</ele>
        <time>2014-09-03T09:55:00.292000Z</time>
      </trkpt>
      <trkpt lat="38.81839" lon="121.14733">
        <ele>44.378063</ele>
        <time>2014-09-03T09:55:03.281000Z</time>
      </trkpt>
      <trkpt lat="38.818275" lon="121.14733">
        <ele>44.967552</ele>
        <time>2014-09-03T09:55:06.270000Z</time>
      </trkpt>
      <trkpt lat="38.818153" lon="121.14734">
        <ele>46.13651</ele>
        <time>2014-09-03T09:55:09.259000Z</time>
      </trkpt>
      <trkpt lat="38.81803" lon="121.14734">
        <ele>46.884678</ele>
        <time>2014-09-03T09:55:12.248000Z</time>
      </trkpt>
      <trkpt lat="38.817894" lon="121.14733">
        <ele>46.864742</ele>
        <time>2014-09-03T09:55:15.237000Z</time>
      </trkpt>
      <trkpt lat="38.817802" lon="121.14733">
        <ele>46.501923</ele>
        <time>2014-09-03T09:55:18.226000Z</time>
      </trkpt>
      <trkpt lat="38.817684" lon="121.14732">
        <ele>46.24654</ele>
        <time>2014-09-03T09:55:21.215000Z</time>
      </trkpt>
      <trkpt lat="38.817554" lon="121.147316">
        <ele>46.051617</ele>
        <time>2014-09-03T09:55:24.204000Z</time>
      </trkpt>
      <trkpt lat="38.81744" lon="121.14734">
        <ele>45.651196</ele>
        <time>2014-09-03T09:55:27.193000Z</time>
      </trkpt>
      <trkpt lat="38.817345" lon="121.14739">
        <ele>45.0902</ele>
        <time>2014-09-03T09:55:30.182000Z</time>
      </trkpt>
      <trkpt lat="38.817245" lon="121.14749">
        <ele>44.719376</ele>
        <time>2014-09-03T09:55:33.171000Z</time>
      </trkpt>
      <trkpt lat="38.81718" lon="121.147606">
        <ele>44.670925</ele>
        <time>2014-09-03T09:55:36.160000Z</time>
      </trkpt>
      <trkpt lat="38.817142" lon="121.14775">
        <ele>44.60311</ele>
        <time>2014-09-03T09:55:39.149000Z</time>
      </trkpt>
      <trkpt lat="38.81715" lon="121.14792">
        <ele>44.24151</ele>
        <time>2014-09-03T09:55:42.138000Z</time>
      </trkpt>
      <trkpt lat="38.817184" lon="121.14806">
        <ele>43.8138</ele>
        <time>2014-09-03T09:55:45.127000Z</time>
      </trkpt>
      <trkpt lat="38.81727" lon="121.14819">
        <ele>43.59667</ele>
        <time>2014-09-03T09:55:48.116000Z</time>
      </trkpt>
      <trkpt lat="38.817364" lon="121.148285">
        <ele>43.557957</ele>
        <time>2014-09-03T09:55:51.105000Z</time>
      </trkpt>
      <trkpt lat="38.81748" lon="121.148315">
        <ele>43.723656</ele>
        <time>2014-09-03T09:55:54.094000Z</time>
      </trkpt>
      <trkpt lat="38.817593" lon="121.14832">
        <ele>44.10287</ele>
        <time>2014-09-03T09:55:57.083000Z</time>
      </trkpt>
      <trkpt lat="38.817715" lon="121.14832">
        <ele>44.4723</ele>
        <time>2014-09-03T09:56:00.072000Z</time>
      </trkpt>
      <trkpt lat="38.817837" lon="121.14832">
        <ele>44.917316</ele>
        <time>2014-09-03T09:56:03.061000Z</time>
      </trkpt>
      <trkpt lat="38.817944" lon="121.14833">
        <ele>45.70797</ele>
        <time>2014-09-03T09:56:06.050000Z</time>
      </trkpt>
      <trkpt lat="38.818047" lon="121.14833">
        <ele>46.553165</ele>
        <time>2014-09-03T09:56:09.039000Z</time>
      </trkpt>
      <trkpt lat="38.818176" lon="121.14833">
        <ele>47.02792</ele>
        <time>2014-09-03T09:56:12.028000Z</time>
      </trkpt>
      <trkpt lat="38.818306" lon="121.14834">
        <ele>47.14984</ele>
        <time>2014-09-03T09:56:15.017000Z</time>
      </trkpt>
      <trkpt lat="38.818413" lon="121.14834">
        <ele>47.10375</ele>
        <time>2014-09-03T09:56:18.006000Z</time>
      </trkpt>
      <trkpt lat="38.818527" lon="121.14829">
        <ele>46.884617</ele>
        <time>2014-09-03T09:56:20.995000Z</time>
      </trkpt>
      <trkpt lat="38.818626" lon="121.1482">
        <ele>46.345665</ele>
        <time>2014-09-03T09:56:23.984000Z</time>
      </trkpt>
      <trkpt lat="38.818718" lon="121.14809">
        <ele>45.546642</ele>
        <time>2014-09-03T09:56:26.973000Z</time>
      </trkpt>
      <trkpt lat="38.81874" lon="121.14794">
        <ele>44.681194</ele>
        <time>2014-09-03T09:56:29.962000Z</time>
      </trkpt>
      <trkpt lat="38.818752" lon="121.14783">
        <ele>44.05507</ele>
        <time>2014-09-03T09:56:32.951000Z</time>
      </trkpt>
      <trkpt lat="38.818737" lon="121.147675">
        <ele>43.97128</ele>
        <time>2014-09-03T09:56:35.940000Z</time>
      </trkpt>
      <trkpt lat="38.81868" lon="121.14754">
        <ele>44.749485</ele>
        <time>2014-09-03T09:56:38.929000Z</time>
      </trkpt>
      <trkpt lat="38.81858" lon="121.14743">
        <ele>46.27171</ele>
        <time>2014-09-03T09:56:41.918000Z</time>
      </trkpt>
      <trkpt lat="38.818455" lon="121.147354">
        <ele>47.66759</ele>
        <time>2014-09-03T09:56:44.907000Z</time>
      </trkpt>
      <trkpt lat="38.818333" lon="121.14733">
        <ele>48.28915</ele>
        <time>2014-09-03T09:56:47.896000Z</time>
      </trkpt>
      <trkpt lat="38.81822" lon="121.14733">
        <ele>48.369232</ele>
        <time>2014-09-03T09:56:50.885000Z</time>
      </trkpt>
      <trkpt lat="38.81808" lon="121.14733">
        <ele>48.22682</ele>
        <time>2014-09-03T09:56:53.874000Z</time>
      </trkpt>
      <trkpt lat="38.81799" lon="121.14732">
        <ele>47.729885</ele>
        <time>2014-09-03T09:56:56.863000Z</time>
      </trkpt>
      <trkpt lat="38.817875" lon="121.14732">
        <ele>46.7926</ele>
        <time>2014-09-03T09:56:59.852000Z</time>
      </trkpt>
      <trkpt lat="38.817757" lon="121.14732">
        <ele>45.92007</ele>
        <time>2014-09-03T09:57:02.841000Z</time>
      </trkpt>
      <trkpt lat="38.817642" lon="121.14732">
        <ele>45.477238</ele>
        <time>2014-09-03T09:57:05.830000Z</time>
      </trkpt>
      <trkpt lat="38.817505" lon="121.14732">
        <ele>45.444927</ele>
        <time>2014-09-03T09:57:08.819000Z</time>
      </trkpt>
      <trkpt lat="38.81739" lon="121.147354">
        <ele>45.71175</ele>
        <time>2014-09-03T09:57:11.808000Z</time>
      </trkpt>
      <trkpt lat="38.8173" lon="121.14742">
        <ele>45.95786</ele>
        <time>2014-09-03T09:57:14.797000Z</time>
      </trkpt>
      <trkpt lat="38.817223" lon="121.14754">
        <ele>45.832993</ele>
        <time>2014-09-03T09:57:17.786000Z</time>
      </trkpt>
      <trkpt lat="38.817158" lon="121.147675">
        <ele>45.351067</ele>
        <time>2014-09-03T09:57:20.775000Z</time>
      </trkpt>
      <trkpt lat="38.817135" lon="121.147835">
        <ele>44.852654</ele>
        <time>2014-09-03T09:57:23.764000Z</time>
      </trkpt>
      <trkpt lat="38.817165" lon="121.14799">
        <ele>44.87855</ele>
        <time>2014-09-03T09:57:26.753000Z</time>
      </trkpt>
      <trkpt lat="38.817238" lon="121.14813">
        <ele>45.63794</ele>
        <time>2014-09-03T09:57:29.742000Z</time>
      </trkpt>
      <trkpt lat="38.817303" lon="121.148224">
        <ele>46.75146</ele>
        <time>2014-09-03T09:57:32.731000Z</time>
      </trkpt>
      <trkpt lat="38.817413" lon="121.14829">
        <ele>47.635727</ele>
        <time>2014-09-03T09:57:35.720000Z</time>
      </trkpt>
      <trkpt lat="38.817513" lon="121.14831">
        <ele>48.06616</ele>
        <time>2014-09-03T09:57:38.709000Z</time>
      </trkpt>
      <trkpt lat="38.81763" lon="121.148315">
        <ele>47.688507</ele>
        <time>2014-09-03T09:57:41.698000Z</time>
      </trkpt>
      <trkpt lat="38.817738" lon="121.14833">
        <ele>46.2818</ele>
        <time>2014-09-03T09:57:44.687000Z</time>
      </trkpt>
      <trkpt lat="38.817863" lon="121.14833">
        <ele>44.571785</ele>
        <time>2014-09-03T09:57:47.676000Z</time>
      </trkpt>
      <trkpt lat="38.817974" lon="121.14833">
        <ele>43.70601</ele>
        <time>2014-09-03T09:57:50.665000Z</time>
      </trkpt>
      <trkpt lat="38.818066" lon="121.14834">
        <ele>43.888382</ele>
        <time>2014-09-03T09:57:53.654000Z</time>
      </trkpt>
      <trkpt lat="38.81818" lon="121.14836">
        <ele>44.459064</ele>
        <time>2014-09-03T09:57:56.643000Z</time>
      </trkpt>
      <trkpt lat="38.8183" lon="121.14837">
        <ele>44.75839</ele>
        <time>2014-09-03T09:57:59.632000Z</time>
      </trkpt>
      <trkpt lat="38.81842" lon="121.148346">
        <ele>44.86431</ele>
        <time>2014-09-03T09:58:02.621000Z</time>
      </trkpt>
      <trkpt lat="38.81854" lon="121.1483">
        <ele>45.226048</ele>
        <time>2014-09-03T09:58:05.610000Z</time>
      </trkpt>
      <trkpt lat="38.81864" lon="121.1482">
        <ele>45.83628</ele>
        <time>2014-09-03T09:58:08.599000Z</time>
      </trkpt>
      <trkpt lat="38.81872" lon="121.14808">
        <ele>46.253044</ele>
        <time>2014-09-03T09:58:11.588000Z</time>
      </trkpt>
      <trkpt lat="38.81874" lon="121.147934">
        <ele>46.025894</ele>
        <time>2014-09-03T09:58:14.577000Z</time>
      </trkpt>
      <trkpt lat="38.81874" lon="121.14779">
        <ele>45.146076</ele>
        <time>2014-09-03T09:58:17.566000Z</time>
      </trkpt>
      <trkpt lat="38.818714" lon="121.147644">
        <ele>44.274128</ele>
        <time>2014-09-03T09:58:20.555000Z</time>
      </trkpt>
      <trkpt lat="38.818657" lon="121.14751">
        <ele>44.27005</ele>
        <time>2014-09-03T09:58:23.544000Z</time>
      </trkpt>
      <trkpt lat="38.818573" lon="121.147415">
        <ele>45.200344</ele>
        <time>2014-09-03T09:58:26.533000Z</time>
      </trkpt>
      <trkpt lat="38.818455" lon="121.147354">
        <ele>46.223305</ele>
        <time>2014-09-03T09:58:29.522000Z</time>
      </trkpt>
      <trkpt lat="38.81834" lon="121.14733">
        <ele>46.446655</ele>
        <time>2014-09-03T09:58:32.511000Z</time>
      </trkpt>
      <trkpt lat="38.818233" lon="121.14733">
        <ele>46.103783</ele>
        <time>2014-09-03T09:58:35.500000Z</time>
      </trkpt>
      <trkpt lat="38.818115" lon="121.14732">
        <ele>45.94779</ele>
        <time>2014-09-03T09:58:38.489000Z</time>
      </trkpt>
      <trkpt lat="38.818024" lon="121.14732">
        <ele>46.173534</ele>
        <time>2014-09-03T09:58:41.478000Z</time>
      </trkpt>
      <trkpt lat="38.817917" lon="121.14732">
        <ele>46.42335</ele>
        <time>2014-09-03T09:58:44.467000Z</time>
      </trkpt>
      <trkpt lat="38.817814" lon="121.147316">
        <ele>46.551254</ele>
        <time>2014-09-03T09:58:47.456000Z</time>
      </trkpt>
      <trkpt lat="38.81771" lon="121.14731">
        <ele>46.551662</ele>
        <time>2014-09-03T09:58:50.445000Z</time>
      </trkpt>
      <trkpt lat="38.817608" lon="121.14731">
        <ele>46.43345</ele>
        <time>2014-09-03T09:58:53.434000Z</time>
      </trkpt>
      <trkpt lat="38.817513" lon="121.1473">
        <ele>46.453632</ele>
        <time>2014-09-03T09:58:56.423000Z</time>
      </trkpt>
      <trkpt lat="38.81738" lon="121.147354">
        <ele>46.140118</ele>
        <time>2014-09-03T09:58:59.412000Z</time>
      </trkpt>
      <trkpt lat="38.81738" lon="121.147354">
        <ele>45.867146</ele>
        <time>2014-09-03T09:59:02.401000Z</time>
      </trkpt>
      <trkpt lat="38.817295" lon="121.14741">
        <ele>45.78188</ele>
        <time>2014-09-03T09:59:05.390000Z</time>
      </trkpt>
      <trkpt lat="38.817215" lon="121.14752">
        <ele>45.898575</ele>
        <time>2014-09-03T09:59:08.379000Z</time>
      </trkpt>
      <trkpt lat="38.81716" lon="121.14765">
        <ele>46.083214</ele>
        <time>2014-09-03T09:59:11.368000Z</time>
      </trkpt>
      <trkpt lat="38.817146" lon="121.14779">
        <ele>46.108696</ele>
        <time>2014-09-03T09:59:14.357000Z</time>
      </trkpt>
      <trkpt lat="38.81716" lon="121.14793">
        <ele>45.657375</ele>
        <time>2014-09-03T09:59:17.346000Z</time>
      </trkpt>
      <trkpt lat="38.817196" lon="121.148056">
        <ele>44.521767</ele>
        <time>2014-09-03T09:59:20.335000Z</time>
      </trkpt>
      <trkpt lat="38.817265" lon="121.148186">
        <ele>43.34426</ele>
        <time>2014-09-03T09:59:23.324000Z</time>
      </trkpt>
      <trkpt lat="38.81736" lon="121.14827">
        <ele>43.307243</ele>
        <time>2014-09-03T09:59:26.313000Z</time>
      </trkpt>
      <trkpt lat="38.817455" lon="121.14831">
        <ele>44.44061</ele>
        <time>2014-09-03T09:59:29.302000Z</time>
      </trkpt>
      <trkpt lat="38.817574" lon="121.14832">
        <ele>45.56787</ele>
        <time>2014-09-03T09:59:32.291000Z</time>
      </trkpt>
      <trkpt lat="38.81769" lon="121.14833">
        <ele>45.88592</ele>
        <time>2014-09-03T09:59:35.280000Z</time>
      </trkpt>
      <trkpt lat="38.817802" lon="121.14833">
        <ele>45.52954</ele>
        <time>2014-09-03T09:59:38.269000Z</time>
      </trkpt>
      <trkpt lat="38.81792" lon="121.14834">
        <ele>44.97762</ele>
        <time>2014-09-03T09:59:41.258000Z</time>
      </trkpt>
      <trkpt lat="38.818027" lon="121.14834">
        <ele>44.72952</ele>
        <time>2014-09-03T09:59:44.247000Z</time>
      </trkpt>
      <trkpt lat="38.81813" lon="121.148346">
        <ele>44.73324</ele>
        <time>2014-09-03T09:59:47.236000Z</time>
      </trkpt>
      <trkpt lat="38.818237" lon="121.14836">
        <ele>44.687847</ele>
        <time>2014-09-03T09:59:50.225000Z</time>
      </trkpt>
      <trkpt lat="38.81834" lon="121.14836">
        <ele>44.484913</ele>
        <time>2014-09-03T09:59:53.214000Z</time>
      </trkpt>
      <trkpt lat="38.818447" lon="121.14834">
        <ele>44.3267</ele>
        <time>2014-09-03T09:59:56.203000Z</time>
      </trkpt>
      <trkpt lat="38.818558" lon="121.14828">
        <ele>44.53173</ele>
        <time>2014-09-03T09:59:59.192000Z</time>
      </trkpt>
      <trkpt lat="38.818653" lon="121.14819">
        <ele>45.100838</ele>
        <time>2014-09-03T10:00:02.181000Z</time>
      </trkpt>
      <trkpt lat="38.81872" lon="121.14808">
        <ele>45.792694</ele>
        <time>2014-09-03T10:00:05.170000Z</time>
      </trkpt>
      <trkpt lat="38.818737" lon="121.14794">
        <ele>46.254986</ele>
        <time>2014-09-03T10:00:08.159000Z</time>
      </trkpt>
      <trkpt lat="38.818745" lon="121.147804">
        <ele>46.02082</ele>
        <time>2014-09-03T10:00:11.148000Z</time>
      </trkpt>
      <trkpt lat="38.818726" lon="121.14766">
        <ele>45.328804</ele>
        <time>2014-09-03T10:00:14.137000Z</time>
      </trkpt>
      <trkpt lat="38.81868" lon="121.147545">
        <ele>44.588356</ele>
        <time>2014-09-03T10:00:17.126000Z</time>
      </trkpt>
      <trkpt lat="38.8186" lon="121.147446">
        <ele>43.815044</ele>
        <time>2014-09-03T10:00:20.115000Z</time>
      </trkpt>
      <trkpt lat="38.81851" lon="121.14738">
        <ele>43.66458</ele>
        <time>2014-09-03T10:00:23.104000Z</time>
      </trkpt>
      <trkpt lat="38.818398" lon="121.14733">
        <ele>44.54498</ele>
        <time>2014-09-03T10:00:26.093000Z</time>
      </trkpt>
      <trkpt lat="38.818295" lon="121.14732">
        <ele>45.667297</ele>
        <time>2014-09-03T10:00:29.082000Z</time>
      </trkpt>
      <trkpt lat="38.818165" lon="121.14732">
        <ele>46.21391</ele>
        <time>2014-09-03T10:00:32.071000Z</time>
      </trkpt>
      <trkpt lat="38.818058" lon="121.147316">
        <ele>46.219135</ele>
        <time>2014-09-03T10:00:35.060000Z</time>
      </trkpt>
      <trkpt lat="38.817944" lon="121.147316">
        <ele>46.31312</ele>
        <time>2014-09-03T10:00:38.049000Z</time>
      </trkpt>
      <trkpt lat="38.81783" lon="121.147316">
        <ele>46.923515</ele>
        <time>2014-09-03T10:00:41.038000Z</time>
      </trkpt>
      <trkpt lat="38.817715" lon="121.14731">
        <ele>47.541695</ele>
        <time>2014-09-03T10:00:44.027000Z</time>
      </trkpt>
      <trkpt lat="38.817604" lon="121.14731">
        <ele>47.51437</ele>
        <time>2014-09-03T10:00:47.016000Z</time>
      </trkpt>
      <trkpt lat="38.817513" lon="121.1473">
        <ele>47.107864</ele>
        <time>2014-09-03T10:00:50.005000Z</time>
      </trkpt>
      <trkpt lat="38.817413" lon="121.14733">
        <ele>46.49139</ele>
        <time>2014-09-03T10:00:52.994000Z</time>
      </trkpt>
      <trkpt lat="38.817314" lon="121.14739">
        <ele>45.7759</ele>
        <time>2014-09-03T10:00:55.983000Z</time>
      </trkpt>
      <trkpt lat="38.81722" lon="121.1475">
        <ele>45.533955</ele>
        <time>2014-09-03T10:00:58.972000Z</time>
      </trkpt>
      <trkpt lat="38.817173" lon="121.14761">
        <ele>45.939507</ele>
        <time>2014-09-03T10:01:01.961000Z</time>
      </trkpt>
      <trkpt lat="38.81714" lon="121.147766">
        <ele>46.48145</ele>
        <time>2014-09-03T10:01:04.950000Z</time>
      </trkpt>
      <trkpt lat="38.817154" lon="121.1479">
        <ele>46.669987</ele>
        <time>2014-09-03T10:01:07.939000Z</time>
      </trkpt>
      <trkpt lat="38.817192" lon="121.14804">
        <ele>46.13308</ele>
        <time>2014-09-03T10:01:10.928000Z</time>
      </trkpt>
      <trkpt lat="38.817253" lon="121.14817">
        <ele>45.176533</ele>
        <time>2014-09-03T10:01:13.917000Z</time>
      </trkpt>
      <trkpt lat="38.817333" lon="121.14826">
        <ele>44.69175</ele>
        <time>2014-09-03T10:01:16.906000Z</time>
      </trkpt>
      <trkpt lat="38.817432" lon="121.14831">
        <ele>45.16569</ele>
        <time>2014-09-03T10:01:19.895000Z</time>
      </trkpt>
      <trkpt lat="38.817562" lon="121.14833">
        <ele>46.0226</ele>
        <time>2014-09-03T10:01:22.884000Z</time>
      </trkpt>
      <trkpt lat="38.817677" lon="121.14833">
        <ele>46.479877</ele>
        <time>2014-09-03T10:01:25.873000Z</time>
      </trkpt>
      <trkpt lat="38.817795" lon="121.14834">
        <ele>46.126957</ele>
        <time>2014-09-03T10:01:28.862000Z</time>
      </trkpt>
      <trkpt lat="38.81791" lon="121.148346">
        <ele>45.05474</ele>
        <time>2014-09-03T10:01:31.851000Z</time>
      </trkpt>
      <trkpt lat="38.81802" lon="121.148346">
        <ele>44.08739</ele>
        <time>2014-09-03T10:01:34.840000Z</time>
      </trkpt>
      <trkpt lat="38.818127" lon="121.148346">
        <ele>44.053997</ele>
        <time>2014-09-03T10:01:37.829000Z</time>
      </trkpt>
      <trkpt lat="38.81823" lon="121.14836">
        <ele>44.785503</ele>
        <time>2014-09-03T10:01:40.818000Z</time>
      </trkpt>
      <trkpt lat="38.818348" lon="121.14835">
        <ele>45.55291</ele>
        <time>2014-09-03T10:01:43.807000Z</time>
      </trkpt>
      <trkpt lat="38.81845" lon="121.14834">
        <ele>45.923473</ele>
        <time>2014-09-03T10:01:46.796000Z</time>
      </trkpt>
      <trkpt lat="38.81856" lon="121.14828">
        <ele>46.242035</ele>
        <time>2014-09-03T10:01:49.785000Z</time>
      </trkpt>
      <trkpt lat="38.81865" lon="121.148186">
        <ele>46.84744</ele>
        <time>2014-09-03T10:01:52.774000Z</time>
      </trkpt>
      <trkpt lat="38.818714" lon="121.14808">
        <ele>47.185894</ele>
        <time>2014-09-03T10:01:55.763000Z</time>
      </trkpt>
      <trkpt lat="38.81874" lon="121.147934">
        <ele>46.53392</ele>
        <time>2014-09-03T10:01:58.752000Z</time>
      </trkpt>
      <trkpt lat="38.818745" lon="121.1478">
        <ele>45.094994</ele>
        <time>2014-09-03T10:02:01.741000Z</time>
      </trkpt>
      <trkpt lat="38.81872" lon="121.14767">
        <ele>43.67955</ele>
        <time>2014-09-03T10:02:04.730000Z</time>
      </trkpt>
      <trkpt lat="38.818672" lon="121.14756">
        <ele>43.383755</ele>
        <time>2014-09-03T10:02:07.719000Z</time>
      </trkpt>
      <trkpt lat="38.818607" lon="121.14745">
        <ele>44.520737</ele>
        <time>2014-09-03T10:02:10.708000Z</time>
      </trkpt>
      <trkpt lat="38.818516" lon="121.1474">
        <ele>45.26286</ele>
        <time>2014-09-03T10:02:13.697000Z</time>
      </trkpt>
      <trkpt lat="38.818394" lon="121.14734">
        <ele>44.175648</ele>
        <time>2014-09-03T10:02:16.686000Z</time>
      </trkpt>
      <trkpt lat="38.81829" lon="121.14733">
        <ele>42.441063</ele>
        <time>2014-09-03T10:02:19.675000Z</time>
      </trkpt>
      <trkpt lat="38.81818" lon="121.14733">
        <ele>42.058327</ele>
        <time>2014-09-03T10:02:22.664000Z</time>
      </trkpt>
      <trkpt lat="38.818058" lon="121.14733">
        <ele>43.526604</ele>
        <time>2014-09-03T10:02:25.653000Z</time>
      </trkpt>
      <trkpt lat="38.817944" lon="121.14733">
        <ele>45.725426</ele>
        <time>2014-09-03T10:02:28.642000Z</time>
      </trkpt>
      <trkpt lat="38.817833" lon="121.14733">
        <ele>47.46018</ele>
        <time>2014-09-03T10:02:31.631000Z</time>
      </trkpt>
      <trkpt lat="38.81772" lon="121.147316">
        <ele>48.585938</ele>
        <time>2014-09-03T10:02:34.620000Z</time>
      </trkpt>
      <trkpt lat="38.817596" lon="121.14731">
        <ele>49.217052</ele>
        <time>2014-09-03T10:02:37.609000Z</time>
      </trkpt>
      <trkpt lat="38.81748" lon="121.147316">
        <ele>48.928127</ele>
        <time>2014-09-03T10:02:40.598000Z</time>
      </trkpt>
      <trkpt lat="38.817368" lon="121.147354">
        <ele>47.5702</ele>
        <time>2014-09-03T10:02:43.587000Z</time>
      </trkpt>
      <trkpt lat="38.817272" lon="121.14743">
        <ele>46.21325</ele>
        <time>2014-09-03T10:02:46.576000Z</time>
      </trkpt>
      <trkpt lat="38.817196" lon="121.147545">
        <ele>45.976364</ele>
        <time>2014-09-03T10:02:49.565000Z</time>
      </trkpt>
      <trkpt lat="38.817146" lon="121.1477">
        <ele>46.881943</ele>
        <time>2014-09-03T10:02:52.554000Z</time>
      </trkpt>
      <trkpt lat="38.817135" lon="121.14784">
        <ele>48.0171</ele>
        <time>2014-09-03T10:02:55.543000Z</time>
      </trkpt>
      <trkpt lat="38.817154" lon="121.14799">
        <ele>48.253178</ele>
        <time>2014-09-03T10:02:58.532000Z</time>
      </trkpt>
      <trkpt lat="38.81722" lon="121.14814">
        <ele>47.382626</ele>
        <time>2014-09-03T10:03:01.521000Z</time>
      </trkpt>
      <trkpt lat="38.817303" lon="121.148254">
        <ele>46.146923</ele>
        <time>2014-09-03T10:03:04.510000Z</time>
      </trkpt>
      <trkpt lat="38.81742" lon="121.148315">
        <ele>45.377808</ele>
        <time>2014-09-03T10:03:07.499000Z</time>
      </trkpt>
      <trkpt lat="38.817547" lon="121.148346">
        <ele>45.31919</ele>
        <time>2014-09-03T10:03:10.488000Z</time>
      </trkpt>
      <trkpt lat="38.81766" lon="121.148346">
        <ele>45.38834</ele>
        <time>2014-09-03T10:03:13.477000Z</time>
      </trkpt>
      <trkpt lat="38.81775" lon="121.14835">
        <ele>45.09317</ele>
        <time>2014-09-03T10:03:16.466000Z</time>
      </trkpt>
      <trkpt lat="38.81787" lon="121.14835">
        <ele>44.423683</ele>
        <time>2014-09-03T10:03:19.455000Z</time>
      </trkpt>
      <trkpt lat="38.817986" lon="121.14835">
        <ele>43.732395</ele>
        <time>2014-09-03T10:03:22.444000Z</time>
      </trkpt>
      <trkpt lat="38.81811" lon="121.14835">
        <ele>43.46232</ele>
        <time>2014-09-03T10:03:25.433000Z</time>
      </trkpt>
      <trkpt lat="38.818237" lon="121.14838">
        <ele>43.612953</ele>
        <time>2014-09-03T10:03:28.422000Z</time>
      </trkpt>
      <trkpt lat="38.81836" lon="121.14838">
        <ele>43.882458</ele>
        <time>2014-09-03T10:03:31.411000Z</time>
      </trkpt>
      <trkpt lat="38.81848" lon="121.14836">
        <ele>44.215855</ele>
        <time>2014-09-03T10:03:34.400000Z</time>
      </trkpt>
      <trkpt lat="38.818626" lon="121.148254">
        <ele>44.61179</ele>
        <time>2014-09-03T10:03:37.389000Z</time>
      </trkpt>
      <trkpt lat="38.81871" lon="121.14815">
        <ele>45.013836</ele>
        <time>2014-09-03T10:03:40.378000Z</time>
      </trkpt>
      <trkpt lat="38.818752" lon="121.148">
        <ele>44.97913</ele>
        <time>2014-09-03T10:03:43.367000Z</time>
      </trkpt>
      <trkpt lat="38.81877" lon="121.14784">
        <ele>44.25056</ele>
        <time>2014-09-03T10:03:46.356000Z</time>
      </trkpt>
      <trkpt lat="38.818756" lon="121.147675">
        <ele>43.515312</ele>
        <time>2014-09-03T10:03:49.345000Z</time>
      </trkpt>
      <trkpt lat="38.818718" lon="121.14756">
        <ele>43.392452</ele>
        <time>2014-09-03T10:03:52.334000Z</time>
      </trkpt>
      <trkpt lat="38.81861" lon="121.14744">
        <ele>43.463104</ele>
        <time>2014-09-03T10:03:55.323000Z</time>
      </trkpt>
      <trkpt lat="38.818436" lon="121.14734">
        <ele>43.13682</ele>
        <time>2014-09-03T10:03:58.312000Z</time>
      </trkpt>
      <trkpt lat="38.818275" lon="121.14734">
        <ele>42.508602</ele>
        <time>2014-09-03T10:04:01.301000Z</time>
      </trkpt>
      <trkpt lat="38.818157" lon="121.14734">
        <ele>42.023254</ele>
        <time>2014-09-03T10:04:04.290000Z</time>
      </trkpt>
      <trkpt lat="38.817963" lon="121.14734">
        <ele>42.05142</ele>
        <time>2014-09-03T10:04:07.279000Z</time>
      </trkpt>
      <trkpt lat="38.817795" lon="121.14734">
        <ele>43.05922</ele>
        <time>2014-09-03T10:04:10.268000Z</time>
      </trkpt>
      <trkpt lat="38.817604" lon="121.14733">
        <ele>44.98521</ele>
        <time>2014-09-03T10:04:13.257000Z</time>
      </trkpt>
      <trkpt lat="38.817444" lon="121.14732">
        <ele>47.009716</ele>
        <time>2014-09-03T10:04:16.246000Z</time>
      </trkpt>
      <trkpt lat="38.817337" lon="121.14738">
        <ele>48.441216</ele>
        <time>2014-09-03T10:04:19.235000Z</time>
      </trkpt>
      <trkpt lat="38.81726" lon="121.14745">
        <time>2014-09-03T10:04:22.224000Z</time>
      </trkpt>
    </trkseg>
  </trk>
</gpx>