<?xml version="1.0" encoding="UTF-8"?>
<gpx xmlns="http://www.topografix.com/GPX/1/1" xmlns:gpxtpx="http://www.garmin.com/xmlschemas/TrackPointExtension/v1" xmlns:xsi="http://www.w3.org/2001/XMLSchema-instance" xsi:schemaLocation="http://www.topografix.com/GPX/1/1 http://www.topografix.com/GPX/1/1/gpx.xsd" version="1.1" creator="gpx.py -- https://github.com/tkrajina/gpxpy">
  <trk>
    <trkseg>
      <trkpt lat="38.818466" lon="121.14747">
        <ele>49.302685</ele>
        <time>2014-09-23T09:15:19.814000Z</time>
      </trkpt>
      <trkpt lat="38.81845" lon="121.14747">
        <ele>50.17985</ele>
        <time>2014-09-23T09:15:22.877000Z</time>
      </trkpt>
      <trkpt lat="38.81836" lon="121.14744">
        <ele>50.66031</ele>
        <time>2014-09-23T09:15:25.940000Z</time>
      </trkpt>
      <trkpt lat="38.818268" lon="121.14742">
        <ele>50.811558</ele>
        <time>2014-09-23T09:15:29.003000Z</time>
      </trkpt>
      <trkpt lat="38.818157" lon="121.14741">
        <ele>50.882416</ele>
        <time>2014-09-23T09:15:32.066000Z</time>
      </trkpt>
      <trkpt lat="38.818054" lon="121.14739">
        <ele>50.88632</ele>
        <time>2014-09-23T09:15:35.129000Z</time>
      </trkpt>
      <trkpt lat="38.817963" lon="121.14739">
        <ele>50.825474</ele>
        <time>2014-09-23T09:15:38.192000Z</time>
      </trkpt>
      <trkpt lat="38.817867" lon="121.147385">
        <ele>50.64299</ele>
        <time>2014-09-23T09:15:41.255000Z</time>
      </trkpt>
      <trkpt lat="38.817764" lon="121.14739">
        <ele>50.471546</ele>
        <time>2014-09-23T09:15:44.318000Z</time>
      </trkpt>
      <trkpt lat="38.81766" lon="121.147385">
        <ele>50.61546</ele>
        <time>2014-09-23T09:15:47.381000Z</time>
      </trkpt>
      <trkpt lat="38.81757" lon="121.14738">
        <ele>50.982418</ele>
        <time>2014-09-23T09:15:50.444000Z</time>
      </trkpt>
      <trkpt lat="38.81748" lon="121.14739">
        <ele>51.158203</ele>
        <time>2014-09-23T09:15:53.507000Z</time>
      </trkpt>
      <trkpt lat="38.81739" lon="121.14744">
        <ele>51.493336</ele>
        <time>2014-09-23T09:15:56.570000Z</time>
      </trkpt>
      <trkpt lat="38.81731" lon="121.14754">
        <ele>52.264935</ele>
        <time>2014-09-23T09:15:59.633000Z</time>
      </trkpt>
      <trkpt lat="38.81725" lon="121.14765">
        <ele>52.974716</ele>
        <time>2014-09-23T09:16:02.696000Z</time>
      </trkpt>
      <trkpt lat="38.817215" lon="121.147766">
        <ele>53.13585</ele>
        <time>2014-09-23T09:16:05.759000Z</time>
      </trkpt>
      <trkpt lat="38.817223" lon="121.147896">
        <ele>52.993935</ele>
        <time>2014-09-23T09:16:08.822000Z</time>
      </trkpt>
      <trkpt lat="38.817257" lon="121.14802">
        <ele>52.914196</ele>
        <time>2014-09-23T09:16:11.885000Z</time>
      </trkpt>
      <trkpt lat="38.81732" lon="121.14813">
        <ele>53.119305</ele>
        <time>2014-09-23T09:16:14.948000Z</time>
      </trkpt>
      <trkpt lat="38.8174" lon="121.148224">
        <ele>53.59248</ele>
        <time>2014-09-23T09:16:18.011000Z</time>
      </trkpt>
      <trkpt lat="38.817486" lon="121.148285">
        <ele>54.008667</ele>
        <time>2014-09-23T09:16:21.074000Z</time>
      </trkpt>
      <trkpt lat="38.817574" lon="121.148315">
        <ele>53.71584</ele>
        <time>2014-09-23T09:16:24.137000Z</time>
      </trkpt>
      <trkpt lat="38.817673" lon="121.1483">
        <ele>52.348213</ele>
        <time>2014-09-23T09:16:27.200000Z</time>
      </trkpt>
      <trkpt lat="38.81778" lon="121.14831">
        <ele>50.367622</ele>
        <time>2014-09-23T09:16:30.263000Z</time>
      </trkpt>
      <trkpt lat="38.817875" lon="121.14831">
        <ele>48.66011</ele>
        <time>2014-09-23T09:16:33.326000Z</time>
      </trkpt>
      <trkpt lat="38.81797" lon="121.14831">
        <ele>47.444366</ele>
        <time>2014-09-23T09:16:36.389000Z</time>
      </trkpt>
      <trkpt lat="38.81808" lon="121.14831">
        <ele>46.472137</ele>
        <time>2014-09-23T09:16:39.452000Z</time>
      </trkpt>
      <trkpt lat="38.818172" lon="121.14831">
        <ele>45.766922</ele>
        <time>2014-09-23T09:16:42.515000Z</time>
      </trkpt>
      <trkpt lat="38.818287" lon="121.1483">
        <ele>45.662685</ele>
        <time>2014-09-23T09:16:45.578000Z</time>
      </trkpt>
      <trkpt lat="38.818386" lon="121.14831">
        <ele>46.09888</ele>
        <time>2014-09-23T09:16:48.641000Z</time>
      </trkpt>
      <trkpt lat="38.818485" lon="121.14828">
        <ele>46.145935</ele>
        <time>2014-09-23T09:16:51.704000Z</time>
      </trkpt>
      <trkpt lat="38.81856" lon="121.14821">
        <ele>44.769707</ele>
        <time>2014-09-23T09:16:54.767000Z</time>
      </trkpt>
      <trkpt lat="38.81862" lon="121.1481">
        <ele>42.50381</ele>
        <time>2014-09-23T09:16:57.830000Z</time>
      </trkpt>
      <trkpt lat="38.81865" lon="121.14797">
        <ele>40.952</ele>
        <time>2014-09-23T09:17:00.893000Z</time>
      </trkpt>
      <trkpt lat="38.81867" lon="121.14784">
        <ele>40.902626</ele>
        <time>2014-09-23T09:17:03.956000Z</time>
      </trkpt>
      <trkpt lat="38.81863" lon="121.14768">
        <ele>41.840843</ele>
        <time>2014-09-23T09:17:07.019000Z</time>
      </trkpt>
      <trkpt lat="38.818577" lon="121.14757">
        <ele>42.830887</ele>
        <time>2014-09-23T09:17:10.082000Z</time>
      </trkpt>
      <trkpt lat="38.81851" lon="121.147484">
        <ele>43.371758</ele>
        <time>2014-09-23T09:17:13.145000Z</time>
      </trkpt>
      <trkpt lat="38.818417" lon="121.14743">
        <ele>43.507305</ele>
        <time>2014-09-23T09:17:16.208000Z</time>
      </trkpt>
      <trkpt lat="38.818317" lon="121.14739">
        <ele>43.67245</ele>
        <time>2014-09-23T09:17:19.271000Z</time>
      </trkpt>
      <trkpt lat="38.81821" lon="121.14738">
        <ele>43.88623</ele>
        <time>2014-09-23T09:17:22.334000Z</time>
      </trkpt>
      <trkpt lat="38.818115" lon="121.14736">
        <ele>43.92506</ele>
        <time>2014-09-23T09:17:25.397000Z</time>
      </trkpt>
      <trkpt lat="38.818016" lon="121.147354">
        <ele>43.803234</ele>
        <time>2014-09-23T09:17:28.460000Z</time>
      </trkpt>
      <trkpt lat="38.817917" lon="121.14735">
        <ele>43.332268</ele>
        <time>2014-09-23T09:17:31.523000Z</time>
      </trkpt>
      <trkpt lat="38.817814" lon="121.147354">
        <ele>42.45579</ele>
        <time>2014-09-23T09:17:34.586000Z</time>
      </trkpt>
      <trkpt lat="38.817722" lon="121.14736">
        <ele>42.18788</ele>
        <time>2014-09-23T09:17:37.649000Z</time>
      </trkpt>
      <trkpt lat="38.817616" lon="121.14737">
        <ele>43.065315</ele>
        <time>2014-09-23T09:17:40.712000Z</time>
      </trkpt>
      <trkpt lat="38.817528" lon="121.14737">
        <ele>44.682278</ele>
        <time>2014-09-23T09:17:43.775000Z</time>
      </trkpt>
      <trkpt lat="38.817436" lon="121.1474">
        <ele>46.480698</ele>
        <time>2014-09-23T09:17:46.838000Z</time>
      </trkpt>
      <trkpt lat="38.81734" lon="121.14745">
        <ele>47.877293</ele>
        <time>2014-09-23T09:17:49.901000Z</time>
      </trkpt>
      <trkpt lat="38.817284" lon="121.147545">
        <ele>48.386906</ele>
        <time>2014-09-23T09:17:52.964000Z</time>
      </trkpt>
      <trkpt lat="38.817234" lon="121.14765">
        <ele>47.964138</ele>
        <time>2014-09-23T09:17:56.027000Z</time>
      </trkpt>
      <trkpt lat="38.817226" lon="121.14779">
        <ele>46.928726</ele>
        <time>2014-09-23T09:17:59.090000Z</time>
      </trkpt>
      <trkpt lat="38.81724" lon="121.14791">
        <ele>46.227276</ele>
        <time>2014-09-23T09:18:02.153000Z</time>
      </trkpt>
      <trkpt lat="38.81728" lon="121.14803">
        <ele>46.411385</ele>
        <time>2014-09-23T09:18:05.216000Z</time>
      </trkpt>
      <trkpt lat="38.817337" lon="121.14813">
        <ele>47.089558</ele>
        <time>2014-09-23T09:18:08.279000Z</time>
      </trkpt>
      <trkpt lat="38.817406" lon="121.14822">
        <ele>47.51233</ele>
        <time>2014-09-23T09:18:11.342000Z</time>
      </trkpt>
      <trkpt lat="38.81749" lon="121.148254">
        <ele>47.29294</ele>
        <time>2014-09-23T09:18:14.405000Z</time>
      </trkpt>
      <trkpt lat="38.817596" lon="121.14826">
        <ele>46.568913</ele>
        <time>2014-09-23T09:18:17.468000Z</time>
      </trkpt>
      <trkpt lat="38.817707" lon="121.14826">
        <ele>45.550907</ele>
        <time>2014-09-23T09:18:20.531000Z</time>
      </trkpt>
      <trkpt lat="38.8178" lon="121.148254">
        <ele>44.462578</ele>
        <time>2014-09-23T09:18:23.594000Z</time>
      </trkpt>
      <trkpt lat="38.817905" lon="121.148254">
        <ele>43.697857</ele>
        <time>2014-09-23T09:18:26.657000Z</time>
      </trkpt>
      <trkpt lat="38.81801" lon="121.148254">
        <ele>43.295216</ele>
        <time>2014-09-23T09:18:29.720000Z</time>
      </trkpt>
      <trkpt lat="38.81813" lon="121.14826">
        <ele>43.072006</ele>
        <time>2014-09-23T09:18:32.783000Z</time>
      </trkpt>
      <trkpt lat="38.818222" lon="121.148285">
        <ele>42.948</ele>
        <time>2014-09-23T09:18:35.846000Z</time>
      </trkpt>
      <trkpt lat="38.81832" lon="121.148285">
        <ele>42.891624</ele>
        <time>2014-09-23T09:18:38.909000Z</time>
      </trkpt>
      <trkpt lat="38.81842" lon="121.148254">
        <ele>42.877686</ele>
        <time>2014-09-23T09:18:41.972000Z</time>
      </trkpt>
      <trkpt lat="38.818504" lon="121.1482">
        <ele>42.972347</ele>
        <time>2014-09-23T09:18:45.035000Z</time>
      </trkpt>
      <trkpt lat="38.818573" lon="121.14811">
        <ele>43.21253</ele>
        <time>2014-09-23T09:18:48.098000Z</time>
      </trkpt>
      <trkpt lat="38.81863" lon="121.14801">
        <ele>43.316353</ele>
        <time>2014-09-23T09:18:51.161000Z</time>
      </trkpt>
      <trkpt lat="38.818665" lon="121.14786">
        <ele>42.888226</ele>
        <time>2014-09-23T09:18:54.224000Z</time>
      </trkpt>
      <trkpt lat="38.81868" lon="121.147736">
        <ele>42.063507</ele>
        <time>2014-09-23T09:18:57.287000Z</time>
      </trkpt>
      <trkpt lat="38.818672" lon="121.147606">
        <ele>42.037384</ele>
        <time>2014-09-23T09:19:00.350000Z</time>
      </trkpt>
      <trkpt lat="38.818615" lon="121.14748">
        <ele>43.461548</ele>
        <time>2014-09-23T09:19:03.413000Z</time>
      </trkpt>
      <trkpt lat="38.81852" lon="121.14739">
        <ele>45.19242</ele>
        <time>2014-09-23T09:19:06.476000Z</time>
      </trkpt>
      <trkpt lat="38.818417" lon="121.14735">
        <ele>45.865604</ele>
        <time>2014-09-23T09:19:09.539000Z</time>
      </trkpt>
      <trkpt lat="38.81831" lon="121.14733">
        <ele>45.567184</ele>
        <time>2014-09-23T09:19:12.602000Z</time>
      </trkpt>
      <trkpt lat="38.818207" lon="121.147316">
        <ele>45.100044</ele>
        <time>2014-09-23T09:19:15.665000Z</time>
      </trkpt>
      <trkpt lat="38.81809" lon="121.14731">
        <ele>44.906384</ele>
        <time>2014-09-23T09:19:18.728000Z</time>
      </trkpt>
      <trkpt lat="38.81797" lon="121.147316">
        <ele>44.77475</ele>
        <time>2014-09-23T09:19:21.791000Z</time>
      </trkpt>
      <trkpt lat="38.81785" lon="121.1473">
        <ele>44.48046</ele>
        <time>2014-09-23T09:19:24.854000Z</time>
      </trkpt>
      <trkpt lat="38.817726" lon="121.1473">
        <ele>44.051365</ele>
        <time>2014-09-23T09:19:27.917000Z</time>
      </trkpt>
      <trkpt lat="38.817608" lon="121.14729">
        <ele>43.69189</ele>
        <time>2014-09-23T09:19:30.980000Z</time>
      </trkpt>
      <trkpt lat="38.81749" lon="121.14729">
        <ele>43.704937</ele>
        <time>2014-09-23T09:19:34.043000Z</time>
      </trkpt>
      <trkpt lat="38.817387" lon="121.14733">
        <ele>44.178097</ele>
        <time>2014-09-23T09:19:37.106000Z</time>
      </trkpt>
      <trkpt lat="38.817295" lon="121.147385">
        <ele>44.725006</ele>
        <time>2014-09-23T09:19:40.169000Z</time>
      </trkpt>
      <trkpt lat="38.81721" lon="121.14749">
        <ele>45.33407</ele>
        <time>2014-09-23T09:19:43.232000Z</time>
      </trkpt>
      <trkpt lat="38.817158" lon="121.14764">
        <ele>46.285576</ele>
        <time>2014-09-23T09:19:46.295000Z</time>
      </trkpt>
      <trkpt lat="38.81714" lon="121.14779">
        <ele>47.22154</ele>
        <time>2014-09-23T09:19:49.358000Z</time>
      </trkpt>
      <trkpt lat="38.817158" lon="121.147934">
        <ele>47.664043</ele>
        <time>2014-09-23T09:19:52.421000Z</time>
      </trkpt>
      <trkpt lat="38.81721" lon="121.14808">
        <ele>47.544796</ele>
        <time>2014-09-23T09:19:55.484000Z</time>
      </trkpt>
      <trkpt lat="38.817272" lon="121.14819">
        <ele>47.003983</ele>
        <time>2014-09-23T09:19:58.547000Z</time>
      </trkpt>
      <trkpt lat="38.81735" lon="121.14828">
        <ele>46.395424</ele>
        <time>2014-09-23T09:20:01.610000Z</time>
      </trkpt>
      <trkpt lat="38.81746" lon="121.14832">
        <ele>45.518642</ele>
        <time>2014-09-23T09:20:04.673000Z</time>
      </trkpt>
      <trkpt lat="38.81758" lon="121.148315">
        <ele>44.090683</ele>
        <time>2014-09-23T09:20:07.736000Z</time>
      </trkpt>
      <trkpt lat="38.8177" lon="121.14832">
        <ele>42.7625</ele>
        <time>2014-09-23T09:20:10.799000Z</time>
      </trkpt>
      <trkpt lat="38.81782" lon="121.14833">
        <ele>42.674732</ele>
        <time>2014-09-23T09:20:13.862000Z</time>
      </trkpt>
      <trkpt lat="38.81795" lon="121.14832">
        <ele>43.93217</ele>
        <time>2014-09-23T09:20:16.925000Z</time>
      </trkpt>
      <trkpt lat="38.818058" lon="121.14832">
        <ele>45.395573</ele>
        <time>2014-09-23T09:20:19.988000Z</time>
      </trkpt>
      <trkpt lat="38.818172" lon="121.14833">
        <ele>45.985996</ele>
        <time>2014-09-23T09:20:23.051000Z</time>
      </trkpt>
      <trkpt lat="38.818275" lon="121.14835">
        <ele>45.59022</ele>
        <time>2014-09-23T09:20:26.114000Z</time>
      </trkpt>
      <trkpt lat="38.8184" lon="121.14836">
        <ele>44.664333</ele>
        <time>2014-09-23T09:20:29.177000Z</time>
      </trkpt>
      <trkpt lat="38.81851" lon="121.14832">
        <ele>43.969875</ele>
        <time>2014-09-23T09:20:32.240000Z</time>
      </trkpt>
      <trkpt lat="38.818604" lon="121.14825">
        <ele>43.846153</ele>
        <time>2014-09-23T09:20:35.303000Z</time>
      </trkpt>
      <trkpt lat="38.818687" lon="121.14815">
        <ele>43.882763</ele>
        <time>2014-09-23T09:20:38.366000Z</time>
      </trkpt>
      <trkpt lat="38.818733" lon="121.148">
        <ele>43.68446</ele>
        <time>2014-09-23T09:20:41.429000Z</time>
      </trkpt>
      <trkpt lat="38.818745" lon="121.14786">
        <ele>43.42304</ele>
        <time>2014-09-23T09:20:44.492000Z</time>
      </trkpt>
      <trkpt lat="38.818733" lon="121.147705">
        <ele>43.55951</ele>
        <time>2014-09-23T09:20:47.555000Z</time>
      </trkpt>
      <trkpt lat="38.81868" lon="121.14757">
        <ele>44.228535</ele>
        <time>2014-09-23T09:20:50.618000Z</time>
      </trkpt>
      <trkpt lat="38.818604" lon="121.14746">
        <ele>45.042248</ele>
        <time>2014-09-23T09:20:53.681000Z</time>
      </trkpt>
      <trkpt lat="38.818497" lon="121.14739">
        <ele>45.62558</ele>
        <time>2014-09-23T09:20:56.744000Z</time>
      </trkpt>
      <trkpt lat="38.81838" lon="121.14736">
        <ele>45.902836</ele>
        <time>2014-09-23T09:20:59.807000Z</time>
      </trkpt>
      <trkpt lat="38.818253" lon="121.14735">
        <ele>45.87506</ele>
        <time>2014-09-23T09:21:02.870000Z</time>
      </trkpt>
      <trkpt lat="38.818146" lon="121.14733">
        <ele>45.688416</ele>
        <time>2014-09-23T09:21:05.933000Z</time>
      </trkpt>
      <trkpt lat="38.81803" lon="121.147316">
        <ele>45.50581</ele>
        <time>2014-09-23T09:21:08.996000Z</time>
      </trkpt>
      <trkpt lat="38.817913" lon="121.1473">
        <ele>45.61815</ele>
        <time>2014-09-23T09:21:12.059000Z</time>
      </trkpt>
      <trkpt lat="38.8178" lon="121.147285">
        <ele>46.081577</ele>
        <time>2014-09-23T09:21:15.122000Z</time>
      </trkpt>
      <trkpt lat="38.817665" lon="121.14728">
        <ele>46.41069</ele>
        <time>2014-09-23T09:21:18.185000Z</time>
      </trkpt>
      <trkpt lat="38.817547" lon="121.14728">
        <ele>46.11192</ele>
        <time>2014-09-23T09:21:21.248000Z</time>
      </trkpt>
      <trkpt lat="38.81742" lon="121.1473">
        <ele>45.290386</ele>
        <time>2014-09-23T09:21:24.311000Z</time>
      </trkpt>
      <trkpt lat="38.81732" lon="121.14736">
        <ele>44.97767</ele>
        <time>2014-09-23T09:21:27.374000Z</time>
      </trkpt>
      <trkpt lat="38.817226" lon="121.1475">
        <ele>45.964664</ele>
        <time>2014-09-23T09:21:30.437000Z</time>
      </trkpt>
      <trkpt lat="38.81719" lon="121.147606">
        <ele>47.35356</ele>
        <time>2014-09-23T09:21:33.500000Z</time>
      </trkpt>
      <trkpt lat="38.817158" lon="121.14774">
        <ele>48.00143</ele>
        <time>2014-09-23T09:21:36.563000Z</time>
      </trkpt>
      <trkpt lat="38.81716" lon="121.14788">
        <ele>47.842514</ele>
        <time>2014-09-23T09:21:39.626000Z</time>
      </trkpt>
      <trkpt lat="38.817196" lon="121.148026">
        <ele>46.69727</ele>
        <time>2014-09-23T09:21:42.689000Z</time>
      </trkpt>
      <trkpt lat="38.817265" lon="121.14815">
        <ele>44.612823</ele>
        <time>2014-09-23T09:21:45.752000Z</time>
      </trkpt>
      <trkpt lat="38.817356" lon="121.14825">
        <ele>42.680504</ele>
        <time>2014-09-23T09:21:48.815000Z</time>
      </trkpt>
      <trkpt lat="38.817436" lon="121.14831">
        <ele>41.80597</ele>
        <time>2014-09-23T09:21:51.878000Z</time>
      </trkpt>
      <trkpt lat="38.81755" lon="121.14832">
        <ele>42.10057</ele>
        <time>2014-09-23T09:21:54.941000Z</time>
      </trkpt>
      <trkpt lat="38.81766" lon="121.14832">
        <ele>43.218735</ele>
        <time>2014-09-23T09:21:58.004000Z</time>
      </trkpt>
      <trkpt lat="38.81779" lon="121.14833">
        <ele>44.33861</ele>
        <time>2014-09-23T09:22:01.067000Z</time>
      </trkpt>
      <trkpt lat="38.817936" lon="121.148346">
        <ele>45.139057</ele>
        <time>2014-09-23T09:22:04.130000Z</time>
      </trkpt>
      <trkpt lat="38.818024" lon="121.148346">
        <ele>46.038612</ele>
        <time>2014-09-23T09:22:07.193000Z</time>
      </trkpt>
      <trkpt lat="38.818146" lon="121.14835">
        <ele>47.20537</ele>
        <time>2014-09-23T09:22:10.256000Z</time>
      </trkpt>
      <trkpt lat="38.81827" lon="121.14837">
        <ele>48.15221</ele>
        <time>2014-09-23T09:22:13.319000Z</time>
      </trkpt>
      <trkpt lat="38.818382" lon="121.14836">
        <ele>48.32811</ele>
        <time>2014-09-23T09:22:16.382000Z</time>
      </trkpt>
      <trkpt lat="38.818504" lon="121.14833">
        <ele>47.510777</ele>
        <time>2014-09-23T09:22:19.445000Z</time>
      </trkpt>
      <trkpt lat="38.818604" lon="121.148254">
        <ele>45.55834</ele>
        <time>2014-09-23T09:22:22.508000Z</time>
      </trkpt>
      <trkpt lat="38.818684" lon="121.14815">
        <ele>43.03328</ele>
        <time>2014-09-23T09:22:25.571000Z</time>
      </trkpt>
      <trkpt lat="38.818733" lon="121.14798">
        <ele>41.519226</ele>
        <time>2014-09-23T09:22:28.634000Z</time>
      </trkpt>
      <trkpt lat="38.81874" lon="121.147835">
        <ele>41.710667</ele>
        <time>2014-09-23T09:22:31.697000Z</time>
      </trkpt>
      <trkpt lat="38.81872" lon="121.147675">
        <ele>42.54121</ele>
        <time>2014-09-23T09:22:34.760000Z</time>
      </trkpt>
      <trkpt lat="38.818676" lon="121.14754">
        <ele>42.973476</ele>
        <time>2014-09-23T09:22:37.823000Z</time>
      </trkpt>
      <trkpt lat="38.818577" lon="121.14743">
        <ele>43.199398</ele>
        <time>2014-09-23T09:22:40.886000Z</time>
      </trkpt>
      <trkpt lat="38.818466" lon="121.14738">
        <ele>43.86839</ele>
        <time>2014-09-23T09:22:43.949000Z</time>
      </trkpt>
      <trkpt lat="38.81836" lon="121.14735">
        <ele>44.970974</ele>
        <time>2014-09-23T09:22:47.012000Z</time>
      </trkpt>
      <trkpt lat="38.818245" lon="121.14733">
        <ele>45.888054</ele>
        <time>2014-09-23T09:22:50.075000Z</time>
      </trkpt>
      <trkpt lat="38.818134" lon="121.14731">
        <ele>46.289852</ele>
        <time>2014-09-23T09:22:53.138000Z</time>
      </trkpt>
      <trkpt lat="38.81801" lon="121.1473">
        <ele>46.211594</ele>
        <time>2014-09-23T09:22:56.201000Z</time>
      </trkpt>
      <trkpt lat="38.817917" lon="121.14729">
        <ele>45.54719</ele>
        <time>2014-09-23T09:22:59.264000Z</time>
      </trkpt>
      <trkpt lat="38.817814" lon="121.14729">
        <ele>44.44979</ele>
        <time>2014-09-23T09:23:02.327000Z</time>
      </trkpt>
      <trkpt lat="38.81769" lon="121.14729">
        <ele>43.54347</ele>
        <time>2014-09-23T09:23:05.390000Z</time>
      </trkpt>
      <trkpt lat="38.817566" lon="121.147285">
        <ele>43.360275</ele>
        <time>2014-09-23T09:23:08.453000Z</time>
      </trkpt>
      <trkpt lat="38.817455" lon="121.14731">
        <ele>43.765785</ele>
        <time>2014-09-23T09:23:11.516000Z</time>
      </trkpt>
      <trkpt lat="38.817345" lon="121.14735">
        <ele>44.25834</ele>
        <time>2014-09-23T09:23:14.579000Z</time>
      </trkpt>
      <trkpt lat="38.81723" lon="121.147446">
        <ele>44.758007</ele>
        <time>2014-09-23T09:23:17.642000Z</time>
      </trkpt>
      <trkpt lat="38.81716" lon="121.147606">
        <ele>45.412823</ele>
        <time>2014-09-23T09:23:20.705000Z</time>
      </trkpt>
      <trkpt lat="38.81713" lon="121.14777">
        <ele>45.935753</ele>
        <time>2014-09-23T09:23:23.768000Z</time>
      </trkpt>
      <trkpt lat="38.817142" lon="121.14791">
        <ele>46.00752</ele>
        <time>2014-09-23T09:23:26.831000Z</time>
      </trkpt>
      <trkpt lat="38.81719" lon="121.148056">
        <ele>45.578403</ele>
        <time>2014-09-23T09:23:29.894000Z</time>
      </trkpt>
      <trkpt lat="38.81724" lon="121.148155">
        <ele>44.668064</ele>
        <time>2014-09-23T09:23:32.957000Z</time>
      </trkpt>
      <trkpt lat="38.817337" lon="121.14826">
        <ele>43.563496</ele>
        <time>2014-09-23T09:23:36.020000Z</time>
      </trkpt>
      <trkpt lat="38.81742" lon="121.14831">
        <ele>42.72651</ele>
        <time>2014-09-23T09:23:39.083000Z</time>
      </trkpt>
      <trkpt lat="38.81756" lon="121.14834">
        <ele>42.772934</ele>
        <time>2014-09-23T09:23:42.146000Z</time>
      </trkpt>
      <trkpt lat="38.81766" lon="121.14834">
        <ele>44.108093</ele>
        <time>2014-09-23T09:23:45.209000Z</time>
      </trkpt>
      <trkpt lat="38.81844" lon="121.14728">
        <ele>46.924335</ele>
        <time>2014-09-23T09:23:48.272000Z</time>
      </trkpt>
      <trkpt lat="38.81844" lon="121.14728">
        <ele>46.3359</ele>
        <time>2014-09-23T09:23:51.335000Z</time>
      </trkpt>
      <trkpt lat="38.81844" lon="121.14728">
        <ele>45.83505</ele>
        <time>2014-09-23T09:23:54.398000Z</time>
      </trkpt>
      <trkpt lat="38.81835" lon="121.1473">
        <ele>46.02746</ele>
        <time>2014-09-23T09:23:57.461000Z</time>
      </trkpt>
      <trkpt lat="38.818256" lon="121.14729">
        <ele>46.331135</ele>
        <time>2014-09-23T09:24:00.524000Z</time>
      </trkpt>
      <trkpt lat="38.81814" lon="121.14729">
        <ele>46.03759</ele>
        <time>2014-09-23T09:24:03.587000Z</time>
      </trkpt>
      <trkpt lat="38.81814" lon="121.14729">
        <ele>45.35231</ele>
        <time>2014-09-23T09:24:06.650000Z</time>
      </trkpt>
      <trkpt lat="38.818016" lon="121.147285">
        <ele>44.998474</ele>
        <time>2014-09-23T09:24:09.713000Z</time>
      </trkpt>
      <trkpt lat="38.817905" lon="121.147285">
        <ele>45.2495</ele>
        <time>2014-09-23T09:24:12.776000Z</time>
      </trkpt>
      <trkpt lat="38.817776" lon="121.147285">
        <ele>45.782764</ele>
        <time>2014-09-23T09:24:15.839000Z</time>
      </trkpt>
      <trkpt lat="38.817665" lon="121.147285">
        <ele>46.462193</ele>
        <time>2014-09-23T09:24:18.902000Z</time>
      </trkpt>
      <trkpt lat="38.817547" lon="121.14729">
        <ele>47.299355</ele>
        <time>2014-09-23T09:24:21.965000Z</time>
      </trkpt>
      <trkpt lat="38.817448" lon="121.14731">
        <ele>47.824543</ele>
        <time>2014-09-23T09:24:25.028000Z</time>
      </trkpt>
      <trkpt lat="38.817314" lon="121.14737">
        <ele>47.68929</ele>
        <time>2014-09-23T09:24:28.091000Z</time>
      </trkpt>
      <trkpt lat="38.817226" lon="121.14748">
        <ele>47.184406</ele>
        <time>2014-09-23T09:24:31.154000Z</time>
      </trkpt>
      <trkpt lat="38.817177" lon="121.14761">
        <ele>46.61843</ele>
        <time>2014-09-23T09:24:34.217000Z</time>
      </trkpt>
      <trkpt lat="38.817154" lon="121.14774">
        <ele>45.631687</ele>
        <time>2014-09-23T09:24:37.280000Z</time>
      </trkpt>
      <trkpt lat="38.817165" lon="121.1479">
        <ele>44.088</ele>
        <time>2014-09-23T09:24:40.343000Z</time>
      </trkpt>
      <trkpt lat="38.817207" lon="121.14804">
        <ele>42.75765</ele>
        <time>2014-09-23T09:24:43.406000Z</time>
      </trkpt>
      <trkpt lat="38.817284" lon="121.14816">
        <ele>42.20846</ele>
        <time>2014-09-23T09:24:46.469000Z</time>
      </trkpt>
      <trkpt lat="38.81738" lon="121.14826">
        <ele>42.180668</ele>
        <time>2014-09-23T09:24:49.532000Z</time>
      </trkpt>
      <trkpt lat="38.81749" lon="121.14832">
        <ele>42.54663</ele>
        <time>2014-09-23T09:24:52.595000Z</time>
      </trkpt>
      <trkpt lat="38.8176" lon="121.14834">
        <ele>43.43657</ele>
        <time>2014-09-23T09:24:55.658000Z</time>
      </trkpt>
      <trkpt lat="38.81771" lon="121.148346">
        <ele>44.38537</ele>
        <time>2014-09-23T09:24:58.721000Z</time>
      </trkpt>
      <trkpt lat="38.81783" lon="121.14836">
        <ele>44.678135</ele>
        <time>2014-09-23T09:25:01.784000Z</time>
      </trkpt>
      <trkpt lat="38.817944" lon="121.14837">
        <ele>44.34041</ele>
        <time>2014-09-23T09:25:04.847000Z</time>
      </trkpt>
      <trkpt lat="38.818066" lon="121.14838">
        <ele>43.91927</ele>
        <time>2014-09-23T09:25:07.910000Z</time>
      </trkpt>
      <trkpt lat="38.81818" lon="121.14838">
        <ele>43.509228</ele>
        <time>2014-09-23T09:25:10.973000Z</time>
      </trkpt>
      <trkpt lat="38.818295" lon="121.14839">
        <ele>43.16152</ele>
        <time>2014-09-23T09:25:14.036000Z</time>
      </trkpt>
      <trkpt lat="38.81841" lon="121.148384">
        <ele>43.038662</ele>
        <time>2014-09-23T09:25:17.099000Z</time>
      </trkpt>
      <trkpt lat="38.81852" lon="121.14834">
        <ele>42.9843</ele>
        <time>2014-09-23T09:25:20.162000Z</time>
      </trkpt>
      <trkpt lat="38.818607" lon="121.14826">
        <ele>42.800488</ele>
        <time>2014-09-23T09:25:23.225000Z</time>
      </trkpt>
      <trkpt lat="38.81869" lon="121.14815">
        <ele>42.648678</ele>
        <time>2014-09-23T09:25:26.288000Z</time>
      </trkpt>
      <trkpt lat="38.818733" lon="121.14801">
        <ele>42.748928</ele>
        <time>2014-09-23T09:25:29.351000Z</time>
      </trkpt>
      <trkpt lat="38.818737" lon="121.14789">
        <ele>43.337315</ele>
        <time>2014-09-23T09:25:32.414000Z</time>
      </trkpt>
      <trkpt lat="38.818737" lon="121.14773">
        <ele>44.26125</ele>
        <time>2014-09-23T09:25:35.477000Z</time>
      </trkpt>
      <trkpt lat="38.818687" lon="121.14759">
        <ele>45.144253</ele>
        <time>2014-09-23T09:25:38.540000Z</time>
      </trkpt>
      <trkpt lat="38.8186" lon="121.14747">
        <ele>45.76876</ele>
        <time>2014-09-23T09:25:41.603000Z</time>
      </trkpt>
      <trkpt lat="38.818504" lon="121.14737">
        <ele>46.068665</ele>
        <time>2014-09-23T09:25:44.666000Z</time>
      </trkpt>
      <trkpt lat="38.818405" lon="121.147316">
        <ele>46.217068</ele>
        <time>2014-09-23T09:25:47.729000Z</time>
      </trkpt>
      <trkpt lat="38.818283" lon="121.14731">
        <ele>46.5465</ele>
        <time>2014-09-23T09:25:50.792000Z</time>
      </trkpt>
      <trkpt lat="38.818165" lon="121.1473">
        <ele>47.068584</ele>
        <time>2014-09-23T09:25:53.855000Z</time>
      </trkpt>
      <trkpt lat="38.818035" lon="121.14729">
        <ele>47.379154</ele>
        <time>2014-09-23T09:25:56.918000Z</time>
      </trkpt>
      <trkpt lat="38.817924" lon="121.14727">
        <ele>47.02619</ele>
        <time>2014-09-23T09:25:59.981000Z</time>
      </trkpt>
      <trkpt lat="38.8178" lon="121.14726">
        <ele>46.11586</ele>
        <time>2014-09-23T09:26:03.044000Z</time>
      </trkpt>
      <trkpt lat="38.817677" lon="121.14726">
        <ele>45.44516</ele>
        <time>2014-09-23T09:26:06.107000Z</time>
      </trkpt>
      <trkpt lat="38.81755" lon="121.14727">
        <ele>45.717674</ele>
        <time>2014-09-23T09:26:09.170000Z</time>
      </trkpt>
      <trkpt lat="38.817448" lon="121.14729">
        <ele>46.69023</ele>
        <time>2014-09-23T09:26:12.233000Z</time>
      </trkpt>
      <trkpt lat="38.817333" lon="121.14737">
        <ele>47.43907</ele>
        <time>2014-09-23T09:26:15.296000Z</time>
      </trkpt>
      <trkpt lat="38.817238" lon="121.14748">
        <ele>47.32143</ele>
        <time>2014-09-23T09:26:18.359000Z</time>
      </trkpt>
      <trkpt lat="38.817177" lon="121.14764">
        <ele>46.726948</ele>
        <time>2014-09-23T09:26:21.422000Z</time>
      </trkpt>
      <trkpt lat="38.81716" lon="121.14779">
        <ele>46.36551</ele>
        <time>2014-09-23T09:26:24.485000Z</time>
      </trkpt>
      <trkpt lat="38.817173" lon="121.14794">
        <ele>46.326294</ele>
        <time>2014-09-23T09:26:27.548000Z</time>
      </trkpt>
      <trkpt lat="38.81721" lon="121.148056">
        <ele>46.22449</ele>
        <time>2014-09-23T09:26:30.611000Z</time>
      </trkpt>
      <trkpt lat="38.817265" lon="121.14816">
        <ele>45.907135</ele>
        <time>2014-09-23T09:26:33.674000Z</time>
      </trkpt>
      <trkpt lat="38.817337" lon="121.148254">
        <ele>45.561485</ele>
        <time>2014-09-23T09:26:36.737000Z</time>
      </trkpt>
      <trkpt lat="38.817413" lon="121.148315">
        <ele>45.42949</ele>
        <time>2014-09-23T09:26:39.800000Z</time>
      </trkpt>
      <trkpt lat="38.817528" lon="121.14836">
        <ele>45.498188</ele>
        <time>2014-09-23T09:26:42.863000Z</time>
      </trkpt>
      <trkpt lat="38.817646" lon="121.148346">
        <ele>45.624958</ele>
        <time>2014-09-23T09:26:45.926000Z</time>
      </trkpt>
      <trkpt lat="38.81777" lon="121.148346">
        <ele>45.61746</ele>
        <time>2014-09-23T09:26:48.989000Z</time>
      </trkpt>
      <trkpt lat="38.81789" lon="121.148346">
        <ele>45.20815</ele>
        <time>2014-09-23T09:26:52.052000Z</time>
      </trkpt>
      <trkpt lat="38.818005" lon="121.14835">
        <ele>44.597317</ele>
        <time>2014-09-23T09:26:55.115000Z</time>
      </trkpt>
      <trkpt lat="38.818127" lon="121.14836">
        <ele>44.362286</ele>
        <time>2014-09-23T09:26:58.178000Z</time>
      </trkpt>
      <trkpt lat="38.818253" lon="121.14837">
        <ele>44.532864</ele>
        <time>2014-09-23T09:27:01.241000Z</time>
      </trkpt>
      <trkpt lat="38.818356" lon="121.14838">
        <ele>44.43587</ele>
        <time>2014-09-23T09:27:04.304000Z</time>
      </trkpt>
      <trkpt lat="38.818466" lon="121.148346">
        <ele>43.633152</ele>
        <time>2014-09-23T09:27:07.367000Z</time>
      </trkpt>
      <trkpt lat="38.818573" lon="121.14828">
        <ele>42.645737</ele>
        <time>2014-09-23T09:27:10.430000Z</time>
      </trkpt>
      <trkpt lat="38.818657" lon="121.14818">
        <ele>42.236034</ele>
        <time>2014-09-23T09:27:13.493000Z</time>
      </trkpt>
      <trkpt lat="38.81872" lon="121.148056">
        <ele>42.474735</ele>
        <time>2014-09-23T09:27:16.556000Z</time>
      </trkpt>
      <trkpt lat="38.81874" lon="121.14792">
        <ele>43.10177</ele>
        <time>2014-09-23T09:27:19.619000Z</time>
      </trkpt>
      <trkpt lat="38.81874" lon="121.14775">
        <ele>44.399147</ele>
        <time>2014-09-23T09:27:22.682000Z</time>
      </trkpt>
      <trkpt lat="38.818703" lon="121.147606">
        <ele>46.41839</ele>
        <time>2014-09-23T09:27:25.745000Z</time>
      </trkpt>
      <trkpt lat="38.818645" lon="121.14751">
        <ele>48.07143</ele>
        <time>2014-09-23T09:27:28.808000Z</time>
      </trkpt>
      <trkpt lat="38.818565" lon="121.14742">
        <ele>48.51237</ele>
        <time>2014-09-23T09:27:31.871000Z</time>
      </trkpt>
      <trkpt lat="38.81848" lon="121.147385">
        <ele>48.221584</ele>
        <time>2014-09-23T09:27:34.934000Z</time>
      </trkpt>
      <trkpt lat="38.81848" lon="121.147385">
        <ele>47.82881</ele>
        <time>2014-09-23T09:27:37.997000Z</time>
      </trkpt>
      <trkpt lat="38.81848" lon="121.147385">
        <ele>47.862106</ele>
        <time>2014-09-23T09:27:41.060000Z</time>
      </trkpt>
      <trkpt lat="38.818386" lon="121.147354">
        <ele>47.865215</ele>
        <time>2014-09-23T09:27:44.123000Z</time>
      </trkpt>
      <trkpt lat="38.818295" lon="121.14735">
        <ele>48.088886</ele>
        <time>2014-09-23T09:27:47.186000Z</time>
      </trkpt>
      <trkpt lat="38.81783" lon="121.1473">
        <ele>47.75332</ele>
        <time>2014-09-23T09:27:50.249000Z</time>
      </trkpt>
      <trkpt lat="38.817802" lon="121.1473">
        <ele>46.10979</ele>
        <time>2014-09-23T09:27:53.312000Z</time>
      </trkpt>
      <trkpt lat="38.817684" lon="121.14729">
        <ele>44.8988</ele>
        <time>2014-09-23T09:27:56.375000Z</time>
      </trkpt>
      <trkpt lat="38.817684" lon="121.14729">
        <ele>44.678013</ele>
        <time>2014-09-23T09:27:59.438000Z</time>
      </trkpt>
      <trkpt lat="38.817593" lon="121.147285">
        <ele>45.07109</ele>
        <time>2014-09-23T09:28:02.501000Z</time>
      </trkpt>
      <trkpt lat="38.817467" lon="121.147285">
        <ele>45.439674</ele>
        <time>2014-09-23T09:28:05.564000Z</time>
      </trkpt>
      <trkpt lat="38.817375" lon="121.14732">
        <ele>45.35108</ele>
        <time>2014-09-23T09:28:08.627000Z</time>
      </trkpt>
      <trkpt lat="38.817272" lon="121.14743">
        <ele>44.92756</ele>
        <time>2014-09-23T09:28:11.690000Z</time>
      </trkpt>
      <trkpt lat="38.817204" lon="121.14754">
        <ele>44.4723</ele>
        <time>2014-09-23T09:28:14.753000Z</time>
      </trkpt>
      <trkpt lat="38.817158" lon="121.147705">
        <ele>44.048653</ele>
        <time>2014-09-23T09:28:17.816000Z</time>
      </trkpt>
      <trkpt lat="38.817158" lon="121.14785">
        <ele>43.88054</ele>
        <time>2014-09-23T09:28:20.879000Z</time>
      </trkpt>
      <trkpt lat="38.817184" lon="121.14798">
        <ele>44.12989</ele>
        <time>2014-09-23T09:28:23.942000Z</time>
      </trkpt>
      <trkpt lat="38.817238" lon="121.1481">
        <ele>44.51001</ele>
        <time>2014-09-23T09:28:27.005000Z</time>
      </trkpt>
      <trkpt lat="38.817307" lon="121.14821">
        <ele>44.78584</ele>
        <time>2014-09-23T09:28:30.068000Z</time>
      </trkpt>
      <trkpt lat="38.817398" lon="121.148285">
        <ele>44.91815</ele>
        <time>2014-09-23T09:28:33.131000Z</time>
      </trkpt>
      <trkpt lat="38.817516" lon="121.14833">
        <ele>44.86502</ele>
        <time>2014-09-23T09:28:36.194000Z</time>
      </trkpt>
      <trkpt lat="38.81761" lon="121.14835">
        <ele>44.727573</ele>
        <time>2014-09-23T09:28:39.257000Z</time>
      </trkpt>
      <trkpt lat="38.817703" lon="121.14835">
        <ele>44.795967</ele>
        <time>2014-09-23T09:28:42.320000Z</time>
      </trkpt>
      <trkpt lat="38.817806" lon="121.14835">
        <ele>45.143585</ele>
        <time>2014-09-23T09:28:45.383000Z</time>
      </trkpt>
      <trkpt lat="38.817917" lon="121.14836">
        <ele>45.667053</ele>
        <time>2014-09-23T09:28:48.446000Z</time>
      </trkpt>
      <trkpt lat="38.818027" lon="121.14837">
        <ele>46.165733</ele>
        <time>2014-09-23T09:28:51.509000Z</time>
      </trkpt>
      <trkpt lat="38.81814" lon="121.148346">
        <ele>46.42232</ele>
        <time>2014-09-23T09:28:54.572000Z</time>
      </trkpt>
      <trkpt lat="38.81827" lon="121.14835">
        <ele>46.412685</ele>
        <time>2014-09-23T09:28:57.635000Z</time>
      </trkpt>
      <trkpt lat="38.81838" lon="121.14836">
        <ele>46.635258</ele>
        <time>2014-09-23T09:29:00.698000Z</time>
      </trkpt>
      <trkpt lat="38.818478" lon="121.148346">
        <ele>47.366577</ele>
        <time>2014-09-23T09:29:03.761000Z</time>
      </trkpt>
      <trkpt lat="38.818573" lon="121.148285">
        <ele>47.78872</ele>
        <time>2014-09-23T09:29:06.824000Z</time>
      </trkpt>
      <trkpt lat="38.818665" lon="121.14817">
        <ele>47.217335</ele>
        <time>2014-09-23T09:29:09.887000Z</time>
      </trkpt>
      <trkpt lat="38.818718" lon="121.14808">
        <ele>46.629677</ele>
        <time>2014-09-23T09:29:12.950000Z</time>
      </trkpt>
      <trkpt lat="38.818737" lon="121.14795">
        <ele>46.961143</ele>
        <time>2014-09-23T09:29:16.013000Z</time>
      </trkpt>
      <trkpt lat="38.81875" lon="121.14781">
        <ele>47.684525</ele>
        <time>2014-09-23T09:29:19.076000Z</time>
      </trkpt>
      <trkpt lat="38.81872" lon="121.14766">
        <ele>48.03346</ele>
        <time>2014-09-23T09:29:22.139000Z</time>
      </trkpt>
      <trkpt lat="38.81864" lon="121.14749">
        <ele>47.88408</ele>
        <time>2014-09-23T09:29:25.202000Z</time>
      </trkpt>
      <trkpt lat="38.818546" lon="121.147385">
        <ele>47.438606</ele>
        <time>2014-09-23T09:29:28.265000Z</time>
      </trkpt>
      <trkpt lat="38.81843" lon="121.14732">
        <ele>47.00334</ele>
        <time>2014-09-23T09:29:31.328000Z</time>
      </trkpt>
      <trkpt lat="38.818317" lon="121.1473">
        <ele>46.919956</ele>
        <time>2014-09-23T09:29:34.391000Z</time>
      </trkpt>
      <trkpt lat="38.818203" lon="121.147285">
        <ele>47.32975</ele>
        <time>2014-09-23T09:29:37.454000Z</time>
      </trkpt>
      <trkpt lat="38.81809" lon="121.14726">
        <ele>48.044083</ele>
        <time>2014-09-23T09:29:40.517000Z</time>
      </trkpt>
      <trkpt lat="38.81795" lon="121.14726">
        <ele>48.694054</ele>
        <time>2014-09-23T09:29:43.580000Z</time>
      </trkpt>
      <trkpt lat="38.817852" lon="121.14726">
        <ele>49.01758</ele>
        <time>2014-09-23T09:29:46.643000Z</time>
      </trkpt>
      <trkpt lat="38.817738" lon="121.14726">
        <ele>48.670452</ele>
        <time>2014-09-23T09:29:49.706000Z</time>
      </trkpt>
      <trkpt lat="38.817635" lon="121.14726">
        <ele>47.638718</ele>
        <time>2014-09-23T09:29:52.769000Z</time>
      </trkpt>
      <trkpt lat="38.817497" lon="121.14728">
        <ele>46.769352</ele>
        <time>2014-09-23T09:29:55.832000Z</time>
      </trkpt>
      <trkpt lat="38.81738" lon="121.14731">
        <ele>46.77639</ele>
        <time>2014-09-23T09:29:58.895000Z</time>
      </trkpt>
      <trkpt lat="38.81729" lon="121.14736">
        <ele>47.28618</ele>
        <time>2014-09-23T09:30:01.958000Z</time>
      </trkpt>
      <trkpt lat="38.81721" lon="121.147484">
        <ele>47.65973</ele>
        <time>2014-09-23T09:30:05.021000Z</time>
      </trkpt>
      <trkpt lat="38.817165" lon="121.14764">
        <ele>47.54115</ele>
        <time>2014-09-23T09:30:08.084000Z</time>
      </trkpt>
      <trkpt lat="38.817146" lon="121.147766">
        <ele>46.667168</ele>
        <time>2014-09-23T09:30:11.147000Z</time>
      </trkpt>
      <trkpt lat="38.817154" lon="121.14795">
        <ele>45.58617</ele>
        <time>2014-09-23T09:30:14.210000Z</time>
      </trkpt>
      <trkpt lat="38.81719" lon="121.148094">
        <ele>45.28057</ele>
        <time>2014-09-23T09:30:17.273000Z</time>
      </trkpt>
      <trkpt lat="38.817276" lon="121.14822">
        <ele>45.679153</ele>
        <time>2014-09-23T09:30:20.336000Z</time>
      </trkpt>
      <trkpt lat="38.817352" lon="121.14828">
        <ele>46.020763</ele>
        <time>2014-09-23T09:30:23.399000Z</time>
      </trkpt>
      <trkpt lat="38.81744" lon="121.14832">
        <ele>45.89941</ele>
        <time>2014-09-23T09:30:26.462000Z</time>
      </trkpt>
      <trkpt lat="38.817566" lon="121.14835">
        <ele>44.902817</ele>
        <time>2014-09-23T09:30:29.525000Z</time>
      </trkpt>
      <trkpt lat="38.81766" lon="121.14835">
        <ele>43.21492</ele>
        <time>2014-09-23T09:30:32.588000Z</time>
      </trkpt>
      <trkpt lat="38.817772" lon="121.14836">
        <ele>41.98482</ele>
        <time>2014-09-23T09:30:35.651000Z</time>
      </trkpt>
      <trkpt lat="38.81788" lon="121.14835">
        <ele>42.353622</ele>
        <time>2014-09-23T09:30:38.714000Z</time>
      </trkpt>
      <trkpt lat="38.818027" lon="121.14835">
        <ele>44.042854</ele>
        <time>2014-09-23T09:30:41.777000Z</time>
      </trkpt>
      <trkpt lat="38.81813" lon="121.14835">
        <ele>45.682316</ele>
        <time>2014-09-23T09:30:44.840000Z</time>
      </trkpt>
      <trkpt lat="38.81824" lon="121.14835">
        <ele>46.635166</ele>
        <time>2014-09-23T09:30:47.903000Z</time>
      </trkpt>
      <trkpt lat="38.818356" lon="121.14836">
        <ele>47.376167</ele>
        <time>2014-09-23T09:30:50.966000Z</time>
      </trkpt>
      <trkpt lat="38.818485" lon="121.14832">
        <ele>48.082985</ele>
        <time>2014-09-23T09:30:54.029000Z</time>
      </trkpt>
      <trkpt lat="38.818596" lon="121.14824">
        <ele>47.993347</ele>
        <time>2014-09-23T09:30:57.092000Z</time>
      </trkpt>
      <trkpt lat="38.818684" lon="121.14813">
        <ele>46.512905</ele>
        <time>2014-09-23T09:31:00.155000Z</time>
      </trkpt>
      <trkpt lat="38.81871" lon="121.14798">
        <ele>44.466206</ele>
        <time>2014-09-23T09:31:03.218000Z</time>
      </trkpt>
      <trkpt lat="38.81872" lon="121.14782">
        <ele>42.83575</ele>
        <time>2014-09-23T09:31:06.281000Z</time>
      </trkpt>
      <trkpt lat="38.818718" lon="121.14768">
        <ele>42.143883</ele>
        <time>2014-09-23T09:31:09.344000Z</time>
      </trkpt>
      <trkpt lat="38.818665" lon="121.14752">
        <ele>42.55358</ele>
        <time>2014-09-23T09:31:12.407000Z</time>
      </trkpt>
      <trkpt lat="38.81859" lon="121.1474">
        <ele>43.4407</ele>
        <time>2014-09-23T09:31:15.470000Z</time>
      </trkpt>
      <trkpt lat="38.818485" lon="121.147316">
        <ele>44.770355</ele>
        <time>2014-09-23T09:31:18.533000Z</time>
      </trkpt>
      <trkpt lat="38.818375" lon="121.14729">
        <ele>47.05067</ele>
        <time>2014-09-23T09:31:21.596000Z</time>
      </trkpt>
      <trkpt lat="38.818264" lon="121.14727">
        <ele>49.40965</ele>
        <time>2014-09-23T09:31:24.659000Z</time>
      </trkpt>
      <trkpt lat="38.818142" lon="121.14727">
        <ele>50.633644</ele>
        <time>2014-09-23T09:31:27.722000Z</time>
      </trkpt>
      <trkpt lat="38.818005" lon="121.14726">
        <ele>50.43182</ele>
        <time>2014-09-23T09:31:30.785000Z</time>
      </trkpt>
      <trkpt lat="38.817883" lon="121.14725">
        <ele>49.311283</ele>
        <time>2014-09-23T09:31:33.848000Z</time>
      </trkpt>
      <trkpt lat="38.817776" lon="121.14724">
        <ele>47.88269</ele>
        <time>2014-09-23T09:31:36.911000Z</time>
      </trkpt>
      <trkpt lat="38.817642" lon="121.14724">
        <ele>46.820354</ele>
        <time>2014-09-23T09:31:39.974000Z</time>
      </trkpt>
      <trkpt lat="38.8175" lon="121.14724">
        <ele>46.485256</ele>
        <time>2014-09-23T09:31:43.037000Z</time>
      </trkpt>
      <trkpt lat="38.817352" lon="121.1473">
        <ele>46.46883</ele>
        <time>2014-09-23T09:31:46.100000Z</time>
      </trkpt>
      <trkpt lat="38.817272" lon="121.14738">
        <ele>46.35424</ele>
        <time>2014-09-23T09:31:49.163000Z</time>
      </trkpt>
      <trkpt lat="38.817184" lon="121.14751">
        <ele>46.21958</ele>
        <time>2014-09-23T09:31:52.226000Z</time>
      </trkpt>
      <trkpt lat="38.817123" lon="121.14768">
        <ele>45.942406</ele>
        <time>2014-09-23T09:31:55.289000Z</time>
      </trkpt>
      <trkpt lat="38.817116" lon="121.147804">
        <ele>45.126408</ele>
        <time>2014-09-23T09:31:58.352000Z</time>
      </trkpt>
      <trkpt lat="38.817135" lon="121.147964">
        <ele>43.769146</ele>
        <time>2014-09-23T09:32:01.415000Z</time>
      </trkpt>
      <trkpt lat="38.81719" lon="121.14812">
        <ele>42.607635</ele>
        <time>2014-09-23T09:32:04.478000Z</time>
      </trkpt>
      <trkpt lat="38.817272" lon="121.14823">
        <ele>42.429577</ele>
        <time>2014-09-23T09:32:07.541000Z</time>
      </trkpt>
      <trkpt lat="38.8187" lon="121.14776">
        <ele>47.96764</ele>
        <time>2014-09-23T09:32:10.604000Z</time>
      </trkpt>
      <trkpt lat="38.81869" lon="121.14772">
        <ele>47.6552</ele>
        <time>2014-09-23T09:32:13.667000Z</time>
      </trkpt>
      <trkpt lat="38.81865" lon="121.1476">
        <ele>46.88474</ele>
        <time>2014-09-23T09:32:16.730000Z</time>
      </trkpt>
      <trkpt lat="38.81858" lon="121.14748">
        <ele>46.119087</ele>
        <time>2014-09-23T09:32:19.793000Z</time>
      </trkpt>
      <trkpt lat="38.81847" lon="121.14738">
        <ele>45.595234</ele>
        <time>2014-09-23T09:32:22.856000Z</time>
      </trkpt>
      <trkpt lat="38.818367" lon="121.14732">
        <ele>45.9314</ele>
        <time>2014-09-23T09:32:25.919000Z</time>
      </trkpt>
      <trkpt lat="38.81824" lon="121.14731">
        <ele>47.244305</ele>
        <time>2014-09-23T09:32:28.982000Z</time>
      </trkpt>
      <trkpt lat="38.818115" lon="121.147285">
        <ele>48.60004</ele>
        <time>2014-09-23T09:32:32.045000Z</time>
      </trkpt>
      <trkpt lat="38.817986" lon="121.14727">
        <ele>49.287384</ele>
        <time>2014-09-23T09:32:35.108000Z</time>
      </trkpt>
      <trkpt lat="38.81786" lon="121.147255">
        <ele>49.162155</ele>
        <time>2014-09-23T09:32:38.171000Z</time>
      </trkpt>
      <trkpt lat="38.817772" lon="121.14725">
        <ele>48.37833</ele>
        <time>2014-09-23T09:32:41.234000Z</time>
      </trkpt>
      <trkpt lat="38.81768" lon="121.14724">
        <ele>47.590706</ele>
        <time>2014-09-23T09:32:44.297000Z</time>
      </trkpt>
      <trkpt lat="38.81755" lon="121.14723">
        <ele>47.255756</ele>
        <time>2014-09-23T09:32:47.360000Z</time>
      </trkpt>
      <trkpt lat="38.817436" lon="121.147255">
        <ele>47.01145</ele>
        <time>2014-09-23T09:32:50.423000Z</time>
      </trkpt>
      <trkpt lat="38.8173" lon="121.147354">
        <ele>46.52145</ele>
        <time>2014-09-23T09:32:53.486000Z</time>
      </trkpt>
      <trkpt lat="38.817223" lon="121.14745">
        <ele>45.748276</ele>
        <time>2014-09-23T09:32:56.549000Z</time>
      </trkpt>
      <trkpt lat="38.81715" lon="121.147606">
        <ele>44.830677</ele>
        <time>2014-09-23T09:32:59.612000Z</time>
      </trkpt>
      <trkpt lat="38.817123" lon="121.14776">
        <ele>44.10568</ele>
        <time>2014-09-23T09:33:02.675000Z</time>
      </trkpt>
      <trkpt lat="38.817127" lon="121.14791">
        <ele>43.823128</ele>
        <time>2014-09-23T09:33:05.738000Z</time>
      </trkpt>
      <trkpt lat="38.81718" lon="121.14807">
        <ele>43.91166</ele>
        <time>2014-09-23T09:33:08.801000Z</time>
      </trkpt>
      <trkpt lat="38.81727" lon="121.1482">
        <ele>44.252403</ele>
        <time>2014-09-23T09:33:11.864000Z</time>
      </trkpt>
      <trkpt lat="38.81737" lon="121.148285">
        <ele>44.662178</ele>
        <time>2014-09-23T09:33:14.927000Z</time>
      </trkpt>
      <trkpt lat="38.817493" lon="121.14834">
        <ele>44.983917</ele>
        <time>2014-09-23T09:33:17.990000Z</time>
      </trkpt>
      <trkpt lat="38.817608" lon="121.14833">
        <ele>45.158737</ele>
        <time>2014-09-23T09:33:21.053000Z</time>
      </trkpt>
      <trkpt lat="38.81773" lon="121.148346">
        <ele>45.29255</ele>
        <time>2014-09-23T09:33:24.116000Z</time>
      </trkpt>
      <trkpt lat="38.817837" lon="121.148346">
        <ele>45.61556</ele>
        <time>2014-09-23T09:33:27.179000Z</time>
      </trkpt>
      <trkpt lat="38.81795" lon="121.14836">
        <ele>46.624943</ele>
        <time>2014-09-23T09:33:30.242000Z</time>
      </trkpt>
      <trkpt lat="38.818077" lon="121.14837">
        <ele>48.37</ele>
        <time>2014-09-23T09:33:33.305000Z</time>
      </trkpt>
      <trkpt lat="38.818207" lon="121.14837">
        <ele>49.830074</ele>
        <time>2014-09-23T09:33:36.368000Z</time>
      </trkpt>
      <trkpt lat="38.818317" lon="121.14835">
        <ele>50.23271</ele>
        <time>2014-09-23T09:33:39.431000Z</time>
      </trkpt>
      <trkpt lat="38.81846" lon="121.14833">
        <ele>49.65183</ele>
        <time>2014-09-23T09:33:42.494000Z</time>
      </trkpt>
      <trkpt lat="38.818558" lon="121.14826">
        <ele>48.367043</ele>
        <time>2014-09-23T09:33:45.557000Z</time>
      </trkpt>
      <trkpt lat="38.81865" lon="121.148155">
        <ele>47.052162</ele>
        <time>2014-09-23T09:33:48.620000Z</time>
      </trkpt>
      <trkpt lat="38.8187" lon="121.14805">
        <ele>46.329067</ele>
        <time>2014-09-23T09:33:51.683000Z</time>
      </trkpt>
      <trkpt lat="38.818718" lon="121.14793">
        <ele>46.056103</ele>
        <time>2014-09-23T09:33:54.746000Z</time>
      </trkpt>
      <trkpt lat="38.81872" lon="121.14777">
        <ele>45.812138</ele>
        <time>2014-09-23T09:33:57.809000Z</time>
      </trkpt>
      <trkpt lat="38.81869" lon="121.14763">
        <ele>45.351532</ele>
        <time>2014-09-23T09:34:00.872000Z</time>
      </trkpt>
      <trkpt lat="38.818634" lon="121.1475">
        <ele>44.6466</ele>
        <time>2014-09-23T09:34:03.935000Z</time>
      </trkpt>
      <trkpt lat="38.81857" lon="121.147415">
        <ele>43.926495</ele>
        <time>2014-09-23T09:34:06.998000Z</time>
      </trkpt>
      <trkpt lat="38.81847" lon="121.14734">
        <ele>43.4402</ele>
        <time>2014-09-23T09:34:10.061000Z</time>
      </trkpt>
      <trkpt lat="38.818356" lon="121.14729">
        <ele>43.176987</ele>
        <time>2014-09-23T09:34:13.124000Z</time>
      </trkpt>
      <trkpt lat="38.818264" lon="121.14728">
        <ele>43.260696</ele>
        <time>2014-09-23T09:34:16.187000Z</time>
      </trkpt>
      <trkpt lat="38.818172" lon="121.14727">
        <ele>44.159313</ele>
        <time>2014-09-23T09:34:19.250000Z</time>
      </trkpt>
      <trkpt lat="38.818043" lon="121.14727">
        <ele>46.038868</ele>
        <time>2014-09-23T09:34:22.313000Z</time>
      </trkpt>
      <trkpt lat="38.817917" lon="121.14727">
        <ele>48.147263</ele>
        <time>2014-09-23T09:34:25.376000Z</time>
      </trkpt>
      <trkpt lat="38.817802" lon="121.14726">
        <ele>49.395706</ele>
        <time>2014-09-23T09:34:28.439000Z</time>
      </trkpt>
      <trkpt lat="38.817707" lon="121.147255">
        <ele>49.278183</ele>
        <time>2014-09-23T09:34:31.502000Z</time>
      </trkpt>
      <trkpt lat="38.817577" lon="121.14726">
        <ele>48.24005</ele>
        <time>2014-09-23T09:34:34.565000Z</time>
      </trkpt>
      <trkpt lat="38.817467" lon="121.14727">
        <ele>46.985542</ele>
        <time>2014-09-23T09:34:37.628000Z</time>
      </trkpt>
      <trkpt lat="38.817337" lon="121.14734">
        <ele>45.70269</ele>
        <time>2014-09-23T09:34:40.691000Z</time>
      </trkpt>
      <trkpt lat="38.817265" lon="121.14741">
        <ele>44.507515</ele>
        <time>2014-09-23T09:34:43.754000Z</time>
      </trkpt>
      <trkpt lat="38.81719" lon="121.14755">
        <ele>43.787647</ele>
        <time>2014-09-23T09:34:46.817000Z</time>
      </trkpt>
      <trkpt lat="38.817154" lon="121.14766">
        <ele>43.304977</ele>
        <time>2014-09-23T09:34:49.880000Z</time>
      </trkpt>
      <trkpt lat="38.817146" lon="121.147804">
        <ele>42.624928</ele>
        <time>2014-09-23T09:34:52.943000Z</time>
      </trkpt>
      <trkpt lat="38.81716" lon="121.147934">
        <ele>42.054394</ele>
        <time>2014-09-23T09:34:56.006000Z</time>
      </trkpt>
      <trkpt lat="38.817204" lon="121.14805">
        <ele>41.976974</ele>
        <time>2014-09-23T09:34:59.069000Z</time>
      </trkpt>
      <trkpt lat="38.817253" lon="121.148155">
        <ele>42.16652</ele>
        <time>2014-09-23T09:35:02.132000Z</time>
      </trkpt>
      <trkpt lat="38.81732" lon="121.14823">
        <ele>42.829357</ele>
        <time>2014-09-23T09:35:05.195000Z</time>
      </trkpt>
      <trkpt lat="38.817417" lon="121.14829">
        <ele>44.281918</ele>
        <time>2014-09-23T09:35:08.258000Z</time>
      </trkpt>
      <trkpt lat="38.817513" lon="121.14832">
        <ele>45.841198</ele>
        <time>2014-09-23T09:35:11.321000Z</time>
      </trkpt>
      <trkpt lat="38.81763" lon="121.148346">
        <ele>46.684933</ele>
        <time>2014-09-23T09:35:14.384000Z</time>
      </trkpt>
      <trkpt lat="38.81773" lon="121.148346">
        <ele>46.798965</ele>
        <time>2014-09-23T09:35:17.447000Z</time>
      </trkpt>
      <trkpt lat="38.81784" lon="121.14835">
        <ele>46.503227</ele>
        <time>2014-09-23T09:35:20.510000Z</time>
      </trkpt>
      <trkpt lat="38.817955" lon="121.14836">
        <ele>45.836613</ele>
        <time>2014-09-23T09:35:23.573000Z</time>
      </trkpt>
      <trkpt lat="38.81805" lon="121.14836">
        <ele>44.797894</ele>
        <time>2014-09-23T09:35:26.636000Z</time>
      </trkpt>
      <trkpt lat="38.818157" lon="121.14836">
        <ele>44.148964</ele>
        <time>2014-09-23T09:35:29.699000Z</time>
      </trkpt>
      <trkpt lat="38.818268" lon="121.14836">
        <ele>44.471615</ele>
        <time>2014-09-23T09:35:32.762000Z</time>
      </trkpt>
      <trkpt lat="38.81837" lon="121.14835">
        <ele>45.363953</ele>
        <time>2014-09-23T09:35:35.825000Z</time>
      </trkpt>
      <trkpt lat="38.81847" lon="121.14832">
        <ele>46.101803</ele>
        <time>2014-09-23T09:35:38.888000Z</time>
      </trkpt>
      <trkpt lat="38.81858" lon="121.14826">
        <ele>46.241703</ele>
        <time>2014-09-23T09:35:41.951000Z</time>
      </trkpt>
      <trkpt lat="38.818653" lon="121.14817">
        <ele>45.621956</ele>
        <time>2014-09-23T09:35:45.014000Z</time>
      </trkpt>
      <trkpt lat="38.818707" lon="121.14805">
        <ele>44.51021</ele>
        <time>2014-09-23T09:35:48.077000Z</time>
      </trkpt>
      <trkpt lat="38.818726" lon="121.1479">
        <ele>43.52376</ele>
        <time>2014-09-23T09:35:51.140000Z</time>
      </trkpt>
      <trkpt lat="38.818703" lon="121.14777">
        <ele>43.12232</ele>
        <time>2014-09-23T09:35:54.203000Z</time>
      </trkpt>
      <trkpt lat="38.81869" lon="121.14764">
        <ele>43.14518</ele>
        <time>2014-09-23T09:35:57.266000Z</time>
      </trkpt>
      <trkpt lat="38.81863" lon="121.14748">
        <ele>43.573406</ele>
        <time>2014-09-23T09:36:00.329000Z</time>
      </trkpt>
      <trkpt lat="38.81855" lon="121.1474">
        <ele>44.45372</ele>
        <time>2014-09-23T09:36:03.392000Z</time>
      </trkpt>
      <trkpt lat="38.818447" lon="121.14734">
        <ele>45.50527</ele>
        <time>2014-09-23T09:36:06.455000Z</time>
      </trkpt>
      <trkpt lat="38.818344" lon="121.14731">
        <ele>46.369423</ele>
        <time>2014-09-23T09:36:09.518000Z</time>
      </trkpt>
      <trkpt lat="38.818233" lon="121.14731">
        <ele>46.896557</ele>
        <time>2014-09-23T09:36:12.581000Z</time>
      </trkpt>
      <trkpt lat="38.818115" lon="121.14729">
        <ele>46.995384</ele>
        <time>2014-09-23T09:36:15.644000Z</time>
      </trkpt>
      <trkpt lat="38.81799" lon="121.14729">
        <ele>46.701736</ele>
        <time>2014-09-23T09:36:18.707000Z</time>
      </trkpt>
      <trkpt lat="38.817883" lon="121.14729">
        <ele>46.236595</ele>
        <time>2014-09-23T09:36:21.770000Z</time>
      </trkpt>
      <trkpt lat="38.81776" lon="121.14728">
        <ele>45.769558</ele>
        <time>2014-09-23T09:36:24.833000Z</time>
      </trkpt>
      <trkpt lat="38.81764" lon="121.14727">
        <ele>45.31782</ele>
        <time>2014-09-23T09:36:27.896000Z</time>
      </trkpt>
      <trkpt lat="38.81751" lon="121.14728">
        <ele>45.280594</ele>
        <time>2014-09-23T09:36:30.959000Z</time>
      </trkpt>
      <trkpt lat="38.81737" lon="121.14732">
        <ele>45.928196</ele>
        <time>2014-09-23T09:36:34.022000Z</time>
      </trkpt>
      <trkpt lat="38.817265" lon="121.14742">
        <ele>46.53315</ele>
        <time>2014-09-23T09:36:37.085000Z</time>
      </trkpt>
      <trkpt lat="38.817207" lon="121.14751">
        <ele>46.455563</ele>
        <time>2014-09-23T09:36:40.148000Z</time>
      </trkpt>
      <trkpt lat="38.817158" lon="121.14766">
        <ele>46.037018</ele>
        <time>2014-09-23T09:36:43.211000Z</time>
      </trkpt>
      <trkpt lat="38.817146" lon="121.147804">
        <ele>45.58496</ele>
        <time>2014-09-23T09:36:46.274000Z</time>
      </trkpt>
      <trkpt lat="38.81717" lon="121.14795">
        <ele>44.974297</ele>
        <time>2014-09-23T09:36:49.337000Z</time>
      </trkpt>
      <trkpt lat="38.81722" lon="121.148094">
        <ele>44.22929</ele>
        <time>2014-09-23T09:36:52.400000Z</time>
      </trkpt>
      <trkpt lat="38.817307" lon="121.14822">
        <ele>43.600437</ele>
        <time>2014-09-23T09:36:55.463000Z</time>
      </trkpt>
      <trkpt lat="38.81741" lon="121.14831">
        <ele>43.750107</ele>
        <time>2014-09-23T09:36:58.526000Z</time>
      </trkpt>
      <trkpt lat="38.817524" lon="121.14834">
        <ele>44.94993</ele>
        <time>2014-09-23T09:37:01.589000Z</time>
      </trkpt>
      <trkpt lat="38.817635" lon="121.14834">
        <ele>46.323418</ele>
        <time>2014-09-23T09:37:04.652000Z</time>
      </trkpt>
      <trkpt lat="38.81776" lon="121.14834">
        <ele>46.932156</ele>
        <time>2014-09-23T09:37:07.715000Z</time>
      </trkpt>
      <trkpt lat="38.817875" lon="121.148346">
        <ele>46.914715</ele>
        <time>2014-09-23T09:37:10.778000Z</time>
      </trkpt>
      <trkpt lat="38.817993" lon="121.148346">
        <ele>47.134228</ele>
        <time>2014-09-23T09:37:13.841000Z</time>
      </trkpt>
      <trkpt lat="38.818108" lon="121.14836">
        <ele>48.016495</ele>
        <time>2014-09-23T09:37:16.904000Z</time>
      </trkpt>
      <trkpt lat="38.818237" lon="121.14837">
        <ele>49.274426</ele>
        <time>2014-09-23T09:37:19.967000Z</time>
      </trkpt>
      <trkpt lat="38.81837" lon="121.14838">
        <ele>50.294605</ele>
        <time>2014-09-23T09:37:23.030000Z</time>
      </trkpt>
      <trkpt lat="38.818478" lon="121.14833">
        <ele>50.626247</ele>
        <time>2014-09-23T09:37:26.093000Z</time>
      </trkpt>
      <trkpt lat="38.818558" lon="121.14827">
        <ele>50.415394</ele>
        <time>2014-09-23T09:37:29.156000Z</time>
      </trkpt>
      <trkpt lat="38.81865" lon="121.148155">
        <ele>49.932278</ele>
        <time>2014-09-23T09:37:32.219000Z</time>
      </trkpt>
      <trkpt lat="38.8187" lon="121.147995">
        <ele>49.260708</ele>
        <time>2014-09-23T09:37:35.282000Z</time>
      </trkpt>
      <trkpt lat="38.81872" lon="121.14782">
        <ele>48.69755</ele>
        <time>2014-09-23T09:37:38.345000Z</time>
      </trkpt>
      <trkpt lat="38.818703" lon="121.14767">
        <ele>48.181694</ele>
        <time>2014-09-23T09:37:41.408000Z</time>
      </trkpt>
      <trkpt lat="38.818638" lon="121.14753">
        <ele>47.39486</ele>
        <time>2014-09-23T09:37:44.471000Z</time>
      </trkpt>
      <trkpt lat="38.81855" lon="121.147415">
        <ele>46.317146</ele>
        <time>2014-09-23T09:37:47.534000Z</time>
      </trkpt>
      <trkpt lat="38.818443" lon="121.14735">
        <ele>45.215397</ele>
        <time>2014-09-23T09:37:50.597000Z</time>
      </trkpt>
      <trkpt lat="38.81833" lon="121.147316">
        <ele>44.39565</ele>
        <time>2014-09-23T09:37:53.660000Z</time>
      </trkpt>
      <trkpt lat="38.81822" lon="121.14731">
        <ele>44.27614</ele>
        <time>2014-09-23T09:37:56.723000Z</time>
      </trkpt>
      <trkpt lat="38.818085" lon="121.14731">
        <ele>44.963627</ele>
        <time>2014-09-23T09:37:59.786000Z</time>
      </trkpt>
      <trkpt lat="38.817963" lon="121.14731">
        <ele>45.880146</ele>
        <time>2014-09-23T09:38:02.849000Z</time>
      </trkpt>
      <trkpt lat="38.81784" lon="121.14731">
        <ele>46.198273</ele>
        <time>2014-09-23T09:38:05.912000Z</time>
      </trkpt>
      <trkpt lat="38.81772" lon="121.14731">
        <ele>45.651466</ele>
        <time>2014-09-23T09:38:08.975000Z</time>
      </trkpt>
      <trkpt lat="38.817585" lon="121.1473">
        <ele>44.83542</ele>
        <time>2014-09-23T09:38:12.038000Z</time>
      </trkpt>
      <trkpt lat="38.817463" lon="121.14731">
        <ele>44.86248</ele>
        <time>2014-09-23T09:38:15.101000Z</time>
      </trkpt>
      <trkpt lat="38.817352" lon="121.14736">
        <ele>45.956432</ele>
        <time>2014-09-23T09:38:18.164000Z</time>
      </trkpt>
      <trkpt lat="38.81724" lon="121.14747">
        <ele>46.494392</ele>
        <time>2014-09-23T09:38:21.227000Z</time>
      </trkpt>
      <trkpt lat="38.817173" lon="121.147606">
        <ele>45.33187</ele>
        <time>2014-09-23T09:38:24.290000Z</time>
      </trkpt>
      <trkpt lat="38.817173" lon="121.147606">
        <ele>43.78661</ele>
        <time>2014-09-23T09:38:27.353000Z</time>
      </trkpt>
      <trkpt lat="38.817154" lon="121.14774">
        <ele>43.441498</ele>
        <time>2014-09-23T09:38:30.416000Z</time>
      </trkpt>
      <trkpt lat="38.817158" lon="121.14788">
        <ele>44.13328</ele>
        <time>2014-09-23T09:38:33.479000Z</time>
      </trkpt>
      <trkpt lat="38.817184" lon="121.148">
        <ele>44.925396</ele>
        <time>2014-09-23T09:38:36.542000Z</time>
      </trkpt>
      <trkpt lat="38.81724" lon="121.14813">
        <ele>45.178432</ele>
        <time>2014-09-23T09:38:39.605000Z</time>
      </trkpt>
      <trkpt lat="38.81733" lon="121.14824">
        <ele>44.35216</ele>
        <time>2014-09-23T09:38:42.668000Z</time>
      </trkpt>
      <trkpt lat="38.81744" lon="121.1483">
        <ele>43.85723</ele>
        <time>2014-09-23T09:38:45.731000Z</time>
      </trkpt>
      <trkpt lat="38.817566" lon="121.14833">
        <ele>43.78619</ele>
        <time>2014-09-23T09:38:48.794000Z</time>
      </trkpt>
      <trkpt lat="38.817673" lon="121.14833">
        <ele>44.50906</ele>
        <time>2014-09-23T09:38:51.857000Z</time>
      </trkpt>
      <trkpt lat="38.817795" lon="121.148346">
        <ele>45.93617</ele>
        <time>2014-09-23T09:38:54.920000Z</time>
      </trkpt>
      <trkpt lat="38.817898" lon="121.14835">
        <ele>46.978176</ele>
        <time>2014-09-23T09:38:57.983000Z</time>
      </trkpt>
      <trkpt lat="38.817898" lon="121.14835">
        <ele>46.81571</ele>
        <time>2014-09-23T09:39:01.046000Z</time>
      </trkpt>
      <trkpt lat="38.818027" lon="121.14835">
        <ele>46.292816</ele>
        <time>2014-09-23T09:39:04.109000Z</time>
      </trkpt>
      <trkpt lat="38.818146" lon="121.14835">
        <ele>46.61635</ele>
        <time>2014-09-23T09:39:07.172000Z</time>
      </trkpt>
      <trkpt lat="38.81826" lon="121.14836">
        <ele>47.877003</ele>
        <time>2014-09-23T09:39:10.235000Z</time>
      </trkpt>
      <trkpt lat="38.81826" lon="121.14836">
        <ele>49.207993</ele>
        <time>2014-09-23T09:39:13.298000Z</time>
      </trkpt>
      <trkpt lat="38.81839" lon="121.14835">
        <ele>50.009357</ele>
        <time>2014-09-23T09:39:16.361000Z</time>
      </trkpt>
      <trkpt lat="38.81849" lon="121.148315">
        <ele>50.199528</ele>
        <time>2014-09-23T09:39:19.424000Z</time>
      </trkpt>
      <trkpt lat="38.818596" lon="121.14823">
        <ele>49.867146</ele>
        <time>2014-09-23T09:39:22.487000Z</time>
      </trkpt>
      <trkpt lat="38.818695" lon="121.14808">
        <ele>49.3888</ele>
        <time>2014-09-23T09:39:25.550000Z</time>
      </trkpt>
      <trkpt lat="38.81873" lon="121.147964">
        <ele>48.99848</ele>
        <time>2014-09-23T09:39:28.613000Z</time>
      </trkpt>
      <trkpt lat="38.81875" lon="121.14783">
        <ele>48.455563</ele>
        <time>2014-09-23T09:39:31.675000Z</time>
      </trkpt>
      <trkpt lat="38.818737" lon="121.1477">
        <ele>47.30901</ele>
        <time>2014-09-23T09:39:34.737000Z</time>
      </trkpt>
      <trkpt lat="38.818676" lon="121.14755">
        <ele>45.599815</ele>
        <time>2014-09-23T09:39:37.799000Z</time>
      </trkpt>
      <trkpt lat="38.81862" lon="121.14746">
        <ele>43.953312</ele>
        <time>2014-09-23T09:39:40.861000Z</time>
      </trkpt>
      <trkpt lat="38.81854" lon="121.14738">
        <ele>42.82101</ele>
        <time>2014-09-23T09:39:43.923000Z</time>
      </trkpt>
      <trkpt lat="38.818443" lon="121.147316">
        <ele>42.405167</ele>
        <time>2014-09-23T09:39:46.985000Z</time>
      </trkpt>
      <trkpt lat="38.818325" lon="121.14729">
        <ele>43.463196</ele>
        <time>2014-09-23T09:39:50.047000Z</time>
      </trkpt>
      <trkpt lat="38.818188" lon="121.14729">
        <ele>45.94331</ele>
        <time>2014-09-23T09:39:53.109000Z</time>
      </trkpt>
      <trkpt lat="38.818077" lon="121.1473">
        <ele>47.630062</ele>
        <time>2014-09-23T09:39:56.171000Z</time>
      </trkpt>
      <trkpt lat="38.817978" lon="121.14731">
        <ele>47.00857</ele>
        <time>2014-09-23T09:39:59.233000Z</time>
      </trkpt>
      <trkpt lat="38.817863" lon="121.1473">
        <ele>45.44562</ele>
        <time>2014-09-23T09:40:02.295000Z</time>
      </trkpt>
      <trkpt lat="38.81776" lon="121.1473">
        <ele>44.575237</ele>
        <time>2014-09-23T09:40:05.357000Z</time>
      </trkpt>
      <trkpt lat="38.817657" lon="121.14728">
        <ele>44.663834</ele>
        <time>2014-09-23T09:40:08.419000Z</time>
      </trkpt>
      <trkpt lat="38.817543" lon="121.14728">
        <ele>45.874546</ele>
        <time>2014-09-23T09:40:11.481000Z</time>
      </trkpt>
      <trkpt lat="38.81744" lon="121.14729">
        <ele>47.975964</ele>
        <time>2014-09-23T09:40:14.543000Z</time>
      </trkpt>
      <trkpt lat="38.81733" lon="121.147354">
        <ele>49.1991</ele>
        <time>2014-09-23T09:40:17.605000Z</time>
      </trkpt>
      <trkpt lat="38.81723" lon="121.14745">
        <ele>47.98487</ele>
        <time>2014-09-23T09:40:20.667000Z</time>
      </trkpt>
      <trkpt lat="38.817173" lon="121.14757">
        <ele>45.299088</ele>
        <time>2014-09-23T09:40:23.729000Z</time>
      </trkpt>
      <trkpt lat="38.817146" lon="121.1477">
        <ele>43.00696</ele>
        <time>2014-09-23T09:40:26.791000Z</time>
      </trkpt>
      <trkpt lat="38.817142" lon="121.14786">
        <ele>41.794807</ele>
        <time>2014-09-23T09:40:29.853000Z</time>
      </trkpt>
      <trkpt lat="38.81716" lon="121.14797">
        <ele>41.82398</ele>
        <time>2014-09-23T09:40:32.915000Z</time>
      </trkpt>
      <trkpt lat="38.817192" lon="121.14809">
        <ele>42.93789</ele>
        <time>2014-09-23T09:40:35.977000Z</time>
      </trkpt>
      <trkpt lat="38.81728" lon="121.148186">
        <ele>44.173508</ele>
        <time>2014-09-23T09:40:39.039000Z</time>
      </trkpt>
      <trkpt lat="38.81738" lon="121.14828">
        <ele>44.702248</ele>
        <time>2014-09-23T09:40:42.101000Z</time>
      </trkpt>
      <trkpt lat="38.817474" lon="121.14834">
        <ele>44.600082</ele>
        <time>2014-09-23T09:40:45.163000Z</time>
      </trkpt>
      <trkpt lat="38.81757" lon="121.14835">
        <ele>44.399475</ele>
        <time>2014-09-23T09:40:48.225000Z</time>
      </trkpt>
      <trkpt lat="38.817677" lon="121.14835">
        <ele>44.619675</ele>
        <time>2014-09-23T09:40:51.287000Z</time>
      </trkpt>
      <trkpt lat="38.81778" lon="121.14837">
        <ele>45.230503</ele>
        <time>2014-09-23T09:40:54.349000Z</time>
      </trkpt>
      <trkpt lat="38.817898" lon="121.14838">
        <ele>45.850094</ele>
        <time>2014-09-23T09:40:57.411000Z</time>
      </trkpt>
      <trkpt lat="38.818016" lon="121.148384">
        <ele>46.1137</ele>
        <time>2014-09-23T09:41:00.473000Z</time>
      </trkpt>
      <trkpt lat="38.81815" lon="121.148384">
        <ele>45.931637</ele>
        <time>2014-09-23T09:41:03.535000Z</time>
      </trkpt>
      <trkpt lat="38.818256" lon="121.14838">
        <ele>45.59125</ele>
        <time>2014-09-23T09:41:06.597000Z</time>
      </trkpt>
      <trkpt lat="38.818367" lon="121.14838">
        <ele>45.40111</ele>
        <time>2014-09-23T09:41:09.659000Z</time>
      </trkpt>
      <trkpt lat="38.818478" lon="121.14833">
        <ele>45.20848</ele>
        <time>2014-09-23T09:41:12.721000Z</time>
      </trkpt>
      <trkpt lat="38.81857" lon="121.14826">
        <ele>44.846146</ele>
        <time>2014-09-23T09:41:15.783000Z</time>
      </trkpt>
      <trkpt lat="38.81865" lon="121.14816">
        <ele>44.457085</ele>
        <time>2014-09-23T09:41:18.845000Z</time>
      </trkpt>
      <trkpt lat="38.818707" lon="121.14802">
        <ele>44.221733</ele>
        <time>2014-09-23T09:41:21.907000Z</time>
      </trkpt>
      <trkpt lat="38.818733" lon="121.147865">
        <ele>44.130768</ele>
        <time>2014-09-23T09:41:24.969000Z</time>
      </trkpt>
      <trkpt lat="38.81872" lon="121.147705">
        <ele>43.9326</ele>
        <time>2014-09-23T09:41:28.031000Z</time>
      </trkpt>
      <trkpt lat="38.818684" lon="121.14758">
        <ele>43.444866</ele>
        <time>2014-09-23T09:41:31.093000Z</time>
      </trkpt>
      <trkpt lat="38.818604" lon="121.14748">
        <ele>42.479492</ele>
        <time>2014-09-23T09:41:34.155000Z</time>
      </trkpt>
      <trkpt lat="38.81851" lon="121.14738">
        <ele>41.043575</ele>
        <time>2014-09-23T09:41:37.217000Z</time>
      </trkpt>
      <trkpt lat="38.818405" lon="121.14732">
        <ele>39.830223</ele>
        <time>2014-09-23T09:41:40.279000Z</time>
      </trkpt>
      <trkpt lat="38.8183" lon="121.147316">
        <ele>39.691723</ele>
        <time>2014-09-23T09:41:43.341000Z</time>
      </trkpt>
      <trkpt lat="38.81816" lon="121.14731">
        <ele>40.50521</ele>
        <time>2014-09-23T09:41:46.403000Z</time>
      </trkpt>
      <trkpt lat="38.81806" lon="121.1473">
        <ele>41.71822</ele>
        <time>2014-09-23T09:41:49.465000Z</time>
      </trkpt>
      <trkpt lat="38.817932" lon="121.1473">
        <ele>42.89307</ele>
        <time>2014-09-23T09:41:52.527000Z</time>
      </trkpt>
      <trkpt lat="38.817806" lon="121.14729">
        <ele>43.903397</ele>
        <time>2014-09-23T09:41:55.589000Z</time>
      </trkpt>
      <trkpt lat="38.817688" lon="121.147285">
        <ele>44.726017</ele>
        <time>2014-09-23T09:41:58.651000Z</time>
      </trkpt>
      <trkpt lat="38.817577" lon="121.14726">
        <ele>45.348</ele>
        <time>2014-09-23T09:42:01.713000Z</time>
      </trkpt>
      <trkpt lat="38.817455" lon="121.14729">
        <ele>45.620457</ele>
        <time>2014-09-23T09:42:04.775000Z</time>
      </trkpt>
      <trkpt lat="38.817375" lon="121.14735">
        <ele>45.591644</ele>
        <time>2014-09-23T09:42:07.837000Z</time>
      </trkpt>
      <trkpt lat="38.81727" lon="121.14745">
        <ele>45.009346</ele>
        <time>2014-09-23T09:42:10.899000Z</time>
      </trkpt>
      <trkpt lat="38.817196" lon="121.147575">
        <ele>43.73576</ele>
        <time>2014-09-23T09:42:13.961000Z</time>
      </trkpt>
      <trkpt lat="38.81716" lon="121.147736">
        <ele>42.45745</ele>
        <time>2014-09-23T09:42:17.023000Z</time>
      </trkpt>
      <trkpt lat="38.81716" lon="121.14788">
        <ele>42.08771</ele>
        <time>2014-09-23T09:42:20.085000Z</time>
      </trkpt>
      <trkpt lat="38.817192" lon="121.147995">
        <ele>42.597466</ele>
        <time>2014-09-23T09:42:23.147000Z</time>
      </trkpt>
      <trkpt lat="38.817245" lon="121.14812">
        <ele>43.314762</ele>
        <time>2014-09-23T09:42:26.209000Z</time>
      </trkpt>
      <trkpt lat="38.817318" lon="121.14823">
        <ele>43.791557</ele>
        <time>2014-09-23T09:42:29.271000Z</time>
      </trkpt>
      <trkpt lat="38.817413" lon="121.1483">
        <ele>44.09884</ele>
        <time>2014-09-23T09:42:32.333000Z</time>
      </trkpt>
      <trkpt lat="38.817524" lon="121.14834">
        <ele>44.07258</ele>
        <time>2014-09-23T09:42:35.395000Z</time>
      </trkpt>
      <trkpt lat="38.817646" lon="121.148346">
        <ele>43.587124</ele>
        <time>2014-09-23T09:42:38.457000Z</time>
      </trkpt>
      <trkpt lat="38.81777" lon="121.14837">
        <ele>43.134407</ele>
        <time>2014-09-23T09:42:41.519000Z</time>
      </trkpt>
      <trkpt lat="38.817905" lon="121.14838">
        <ele>43.16907</ele>
        <time>2014-09-23T09:42:44.581000Z</time>
      </trkpt>
      <trkpt lat="38.81802" lon="121.14838">
        <ele>43.530567</ele>
        <time>2014-09-23T09:42:47.643000Z</time>
      </trkpt>
      <trkpt lat="38.818134" lon="121.148384">
        <ele>43.88825</ele>
        <time>2014-09-23T09:42:50.705000Z</time>
      </trkpt>
      <trkpt lat="38.818226" lon="121.1484">
        <ele>43.887764</ele>
        <time>2014-09-23T09:42:53.767000Z</time>
      </trkpt>
      <trkpt lat="38.818348" lon="121.1484">
        <ele>43.416298</ele>
        <time>2014-09-23T09:42:56.829000Z</time>
      </trkpt>
      <trkpt lat="38.81847" lon="121.14838">
        <ele>43.001682</ele>
        <time>2014-09-23T09:42:59.891000Z</time>
      </trkpt>
      <trkpt lat="38.81857" lon="121.148285">
        <ele>43.08185</ele>
        <time>2014-09-23T09:43:02.953000Z</time>
      </trkpt>
      <trkpt lat="38.81867" lon="121.14817">
        <ele>43.12507</ele>
        <time>2014-09-23T09:43:06.015000Z</time>
      </trkpt>
      <trkpt lat="38.81873" lon="121.148026">
        <ele>42.62664</ele>
        <time>2014-09-23T09:43:09.077000Z</time>
      </trkpt>
      <trkpt lat="38.81875" lon="121.14785">
        <ele>42.520565</ele>
        <time>2014-09-23T09:43:12.139000Z</time>
      </trkpt>
      <trkpt lat="38.818737" lon="121.147705">
        <ele>43.651352</ele>
        <time>2014-09-23T09:43:15.201000Z</time>
      </trkpt>
      <trkpt lat="38.818676" lon="121.147545">
        <ele>45.16091</ele>
        <time>2014-09-23T09:43:18.263000Z</time>
      </trkpt>
      <trkpt lat="38.818615" lon="121.147446">
        <ele>45.970547</ele>
        <time>2014-09-23T09:43:21.325000Z</time>
      </trkpt>
      <trkpt lat="38.81851" lon="121.147354">
        <ele>45.838062</ele>
        <time>2014-09-23T09:43:24.387000Z</time>
      </trkpt>
      <trkpt lat="38.818363" lon="121.14729">
        <ele>45.036095</ele>
        <time>2014-09-23T09:43:27.449000Z</time>
      </trkpt>
      <trkpt lat="38.818245" lon="121.147285">
        <ele>45.014214</ele>
        <time>2014-09-23T09:43:30.511000Z</time>
      </trkpt>
      <trkpt lat="38.81812" lon="121.14728">
        <ele>46.661545</ele>
        <time>2014-09-23T09:43:33.573000Z</time>
      </trkpt>
      <trkpt lat="38.817966" lon="121.14727">
        <ele>48.661255</ele>
        <time>2014-09-23T09:43:36.635000Z</time>
      </trkpt>
      <trkpt lat="38.81786" lon="121.14727">
        <ele>49.15092</ele>
        <time>2014-09-23T09:43:39.697000Z</time>
      </trkpt>
      <trkpt lat="38.817753" lon="121.14726">
        <ele>47.847702</ele>
        <time>2014-09-23T09:43:42.759000Z</time>
      </trkpt>
      <trkpt lat="38.817654" lon="121.147255">
        <ele>45.958916</ele>
        <time>2014-09-23T09:43:45.821000Z</time>
      </trkpt>
      <trkpt lat="38.817547" lon="121.147255">
        <ele>44.81832</ele>
        <time>2014-09-23T09:43:48.883000Z</time>
      </trkpt>
      <trkpt lat="38.817444" lon="121.14727">
        <ele>45.487305</ele>
        <time>2014-09-23T09:43:51.945000Z</time>
      </trkpt>
      <trkpt lat="38.81736" lon="121.14732">
        <ele>48.025913</ele>
        <time>2014-09-23T09:43:55.007000Z</time>
      </trkpt>
      <trkpt lat="38.817257" lon="121.14743">
        <ele>49.708744</ele>
        <time>2014-09-23T09:43:58.069000Z</time>
      </trkpt>
      <trkpt lat="38.81718" lon="121.14757">
        <ele>48.316994</ele>
        <time>2014-09-23T09:44:01.131000Z</time>
      </trkpt>
      <trkpt lat="38.81714" lon="121.14773">
        <ele>45.475136</ele>
        <time>2014-09-23T09:44:04.193000Z</time>
      </trkpt>
      <trkpt lat="38.81713" lon="121.14787">
        <ele>43.720947</ele>
        <time>2014-09-23T09:44:07.255000Z</time>
      </trkpt>
      <trkpt lat="38.81716" lon="121.14801">
        <ele>43.569893</ele>
        <time>2014-09-23T09:44:10.317000Z</time>
      </trkpt>
      <trkpt lat="38.817234" lon="121.148125">
        <ele>44.12614</ele>
        <time>2014-09-23T09:44:13.379000Z</time>
      </trkpt>
      <trkpt lat="38.817337" lon="121.14824">
        <ele>44.519287</ele>
        <time>2014-09-23T09:44:16.441000Z</time>
      </trkpt>
      <trkpt lat="38.817417" lon="121.14829">
        <ele>44.61186</ele>
        <time>2014-09-23T09:44:19.503000Z</time>
      </trkpt>
      <trkpt lat="38.81754" lon="121.148346">
        <ele>44.60067</ele>
        <time>2014-09-23T09:44:22.565000Z</time>
      </trkpt>
      <trkpt lat="38.817646" lon="121.14836">
        <ele>44.688087</ele>
        <time>2014-09-23T09:44:25.627000Z</time>
      </trkpt>
      <trkpt lat="38.817757" lon="121.14836">
        <ele>44.834198</ele>
        <time>2014-09-23T09:44:28.689000Z</time>
      </trkpt>
      <trkpt lat="38.817898" lon="121.148346">
        <ele>44.766525</ele>
        <time>2014-09-23T09:44:31.751000Z</time>
      </trkpt>
      <trkpt lat="38.818024" lon="121.14833">
        <ele>44.28559</ele>
        <time>2014-09-23T09:44:34.813000Z</time>
      </trkpt>
      <trkpt lat="38.818146" lon="121.14831">
        <ele>43.57747</ele>
        <time>2014-09-23T09:44:37.875000Z</time>
      </trkpt>
      <trkpt lat="38.818253" lon="121.14827">
        <time>2014-09-23T09:44:40.937000Z</time>
      </trkpt>
    </trkseg>
  </trk>
</gpx>