<?xml version="1.0" encoding="UTF-8"?>
<gpx xmlns="http://www.topografix.com/GPX/1/1" xmlns:gpxtpx="http://www.garmin.com/xmlschemas/TrackPointExtension/v1" xmlns:xsi="http://www.w3.org/2001/XMLSchema-instance" xsi:schemaLocation="http://www.topografix.com/GPX/1/1 http://www.topografix.com/GPX/1/1/gpx.xsd" version="1.1" creator="gpx.py -- https://github.com/tkrajina/gpxpy">
  <trk>
    <trkseg>
      <trkpt lat="38.818233" lon="121.14734">
        <ele>40.24397</ele>
        <time>2014-10-04T09:23:21.962000Z</time>
      </trkpt>
      <trkpt lat="38.818123" lon="121.147316">
        <ele>41.914715</ele>
        <time>2014-10-04T09:23:25.240000Z</time>
      </trkpt>
      <trkpt lat="38.81801" lon="121.147316">
        <ele>43.13847</ele>
        <time>2014-10-04T09:23:28.518000Z</time>
      </trkpt>
      <trkpt lat="38.8179" lon="121.14732">
        <ele>43.633755</ele>
        <time>2014-10-04T09:23:31.796000Z</time>
      </trkpt>
      <trkpt lat="38.817795" lon="121.14732">
        <ele>43.223648</ele>
        <time>2014-10-04T09:23:35.074000Z</time>
      </trkpt>
      <trkpt lat="38.817696" lon="121.14733">
        <ele>42.517864</ele>
        <time>2014-10-04T09:23:38.352000Z</time>
      </trkpt>
      <trkpt lat="38.817585" lon="121.14732">
        <ele>42.58843</ele>
        <time>2014-10-04T09:23:41.630000Z</time>
      </trkpt>
      <trkpt lat="38.817493" lon="121.14733">
        <ele>43.699142</ele>
        <time>2014-10-04T09:23:44.908000Z</time>
      </trkpt>
      <trkpt lat="38.817394" lon="121.147354">
        <ele>44.32857</ele>
        <time>2014-10-04T09:23:48.186000Z</time>
      </trkpt>
      <trkpt lat="38.81731" lon="121.147415">
        <ele>43.331924</ele>
        <time>2014-10-04T09:23:51.464000Z</time>
      </trkpt>
      <trkpt lat="38.81724" lon="121.147484">
        <ele>41.56776</ele>
        <time>2014-10-04T09:23:54.742000Z</time>
      </trkpt>
      <trkpt lat="38.81719" lon="121.14759">
        <ele>40.14675</ele>
        <time>2014-10-04T09:23:58.020000Z</time>
      </trkpt>
      <trkpt lat="38.81716" lon="121.14772">
        <ele>39.36574</ele>
        <time>2014-10-04T09:24:01.298000Z</time>
      </trkpt>
      <trkpt lat="38.81715" lon="121.14786">
        <ele>39.165367</ele>
        <time>2014-10-04T09:24:04.576000Z</time>
      </trkpt>
      <trkpt lat="38.817173" lon="121.14799">
        <ele>39.25511</ele>
        <time>2014-10-04T09:24:07.854000Z</time>
      </trkpt>
      <trkpt lat="38.817215" lon="121.14811">
        <ele>40.090256</ele>
        <time>2014-10-04T09:24:11.132000Z</time>
      </trkpt>
      <trkpt lat="38.817284" lon="121.14821">
        <ele>41.965553</ele>
        <time>2014-10-04T09:24:14.410000Z</time>
      </trkpt>
      <trkpt lat="38.817364" lon="121.14828">
        <ele>43.593845</ele>
        <time>2014-10-04T09:24:17.688000Z</time>
      </trkpt>
      <trkpt lat="38.81747" lon="121.14833">
        <ele>43.871346</ele>
        <time>2014-10-04T09:24:20.966000Z</time>
      </trkpt>
      <trkpt lat="38.81757" lon="121.14836">
        <ele>42.83257</ele>
        <time>2014-10-04T09:24:24.244000Z</time>
      </trkpt>
      <trkpt lat="38.817665" lon="121.14836">
        <ele>40.52056</ele>
        <time>2014-10-04T09:24:27.522000Z</time>
      </trkpt>
      <trkpt lat="38.817772" lon="121.14835">
        <ele>37.748833</ele>
        <time>2014-10-04T09:24:30.800000Z</time>
      </trkpt>
      <trkpt lat="38.81788" lon="121.14835">
        <ele>36.62012</ele>
        <time>2014-10-04T09:24:34.078000Z</time>
      </trkpt>
      <trkpt lat="38.817974" lon="121.14835">
        <ele>37.98625</ele>
        <time>2014-10-04T09:24:37.356000Z</time>
      </trkpt>
      <trkpt lat="38.818077" lon="121.14836">
        <ele>40.24039</ele>
        <time>2014-10-04T09:24:40.634000Z</time>
      </trkpt>
      <trkpt lat="38.818176" lon="121.14836">
        <ele>41.675755</ele>
        <time>2014-10-04T09:24:43.912000Z</time>
      </trkpt>
      <trkpt lat="38.81828" lon="121.14836">
        <ele>42.397785</ele>
        <time>2014-10-04T09:24:47.190000Z</time>
      </trkpt>
      <trkpt lat="38.818375" lon="121.14836">
        <ele>43.109974</ele>
        <time>2014-10-04T09:24:50.468000Z</time>
      </trkpt>
      <trkpt lat="38.81846" lon="121.14832">
        <ele>43.916245</ele>
        <time>2014-10-04T09:24:53.746000Z</time>
      </trkpt>
      <trkpt lat="38.818546" lon="121.14827">
        <ele>44.71662</ele>
        <time>2014-10-04T09:24:57.024000Z</time>
      </trkpt>
      <trkpt lat="38.818623" lon="121.14819">
        <ele>45.67679</ele>
        <time>2014-10-04T09:25:00.302000Z</time>
      </trkpt>
      <trkpt lat="38.818676" lon="121.14809">
        <ele>46.64848</ele>
        <time>2014-10-04T09:25:03.580000Z</time>
      </trkpt>
      <trkpt lat="38.818703" lon="121.14796">
        <ele>46.965874</ele>
        <time>2014-10-04T09:25:06.858000Z</time>
      </trkpt>
      <trkpt lat="38.818707" lon="121.14782">
        <ele>46.37295</ele>
        <time>2014-10-04T09:25:10.136000Z</time>
      </trkpt>
      <trkpt lat="38.81869" lon="121.14769">
        <ele>45.454807</ele>
        <time>2014-10-04T09:25:13.414000Z</time>
      </trkpt>
      <trkpt lat="38.818645" lon="121.14757">
        <ele>44.86871</ele>
        <time>2014-10-04T09:25:16.692000Z</time>
      </trkpt>
      <trkpt lat="38.81859" lon="121.14745">
        <ele>44.642582</ele>
        <time>2014-10-04T09:25:19.970000Z</time>
      </trkpt>
      <trkpt lat="38.818497" lon="121.147354">
        <ele>44.71462</ele>
        <time>2014-10-04T09:25:23.248000Z</time>
      </trkpt>
      <trkpt lat="38.818382" lon="121.14734">
        <ele>44.88414</ele>
        <time>2014-10-04T09:25:26.526000Z</time>
      </trkpt>
      <trkpt lat="38.81827" lon="121.14735">
        <ele>44.78157</ele>
        <time>2014-10-04T09:25:29.804000Z</time>
      </trkpt>
      <trkpt lat="38.81816" lon="121.14732">
        <ele>44.44918</ele>
        <time>2014-10-04T09:25:33.082000Z</time>
      </trkpt>
      <trkpt lat="38.81805" lon="121.14732">
        <ele>44.4205</ele>
        <time>2014-10-04T09:25:36.360000Z</time>
      </trkpt>
      <trkpt lat="38.817947" lon="121.14732">
        <ele>44.849422</ele>
        <time>2014-10-04T09:25:39.638000Z</time>
      </trkpt>
      <trkpt lat="38.817852" lon="121.14732">
        <ele>45.054802</ele>
        <time>2014-10-04T09:25:42.916000Z</time>
      </trkpt>
      <trkpt lat="38.81773" lon="121.14729">
        <ele>44.49908</ele>
        <time>2014-10-04T09:25:46.194000Z</time>
      </trkpt>
      <trkpt lat="38.817623" lon="121.14729">
        <ele>44.02264</ele>
        <time>2014-10-04T09:25:49.472000Z</time>
      </trkpt>
      <trkpt lat="38.817513" lon="121.147285">
        <ele>44.41058</ele>
        <time>2014-10-04T09:25:52.750000Z</time>
      </trkpt>
      <trkpt lat="38.81741" lon="121.14732">
        <ele>44.66435</ele>
        <time>2014-10-04T09:25:56.028000Z</time>
      </trkpt>
      <trkpt lat="38.8173" lon="121.14738">
        <ele>43.826893</ele>
        <time>2014-10-04T09:25:59.306000Z</time>
      </trkpt>
      <trkpt lat="38.817223" lon="121.14747">
        <ele>42.618847</ele>
        <time>2014-10-04T09:26:02.584000Z</time>
      </trkpt>
      <trkpt lat="38.81717" lon="121.14757">
        <ele>41.940964</ele>
        <time>2014-10-04T09:26:05.862000Z</time>
      </trkpt>
      <trkpt lat="38.817142" lon="121.14768">
        <ele>41.828144</ele>
        <time>2014-10-04T09:26:09.140000Z</time>
      </trkpt>
      <trkpt lat="38.817135" lon="121.147804">
        <ele>42.034134</ele>
        <time>2014-10-04T09:26:12.418000Z</time>
      </trkpt>
      <trkpt lat="38.817146" lon="121.14796">
        <ele>42.273903</ele>
        <time>2014-10-04T09:26:15.696000Z</time>
      </trkpt>
      <trkpt lat="38.817196" lon="121.14806">
        <ele>42.373055</ele>
        <time>2014-10-04T09:26:18.974000Z</time>
      </trkpt>
      <trkpt lat="38.81725" lon="121.14816">
        <ele>42.337704</ele>
        <time>2014-10-04T09:26:22.252000Z</time>
      </trkpt>
      <trkpt lat="38.817326" lon="121.14823">
        <ele>42.523273</ele>
        <time>2014-10-04T09:26:25.530000Z</time>
      </trkpt>
      <trkpt lat="38.81743" lon="121.14831">
        <ele>43.15985</ele>
        <time>2014-10-04T09:26:28.808000Z</time>
      </trkpt>
      <trkpt lat="38.81752" lon="121.14834">
        <ele>43.84852</ele>
        <time>2014-10-04T09:26:32.086000Z</time>
      </trkpt>
      <trkpt lat="38.817635" lon="121.148346">
        <ele>44.5686</ele>
        <time>2014-10-04T09:26:35.364000Z</time>
      </trkpt>
      <trkpt lat="38.817734" lon="121.14836">
        <ele>45.62452</ele>
        <time>2014-10-04T09:26:38.642000Z</time>
      </trkpt>
      <trkpt lat="38.817833" lon="121.14838">
        <ele>46.56738</ele>
        <time>2014-10-04T09:26:41.920000Z</time>
      </trkpt>
      <trkpt lat="38.81794" lon="121.14838">
        <ele>46.367332</ele>
        <time>2014-10-04T09:26:45.198000Z</time>
      </trkpt>
      <trkpt lat="38.818027" lon="121.148384">
        <ele>44.836895</ele>
        <time>2014-10-04T09:26:48.476000Z</time>
      </trkpt>
      <trkpt lat="38.818127" lon="121.148384">
        <ele>42.88059</ele>
        <time>2014-10-04T09:26:51.754000Z</time>
      </trkpt>
      <trkpt lat="38.81822" lon="121.14838">
        <ele>41.175434</ele>
        <time>2014-10-04T09:26:55.032000Z</time>
      </trkpt>
      <trkpt lat="38.818336" lon="121.14838">
        <ele>40.045876</ele>
        <time>2014-10-04T09:26:58.310000Z</time>
      </trkpt>
      <trkpt lat="38.818443" lon="121.14834">
        <ele>40.4437</ele>
        <time>2014-10-04T09:27:01.588000Z</time>
      </trkpt>
      <trkpt lat="38.818542" lon="121.148285">
        <ele>42.33892</ele>
        <time>2014-10-04T09:27:04.866000Z</time>
      </trkpt>
      <trkpt lat="38.818626" lon="121.14821">
        <ele>44.11204</ele>
        <time>2014-10-04T09:27:08.144000Z</time>
      </trkpt>
      <trkpt lat="38.81867" lon="121.1481">
        <ele>44.45642</ele>
        <time>2014-10-04T09:27:11.422000Z</time>
      </trkpt>
      <trkpt lat="38.818707" lon="121.147964">
        <ele>43.620502</ele>
        <time>2014-10-04T09:27:14.700000Z</time>
      </trkpt>
      <trkpt lat="38.81872" lon="121.14783">
        <ele>42.842983</ele>
        <time>2014-10-04T09:27:17.978000Z</time>
      </trkpt>
      <trkpt lat="38.818695" lon="121.14767">
        <ele>42.89247</ele>
        <time>2014-10-04T09:27:21.256000Z</time>
      </trkpt>
      <trkpt lat="38.818665" lon="121.14755">
        <ele>42.91825</ele>
        <time>2014-10-04T09:27:24.534000Z</time>
      </trkpt>
      <trkpt lat="38.818626" lon="121.147446">
        <ele>42.015656</ele>
        <time>2014-10-04T09:27:27.812000Z</time>
      </trkpt>
      <trkpt lat="38.818573" lon="121.14732">
        <ele>40.81442</ele>
        <time>2014-10-04T09:27:31.090000Z</time>
      </trkpt>
      <trkpt lat="38.81859" lon="121.14727">
        <ele>40.592594</ele>
        <time>2014-10-04T09:27:34.368000Z</time>
      </trkpt>
      <trkpt lat="38.81859" lon="121.14727">
        <ele>40.72522</ele>
        <time>2014-10-04T09:27:37.646000Z</time>
      </trkpt>
      <trkpt lat="38.81837" lon="121.147285">
        <ele>40.821243</ele>
        <time>2014-10-04T09:27:40.924000Z</time>
      </trkpt>
      <trkpt lat="38.818333" lon="121.147285">
        <ele>41.053177</ele>
        <time>2014-10-04T09:27:44.202000Z</time>
      </trkpt>
      <trkpt lat="38.818226" lon="121.14729">
        <ele>41.550186</ele>
        <time>2014-10-04T09:27:47.480000Z</time>
      </trkpt>
      <trkpt lat="38.818108" lon="121.147285">
        <ele>42.447735</ele>
        <time>2014-10-04T09:27:50.758000Z</time>
      </trkpt>
      <trkpt lat="38.817986" lon="121.14729">
        <ele>43.522285</ele>
        <time>2014-10-04T09:27:54.036000Z</time>
      </trkpt>
      <trkpt lat="38.81788" lon="121.147285">
        <ele>44.2443</ele>
        <time>2014-10-04T09:27:57.314000Z</time>
      </trkpt>
      <trkpt lat="38.817783" lon="121.14728">
        <ele>44.491028</ele>
        <time>2014-10-04T09:28:00.592000Z</time>
      </trkpt>
      <trkpt lat="38.817684" lon="121.14728">
        <ele>44.512814</ele>
        <time>2014-10-04T09:28:03.869000Z</time>
      </trkpt>
      <trkpt lat="38.817574" lon="121.14727">
        <ele>44.512432</ele>
        <time>2014-10-04T09:28:07.146000Z</time>
      </trkpt>
      <trkpt lat="38.817474" lon="121.14728">
        <ele>44.64995</ele>
        <time>2014-10-04T09:28:10.423000Z</time>
      </trkpt>
      <trkpt lat="38.817368" lon="121.14734">
        <ele>44.72912</ele>
        <time>2014-10-04T09:28:13.700000Z</time>
      </trkpt>
      <trkpt lat="38.817272" lon="121.14742">
        <ele>44.342125</ele>
        <time>2014-10-04T09:28:16.977000Z</time>
      </trkpt>
      <trkpt lat="38.81721" lon="121.14753">
        <ele>43.43291</ele>
        <time>2014-10-04T09:28:20.254000Z</time>
      </trkpt>
      <trkpt lat="38.817165" lon="121.147644">
        <ele>42.071205</ele>
        <time>2014-10-04T09:28:23.531000Z</time>
      </trkpt>
      <trkpt lat="38.817146" lon="121.14779">
        <ele>40.508907</ele>
        <time>2014-10-04T09:28:26.808000Z</time>
      </trkpt>
      <trkpt lat="38.817146" lon="121.14792">
        <ele>39.691284</ele>
        <time>2014-10-04T09:28:30.085000Z</time>
      </trkpt>
      <trkpt lat="38.817184" lon="121.14805">
        <ele>40.042057</ele>
        <time>2014-10-04T09:28:33.362000Z</time>
      </trkpt>
      <trkpt lat="38.817257" lon="121.14816">
        <ele>40.81973</ele>
        <time>2014-10-04T09:28:36.639000Z</time>
      </trkpt>
      <trkpt lat="38.817356" lon="121.148254">
        <ele>41.695244</ele>
        <time>2014-10-04T09:28:39.916000Z</time>
      </trkpt>
      <trkpt lat="38.81746" lon="121.14831">
        <ele>43.03804</ele>
        <time>2014-10-04T09:28:43.193000Z</time>
      </trkpt>
      <trkpt lat="38.817554" lon="121.14833">
        <ele>44.52664</ele>
        <time>2014-10-04T09:28:46.470000Z</time>
      </trkpt>
      <trkpt lat="38.81765" lon="121.14834">
        <ele>45.470604</ele>
        <time>2014-10-04T09:28:49.747000Z</time>
      </trkpt>
      <trkpt lat="38.81777" lon="121.148346">
        <ele>45.5742</ele>
        <time>2014-10-04T09:28:53.024000Z</time>
      </trkpt>
      <trkpt lat="38.817894" lon="121.14835">
        <ele>44.62546</ele>
        <time>2014-10-04T09:28:56.301000Z</time>
      </trkpt>
      <trkpt lat="38.818005" lon="121.14836">
        <ele>42.794197</ele>
        <time>2014-10-04T09:28:59.578000Z</time>
      </trkpt>
      <trkpt lat="38.818127" lon="121.14838">
        <ele>40.72483</ele>
        <time>2014-10-04T09:29:02.855000Z</time>
      </trkpt>
      <trkpt lat="38.81823" lon="121.14838">
        <ele>39.26146</ele>
        <time>2014-10-04T09:29:06.132000Z</time>
      </trkpt>
      <trkpt lat="38.818348" lon="121.14838">
        <ele>38.908382</ele>
        <time>2014-10-04T09:29:09.409000Z</time>
      </trkpt>
      <trkpt lat="38.818436" lon="121.14836">
        <ele>39.29949</ele>
        <time>2014-10-04T09:29:12.686000Z</time>
      </trkpt>
      <trkpt lat="38.818527" lon="121.1483">
        <ele>39.858536</ele>
        <time>2014-10-04T09:29:15.963000Z</time>
      </trkpt>
      <trkpt lat="38.818615" lon="121.148224">
        <ele>40.627846</ele>
        <time>2014-10-04T09:29:19.240000Z</time>
      </trkpt>
      <trkpt lat="38.81869" lon="121.14812">
        <ele>41.56053</ele>
        <time>2014-10-04T09:29:22.517000Z</time>
      </trkpt>
      <trkpt lat="38.81872" lon="121.147964">
        <ele>42.215214</ele>
        <time>2014-10-04T09:29:25.794000Z</time>
      </trkpt>
      <trkpt lat="38.81873" lon="121.147835">
        <ele>42.18897</ele>
        <time>2014-10-04T09:29:29.071000Z</time>
      </trkpt>
      <trkpt lat="38.818718" lon="121.147705">
        <ele>41.60842</ele>
        <time>2014-10-04T09:29:32.348000Z</time>
      </trkpt>
      <trkpt lat="38.81868" lon="121.1476">
        <ele>41.114624</ele>
        <time>2014-10-04T09:29:35.625000Z</time>
      </trkpt>
      <trkpt lat="38.818623" lon="121.14748">
        <ele>41.289246</ele>
        <time>2014-10-04T09:29:38.902000Z</time>
      </trkpt>
      <trkpt lat="38.818535" lon="121.1474">
        <ele>41.876354</ele>
        <time>2014-10-04T09:29:42.179000Z</time>
      </trkpt>
      <trkpt lat="38.818447" lon="121.14735">
        <ele>42.23529</ele>
        <time>2014-10-04T09:29:45.456000Z</time>
      </trkpt>
      <trkpt lat="38.81835" lon="121.147316">
        <ele>42.231255</ele>
        <time>2014-10-04T09:29:48.733000Z</time>
      </trkpt>
      <trkpt lat="38.81824" lon="121.147316">
        <ele>42.518433</ele>
        <time>2014-10-04T09:29:52.010000Z</time>
      </trkpt>
      <trkpt lat="38.818142" lon="121.1473">
        <ele>43.468792</ele>
        <time>2014-10-04T09:29:55.287000Z</time>
      </trkpt>
      <trkpt lat="38.818047" lon="121.14729">
        <ele>44.50548</ele>
        <time>2014-10-04T09:29:58.564000Z</time>
      </trkpt>
      <trkpt lat="38.817932" lon="121.14729">
        <ele>44.94481</ele>
        <time>2014-10-04T09:30:01.841000Z</time>
      </trkpt>
      <trkpt lat="38.81783" lon="121.1473">
        <ele>44.807106</ele>
        <time>2014-10-04T09:30:05.118000Z</time>
      </trkpt>
      <trkpt lat="38.81773" lon="121.1473">
        <ele>44.474957</ele>
        <time>2014-10-04T09:30:08.395000Z</time>
      </trkpt>
      <trkpt lat="38.81762" lon="121.14729">
        <ele>44.68492</ele>
        <time>2014-10-04T09:30:11.672000Z</time>
      </trkpt>
      <trkpt lat="38.817513" lon="121.147285">
        <ele>45.697525</ele>
        <time>2014-10-04T09:30:14.949000Z</time>
      </trkpt>
      <trkpt lat="38.817406" lon="121.147316">
        <ele>46.78234</ele>
        <time>2014-10-04T09:30:18.226000Z</time>
      </trkpt>
      <trkpt lat="38.81732" lon="121.14736">
        <ele>46.747375</ele>
        <time>2014-10-04T09:30:21.503000Z</time>
      </trkpt>
      <trkpt lat="38.817234" lon="121.14747">
        <ele>45.162895</ele>
        <time>2014-10-04T09:30:24.780000Z</time>
      </trkpt>
      <trkpt lat="38.817177" lon="121.14759">
        <ele>42.935436</ele>
        <time>2014-10-04T09:30:28.057000Z</time>
      </trkpt>
      <trkpt lat="38.81715" lon="121.147736">
        <ele>41.344093</ele>
        <time>2014-10-04T09:30:31.334000Z</time>
      </trkpt>
      <trkpt lat="38.817142" lon="121.14787">
        <ele>40.726196</ele>
        <time>2014-10-04T09:30:34.611000Z</time>
      </trkpt>
      <trkpt lat="38.817165" lon="121.148026">
        <ele>40.915474</ele>
        <time>2014-10-04T09:30:37.888000Z</time>
      </trkpt>
      <trkpt lat="38.81722" lon="121.14815">
        <ele>41.59215</ele>
        <time>2014-10-04T09:30:41.165000Z</time>
      </trkpt>
      <trkpt lat="38.817287" lon="121.14823">
        <ele>42.27134</ele>
        <time>2014-10-04T09:30:44.442000Z</time>
      </trkpt>
      <trkpt lat="38.817398" lon="121.1483">
        <ele>42.62025</ele>
        <time>2014-10-04T09:30:47.719000Z</time>
      </trkpt>
      <trkpt lat="38.817516" lon="121.14834">
        <ele>42.337288</ele>
        <time>2014-10-04T09:30:50.996000Z</time>
      </trkpt>
      <trkpt lat="38.817627" lon="121.148346">
        <ele>41.381454</ele>
        <time>2014-10-04T09:30:54.273000Z</time>
      </trkpt>
      <trkpt lat="38.817738" lon="121.148346">
        <ele>40.281902</ele>
        <time>2014-10-04T09:30:57.550000Z</time>
      </trkpt>
      <trkpt lat="38.817856" lon="121.14835">
        <ele>39.629257</ele>
        <time>2014-10-04T09:31:00.827000Z</time>
      </trkpt>
      <trkpt lat="38.817947" lon="121.148346">
        <ele>39.61322</ele>
        <time>2014-10-04T09:31:04.104000Z</time>
      </trkpt>
      <trkpt lat="38.818058" lon="121.14836">
        <ele>40.17505</ele>
        <time>2014-10-04T09:31:07.381000Z</time>
      </trkpt>
      <trkpt lat="38.818165" lon="121.14836">
        <ele>41.707134</ele>
        <time>2014-10-04T09:31:10.658000Z</time>
      </trkpt>
      <trkpt lat="38.818283" lon="121.14838">
        <ele>44.252335</ele>
        <time>2014-10-04T09:31:13.935000Z</time>
      </trkpt>
      <trkpt lat="38.818394" lon="121.14836">
        <ele>46.214664</ele>
        <time>2014-10-04T09:31:17.212000Z</time>
      </trkpt>
      <trkpt lat="38.81851" lon="121.148315">
        <ele>46.4361</ele>
        <time>2014-10-04T09:31:20.489000Z</time>
      </trkpt>
      <trkpt lat="38.818596" lon="121.14823">
        <ele>45.419277</ele>
        <time>2014-10-04T09:31:23.766000Z</time>
      </trkpt>
      <trkpt lat="38.81868" lon="121.14814">
        <ele>44.014675</ele>
        <time>2014-10-04T09:31:27.043000Z</time>
      </trkpt>
      <trkpt lat="38.81872" lon="121.148">
        <ele>42.95583</ele>
        <time>2014-10-04T09:31:30.320000Z</time>
      </trkpt>
      <trkpt lat="38.818737" lon="121.14788">
        <ele>42.69333</ele>
        <time>2014-10-04T09:31:33.597000Z</time>
      </trkpt>
      <trkpt lat="38.818726" lon="121.14776">
        <ele>42.7971</ele>
        <time>2014-10-04T09:31:36.874000Z</time>
      </trkpt>
      <trkpt lat="38.818687" lon="121.14762">
        <ele>42.872105</ele>
        <time>2014-10-04T09:31:40.151000Z</time>
      </trkpt>
      <trkpt lat="38.818623" lon="121.147484">
        <ele>43.41254</ele>
        <time>2014-10-04T09:31:43.428000Z</time>
      </trkpt>
      <trkpt lat="38.818554" lon="121.1474">
        <ele>44.60541</ele>
        <time>2014-10-04T09:31:46.705000Z</time>
      </trkpt>
      <trkpt lat="38.81846" lon="121.14734">
        <ele>45.572014</ele>
        <time>2014-10-04T09:31:49.982000Z</time>
      </trkpt>
      <trkpt lat="38.818363" lon="121.147316">
        <ele>45.81323</ele>
        <time>2014-10-04T09:31:53.259000Z</time>
      </trkpt>
      <trkpt lat="38.81825" lon="121.1473">
        <ele>45.46088</ele>
        <time>2014-10-04T09:31:56.536000Z</time>
      </trkpt>
      <trkpt lat="38.81815" lon="121.14729">
        <ele>44.79303</ele>
        <time>2014-10-04T09:31:59.813000Z</time>
      </trkpt>
      <trkpt lat="38.818012" lon="121.147285">
        <ele>43.939594</ele>
        <time>2014-10-04T09:32:03.090000Z</time>
      </trkpt>
      <trkpt lat="38.817898" lon="121.147285">
        <ele>42.966324</ele>
        <time>2014-10-04T09:32:06.367000Z</time>
      </trkpt>
      <trkpt lat="38.817787" lon="121.147285">
        <ele>42.061554</ele>
        <time>2014-10-04T09:32:09.644000Z</time>
      </trkpt>
      <trkpt lat="38.817787" lon="121.147285">
        <ele>41.438534</ele>
        <time>2014-10-04T09:32:12.921000Z</time>
      </trkpt>
      <trkpt lat="38.817677" lon="121.14729">
        <ele>41.236496</ele>
        <time>2014-10-04T09:32:16.198000Z</time>
      </trkpt>
      <trkpt lat="38.817566" lon="121.14729">
        <ele>41.581757</ele>
        <time>2014-10-04T09:32:19.475000Z</time>
      </trkpt>
      <trkpt lat="38.817463" lon="121.147285">
        <ele>42.414295</ele>
        <time>2014-10-04T09:32:22.752000Z</time>
      </trkpt>
      <trkpt lat="38.817364" lon="121.147316">
        <ele>43.683727</ele>
        <time>2014-10-04T09:32:26.029000Z</time>
      </trkpt>
      <trkpt lat="38.817253" lon="121.14742">
        <ele>46.02878</ele>
        <time>2014-10-04T09:32:29.306000Z</time>
      </trkpt>
      <trkpt lat="38.81719" lon="121.14756">
        <ele>46.127995</ele>
        <time>2014-10-04T09:32:32.583000Z</time>
      </trkpt>
      <trkpt lat="38.81715" lon="121.14771">
        <ele>45.53597</ele>
        <time>2014-10-04T09:32:35.860000Z</time>
      </trkpt>
      <trkpt lat="38.817142" lon="121.14786">
        <ele>44.848278</ele>
        <time>2014-10-04T09:32:39.137000Z</time>
      </trkpt>
      <trkpt lat="38.817165" lon="121.147995">
        <ele>44.03273</ele>
        <time>2014-10-04T09:32:42.414000Z</time>
      </trkpt>
      <trkpt lat="38.817215" lon="121.14812">
        <ele>42.75004</ele>
        <time>2014-10-04T09:32:45.691000Z</time>
      </trkpt>
      <trkpt lat="38.81731" lon="121.14824">
        <ele>41.550755</ele>
        <time>2014-10-04T09:32:48.968000Z</time>
      </trkpt>
      <trkpt lat="38.81741" lon="121.14831">
        <ele>40.959408</ele>
        <time>2014-10-04T09:32:52.245000Z</time>
      </trkpt>
      <trkpt lat="38.81752" lon="121.14835">
        <ele>40.797604</ele>
        <time>2014-10-04T09:32:55.522000Z</time>
      </trkpt>
      <trkpt lat="38.81764" lon="121.14836">
        <ele>40.869183</ele>
        <time>2014-10-04T09:32:58.799000Z</time>
      </trkpt>
      <trkpt lat="38.81775" lon="121.14836">
        <ele>41.332314</ele>
        <time>2014-10-04T09:33:02.076000Z</time>
      </trkpt>
      <trkpt lat="38.817875" lon="121.14837">
        <ele>42.2533</ele>
        <time>2014-10-04T09:33:05.353000Z</time>
      </trkpt>
      <trkpt lat="38.817974" lon="121.14836">
        <ele>43.13405</ele>
        <time>2014-10-04T09:33:08.630000Z</time>
      </trkpt>
      <trkpt lat="38.818085" lon="121.14837">
        <ele>43.68205</ele>
        <time>2014-10-04T09:33:11.907000Z</time>
      </trkpt>
      <trkpt lat="38.818214" lon="121.14837">
        <ele>44.117565</ele>
        <time>2014-10-04T09:33:15.184000Z</time>
      </trkpt>
      <trkpt lat="38.818306" lon="121.14837">
        <ele>44.359528</ele>
        <time>2014-10-04T09:33:18.461000Z</time>
      </trkpt>
      <trkpt lat="38.81842" lon="121.14835">
        <ele>44.27379</ele>
        <time>2014-10-04T09:33:21.738000Z</time>
      </trkpt>
      <trkpt lat="38.81853" lon="121.1483">
        <ele>43.99565</ele>
        <time>2014-10-04T09:33:25.015000Z</time>
      </trkpt>
      <trkpt lat="38.81862" lon="121.14821">
        <ele>43.808983</ele>
        <time>2014-10-04T09:33:28.292000Z</time>
      </trkpt>
      <trkpt lat="38.818687" lon="121.1481">
        <ele>43.907722</ele>
        <time>2014-10-04T09:33:31.569000Z</time>
      </trkpt>
      <trkpt lat="38.818718" lon="121.14794">
        <ele>44.20069</ele>
        <time>2014-10-04T09:33:34.846000Z</time>
      </trkpt>
      <trkpt lat="38.818718" lon="121.14781">
        <ele>44.472454</ele>
        <time>2014-10-04T09:33:38.123000Z</time>
      </trkpt>
      <trkpt lat="38.818695" lon="121.14767">
        <time>2014-10-04T09:33:41.400000Z</time>
      </trkpt>
    </trkseg>
  </trk>
</gpx>