<?xml version="1.0" encoding="UTF-8"?>
<gpx xmlns="http://www.topografix.com/GPX/1/1" xmlns:gpxtpx="http://www.garmin.com/xmlschemas/TrackPointExtension/v1" xmlns:xsi="http://www.w3.org/2001/XMLSchema-instance" xsi:schemaLocation="http://www.topografix.com/GPX/1/1 http://www.topografix.com/GPX/1/1/gpx.xsd" version="1.1" creator="gpx.py -- https://github.com/tkrajina/gpxpy">
  <trk>
    <trkseg>
      <trkpt lat="38.817223" lon="121.148285">
        <ele>49.238285</ele>
        <time>2014-11-15T23:36:12.382000Z</time>
      </trkpt>
      <trkpt lat="38.817226" lon="121.14829">
        <ele>50.495266</ele>
        <time>2014-11-15T23:36:15.815000Z</time>
      </trkpt>
      <trkpt lat="38.81734" lon="121.148315">
        <ele>51.830246</ele>
        <time>2014-11-15T23:36:19.248000Z</time>
      </trkpt>
      <trkpt lat="38.81734" lon="121.148315">
        <ele>52.372986</ele>
        <time>2014-11-15T23:36:22.681000Z</time>
      </trkpt>
      <trkpt lat="38.817436" lon="121.14832">
        <ele>52.250267</ele>
        <time>2014-11-15T23:36:26.114000Z</time>
      </trkpt>
      <trkpt lat="38.81754" lon="121.14832">
        <ele>52.311848</ele>
        <time>2014-11-15T23:36:29.547000Z</time>
      </trkpt>
      <trkpt lat="38.817635" lon="121.14832">
        <ele>53.045563</ele>
        <time>2014-11-15T23:36:32.980000Z</time>
      </trkpt>
      <trkpt lat="38.81775" lon="121.14833">
        <ele>53.673756</ele>
        <time>2014-11-15T23:36:36.413000Z</time>
      </trkpt>
      <trkpt lat="38.817863" lon="121.14834">
        <ele>53.124718</ele>
        <time>2014-11-15T23:36:39.846000Z</time>
      </trkpt>
      <trkpt lat="38.81797" lon="121.14835">
        <ele>51.636066</ele>
        <time>2014-11-15T23:36:43.279000Z</time>
      </trkpt>
      <trkpt lat="38.81806" lon="121.14836">
        <ele>50.32219</ele>
        <time>2014-11-15T23:36:46.712000Z</time>
      </trkpt>
      <trkpt lat="38.818153" lon="121.14836">
        <ele>50.02332</ele>
        <time>2014-11-15T23:36:50.145000Z</time>
      </trkpt>
      <trkpt lat="38.818264" lon="121.14836">
        <ele>51.309856</ele>
        <time>2014-11-15T23:36:53.578000Z</time>
      </trkpt>
      <trkpt lat="38.81836" lon="121.14837">
        <ele>53.828617</ele>
        <time>2014-11-15T23:36:57.011000Z</time>
      </trkpt>
      <trkpt lat="38.818466" lon="121.148384">
        <ele>55.92419</ele>
        <time>2014-11-15T23:37:00.444000Z</time>
      </trkpt>
      <trkpt lat="38.81856" lon="121.148384">
        <ele>56.616795</ele>
        <time>2014-11-15T23:37:03.877000Z</time>
      </trkpt>
      <trkpt lat="38.81867" lon="121.14833">
        <ele>56.45118</ele>
        <time>2014-11-15T23:37:07.310000Z</time>
      </trkpt>
      <trkpt lat="38.81874" lon="121.14824">
        <ele>55.692104</ele>
        <time>2014-11-15T23:37:10.743000Z</time>
      </trkpt>
      <trkpt lat="38.818783" lon="121.148094">
        <ele>54.24616</ele>
        <time>2014-11-15T23:37:14.176000Z</time>
      </trkpt>
      <trkpt lat="38.818798" lon="121.147964">
        <ele>52.72973</ele>
        <time>2014-11-15T23:37:17.609000Z</time>
      </trkpt>
      <trkpt lat="38.818806" lon="121.147835">
        <ele>51.833626</ele>
        <time>2014-11-15T23:37:21.042000Z</time>
      </trkpt>
      <trkpt lat="38.818813" lon="121.147705">
        <ele>51.96914</ele>
        <time>2014-11-15T23:37:24.475000Z</time>
      </trkpt>
      <trkpt lat="38.818813" lon="121.14758">
        <ele>53.160034</ele>
        <time>2014-11-15T23:37:27.908000Z</time>
      </trkpt>
      <trkpt lat="38.81879" lon="121.14742">
        <ele>54.596714</ele>
        <time>2014-11-15T23:37:31.341000Z</time>
      </trkpt>
      <trkpt lat="38.81873" lon="121.14733">
        <ele>56.275482</ele>
        <time>2014-11-15T23:37:34.774000Z</time>
      </trkpt>
      <trkpt lat="38.818634" lon="121.14727">
        <ele>58.62288</ele>
        <time>2014-11-15T23:37:38.207000Z</time>
      </trkpt>
      <trkpt lat="38.818516" lon="121.14723">
        <ele>60.294178</ele>
        <time>2014-11-15T23:37:41.640000Z</time>
      </trkpt>
      <trkpt lat="38.81841" lon="121.14724">
        <ele>59.92992</ele>
        <time>2014-11-15T23:37:45.073000Z</time>
      </trkpt>
      <trkpt lat="38.818317" lon="121.14724">
        <ele>58.31146</ele>
        <time>2014-11-15T23:37:48.506000Z</time>
      </trkpt>
      <trkpt lat="38.81821" lon="121.14723">
        <ele>56.46324</ele>
        <time>2014-11-15T23:37:51.939000Z</time>
      </trkpt>
      <trkpt lat="38.81811" lon="121.14723">
        <ele>54.487015</ele>
        <time>2014-11-15T23:37:55.372000Z</time>
      </trkpt>
      <trkpt lat="38.81799" lon="121.14723">
        <ele>52.717857</ele>
        <time>2014-11-15T23:37:58.805000Z</time>
      </trkpt>
      <trkpt lat="38.817894" lon="121.14723">
        <ele>51.889355</ele>
        <time>2014-11-15T23:38:02.238000Z</time>
      </trkpt>
      <trkpt lat="38.817783" lon="121.147224">
        <ele>52.001656</ele>
        <time>2014-11-15T23:38:05.671000Z</time>
      </trkpt>
      <trkpt lat="38.817673" lon="121.147224">
        <ele>52.55837</ele>
        <time>2014-11-15T23:38:09.104000Z</time>
      </trkpt>
      <trkpt lat="38.817566" lon="121.14721">
        <ele>53.007614</ele>
        <time>2014-11-15T23:38:12.537000Z</time>
      </trkpt>
      <trkpt lat="38.81745" lon="121.14719">
        <ele>53.175636</ele>
        <time>2014-11-15T23:38:15.970000Z</time>
      </trkpt>
      <trkpt lat="38.81736" lon="121.14718">
        <ele>53.303375</ele>
        <time>2014-11-15T23:38:19.403000Z</time>
      </trkpt>
      <trkpt lat="38.81724" lon="121.14721">
        <ele>53.54299</ele>
        <time>2014-11-15T23:38:22.836000Z</time>
      </trkpt>
      <trkpt lat="38.81716" lon="121.1473">
        <ele>53.95268</ele>
        <time>2014-11-15T23:38:26.269000Z</time>
      </trkpt>
      <trkpt lat="38.81709" lon="121.14742">
        <ele>54.587227</ele>
        <time>2014-11-15T23:38:29.702000Z</time>
      </trkpt>
      <trkpt lat="38.817066" lon="121.14756">
        <ele>55.085445</ele>
        <time>2014-11-15T23:38:33.135000Z</time>
      </trkpt>
      <trkpt lat="38.81706" lon="121.147675">
        <ele>55.141373</ele>
        <time>2014-11-15T23:38:36.568000Z</time>
      </trkpt>
      <trkpt lat="38.817047" lon="121.147804">
        <ele>54.95656</ele>
        <time>2014-11-15T23:38:40.001000Z</time>
      </trkpt>
      <trkpt lat="38.817047" lon="121.14793">
        <ele>54.98352</ele>
        <time>2014-11-15T23:38:43.434000Z</time>
      </trkpt>
      <trkpt lat="38.817036" lon="121.148056">
        <ele>55.37399</ele>
        <time>2014-11-15T23:38:46.867000Z</time>
      </trkpt>
      <trkpt lat="38.817062" lon="121.148186">
        <ele>55.60198</ele>
        <time>2014-11-15T23:38:50.300000Z</time>
      </trkpt>
      <trkpt lat="38.817135" lon="121.14829">
        <ele>55.20134</ele>
        <time>2014-11-15T23:38:53.733000Z</time>
      </trkpt>
      <trkpt lat="38.817245" lon="121.14833">
        <ele>53.993183</ele>
        <time>2014-11-15T23:38:57.166000Z</time>
      </trkpt>
      <trkpt lat="38.817352" lon="121.14834">
        <ele>52.199314</ele>
        <time>2014-11-15T23:39:00.599000Z</time>
      </trkpt>
      <trkpt lat="38.81746" lon="121.14834">
        <ele>50.748623</ele>
        <time>2014-11-15T23:39:04.032000Z</time>
      </trkpt>
      <trkpt lat="38.817554" lon="121.148346">
        <ele>50.318386</ele>
        <time>2014-11-15T23:39:07.465000Z</time>
      </trkpt>
      <trkpt lat="38.817654" lon="121.148346">
        <ele>50.548805</ele>
        <time>2014-11-15T23:39:10.898000Z</time>
      </trkpt>
      <trkpt lat="38.81775" lon="121.14835">
        <ele>50.89028</ele>
        <time>2014-11-15T23:39:14.331000Z</time>
      </trkpt>
      <trkpt lat="38.817837" lon="121.14836">
        <ele>51.07075</ele>
        <time>2014-11-15T23:39:17.764000Z</time>
      </trkpt>
      <trkpt lat="38.817947" lon="121.14835">
        <ele>51.089424</ele>
        <time>2014-11-15T23:39:21.197000Z</time>
      </trkpt>
      <trkpt lat="38.818043" lon="121.14835">
        <ele>51.245632</ele>
        <time>2014-11-15T23:39:24.630000Z</time>
      </trkpt>
      <trkpt lat="38.81814" lon="121.14836">
        <ele>51.736156</ele>
        <time>2014-11-15T23:39:28.063000Z</time>
      </trkpt>
      <trkpt lat="38.818233" lon="121.14836">
        <ele>52.339863</ele>
        <time>2014-11-15T23:39:31.496000Z</time>
      </trkpt>
      <trkpt lat="38.81833" lon="121.14837">
        <ele>52.793217</ele>
        <time>2014-11-15T23:39:34.929000Z</time>
      </trkpt>
      <trkpt lat="38.81844" lon="121.14838">
        <ele>53.237934</ele>
        <time>2014-11-15T23:39:38.362000Z</time>
      </trkpt>
      <trkpt lat="38.81853" lon="121.14838">
        <ele>53.81501</ele>
        <time>2014-11-15T23:39:41.795000Z</time>
      </trkpt>
      <trkpt lat="38.818634" lon="121.14836">
        <ele>54.0482</ele>
        <time>2014-11-15T23:39:45.228000Z</time>
      </trkpt>
      <trkpt lat="38.81871" lon="121.148285">
        <ele>53.333164</ele>
        <time>2014-11-15T23:39:48.661000Z</time>
      </trkpt>
      <trkpt lat="38.81876" lon="121.148155">
        <ele>52.269314</ele>
        <time>2014-11-15T23:39:52.094000Z</time>
      </trkpt>
      <trkpt lat="38.818775" lon="121.14802">
        <ele>51.639317</ele>
        <time>2014-11-15T23:39:55.527000Z</time>
      </trkpt>
      <trkpt lat="38.818787" lon="121.14789">
        <ele>51.36459</ele>
        <time>2014-11-15T23:39:58.960000Z</time>
      </trkpt>
      <trkpt lat="38.818794" lon="121.14777">
        <ele>51.190517</ele>
        <time>2014-11-15T23:40:02.393000Z</time>
      </trkpt>
      <trkpt lat="38.818794" lon="121.14765">
        <ele>50.664608</ele>
        <time>2014-11-15T23:40:05.826000Z</time>
      </trkpt>
      <trkpt lat="38.8188" lon="121.14753">
        <ele>49.421543</ele>
        <time>2014-11-15T23:40:09.259000Z</time>
      </trkpt>
      <trkpt lat="38.818768" lon="121.14738">
        <ele>48.106995</ele>
        <time>2014-11-15T23:40:12.692000Z</time>
      </trkpt>
      <trkpt lat="38.8187" lon="121.147285">
        <ele>48.029156</ele>
        <time>2014-11-15T23:40:16.125000Z</time>
      </trkpt>
      <trkpt lat="38.818584" lon="121.14724">
        <ele>49.75717</ele>
        <time>2014-11-15T23:40:19.558000Z</time>
      </trkpt>
      <trkpt lat="38.818493" lon="121.14723">
        <ele>52.404457</ele>
        <time>2014-11-15T23:40:22.991000Z</time>
      </trkpt>
      <trkpt lat="38.81838" lon="121.147224">
        <ele>54.584454</ele>
        <time>2014-11-15T23:40:26.424000Z</time>
      </trkpt>
      <trkpt lat="38.818268" lon="121.14724">
        <ele>55.683468</ele>
        <time>2014-11-15T23:40:29.857000Z</time>
      </trkpt>
      <trkpt lat="38.818157" lon="121.147224">
        <ele>55.666306</ele>
        <time>2014-11-15T23:40:33.290000Z</time>
      </trkpt>
      <trkpt lat="38.81806" lon="121.147224">
        <ele>54.97048</ele>
        <time>2014-11-15T23:40:36.723000Z</time>
      </trkpt>
      <trkpt lat="38.81797" lon="121.14723">
        <ele>54.26192</ele>
        <time>2014-11-15T23:40:40.156000Z</time>
      </trkpt>
      <trkpt lat="38.81788" lon="121.14723">
        <ele>54.164143</ele>
        <time>2014-11-15T23:40:43.589000Z</time>
      </trkpt>
      <trkpt lat="38.817783" lon="121.14724">
        <ele>54.731155</ele>
        <time>2014-11-15T23:40:47.022000Z</time>
      </trkpt>
      <trkpt lat="38.817673" lon="121.14723">
        <ele>55.556767</ele>
        <time>2014-11-15T23:40:50.455000Z</time>
      </trkpt>
      <trkpt lat="38.817554" lon="121.147224">
        <ele>56.265404</ele>
        <time>2014-11-15T23:40:53.888000Z</time>
      </trkpt>
      <trkpt lat="38.81746" lon="121.14722">
        <ele>56.50275</ele>
        <time>2014-11-15T23:40:57.321000Z</time>
      </trkpt>
      <trkpt lat="38.817345" lon="121.1472">
        <ele>56.072964</ele>
        <time>2014-11-15T23:41:00.754000Z</time>
      </trkpt>
      <trkpt lat="38.81725" lon="121.14721">
        <ele>55.403313</ele>
        <time>2014-11-15T23:41:04.187000Z</time>
      </trkpt>
      <trkpt lat="38.81716" lon="121.1473">
        <ele>55.797756</ele>
        <time>2014-11-15T23:41:07.620000Z</time>
      </trkpt>
      <trkpt lat="38.817123" lon="121.14742">
        <ele>57.805874</ele>
        <time>2014-11-15T23:41:11.053000Z</time>
      </trkpt>
      <trkpt lat="38.81711" lon="121.14755">
        <ele>59.49364</ele>
        <time>2014-11-15T23:41:14.486000Z</time>
      </trkpt>
      <trkpt lat="38.817104" lon="121.1477">
        <ele>58.842747</ele>
        <time>2014-11-15T23:41:17.919000Z</time>
      </trkpt>
      <trkpt lat="38.817112" lon="121.14784">
        <ele>56.599636</ele>
        <time>2014-11-15T23:41:21.352000Z</time>
      </trkpt>
      <trkpt lat="38.817104" lon="121.147995">
        <ele>54.676994</ele>
        <time>2014-11-15T23:41:24.785000Z</time>
      </trkpt>
      <trkpt lat="38.81712" lon="121.14812">
        <ele>53.69896</ele>
        <time>2014-11-15T23:41:28.218000Z</time>
      </trkpt>
      <trkpt lat="38.817158" lon="121.14823">
        <ele>53.155247</ele>
        <time>2014-11-15T23:41:31.651000Z</time>
      </trkpt>
      <trkpt lat="38.81725" lon="121.148315">
        <ele>52.596455</ele>
        <time>2014-11-15T23:41:35.084000Z</time>
      </trkpt>
      <trkpt lat="38.817352" lon="121.14834">
        <ele>51.959763</ele>
        <time>2014-11-15T23:41:38.517000Z</time>
      </trkpt>
      <trkpt lat="38.817448" lon="121.148346">
        <ele>51.411156</ele>
        <time>2014-11-15T23:41:41.950000Z</time>
      </trkpt>
      <trkpt lat="38.817562" lon="121.14835">
        <ele>51.352676</ele>
        <time>2014-11-15T23:41:45.383000Z</time>
      </trkpt>
      <trkpt lat="38.817654" lon="121.14836">
        <ele>51.62876</ele>
        <time>2014-11-15T23:41:48.816000Z</time>
      </trkpt>
      <trkpt lat="38.817757" lon="121.14836">
        <ele>51.329807</ele>
        <time>2014-11-15T23:41:52.249000Z</time>
      </trkpt>
      <trkpt lat="38.81787" lon="121.14836">
        <ele>50.187733</ele>
        <time>2014-11-15T23:41:55.682000Z</time>
      </trkpt>
      <trkpt lat="38.81797" lon="121.14836">
        <ele>49.0832</ele>
        <time>2014-11-15T23:41:59.115000Z</time>
      </trkpt>
      <trkpt lat="38.818066" lon="121.14836">
        <ele>48.319157</ele>
        <time>2014-11-15T23:42:02.548000Z</time>
      </trkpt>
      <trkpt lat="38.81817" lon="121.14835">
        <ele>47.550488</ele>
        <time>2014-11-15T23:42:05.981000Z</time>
      </trkpt>
      <trkpt lat="38.81826" lon="121.14835">
        <ele>46.90634</ele>
        <time>2014-11-15T23:42:09.414000Z</time>
      </trkpt>
      <trkpt lat="38.818375" lon="121.14836">
        <ele>47.254818</ele>
        <time>2014-11-15T23:42:12.847000Z</time>
      </trkpt>
      <trkpt lat="38.81847" lon="121.14837">
        <ele>49.007195</ele>
        <time>2014-11-15T23:42:16.280000Z</time>
      </trkpt>
      <trkpt lat="38.818584" lon="121.14836">
        <ele>51.175095</ele>
        <time>2014-11-15T23:42:19.713000Z</time>
      </trkpt>
      <trkpt lat="38.818672" lon="121.148315">
        <ele>52.50529</ele>
        <time>2014-11-15T23:42:23.146000Z</time>
      </trkpt>
      <trkpt lat="38.818764" lon="121.14822">
        <ele>52.28244</ele>
        <time>2014-11-15T23:42:26.579000Z</time>
      </trkpt>
      <trkpt lat="38.818798" lon="121.1481">
        <ele>50.622894</ele>
        <time>2014-11-15T23:42:30.012000Z</time>
      </trkpt>
      <trkpt lat="38.818806" lon="121.14799">
        <ele>49.081387</ele>
        <time>2014-11-15T23:42:33.445000Z</time>
      </trkpt>
      <trkpt lat="38.81881" lon="121.14785">
        <ele>48.869198</ele>
        <time>2014-11-15T23:42:36.878000Z</time>
      </trkpt>
      <trkpt lat="38.81881" lon="121.14772">
        <ele>49.74161</ele>
        <time>2014-11-15T23:42:40.311000Z</time>
      </trkpt>
      <trkpt lat="38.818813" lon="121.14759">
        <ele>51.04913</ele>
        <time>2014-11-15T23:42:43.744000Z</time>
      </trkpt>
      <trkpt lat="38.818798" lon="121.14744">
        <ele>52.18582</ele>
        <time>2014-11-15T23:42:47.177000Z</time>
      </trkpt>
      <trkpt lat="38.818752" lon="121.14734">
        <ele>52.8295</ele>
        <time>2014-11-15T23:42:50.610000Z</time>
      </trkpt>
      <trkpt lat="38.818657" lon="121.14726">
        <ele>53.23139</ele>
        <time>2014-11-15T23:42:54.043000Z</time>
      </trkpt>
      <trkpt lat="38.81855" lon="121.14724">
        <ele>53.6575</ele>
        <time>2014-11-15T23:42:57.476000Z</time>
      </trkpt>
      <trkpt lat="38.818436" lon="121.14725">
        <ele>53.67346</ele>
        <time>2014-11-15T23:43:00.909000Z</time>
      </trkpt>
      <trkpt lat="38.818333" lon="121.14725">
        <ele>52.904842</ele>
        <time>2014-11-15T23:43:04.342000Z</time>
      </trkpt>
      <trkpt lat="38.81821" lon="121.147255">
        <ele>51.894672</ele>
        <time>2014-11-15T23:43:07.775000Z</time>
      </trkpt>
      <trkpt lat="38.818108" lon="121.147255">
        <ele>51.51513</ele>
        <time>2014-11-15T23:43:11.208000Z</time>
      </trkpt>
      <trkpt lat="38.818005" lon="121.147255">
        <ele>51.980946</ele>
        <time>2014-11-15T23:43:14.641000Z</time>
      </trkpt>
      <trkpt lat="38.8179" lon="121.14725">
        <ele>52.715534</ele>
        <time>2014-11-15T23:43:18.074000Z</time>
      </trkpt>
      <trkpt lat="38.8178" lon="121.14724">
        <ele>52.901672</ele>
        <time>2014-11-15T23:43:21.507000Z</time>
      </trkpt>
      <trkpt lat="38.8177" lon="121.14723">
        <ele>52.41768</ele>
        <time>2014-11-15T23:43:24.940000Z</time>
      </trkpt>
      <trkpt lat="38.817585" lon="121.14723">
        <ele>51.922676</ele>
        <time>2014-11-15T23:43:28.373000Z</time>
      </trkpt>
      <trkpt lat="38.81749" lon="121.147224">
        <ele>52.07053</ele>
        <time>2014-11-15T23:43:31.806000Z</time>
      </trkpt>
      <trkpt lat="38.817394" lon="121.14721">
        <ele>52.73331</ele>
        <time>2014-11-15T23:43:35.239000Z</time>
      </trkpt>
      <trkpt lat="38.817307" lon="121.14721">
        <ele>53.519444</ele>
        <time>2014-11-15T23:43:38.672000Z</time>
      </trkpt>
      <trkpt lat="38.81722" lon="121.14724">
        <ele>54.849907</ele>
        <time>2014-11-15T23:43:42.105000Z</time>
      </trkpt>
      <trkpt lat="38.81714" lon="121.14734">
        <ele>56.967777</ele>
        <time>2014-11-15T23:43:45.538000Z</time>
      </trkpt>
      <trkpt lat="38.817097" lon="121.14746">
        <ele>58.81155</ele>
        <time>2014-11-15T23:43:48.971000Z</time>
      </trkpt>
      <trkpt lat="38.817097" lon="121.14761">
        <ele>59.176647</ele>
        <time>2014-11-15T23:43:52.404000Z</time>
      </trkpt>
      <trkpt lat="38.8171" lon="121.14773">
        <ele>58.135494</ele>
        <time>2014-11-15T23:43:55.837000Z</time>
      </trkpt>
      <trkpt lat="38.817093" lon="121.14786">
        <ele>56.712265</ele>
        <time>2014-11-15T23:43:59.270000Z</time>
      </trkpt>
      <trkpt lat="38.817093" lon="121.14799">
        <ele>56.010693</ele>
        <time>2014-11-15T23:44:02.703000Z</time>
      </trkpt>
      <trkpt lat="38.817112" lon="121.14813">
        <ele>56.20223</ele>
        <time>2014-11-15T23:44:06.136000Z</time>
      </trkpt>
      <trkpt lat="38.81716" lon="121.14825">
        <ele>56.58923</ele>
        <time>2014-11-15T23:44:09.569000Z</time>
      </trkpt>
      <trkpt lat="38.81725" lon="121.14833">
        <ele>56.21606</ele>
        <time>2014-11-15T23:44:13.002000Z</time>
      </trkpt>
      <trkpt lat="38.81734" lon="121.14833">
        <ele>54.842873</ele>
        <time>2014-11-15T23:44:16.435000Z</time>
      </trkpt>
      <trkpt lat="38.817436" lon="121.14833">
        <ele>53.244614</ele>
        <time>2014-11-15T23:44:19.868000Z</time>
      </trkpt>
      <trkpt lat="38.817535" lon="121.14834">
        <ele>51.94831</ele>
        <time>2014-11-15T23:44:23.301000Z</time>
      </trkpt>
      <trkpt lat="38.817646" lon="121.14834">
        <ele>50.8223</ele>
        <time>2014-11-15T23:44:26.734000Z</time>
      </trkpt>
      <trkpt lat="38.817734" lon="121.148346">
        <ele>49.858456</ele>
        <time>2014-11-15T23:44:30.167000Z</time>
      </trkpt>
      <trkpt lat="38.81785" lon="121.14835">
        <ele>49.118874</ele>
        <time>2014-11-15T23:44:33.600000Z</time>
      </trkpt>
      <trkpt lat="38.817966" lon="121.14835">
        <ele>48.598442</ele>
        <time>2014-11-15T23:44:37.033000Z</time>
      </trkpt>
      <trkpt lat="38.818054" lon="121.14837">
        <ele>48.832275</ele>
        <time>2014-11-15T23:44:40.466000Z</time>
      </trkpt>
      <trkpt lat="38.81816" lon="121.14837">
        <ele>50.007915</ele>
        <time>2014-11-15T23:44:43.899000Z</time>
      </trkpt>
      <trkpt lat="38.81826" lon="121.14837">
        <ele>51.27229</ele>
        <time>2014-11-15T23:44:47.332000Z</time>
      </trkpt>
      <trkpt lat="38.818367" lon="121.14837">
        <ele>51.77946</ele>
        <time>2014-11-15T23:44:50.765000Z</time>
      </trkpt>
      <trkpt lat="38.818455" lon="121.14838">
        <ele>51.495056</ele>
        <time>2014-11-15T23:44:54.198000Z</time>
      </trkpt>
      <trkpt lat="38.818558" lon="121.1484">
        <ele>50.801178</ele>
        <time>2014-11-15T23:44:57.630000Z</time>
      </trkpt>
      <trkpt lat="38.818657" lon="121.14838">
        <ele>50.22528</ele>
        <time>2014-11-15T23:45:01.062000Z</time>
      </trkpt>
      <trkpt lat="38.81875" lon="121.148285">
        <ele>49.973244</ele>
        <time>2014-11-15T23:45:04.494000Z</time>
      </trkpt>
      <trkpt lat="38.818794" lon="121.14817">
        <ele>49.83541</ele>
        <time>2014-11-15T23:45:07.926000Z</time>
      </trkpt>
      <trkpt lat="38.81881" lon="121.14802">
        <ele>49.565376</ele>
        <time>2014-11-15T23:45:11.358000Z</time>
      </trkpt>
      <trkpt lat="38.818813" lon="121.14787">
        <ele>49.259945</ele>
        <time>2014-11-15T23:45:14.790000Z</time>
      </trkpt>
      <trkpt lat="38.818806" lon="121.14776">
        <ele>49.238583</ele>
        <time>2014-11-15T23:45:18.222000Z</time>
      </trkpt>
      <trkpt lat="38.818817" lon="121.14762">
        <ele>49.647633</ele>
        <time>2014-11-15T23:45:21.654000Z</time>
      </trkpt>
      <trkpt lat="38.818817" lon="121.1475">
        <ele>50.283733</ele>
        <time>2014-11-15T23:45:25.086000Z</time>
      </trkpt>
      <trkpt lat="38.818783" lon="121.147385">
        <ele>50.83142</ele>
        <time>2014-11-15T23:45:28.518000Z</time>
      </trkpt>
      <trkpt lat="38.818718" lon="121.14729">
        <ele>51.683937</ele>
        <time>2014-11-15T23:45:31.950000Z</time>
      </trkpt>
      <trkpt lat="38.818607" lon="121.14725">
        <ele>53.19873</ele>
        <time>2014-11-15T23:45:35.382000Z</time>
      </trkpt>
      <trkpt lat="38.818512" lon="121.14723">
        <ele>54.68837</ele>
        <time>2014-11-15T23:45:38.814000Z</time>
      </trkpt>
      <trkpt lat="38.818413" lon="121.14723">
        <ele>55.406727</ele>
        <time>2014-11-15T23:45:42.246000Z</time>
      </trkpt>
      <trkpt lat="38.818295" lon="121.14724">
        <ele>55.72333</ele>
        <time>2014-11-15T23:45:45.678000Z</time>
      </trkpt>
      <trkpt lat="38.818184" lon="121.14724">
        <ele>55.92503</ele>
        <time>2014-11-15T23:45:49.110000Z</time>
      </trkpt>
      <trkpt lat="38.81807" lon="121.14725">
        <ele>55.619522</ele>
        <time>2014-11-15T23:45:52.542000Z</time>
      </trkpt>
      <trkpt lat="38.81795" lon="121.14725">
        <ele>54.735813</ele>
        <time>2014-11-15T23:45:55.974000Z</time>
      </trkpt>
      <trkpt lat="38.817852" lon="121.14725">
        <ele>53.812485</ele>
        <time>2014-11-15T23:45:59.406000Z</time>
      </trkpt>
      <trkpt lat="38.817734" lon="121.14723">
        <ele>53.154797</ele>
        <time>2014-11-15T23:46:02.838000Z</time>
      </trkpt>
      <trkpt lat="38.81764" lon="121.147224">
        <ele>52.959534</ele>
        <time>2014-11-15T23:46:06.270000Z</time>
      </trkpt>
      <trkpt lat="38.817528" lon="121.147224">
        <ele>53.190002</ele>
        <time>2014-11-15T23:46:09.702000Z</time>
      </trkpt>
      <trkpt lat="38.817432" lon="121.147224">
        <ele>53.521446</ele>
        <time>2014-11-15T23:46:13.134000Z</time>
      </trkpt>
      <trkpt lat="38.817314" lon="121.147224">
        <ele>53.69544</ele>
        <time>2014-11-15T23:46:16.566000Z</time>
      </trkpt>
      <trkpt lat="38.817223" lon="121.147255">
        <ele>54.14333</ele>
        <time>2014-11-15T23:46:19.998000Z</time>
      </trkpt>
      <trkpt lat="38.81714" lon="121.14736">
        <ele>55.045643</ele>
        <time>2014-11-15T23:46:23.430000Z</time>
      </trkpt>
      <trkpt lat="38.81711" lon="121.147484">
        <ele>55.70985</ele>
        <time>2014-11-15T23:46:26.862000Z</time>
      </trkpt>
      <trkpt lat="38.817104" lon="121.1476">
        <ele>55.55328</ele>
        <time>2014-11-15T23:46:30.294000Z</time>
      </trkpt>
      <trkpt lat="38.817085" lon="121.14776">
        <ele>54.82314</ele>
        <time>2014-11-15T23:46:33.726000Z</time>
      </trkpt>
      <trkpt lat="38.81708" lon="121.14789">
        <ele>54.090298</ele>
        <time>2014-11-15T23:46:37.158000Z</time>
      </trkpt>
      <trkpt lat="38.81709" lon="121.14802">
        <ele>53.76121</ele>
        <time>2014-11-15T23:46:40.590000Z</time>
      </trkpt>
      <trkpt lat="38.817104" lon="121.14813">
        <ele>53.83086</ele>
        <time>2014-11-15T23:46:44.022000Z</time>
      </trkpt>
      <trkpt lat="38.817173" lon="121.148254">
        <ele>54.143707</ele>
        <time>2014-11-15T23:46:47.454000Z</time>
      </trkpt>
      <trkpt lat="38.817265" lon="121.148315">
        <ele>53.6544</ele>
        <time>2014-11-15T23:46:50.886000Z</time>
      </trkpt>
      <trkpt lat="38.817368" lon="121.148315">
        <ele>51.59557</ele>
        <time>2014-11-15T23:46:54.318000Z</time>
      </trkpt>
      <trkpt lat="38.81746" lon="121.14832">
        <ele>49.13391</ele>
        <time>2014-11-15T23:46:57.750000Z</time>
      </trkpt>
      <trkpt lat="38.81756" lon="121.14832">
        <ele>47.938408</ele>
        <time>2014-11-15T23:47:01.182000Z</time>
      </trkpt>
      <trkpt lat="38.817657" lon="121.14833">
        <ele>48.586876</ele>
        <time>2014-11-15T23:47:04.614000Z</time>
      </trkpt>
      <trkpt lat="38.81775" lon="121.14833">
        <ele>50.465927</ele>
        <time>2014-11-15T23:47:08.046000Z</time>
      </trkpt>
      <trkpt lat="38.817844" lon="121.14834">
        <ele>51.965374</ele>
        <time>2014-11-15T23:47:11.478000Z</time>
      </trkpt>
      <trkpt lat="38.817947" lon="121.148346">
        <ele>51.86018</ele>
        <time>2014-11-15T23:47:14.910000Z</time>
      </trkpt>
      <trkpt lat="38.818047" lon="121.148346">
        <ele>50.487175</ele>
        <time>2014-11-15T23:47:18.342000Z</time>
      </trkpt>
      <trkpt lat="38.81814" lon="121.14835">
        <ele>49.094006</ele>
        <time>2014-11-15T23:47:21.774000Z</time>
      </trkpt>
      <trkpt lat="38.81823" lon="121.14835">
        <ele>48.421795</ele>
        <time>2014-11-15T23:47:25.206000Z</time>
      </trkpt>
      <trkpt lat="38.81832" lon="121.14836">
        <ele>48.306854</ele>
        <time>2014-11-15T23:47:28.638000Z</time>
      </trkpt>
      <trkpt lat="38.818436" lon="121.148384">
        <ele>48.58173</ele>
        <time>2014-11-15T23:47:32.070000Z</time>
      </trkpt>
      <trkpt lat="38.818535" lon="121.14839">
        <ele>49.151276</ele>
        <time>2014-11-15T23:47:35.502000Z</time>
      </trkpt>
      <trkpt lat="38.818657" lon="121.14836">
        <ele>49.682873</ele>
        <time>2014-11-15T23:47:38.934000Z</time>
      </trkpt>
      <trkpt lat="38.818733" lon="121.14829">
        <ele>49.974155</ele>
        <time>2014-11-15T23:47:42.366000Z</time>
      </trkpt>
      <trkpt lat="38.81878" lon="121.14817">
        <ele>50.14143</ele>
        <time>2014-11-15T23:47:45.798000Z</time>
      </trkpt>
      <trkpt lat="38.818794" lon="121.14804">
        <ele>50.421146</ele>
        <time>2014-11-15T23:47:49.230000Z</time>
      </trkpt>
      <trkpt lat="38.818798" lon="121.14792">
        <ele>50.923065</ele>
        <time>2014-11-15T23:47:52.662000Z</time>
      </trkpt>
      <trkpt lat="38.818806" lon="121.14777">
        <ele>51.272217</ele>
        <time>2014-11-15T23:47:56.094000Z</time>
      </trkpt>
      <trkpt lat="38.818813" lon="121.14766">
        <ele>50.94077</ele>
        <time>2014-11-15T23:47:59.526000Z</time>
      </trkpt>
      <trkpt lat="38.818806" lon="121.14751">
        <ele>50.076828</ele>
        <time>2014-11-15T23:48:02.958000Z</time>
      </trkpt>
      <trkpt lat="38.81877" lon="121.1474">
        <ele>49.362392</ele>
        <time>2014-11-15T23:48:06.390000Z</time>
      </trkpt>
      <trkpt lat="38.818695" lon="121.14731">
        <ele>49.25645</ele>
        <time>2014-11-15T23:48:09.822000Z</time>
      </trkpt>
      <trkpt lat="38.818592" lon="121.147255">
        <ele>49.6244</ele>
        <time>2014-11-15T23:48:13.254000Z</time>
      </trkpt>
      <trkpt lat="38.81848" lon="121.14724">
        <ele>50.335213</ele>
        <time>2014-11-15T23:48:16.686000Z</time>
      </trkpt>
      <trkpt lat="38.818363" lon="121.14725">
        <ele>51.2921</ele>
        <time>2014-11-15T23:48:20.118000Z</time>
      </trkpt>
      <trkpt lat="38.81827" lon="121.147255">
        <ele>52.08433</ele>
        <time>2014-11-15T23:48:23.550000Z</time>
      </trkpt>
      <trkpt lat="38.81816" lon="121.147255">
        <ele>52.340935</ele>
        <time>2014-11-15T23:48:26.982000Z</time>
      </trkpt>
      <trkpt lat="38.818066" lon="121.147255">
        <ele>52.18498</ele>
        <time>2014-11-15T23:48:30.414000Z</time>
      </trkpt>
      <trkpt lat="38.817947" lon="121.147255">
        <ele>51.9281</ele>
        <time>2014-11-15T23:48:33.846000Z</time>
      </trkpt>
      <trkpt lat="38.817833" lon="121.147255">
        <ele>52.114983</ele>
        <time>2014-11-15T23:48:37.278000Z</time>
      </trkpt>
      <trkpt lat="38.81774" lon="121.14725">
        <ele>53.15543</ele>
        <time>2014-11-15T23:48:40.710000Z</time>
      </trkpt>
      <trkpt lat="38.817627" lon="121.14725">
        <ele>54.691166</ele>
        <time>2014-11-15T23:48:44.142000Z</time>
      </trkpt>
      <trkpt lat="38.817505" lon="121.14725">
        <ele>56.14213</ele>
        <time>2014-11-15T23:48:47.574000Z</time>
      </trkpt>
      <trkpt lat="38.81741" lon="121.14724">
        <ele>57.291832</ele>
        <time>2014-11-15T23:48:51.006000Z</time>
      </trkpt>
      <trkpt lat="38.81732" lon="121.14724">
        <ele>58.20846</ele>
        <time>2014-11-15T23:48:54.438000Z</time>
      </trkpt>
      <trkpt lat="38.817226" lon="121.14728">
        <ele>59.21493</ele>
        <time>2014-11-15T23:48:57.870000Z</time>
      </trkpt>
      <trkpt lat="38.817158" lon="121.147354">
        <ele>60.30452</ele>
        <time>2014-11-15T23:49:01.302000Z</time>
      </trkpt>
      <trkpt lat="38.81711" lon="121.147484">
        <ele>60.208603</ele>
        <time>2014-11-15T23:49:04.734000Z</time>
      </trkpt>
      <trkpt lat="38.817104" lon="121.147606">
        <ele>58.314705</ele>
        <time>2014-11-15T23:49:08.166000Z</time>
      </trkpt>
      <trkpt lat="38.8171" lon="121.14773">
        <ele>56.06924</ele>
        <time>2014-11-15T23:49:11.598000Z</time>
      </trkpt>
      <trkpt lat="38.817104" lon="121.14784">
        <ele>54.66756</ele>
        <time>2014-11-15T23:49:15.030000Z</time>
      </trkpt>
      <trkpt lat="38.8171" lon="121.148">
        <ele>53.76671</ele>
        <time>2014-11-15T23:49:18.462000Z</time>
      </trkpt>
      <trkpt lat="38.8171" lon="121.148125">
        <ele>53.114777</ele>
        <time>2014-11-15T23:49:21.894000Z</time>
      </trkpt>
      <trkpt lat="38.81714" lon="121.14824">
        <ele>52.782986</ele>
        <time>2014-11-15T23:49:25.326000Z</time>
      </trkpt>
      <trkpt lat="38.81725" lon="121.148315">
        <ele>52.72138</ele>
        <time>2014-11-15T23:49:28.758000Z</time>
      </trkpt>
      <trkpt lat="38.817364" lon="121.14833">
        <ele>52.764454</ele>
        <time>2014-11-15T23:49:32.190000Z</time>
      </trkpt>
      <trkpt lat="38.81746" lon="121.14834">
        <ele>52.277756</ele>
        <time>2014-11-15T23:49:35.622000Z</time>
      </trkpt>
      <trkpt lat="38.817554" lon="121.148346">
        <ele>50.923462</ele>
        <time>2014-11-15T23:49:39.054000Z</time>
      </trkpt>
      <trkpt lat="38.817665" lon="121.14834">
        <ele>49.102077</ele>
        <time>2014-11-15T23:49:42.486000Z</time>
      </trkpt>
      <trkpt lat="38.817776" lon="121.14836">
        <ele>47.7715</ele>
        <time>2014-11-15T23:49:45.918000Z</time>
      </trkpt>
      <trkpt lat="38.817867" lon="121.14838">
        <ele>47.569244</ele>
        <time>2014-11-15T23:49:49.350000Z</time>
      </trkpt>
      <trkpt lat="38.81797" lon="121.14838">
        <ele>48.142666</ele>
        <time>2014-11-15T23:49:52.782000Z</time>
      </trkpt>
      <trkpt lat="38.81807" lon="121.14837">
        <ele>48.656025</ele>
        <time>2014-11-15T23:49:56.214000Z</time>
      </trkpt>
      <trkpt lat="38.81818" lon="121.14837">
        <ele>49.09951</ele>
        <time>2014-11-15T23:49:59.646000Z</time>
      </trkpt>
      <trkpt lat="38.81829" lon="121.14836">
        <ele>49.909386</ele>
        <time>2014-11-15T23:50:03.078000Z</time>
      </trkpt>
      <trkpt lat="38.81841" lon="121.14837">
        <ele>51.090355</ele>
        <time>2014-11-15T23:50:06.510000Z</time>
      </trkpt>
      <trkpt lat="38.818512" lon="121.14835">
        <ele>51.998978</ele>
        <time>2014-11-15T23:50:09.942000Z</time>
      </trkpt>
      <trkpt lat="38.81862" lon="121.14833">
        <ele>52.299892</ele>
        <time>2014-11-15T23:50:13.374000Z</time>
      </trkpt>
      <trkpt lat="38.818726" lon="121.14826">
        <ele>51.8416</ele>
        <time>2014-11-15T23:50:16.806000Z</time>
      </trkpt>
      <trkpt lat="38.818764" lon="121.148155">
        <ele>50.687477</ele>
        <time>2014-11-15T23:50:20.238000Z</time>
      </trkpt>
      <trkpt lat="38.818787" lon="121.14803">
        <ele>49.569675</ele>
        <time>2014-11-15T23:50:23.670000Z</time>
      </trkpt>
      <trkpt lat="38.818798" lon="121.14791">
        <ele>49.072273</ele>
        <time>2014-11-15T23:50:27.102000Z</time>
      </trkpt>
      <trkpt lat="38.81881" lon="121.14777">
        <ele>49.016197</ele>
        <time>2014-11-15T23:50:30.534000Z</time>
      </trkpt>
      <trkpt lat="38.81881" lon="121.14765">
        <ele>49.09027</ele>
        <time>2014-11-15T23:50:33.966000Z</time>
      </trkpt>
      <trkpt lat="38.818806" lon="121.147514">
        <ele>49.190105</ele>
        <time>2014-11-15T23:50:37.398000Z</time>
      </trkpt>
      <trkpt lat="38.818764" lon="121.14739">
        <ele>49.296234</ele>
        <time>2014-11-15T23:50:40.830000Z</time>
      </trkpt>
      <trkpt lat="38.818703" lon="121.1473">
        <ele>49.64753</ele>
        <time>2014-11-15T23:50:44.262000Z</time>
      </trkpt>
      <trkpt lat="38.8186" lon="121.14727">
        <ele>50.348595</ele>
        <time>2014-11-15T23:50:47.694000Z</time>
      </trkpt>
      <trkpt lat="38.81851" lon="121.14726">
        <ele>51.016468</ele>
        <time>2014-11-15T23:50:51.126000Z</time>
      </trkpt>
      <trkpt lat="38.818394" lon="121.14728">
        <ele>51.550182</ele>
        <time>2014-11-15T23:50:54.558000Z</time>
      </trkpt>
      <trkpt lat="38.818295" lon="121.14728">
        <ele>52.289654</ele>
        <time>2014-11-15T23:50:57.990000Z</time>
      </trkpt>
      <trkpt lat="38.8182" lon="121.147285">
        <ele>53.475693</ele>
        <time>2014-11-15T23:51:01.422000Z</time>
      </trkpt>
      <trkpt lat="38.818104" lon="121.147285">
        <ele>54.940216</ele>
        <time>2014-11-15T23:51:04.854000Z</time>
      </trkpt>
      <trkpt lat="38.817986" lon="121.14728">
        <ele>55.591297</ele>
        <time>2014-11-15T23:51:08.286000Z</time>
      </trkpt>
      <trkpt lat="38.81789" lon="121.14726">
        <ele>54.79337</ele>
        <time>2014-11-15T23:51:11.718000Z</time>
      </trkpt>
      <trkpt lat="38.817772" lon="121.14726">
        <ele>53.761467</ele>
        <time>2014-11-15T23:51:15.150000Z</time>
      </trkpt>
      <trkpt lat="38.817677" lon="121.14725">
        <ele>53.62665</ele>
        <time>2014-11-15T23:51:18.582000Z</time>
      </trkpt>
      <trkpt lat="38.817577" lon="121.147255">
        <ele>53.88129</ele>
        <time>2014-11-15T23:51:22.014000Z</time>
      </trkpt>
      <trkpt lat="38.81748" lon="121.14726">
        <ele>53.766266</ele>
        <time>2014-11-15T23:51:25.446000Z</time>
      </trkpt>
      <trkpt lat="38.817368" lon="121.14727">
        <ele>53.36065</ele>
        <time>2014-11-15T23:51:28.878000Z</time>
      </trkpt>
      <trkpt lat="38.81726" lon="121.147285">
        <ele>53.012127</ele>
        <time>2014-11-15T23:51:32.310000Z</time>
      </trkpt>
      <trkpt lat="38.81717" lon="121.147354">
        <ele>53.103783</ele>
        <time>2014-11-15T23:51:35.742000Z</time>
      </trkpt>
      <trkpt lat="38.81712" lon="121.14745">
        <ele>54.044064</ele>
        <time>2014-11-15T23:51:39.174000Z</time>
      </trkpt>
      <trkpt lat="38.817104" lon="121.14759">
        <ele>55.495716</ele>
        <time>2014-11-15T23:51:42.606000Z</time>
      </trkpt>
      <trkpt lat="38.8171" lon="121.14773">
        <ele>56.241016</ele>
        <time>2014-11-15T23:51:46.038000Z</time>
      </trkpt>
      <trkpt lat="38.817097" lon="121.14786">
        <ele>55.766197</ele>
        <time>2014-11-15T23:51:49.470000Z</time>
      </trkpt>
      <trkpt lat="38.81709" lon="121.14799">
        <ele>54.861237</ele>
        <time>2014-11-15T23:51:52.902000Z</time>
      </trkpt>
      <trkpt lat="38.817097" lon="121.14811">
        <ele>54.05651</ele>
        <time>2014-11-15T23:51:56.334000Z</time>
      </trkpt>
      <trkpt lat="38.817146" lon="121.14824">
        <ele>52.91478</ele>
        <time>2014-11-15T23:51:59.766000Z</time>
      </trkpt>
      <trkpt lat="38.817215" lon="121.14832">
        <ele>51.358776</ele>
        <time>2014-11-15T23:52:03.198000Z</time>
      </trkpt>
      <trkpt lat="38.81731" lon="121.14834">
        <ele>50.040813</ele>
        <time>2014-11-15T23:52:06.630000Z</time>
      </trkpt>
      <trkpt lat="38.81741" lon="121.14833">
        <ele>49.44754</ele>
        <time>2014-11-15T23:52:10.062000Z</time>
      </trkpt>
      <trkpt lat="38.817528" lon="121.14834">
        <ele>49.557613</ele>
        <time>2014-11-15T23:52:13.494000Z</time>
      </trkpt>
      <trkpt lat="38.81764" lon="121.14834">
        <ele>50.094913</ele>
        <time>2014-11-15T23:52:16.926000Z</time>
      </trkpt>
      <trkpt lat="38.81774" lon="121.14834">
        <ele>50.66469</ele>
        <time>2014-11-15T23:52:20.358000Z</time>
      </trkpt>
      <trkpt lat="38.817867" lon="121.148346">
        <ele>51.231895</ele>
        <time>2014-11-15T23:52:23.790000Z</time>
      </trkpt>
      <trkpt lat="38.817966" lon="121.148346">
        <ele>51.94518</ele>
        <time>2014-11-15T23:52:27.222000Z</time>
      </trkpt>
      <trkpt lat="38.818077" lon="121.148346">
        <ele>52.54337</ele>
        <time>2014-11-15T23:52:30.654000Z</time>
      </trkpt>
      <trkpt lat="38.81817" lon="121.14834">
        <ele>52.39057</ele>
        <time>2014-11-15T23:52:34.086000Z</time>
      </trkpt>
      <trkpt lat="38.818275" lon="121.14835">
        <ele>51.68162</ele>
        <time>2014-11-15T23:52:37.518000Z</time>
      </trkpt>
      <trkpt lat="38.818386" lon="121.14838">
        <ele>50.947372</ele>
        <time>2014-11-15T23:52:40.950000Z</time>
      </trkpt>
      <trkpt lat="38.818493" lon="121.148384">
        <ele>50.161716</ele>
        <time>2014-11-15T23:52:44.382000Z</time>
      </trkpt>
      <trkpt lat="38.818607" lon="121.14839">
        <ele>49.399227</ele>
        <time>2014-11-15T23:52:47.814000Z</time>
      </trkpt>
      <trkpt lat="38.8187" lon="121.14832">
        <ele>48.98804</ele>
        <time>2014-11-15T23:52:51.246000Z</time>
      </trkpt>
      <trkpt lat="38.818768" lon="121.14821">
        <ele>49.003082</ele>
        <time>2014-11-15T23:52:54.678000Z</time>
      </trkpt>
      <trkpt lat="38.818798" lon="121.14808">
        <ele>49.321754</ele>
        <time>2014-11-15T23:52:58.110000Z</time>
      </trkpt>
      <trkpt lat="38.818817" lon="121.14794">
        <ele>49.485638</ele>
        <time>2014-11-15T23:53:01.542000Z</time>
      </trkpt>
      <trkpt lat="38.81882" lon="121.14783">
        <ele>49.253498</ele>
        <time>2014-11-15T23:53:04.974000Z</time>
      </trkpt>
      <trkpt lat="38.818825" lon="121.1477">
        <ele>48.78914</ele>
        <time>2014-11-15T23:53:08.406000Z</time>
      </trkpt>
      <trkpt lat="38.81882" lon="121.147545">
        <ele>48.080894</ele>
        <time>2014-11-15T23:53:11.838000Z</time>
      </trkpt>
      <trkpt lat="38.818794" lon="121.14743">
        <ele>47.201397</ele>
        <time>2014-11-15T23:53:15.270000Z</time>
      </trkpt>
      <trkpt lat="38.81874" lon="121.14733">
        <ele>46.74539</ele>
        <time>2014-11-15T23:53:18.702000Z</time>
      </trkpt>
      <trkpt lat="38.81866" lon="121.14728">
        <ele>47.144367</ele>
        <time>2014-11-15T23:53:22.134000Z</time>
      </trkpt>
      <trkpt lat="38.818546" lon="121.14726">
        <ele>48.004784</ele>
        <time>2014-11-15T23:53:25.566000Z</time>
      </trkpt>
      <trkpt lat="38.818443" lon="121.14726">
        <ele>48.67293</ele>
        <time>2014-11-15T23:53:28.998000Z</time>
      </trkpt>
      <trkpt lat="38.818344" lon="121.147255">
        <ele>48.94467</ele>
        <time>2014-11-15T23:53:32.430000Z</time>
      </trkpt>
      <trkpt lat="38.81825" lon="121.14726">
        <ele>49.209244</ele>
        <time>2014-11-15T23:53:35.862000Z</time>
      </trkpt>
      <trkpt lat="38.818134" lon="121.14726">
        <ele>49.849552</ele>
        <time>2014-11-15T23:53:39.294000Z</time>
      </trkpt>
      <trkpt lat="38.81802" lon="121.147255">
        <ele>50.62895</ele>
        <time>2014-11-15T23:53:42.726000Z</time>
      </trkpt>
      <trkpt lat="38.81792" lon="121.147224">
        <ele>50.788692</ele>
        <time>2014-11-15T23:53:46.158000Z</time>
      </trkpt>
      <trkpt lat="38.81781" lon="121.14722">
        <ele>49.99255</ele>
        <time>2014-11-15T23:53:49.590000Z</time>
      </trkpt>
      <trkpt lat="38.817707" lon="121.1472">
        <ele>48.4187</ele>
        <time>2014-11-15T23:53:53.022000Z</time>
      </trkpt>
      <trkpt lat="38.817608" lon="121.1472">
        <ele>46.39874</ele>
        <time>2014-11-15T23:53:56.454000Z</time>
      </trkpt>
      <trkpt lat="38.8175" lon="121.1472">
        <ele>44.74654</ele>
        <time>2014-11-15T23:53:59.886000Z</time>
      </trkpt>
      <trkpt lat="38.817398" lon="121.14721">
        <ele>44.394814</ele>
        <time>2014-11-15T23:54:03.318000Z</time>
      </trkpt>
      <trkpt lat="38.817295" lon="121.14724">
        <ele>45.134624</ele>
        <time>2014-11-15T23:54:06.750000Z</time>
      </trkpt>
      <trkpt lat="38.817207" lon="121.14728">
        <ele>46.124454</ele>
        <time>2014-11-15T23:54:10.182000Z</time>
      </trkpt>
      <trkpt lat="38.81714" lon="121.14736">
        <ele>47.483494</ele>
        <time>2014-11-15T23:54:13.614000Z</time>
      </trkpt>
      <trkpt lat="38.817097" lon="121.1475">
        <ele>49.528652</ele>
        <time>2014-11-15T23:54:17.046000Z</time>
      </trkpt>
      <trkpt lat="38.817104" lon="121.14765">
        <ele>51.319725</ele>
        <time>2014-11-15T23:54:20.478000Z</time>
      </trkpt>
      <trkpt lat="38.817112" lon="121.14777">
        <ele>52.057163</ele>
        <time>2014-11-15T23:54:23.910000Z</time>
      </trkpt>
      <trkpt lat="38.817104" lon="121.14792">
        <ele>52.326195</ele>
        <time>2014-11-15T23:54:27.342000Z</time>
      </trkpt>
      <trkpt lat="38.8171" lon="121.14804">
        <ele>52.761566</ele>
        <time>2014-11-15T23:54:30.774000Z</time>
      </trkpt>
      <trkpt lat="38.817127" lon="121.14818">
        <ele>53.158268</ele>
        <time>2014-11-15T23:54:34.206000Z</time>
      </trkpt>
      <trkpt lat="38.817207" lon="121.14829">
        <ele>52.774204</ele>
        <time>2014-11-15T23:54:37.638000Z</time>
      </trkpt>
      <trkpt lat="38.817303" lon="121.14833">
        <ele>51.564827</ele>
        <time>2014-11-15T23:54:41.070000Z</time>
      </trkpt>
      <trkpt lat="38.817413" lon="121.14833">
        <ele>50.463215</ele>
        <time>2014-11-15T23:54:44.502000Z</time>
      </trkpt>
      <trkpt lat="38.817513" lon="121.14833">
        <ele>50.20611</ele>
        <time>2014-11-15T23:54:47.934000Z</time>
      </trkpt>
      <trkpt lat="38.81761" lon="121.14833">
        <ele>50.542473</ele>
        <time>2014-11-15T23:54:51.366000Z</time>
      </trkpt>
      <trkpt lat="38.817707" lon="121.14834">
        <ele>50.939857</ele>
        <time>2014-11-15T23:54:54.798000Z</time>
      </trkpt>
      <trkpt lat="38.81783" lon="121.14835">
        <ele>50.908955</ele>
        <time>2014-11-15T23:54:58.230000Z</time>
      </trkpt>
      <trkpt lat="38.817944" lon="121.14835">
        <ele>50.339203</ele>
        <time>2014-11-15T23:55:01.662000Z</time>
      </trkpt>
      <trkpt lat="38.818035" lon="121.14836">
        <ele>49.83382</ele>
        <time>2014-11-15T23:55:05.094000Z</time>
      </trkpt>
      <trkpt lat="38.818134" lon="121.14837">
        <ele>50.08032</ele>
        <time>2014-11-15T23:55:08.526000Z</time>
      </trkpt>
      <trkpt lat="38.81824" lon="121.14836">
        <ele>50.719593</ele>
        <time>2014-11-15T23:55:11.958000Z</time>
      </trkpt>
      <trkpt lat="38.818333" lon="121.14837">
        <ele>50.96543</ele>
        <time>2014-11-15T23:55:15.390000Z</time>
      </trkpt>
      <trkpt lat="38.818443" lon="121.14838">
        <ele>50.7731</ele>
        <time>2014-11-15T23:55:18.822000Z</time>
      </trkpt>
      <trkpt lat="38.818542" lon="121.14839">
        <ele>50.313236</ele>
        <time>2014-11-15T23:55:22.254000Z</time>
      </trkpt>
      <trkpt lat="38.818645" lon="121.14836">
        <ele>50.150257</ele>
        <time>2014-11-15T23:55:25.686000Z</time>
      </trkpt>
      <trkpt lat="38.81872" lon="121.148285">
        <ele>50.985294</ele>
        <time>2014-11-15T23:55:29.118000Z</time>
      </trkpt>
      <trkpt lat="38.81877" lon="121.14816">
        <ele>52.625034</ele>
        <time>2014-11-15T23:55:32.550000Z</time>
      </trkpt>
      <trkpt lat="38.81879" lon="121.14802">
        <ele>54.339695</ele>
        <time>2014-11-15T23:55:35.982000Z</time>
      </trkpt>
      <trkpt lat="38.818798" lon="121.14789">
        <ele>55.326138</ele>
        <time>2014-11-15T23:55:39.414000Z</time>
      </trkpt>
      <trkpt lat="38.8188" lon="121.14775">
        <ele>53.783985</ele>
        <time>2014-11-15T23:55:42.846000Z</time>
      </trkpt>
      <trkpt lat="38.81881" lon="121.147606">
        <ele>49.494015</ele>
        <time>2014-11-15T23:55:46.278000Z</time>
      </trkpt>
      <trkpt lat="38.818798" lon="121.14748">
        <ele>45.130173</ele>
        <time>2014-11-15T23:55:49.710000Z</time>
      </trkpt>
      <trkpt lat="38.81875" lon="121.14734">
        <ele>42.871815</ele>
        <time>2014-11-15T23:55:53.142000Z</time>
      </trkpt>
      <trkpt lat="38.818665" lon="121.14726">
        <ele>42.486603</ele>
        <time>2014-11-15T23:55:56.574000Z</time>
      </trkpt>
      <trkpt lat="38.818565" lon="121.147255">
        <ele>43.100323</ele>
        <time>2014-11-15T23:56:00.006000Z</time>
      </trkpt>
      <trkpt lat="38.81847" lon="121.147255">
        <ele>43.811882</ele>
        <time>2014-11-15T23:56:03.438000Z</time>
      </trkpt>
      <trkpt lat="38.81837" lon="121.14726">
        <ele>44.50218</ele>
        <time>2014-11-15T23:56:06.870000Z</time>
      </trkpt>
      <trkpt lat="38.818275" lon="121.14727">
        <ele>46.034943</ele>
        <time>2014-11-15T23:56:10.302000Z</time>
      </trkpt>
      <trkpt lat="38.818176" lon="121.14726">
        <time>2014-11-15T23:56:13.734000Z</time>
      </trkpt>
    </trkseg>
  </trk>
</gpx>