<?xml version="1.0" encoding="UTF-8"?>
<gpx xmlns="http://www.topografix.com/GPX/1/1" xmlns:gpxtpx="http://www.garmin.com/xmlschemas/TrackPointExtension/v1" xmlns:xsi="http://www.w3.org/2001/XMLSchema-instance" xsi:schemaLocation="http://www.topografix.com/GPX/1/1 http://www.topografix.com/GPX/1/1/gpx.xsd" version="1.1" creator="gpx.py -- https://github.com/tkrajina/gpxpy">
  <trk>
    <trkseg>
      <trkpt lat="38.81746" lon="121.14837">
        <ele>44.54269</ele>
        <time>2014-11-21T23:36:27.656000Z</time>
      </trkpt>
      <trkpt lat="38.817482" lon="121.14838">
        <ele>44.131886</ele>
        <time>2014-11-21T23:36:30.819000Z</time>
      </trkpt>
      <trkpt lat="38.817574" lon="121.148384">
        <ele>44.181694</ele>
        <time>2014-11-21T23:36:33.982000Z</time>
      </trkpt>
      <trkpt lat="38.817665" lon="121.148384">
        <ele>43.941753</ele>
        <time>2014-11-21T23:36:37.145000Z</time>
      </trkpt>
      <trkpt lat="38.81777" lon="121.14837">
        <ele>43.60665</ele>
        <time>2014-11-21T23:36:40.308000Z</time>
      </trkpt>
      <trkpt lat="38.81788" lon="121.148384">
        <ele>43.256207</ele>
        <time>2014-11-21T23:36:43.471000Z</time>
      </trkpt>
      <trkpt lat="38.81797" lon="121.148384">
        <ele>42.871517</ele>
        <time>2014-11-21T23:36:46.634000Z</time>
      </trkpt>
      <trkpt lat="38.818066" lon="121.14838">
        <ele>42.062378</ele>
        <time>2014-11-21T23:36:49.797000Z</time>
      </trkpt>
      <trkpt lat="38.818172" lon="121.148384">
        <ele>40.6321</ele>
        <time>2014-11-21T23:36:52.960000Z</time>
      </trkpt>
      <trkpt lat="38.818283" lon="121.1484">
        <ele>39.279648</ele>
        <time>2014-11-21T23:36:56.123000Z</time>
      </trkpt>
      <trkpt lat="38.818394" lon="121.14839">
        <ele>38.411865</ele>
        <time>2014-11-21T23:36:59.286000Z</time>
      </trkpt>
      <trkpt lat="38.818493" lon="121.14837">
        <ele>37.504364</ele>
        <time>2014-11-21T23:37:02.449000Z</time>
      </trkpt>
      <trkpt lat="38.81857" lon="121.14831">
        <ele>36.498753</ele>
        <time>2014-11-21T23:37:05.612000Z</time>
      </trkpt>
      <trkpt lat="38.818645" lon="121.14824">
        <ele>36.362354</ele>
        <time>2014-11-21T23:37:08.775000Z</time>
      </trkpt>
      <trkpt lat="38.818703" lon="121.148155">
        <ele>37.536354</ele>
        <time>2014-11-21T23:37:11.938000Z</time>
      </trkpt>
      <trkpt lat="38.81872" lon="121.148">
        <ele>38.907642</ele>
        <time>2014-11-21T23:37:15.101000Z</time>
      </trkpt>
      <trkpt lat="38.81873" lon="121.14786">
        <ele>39.447212</ele>
        <time>2014-11-21T23:37:18.264000Z</time>
      </trkpt>
      <trkpt lat="38.818718" lon="121.14773">
        <ele>39.75644</ele>
        <time>2014-11-21T23:37:21.427000Z</time>
      </trkpt>
      <trkpt lat="38.818684" lon="121.147606">
        <ele>40.53735</ele>
        <time>2014-11-21T23:37:24.590000Z</time>
      </trkpt>
      <trkpt lat="38.81864" lon="121.1475">
        <ele>41.272366</ele>
        <time>2014-11-21T23:37:27.753000Z</time>
      </trkpt>
      <trkpt lat="38.818577" lon="121.14742">
        <ele>41.337486</ele>
        <time>2014-11-21T23:37:30.916000Z</time>
      </trkpt>
      <trkpt lat="38.818497" lon="121.147316">
        <ele>41.243565</ele>
        <time>2014-11-21T23:37:34.079000Z</time>
      </trkpt>
      <trkpt lat="38.8184" lon="121.14728">
        <ele>41.56854</ele>
        <time>2014-11-21T23:37:37.242000Z</time>
      </trkpt>
      <trkpt lat="38.818306" lon="121.147255">
        <ele>42.52345</ele>
        <time>2014-11-21T23:37:40.405000Z</time>
      </trkpt>
      <trkpt lat="38.8182" lon="121.14725">
        <ele>43.72077</ele>
        <time>2014-11-21T23:37:43.568000Z</time>
      </trkpt>
      <trkpt lat="38.818108" lon="121.147255">
        <ele>44.45718</ele>
        <time>2014-11-21T23:37:46.731000Z</time>
      </trkpt>
      <trkpt lat="38.818" lon="121.14728">
        <ele>44.53977</ele>
        <time>2014-11-21T23:37:49.894000Z</time>
      </trkpt>
      <trkpt lat="38.817898" lon="121.147285">
        <ele>43.7651</ele>
        <time>2014-11-21T23:37:53.057000Z</time>
      </trkpt>
      <trkpt lat="38.817795" lon="121.14729">
        <ele>42.074886</ele>
        <time>2014-11-21T23:37:56.220000Z</time>
      </trkpt>
      <trkpt lat="38.8177" lon="121.14729">
        <ele>40.571316</ele>
        <time>2014-11-21T23:37:59.383000Z</time>
      </trkpt>
      <trkpt lat="38.817604" lon="121.14729">
        <ele>40.133404</ele>
        <time>2014-11-21T23:38:02.546000Z</time>
      </trkpt>
      <trkpt lat="38.817497" lon="121.1473">
        <ele>40.377834</ele>
        <time>2014-11-21T23:38:05.709000Z</time>
      </trkpt>
      <trkpt lat="38.817383" lon="121.14737">
        <ele>39.943596</ele>
        <time>2014-11-21T23:38:08.872000Z</time>
      </trkpt>
      <trkpt lat="38.817295" lon="121.147446">
        <ele>38.22937</ele>
        <time>2014-11-21T23:38:12.035000Z</time>
      </trkpt>
      <trkpt lat="38.817223" lon="121.14754">
        <ele>36.62247</ele>
        <time>2014-11-21T23:38:15.198000Z</time>
      </trkpt>
      <trkpt lat="38.81719" lon="121.14765">
        <ele>36.302315</ele>
        <time>2014-11-21T23:38:18.361000Z</time>
      </trkpt>
      <trkpt lat="38.817177" lon="121.14779">
        <ele>36.786674</ele>
        <time>2014-11-21T23:38:21.524000Z</time>
      </trkpt>
      <trkpt lat="38.817207" lon="121.14793">
        <ele>38.848545</ele>
        <time>2014-11-21T23:38:24.687000Z</time>
      </trkpt>
      <trkpt lat="38.81726" lon="121.14804">
        <ele>43.111824</ele>
        <time>2014-11-21T23:38:27.850000Z</time>
      </trkpt>
      <trkpt lat="38.81732" lon="121.14814">
        <ele>46.921116</ele>
        <time>2014-11-21T23:38:31.013000Z</time>
      </trkpt>
      <trkpt lat="38.817406" lon="121.148224">
        <ele>47.617775</ele>
        <time>2014-11-21T23:38:34.176000Z</time>
      </trkpt>
      <trkpt lat="38.817516" lon="121.14825">
        <ele>44.152355</ele>
        <time>2014-11-21T23:38:37.339000Z</time>
      </trkpt>
      <trkpt lat="38.817635" lon="121.148254">
        <ele>37.436863</ele>
        <time>2014-11-21T23:38:40.502000Z</time>
      </trkpt>
      <trkpt lat="38.81773" lon="121.148254">
        <ele>31.518703</ele>
        <time>2014-11-21T23:38:43.665000Z</time>
      </trkpt>
      <trkpt lat="38.81784" lon="121.14828">
        <ele>29.173862</ele>
        <time>2014-11-21T23:38:46.828000Z</time>
      </trkpt>
      <trkpt lat="38.81794" lon="121.148285">
        <ele>29.790136</ele>
        <time>2014-11-21T23:38:49.991000Z</time>
      </trkpt>
      <trkpt lat="38.81803" lon="121.14829">
        <ele>31.989315</ele>
        <time>2014-11-21T23:38:53.154000Z</time>
      </trkpt>
      <trkpt lat="38.818134" lon="121.14828">
        <ele>34.028774</ele>
        <time>2014-11-21T23:38:56.317000Z</time>
      </trkpt>
      <trkpt lat="38.818237" lon="121.148315">
        <ele>34.514965</ele>
        <time>2014-11-21T23:38:59.480000Z</time>
      </trkpt>
      <trkpt lat="38.81835" lon="121.14834">
        <ele>33.570946</ele>
        <time>2014-11-21T23:39:02.643000Z</time>
      </trkpt>
      <trkpt lat="38.81845" lon="121.14832">
        <ele>32.615654</ele>
        <time>2014-11-21T23:39:05.806000Z</time>
      </trkpt>
      <trkpt lat="38.818546" lon="121.14828">
        <ele>32.666874</ele>
        <time>2014-11-21T23:39:08.969000Z</time>
      </trkpt>
      <trkpt lat="38.81864" lon="121.1482">
        <ele>33.32423</ele>
        <time>2014-11-21T23:39:12.132000Z</time>
      </trkpt>
      <trkpt lat="38.81871" lon="121.148094">
        <ele>33.862183</ele>
        <time>2014-11-21T23:39:15.295000Z</time>
      </trkpt>
      <trkpt lat="38.81875" lon="121.147995">
        <ele>34.239788</ele>
        <time>2014-11-21T23:39:18.458000Z</time>
      </trkpt>
      <trkpt lat="38.818756" lon="121.147865">
        <ele>34.66758</ele>
        <time>2014-11-21T23:39:21.621000Z</time>
      </trkpt>
      <trkpt lat="38.81873" lon="121.147736">
        <ele>35.028423</ele>
        <time>2014-11-21T23:39:24.784000Z</time>
      </trkpt>
      <trkpt lat="38.818684" lon="121.14763">
        <ele>35.05028</ele>
        <time>2014-11-21T23:39:27.947000Z</time>
      </trkpt>
      <trkpt lat="38.818638" lon="121.14753">
        <ele>34.323986</ele>
        <time>2014-11-21T23:39:31.110000Z</time>
      </trkpt>
      <trkpt lat="38.818558" lon="121.14742">
        <ele>32.860275</ele>
        <time>2014-11-21T23:39:34.273000Z</time>
      </trkpt>
      <trkpt lat="38.81848" lon="121.147354">
        <ele>31.997234</ele>
        <time>2014-11-21T23:39:37.436000Z</time>
      </trkpt>
      <trkpt lat="38.818394" lon="121.14731">
        <ele>32.68219</ele>
        <time>2014-11-21T23:39:40.599000Z</time>
      </trkpt>
      <trkpt lat="38.818275" lon="121.147285">
        <ele>34.252934</ele>
        <time>2014-11-21T23:39:43.762000Z</time>
      </trkpt>
      <trkpt lat="38.818157" lon="121.14726">
        <ele>35.564674</ele>
        <time>2014-11-21T23:39:46.925000Z</time>
      </trkpt>
      <trkpt lat="38.818066" lon="121.147255">
        <ele>36.194096</ele>
        <time>2014-11-21T23:39:50.088000Z</time>
      </trkpt>
      <trkpt lat="38.81797" lon="121.14724">
        <ele>36.709663</ele>
        <time>2014-11-21T23:39:53.251000Z</time>
      </trkpt>
      <trkpt lat="38.817863" lon="121.14724">
        <ele>37.887745</ele>
        <time>2014-11-21T23:39:56.414000Z</time>
      </trkpt>
      <trkpt lat="38.81775" lon="121.147224">
        <ele>39.45417</ele>
        <time>2014-11-21T23:39:59.577000Z</time>
      </trkpt>
      <trkpt lat="38.81765" lon="121.14723">
        <ele>40.605915</ele>
        <time>2014-11-21T23:40:02.740000Z</time>
      </trkpt>
      <trkpt lat="38.817547" lon="121.14725">
        <ele>41.24543</ele>
        <time>2014-11-21T23:40:05.903000Z</time>
      </trkpt>
      <trkpt lat="38.817444" lon="121.14725">
        <ele>42.029682</ele>
        <time>2014-11-21T23:40:09.066000Z</time>
      </trkpt>
      <trkpt lat="38.81735" lon="121.1473">
        <ele>43.411327</ele>
        <time>2014-11-21T23:40:12.229000Z</time>
      </trkpt>
      <trkpt lat="38.817276" lon="121.1474">
        <ele>45.384586</ele>
        <time>2014-11-21T23:40:15.392000Z</time>
      </trkpt>
      <trkpt lat="38.81722" lon="121.14751">
        <ele>47.48463</ele>
        <time>2014-11-21T23:40:18.555000Z</time>
      </trkpt>
      <trkpt lat="38.817173" lon="121.14764">
        <ele>48.997124</ele>
        <time>2014-11-21T23:40:21.718000Z</time>
      </trkpt>
      <trkpt lat="38.817142" lon="121.14777">
        <ele>49.509586</ele>
        <time>2014-11-21T23:40:24.881000Z</time>
      </trkpt>
      <trkpt lat="38.817165" lon="121.14792">
        <ele>48.853767</ele>
        <time>2014-11-21T23:40:28.044000Z</time>
      </trkpt>
      <trkpt lat="38.817207" lon="121.14802">
        <ele>47.319843</ele>
        <time>2014-11-21T23:40:31.207000Z</time>
      </trkpt>
      <trkpt lat="38.817276" lon="121.14812">
        <ele>45.78034</ele>
        <time>2014-11-21T23:40:34.370000Z</time>
      </trkpt>
      <trkpt lat="38.817356" lon="121.14819">
        <ele>44.868584</ele>
        <time>2014-11-21T23:40:37.533000Z</time>
      </trkpt>
      <trkpt lat="38.81745" lon="121.14826">
        <ele>43.878616</ele>
        <time>2014-11-21T23:40:40.696000Z</time>
      </trkpt>
      <trkpt lat="38.81754" lon="121.14828">
        <ele>42.137733</ele>
        <time>2014-11-21T23:40:43.859000Z</time>
      </trkpt>
      <trkpt lat="38.817635" lon="121.14829">
        <ele>40.51063</ele>
        <time>2014-11-21T23:40:47.022000Z</time>
      </trkpt>
      <trkpt lat="38.817738" lon="121.1483">
        <ele>40.55306</ele>
        <time>2014-11-21T23:40:50.185000Z</time>
      </trkpt>
      <trkpt lat="38.817837" lon="121.1483">
        <ele>42.353607</ele>
        <time>2014-11-21T23:40:53.348000Z</time>
      </trkpt>
      <trkpt lat="38.81794" lon="121.148285">
        <ele>44.86293</ele>
        <time>2014-11-21T23:40:56.511000Z</time>
      </trkpt>
      <trkpt lat="38.818035" lon="121.14831">
        <ele>47.17443</ele>
        <time>2014-11-21T23:40:59.674000Z</time>
      </trkpt>
      <trkpt lat="38.81813" lon="121.148315">
        <ele>48.797802</ele>
        <time>2014-11-21T23:41:02.837000Z</time>
      </trkpt>
      <trkpt lat="38.818237" lon="121.148315">
        <ele>49.22127</ele>
        <time>2014-11-21T23:41:06Z</time>
      </trkpt>
      <trkpt lat="38.81835" lon="121.148315">
        <ele>48.537945</ele>
        <time>2014-11-21T23:41:09.163000Z</time>
      </trkpt>
      <trkpt lat="38.81845" lon="121.14831">
        <ele>47.317535</ele>
        <time>2014-11-21T23:41:12.326000Z</time>
      </trkpt>
      <trkpt lat="38.818558" lon="121.14826">
        <ele>46.18792</ele>
        <time>2014-11-21T23:41:15.489000Z</time>
      </trkpt>
      <trkpt lat="38.818634" lon="121.14816">
        <ele>45.708405</ele>
        <time>2014-11-21T23:41:18.652000Z</time>
      </trkpt>
      <trkpt lat="38.818703" lon="121.148056">
        <ele>46.9654</ele>
        <time>2014-11-21T23:41:21.815000Z</time>
      </trkpt>
      <trkpt lat="38.81872" lon="121.14792">
        <ele>49.98791</ele>
        <time>2014-11-21T23:41:24.978000Z</time>
      </trkpt>
      <trkpt lat="38.818718" lon="121.14779">
        <ele>51.7879</ele>
        <time>2014-11-21T23:41:28.141000Z</time>
      </trkpt>
      <trkpt lat="38.818684" lon="121.147675">
        <ele>50.213</ele>
        <time>2014-11-21T23:41:31.304000Z</time>
      </trkpt>
      <trkpt lat="38.818615" lon="121.14756">
        <ele>47.264584</ele>
        <time>2014-11-21T23:41:34.467000Z</time>
      </trkpt>
      <trkpt lat="38.818535" lon="121.14746">
        <ele>45.42382</ele>
        <time>2014-11-21T23:41:37.630000Z</time>
      </trkpt>
      <trkpt lat="38.818455" lon="121.14739">
        <ele>44.936703</ele>
        <time>2014-11-21T23:41:40.793000Z</time>
      </trkpt>
      <trkpt lat="38.818348" lon="121.14736">
        <ele>44.75774</ele>
        <time>2014-11-21T23:41:43.956000Z</time>
      </trkpt>
      <trkpt lat="38.818253" lon="121.14734">
        <ele>43.26898</ele>
        <time>2014-11-21T23:41:47.119000Z</time>
      </trkpt>
      <trkpt lat="38.818146" lon="121.14733">
        <ele>40.3294</ele>
        <time>2014-11-21T23:41:50.282000Z</time>
      </trkpt>
      <trkpt lat="38.81805" lon="121.147316">
        <ele>37.73335</ele>
        <time>2014-11-21T23:41:53.445000Z</time>
      </trkpt>
      <trkpt lat="38.81794" lon="121.14731">
        <ele>37.16505</ele>
        <time>2014-11-21T23:41:56.608000Z</time>
      </trkpt>
      <trkpt lat="38.817833" lon="121.14729">
        <ele>38.728073</ele>
        <time>2014-11-21T23:41:59.771000Z</time>
      </trkpt>
      <trkpt lat="38.81773" lon="121.147285">
        <ele>41.53366</ele>
        <time>2014-11-21T23:42:02.934000Z</time>
      </trkpt>
      <trkpt lat="38.817635" lon="121.14729">
        <ele>44.360924</ele>
        <time>2014-11-21T23:42:06.097000Z</time>
      </trkpt>
      <trkpt lat="38.817543" lon="121.1473">
        <ele>46.23572</ele>
        <time>2014-11-21T23:42:09.260000Z</time>
      </trkpt>
      <trkpt lat="38.817432" lon="121.14733">
        <ele>46.607944</ele>
        <time>2014-11-21T23:42:12.423000Z</time>
      </trkpt>
      <trkpt lat="38.817333" lon="121.147385">
        <ele>45.851364</ele>
        <time>2014-11-21T23:42:15.586000Z</time>
      </trkpt>
      <trkpt lat="38.817253" lon="121.14745">
        <ele>44.866776</ele>
        <time>2014-11-21T23:42:18.749000Z</time>
      </trkpt>
      <trkpt lat="38.817192" lon="121.14757">
        <ele>44.561947</ele>
        <time>2014-11-21T23:42:21.912000Z</time>
      </trkpt>
      <trkpt lat="38.81716" lon="121.14771">
        <ele>45.21831</ele>
        <time>2014-11-21T23:42:25.075000Z</time>
      </trkpt>
      <trkpt lat="38.81717" lon="121.14784">
        <ele>46.421272</ele>
        <time>2014-11-21T23:42:28.238000Z</time>
      </trkpt>
      <trkpt lat="38.817204" lon="121.14798">
        <ele>47.49973</ele>
        <time>2014-11-21T23:42:31.400000Z</time>
      </trkpt>
      <trkpt lat="38.81725" lon="121.14809">
        <ele>48.079445</ele>
        <time>2014-11-21T23:42:34.562000Z</time>
      </trkpt>
      <trkpt lat="38.81731" lon="121.14818">
        <ele>48.157764</ele>
        <time>2014-11-21T23:42:37.724000Z</time>
      </trkpt>
      <trkpt lat="38.817394" lon="121.14826">
        <ele>47.848854</ele>
        <time>2014-11-21T23:42:40.886000Z</time>
      </trkpt>
      <trkpt lat="38.817482" lon="121.148315">
        <ele>47.24808</ele>
        <time>2014-11-21T23:42:44.048000Z</time>
      </trkpt>
      <trkpt lat="38.817574" lon="121.14832">
        <ele>46.64506</ele>
        <time>2014-11-21T23:42:47.210000Z</time>
      </trkpt>
      <trkpt lat="38.817684" lon="121.14832">
        <ele>46.183327</ele>
        <time>2014-11-21T23:42:50.372000Z</time>
      </trkpt>
      <trkpt lat="38.81778" lon="121.148315">
        <ele>45.31387</ele>
        <time>2014-11-21T23:42:53.534000Z</time>
      </trkpt>
      <trkpt lat="38.817883" lon="121.14833">
        <ele>43.825394</ele>
        <time>2014-11-21T23:42:56.696000Z</time>
      </trkpt>
      <trkpt lat="38.817883" lon="121.14833">
        <ele>42.739902</ele>
        <time>2014-11-21T23:42:59.858000Z</time>
      </trkpt>
      <trkpt lat="38.818142" lon="121.148346">
        <ele>43.188217</ele>
        <time>2014-11-21T23:43:03.020000Z</time>
      </trkpt>
      <trkpt lat="38.818245" lon="121.148346">
        <ele>43.275208</ele>
        <time>2014-11-21T23:43:06.182000Z</time>
      </trkpt>
      <trkpt lat="38.818336" lon="121.14835">
        <ele>43.066887</ele>
        <time>2014-11-21T23:43:09.344000Z</time>
      </trkpt>
      <trkpt lat="38.81846" lon="121.14834">
        <ele>43.235466</ele>
        <time>2014-11-21T23:43:12.506000Z</time>
      </trkpt>
      <trkpt lat="38.818546" lon="121.148285">
        <ele>44.044525</ele>
        <time>2014-11-21T23:43:15.668000Z</time>
      </trkpt>
      <trkpt lat="38.818634" lon="121.14822">
        <ele>44.907413</ele>
        <time>2014-11-21T23:43:18.830000Z</time>
      </trkpt>
      <trkpt lat="38.81871" lon="121.14811">
        <ele>44.72152</ele>
        <time>2014-11-21T23:43:21.992000Z</time>
      </trkpt>
      <trkpt lat="38.818745" lon="121.14799">
        <ele>43.360924</ele>
        <time>2014-11-21T23:43:25.154000Z</time>
      </trkpt>
      <trkpt lat="38.818756" lon="121.147865">
        <ele>42.027695</ele>
        <time>2014-11-21T23:43:28.316000Z</time>
      </trkpt>
      <trkpt lat="38.818745" lon="121.14773">
        <ele>41.64032</ele>
        <time>2014-11-21T23:43:31.478000Z</time>
      </trkpt>
      <trkpt lat="38.8187" lon="121.14759">
        <ele>41.96909</ele>
        <time>2014-11-21T23:43:34.640000Z</time>
      </trkpt>
      <trkpt lat="38.81864" lon="121.147484">
        <ele>42.469303</ele>
        <time>2014-11-21T23:43:37.802000Z</time>
      </trkpt>
      <trkpt lat="38.818565" lon="121.14741">
        <ele>42.81625</ele>
        <time>2014-11-21T23:43:40.964000Z</time>
      </trkpt>
      <trkpt lat="38.818466" lon="121.14735">
        <ele>42.939796</ele>
        <time>2014-11-21T23:43:44.126000Z</time>
      </trkpt>
      <trkpt lat="38.81838" lon="121.147316">
        <ele>43.213055</ele>
        <time>2014-11-21T23:43:47.288000Z</time>
      </trkpt>
      <trkpt lat="38.818264" lon="121.14732">
        <ele>44.160736</ele>
        <time>2014-11-21T23:43:50.450000Z</time>
      </trkpt>
      <trkpt lat="38.818157" lon="121.14733">
        <ele>45.432518</ele>
        <time>2014-11-21T23:43:53.612000Z</time>
      </trkpt>
      <trkpt lat="38.818043" lon="121.14735">
        <ele>46.227566</ele>
        <time>2014-11-21T23:43:56.774000Z</time>
      </trkpt>
      <trkpt lat="38.817932" lon="121.14735">
        <ele>46.57203</ele>
        <time>2014-11-21T23:43:59.936000Z</time>
      </trkpt>
      <trkpt lat="38.817837" lon="121.14735">
        <ele>46.80642</ele>
        <time>2014-11-21T23:44:03.098000Z</time>
      </trkpt>
      <trkpt lat="38.817738" lon="121.14735">
        <ele>47.082798</ele>
        <time>2014-11-21T23:44:06.260000Z</time>
      </trkpt>
      <trkpt lat="38.81764" lon="121.14735">
        <ele>47.597942</ele>
        <time>2014-11-21T23:44:09.422000Z</time>
      </trkpt>
      <trkpt lat="38.817505" lon="121.147354">
        <ele>49.045975</ele>
        <time>2014-11-21T23:44:12.584000Z</time>
      </trkpt>
      <trkpt lat="38.817417" lon="121.14738">
        <ele>51.426018</ele>
        <time>2014-11-21T23:44:15.746000Z</time>
      </trkpt>
      <trkpt lat="38.817326" lon="121.14743">
        <ele>53.52529</ele>
        <time>2014-11-21T23:44:18.908000Z</time>
      </trkpt>
      <trkpt lat="38.817238" lon="121.14753">
        <ele>54.227333</ele>
        <time>2014-11-21T23:44:22.070000Z</time>
      </trkpt>
      <trkpt lat="38.81719" lon="121.14765">
        <ele>52.85303</ele>
        <time>2014-11-21T23:44:25.232000Z</time>
      </trkpt>
      <trkpt lat="38.81716" lon="121.1478">
        <ele>49.560394</ele>
        <time>2014-11-21T23:44:28.394000Z</time>
      </trkpt>
      <trkpt lat="38.817173" lon="121.14795">
        <ele>46.160942</ele>
        <time>2014-11-21T23:44:31.556000Z</time>
      </trkpt>
      <trkpt lat="38.81722" lon="121.14806">
        <ele>44.37244</ele>
        <time>2014-11-21T23:44:34.718000Z</time>
      </trkpt>
      <trkpt lat="38.81728" lon="121.14816">
        <ele>44.449345</ele>
        <time>2014-11-21T23:44:37.880000Z</time>
      </trkpt>
      <trkpt lat="38.81736" lon="121.14823">
        <ele>45.422943</ele>
        <time>2014-11-21T23:44:41.042000Z</time>
      </trkpt>
      <trkpt lat="38.817448" lon="121.148285">
        <ele>46.21526</ele>
        <time>2014-11-21T23:44:44.204000Z</time>
      </trkpt>
      <trkpt lat="38.81756" lon="121.14831">
        <ele>46.48729</ele>
        <time>2014-11-21T23:44:47.366000Z</time>
      </trkpt>
      <trkpt lat="38.81765" lon="121.14831">
        <ele>46.4082</ele>
        <time>2014-11-21T23:44:50.528000Z</time>
      </trkpt>
      <trkpt lat="38.81775" lon="121.14831">
        <ele>46.243732</ele>
        <time>2014-11-21T23:44:53.690000Z</time>
      </trkpt>
      <trkpt lat="38.817875" lon="121.14831">
        <ele>46.335766</ele>
        <time>2014-11-21T23:44:56.852000Z</time>
      </trkpt>
      <trkpt lat="38.817978" lon="121.1483">
        <ele>46.699516</ele>
        <time>2014-11-21T23:45:00.014000Z</time>
      </trkpt>
      <trkpt lat="38.81808" lon="121.1483">
        <ele>46.788815</ele>
        <time>2014-11-21T23:45:03.176000Z</time>
      </trkpt>
      <trkpt lat="38.81817" lon="121.148315">
        <ele>46.17447</ele>
        <time>2014-11-21T23:45:06.338000Z</time>
      </trkpt>
      <trkpt lat="38.81829" lon="121.14832">
        <ele>45.31165</ele>
        <time>2014-11-21T23:45:09.500000Z</time>
      </trkpt>
      <trkpt lat="38.818394" lon="121.14832">
        <ele>44.312977</ele>
        <time>2014-11-21T23:45:12.662000Z</time>
      </trkpt>
      <trkpt lat="38.81849" lon="121.14831">
        <ele>42.939617</ele>
        <time>2014-11-21T23:45:15.824000Z</time>
      </trkpt>
      <trkpt lat="38.8186" lon="121.148254">
        <ele>41.894333</ele>
        <time>2014-11-21T23:45:18.986000Z</time>
      </trkpt>
      <trkpt lat="38.818676" lon="121.14816">
        <ele>41.836308</ele>
        <time>2014-11-21T23:45:22.148000Z</time>
      </trkpt>
      <trkpt lat="38.818726" lon="121.14805">
        <ele>42.313572</ele>
        <time>2014-11-21T23:45:25.310000Z</time>
      </trkpt>
      <trkpt lat="38.818737" lon="121.14791">
        <ele>42.718014</ele>
        <time>2014-11-21T23:45:28.472000Z</time>
      </trkpt>
      <trkpt lat="38.818733" lon="121.14778">
        <ele>42.725628</ele>
        <time>2014-11-21T23:45:31.634000Z</time>
      </trkpt>
      <trkpt lat="38.81871" lon="121.14765">
        <ele>42.32291</ele>
        <time>2014-11-21T23:45:34.796000Z</time>
      </trkpt>
      <trkpt lat="38.81866" lon="121.147545">
        <ele>41.859642</ele>
        <time>2014-11-21T23:45:37.958000Z</time>
      </trkpt>
      <trkpt lat="38.818596" lon="121.147446">
        <ele>41.700836</ele>
        <time>2014-11-21T23:45:41.120000Z</time>
      </trkpt>
      <trkpt lat="38.818497" lon="121.14737">
        <ele>41.882187</ele>
        <time>2014-11-21T23:45:44.282000Z</time>
      </trkpt>
      <trkpt lat="38.818405" lon="121.147316">
        <ele>42.520054</ele>
        <time>2014-11-21T23:45:47.444000Z</time>
      </trkpt>
      <trkpt lat="38.818314" lon="121.147316">
        <ele>43.79704</ele>
        <time>2014-11-21T23:45:50.606000Z</time>
      </trkpt>
      <trkpt lat="38.818214" lon="121.14731">
        <ele>45.08503</ele>
        <time>2014-11-21T23:45:53.768000Z</time>
      </trkpt>
      <trkpt lat="38.81812" lon="121.147316">
        <ele>45.412296</ele>
        <time>2014-11-21T23:45:56.930000Z</time>
      </trkpt>
      <trkpt lat="38.818012" lon="121.14732">
        <ele>44.9025</ele>
        <time>2014-11-21T23:46:00.092000Z</time>
      </trkpt>
      <trkpt lat="38.817913" lon="121.14733">
        <ele>44.615364</ele>
        <time>2014-11-21T23:46:03.254000Z</time>
      </trkpt>
      <trkpt lat="38.817802" lon="121.14732">
        <ele>45.119263</ele>
        <time>2014-11-21T23:46:06.416000Z</time>
      </trkpt>
      <trkpt lat="38.817696" lon="121.14732">
        <ele>46.146965</ele>
        <time>2014-11-21T23:46:09.578000Z</time>
      </trkpt>
      <trkpt lat="38.8176" lon="121.147316">
        <ele>47.28422</ele>
        <time>2014-11-21T23:46:12.740000Z</time>
      </trkpt>
      <trkpt lat="38.81751" lon="121.14731">
        <ele>48.12626</ele>
        <time>2014-11-21T23:46:15.902000Z</time>
      </trkpt>
      <trkpt lat="38.81741" lon="121.14734">
        <ele>47.81402</ele>
        <time>2014-11-21T23:46:19.064000Z</time>
      </trkpt>
      <trkpt lat="38.817307" lon="121.14741">
        <ele>46.248608</ele>
        <time>2014-11-21T23:46:22.226000Z</time>
      </trkpt>
      <trkpt lat="38.817245" lon="121.1475">
        <ele>44.64949</ele>
        <time>2014-11-21T23:46:25.388000Z</time>
      </trkpt>
      <trkpt lat="38.81719" lon="121.14764">
        <ele>44.07032</ele>
        <time>2014-11-21T23:46:28.550000Z</time>
      </trkpt>
      <trkpt lat="38.81717" lon="121.14777">
        <ele>44.366707</ele>
        <time>2014-11-21T23:46:31.712000Z</time>
      </trkpt>
      <trkpt lat="38.81718" lon="121.1479">
        <ele>45.052002</ele>
        <time>2014-11-21T23:46:34.874000Z</time>
      </trkpt>
      <trkpt lat="38.817215" lon="121.148026">
        <ele>45.77901</ele>
        <time>2014-11-21T23:46:38.036000Z</time>
      </trkpt>
      <trkpt lat="38.81728" lon="121.148155">
        <ele>46.186466</ele>
        <time>2014-11-21T23:46:41.198000Z</time>
      </trkpt>
      <trkpt lat="38.817368" lon="121.148254">
        <ele>46.09336</ele>
        <time>2014-11-21T23:46:44.360000Z</time>
      </trkpt>
      <trkpt lat="38.81746" lon="121.14829">
        <ele>45.58627</ele>
        <time>2014-11-21T23:46:47.522000Z</time>
      </trkpt>
      <trkpt lat="38.817574" lon="121.148315">
        <ele>44.829174</ele>
        <time>2014-11-21T23:46:50.684000Z</time>
      </trkpt>
      <trkpt lat="38.817665" lon="121.14831">
        <ele>43.90238</ele>
        <time>2014-11-21T23:46:53.846000Z</time>
      </trkpt>
      <trkpt lat="38.817776" lon="121.14832">
        <ele>42.811146</ele>
        <time>2014-11-21T23:46:57.008000Z</time>
      </trkpt>
      <trkpt lat="38.81788" lon="121.14832">
        <ele>41.80015</ele>
        <time>2014-11-21T23:47:00.170000Z</time>
      </trkpt>
      <trkpt lat="38.817974" lon="121.14832">
        <ele>40.949688</ele>
        <time>2014-11-21T23:47:03.332000Z</time>
      </trkpt>
      <trkpt lat="38.818077" lon="121.148315">
        <ele>40.049095</ele>
        <time>2014-11-21T23:47:06.494000Z</time>
      </trkpt>
      <trkpt lat="38.818188" lon="121.14833">
        <ele>39.295063</ele>
        <time>2014-11-21T23:47:09.656000Z</time>
      </trkpt>
      <trkpt lat="38.818306" lon="121.14834">
        <ele>39.061344</ele>
        <time>2014-11-21T23:47:12.818000Z</time>
      </trkpt>
      <trkpt lat="38.818405" lon="121.14834">
        <ele>39.320087</ele>
        <time>2014-11-21T23:47:15.980000Z</time>
      </trkpt>
      <trkpt lat="38.818523" lon="121.14831">
        <ele>39.757317</ele>
        <time>2014-11-21T23:47:19.142000Z</time>
      </trkpt>
      <trkpt lat="38.81861" lon="121.14823">
        <ele>40.249245</ele>
        <time>2014-11-21T23:47:22.304000Z</time>
      </trkpt>
      <trkpt lat="38.81869" lon="121.14814">
        <ele>40.835407</ele>
        <time>2014-11-21T23:47:25.466000Z</time>
      </trkpt>
      <trkpt lat="38.81874" lon="121.14803">
        <ele>41.298252</ele>
        <time>2014-11-21T23:47:28.628000Z</time>
      </trkpt>
      <trkpt lat="38.81875" lon="121.14791">
        <ele>41.220375</ele>
        <time>2014-11-21T23:47:31.790000Z</time>
      </trkpt>
      <trkpt lat="38.818752" lon="121.14775">
        <ele>40.55028</ele>
        <time>2014-11-21T23:47:34.952000Z</time>
      </trkpt>
      <trkpt lat="38.818726" lon="121.14764">
        <ele>39.809673</ele>
        <time>2014-11-21T23:47:38.114000Z</time>
      </trkpt>
      <trkpt lat="38.818672" lon="121.14752">
        <ele>39.537926</ele>
        <time>2014-11-21T23:47:41.276000Z</time>
      </trkpt>
      <trkpt lat="38.8186" lon="121.14743">
        <ele>39.934074</ele>
        <time>2014-11-21T23:47:44.438000Z</time>
      </trkpt>
      <trkpt lat="38.81851" lon="121.14737">
        <ele>40.80174</ele>
        <time>2014-11-21T23:47:47.600000Z</time>
      </trkpt>
      <trkpt lat="38.8184" lon="121.14733">
        <ele>41.51478</ele>
        <time>2014-11-21T23:47:50.762000Z</time>
      </trkpt>
      <trkpt lat="38.81831" lon="121.14732">
        <ele>41.61616</ele>
        <time>2014-11-21T23:47:53.924000Z</time>
      </trkpt>
      <trkpt lat="38.81819" lon="121.14732">
        <ele>41.35332</ele>
        <time>2014-11-21T23:47:57.086000Z</time>
      </trkpt>
      <trkpt lat="38.818092" lon="121.14733">
        <ele>41.165943</ele>
        <time>2014-11-21T23:48:00.248000Z</time>
      </trkpt>
      <trkpt lat="38.817986" lon="121.14733">
        <ele>41.36027</ele>
        <time>2014-11-21T23:48:03.410000Z</time>
      </trkpt>
      <trkpt lat="38.817883" lon="121.14734">
        <ele>41.972588</ele>
        <time>2014-11-21T23:48:06.572000Z</time>
      </trkpt>
      <trkpt lat="38.81777" lon="121.14732">
        <ele>42.63199</ele>
        <time>2014-11-21T23:48:09.734000Z</time>
      </trkpt>
      <trkpt lat="38.817646" lon="121.147316">
        <ele>43.371178</ele>
        <time>2014-11-21T23:48:12.896000Z</time>
      </trkpt>
      <trkpt lat="38.817547" lon="121.14731">
        <ele>44.510845</ele>
        <time>2014-11-21T23:48:16.058000Z</time>
      </trkpt>
      <trkpt lat="38.817455" lon="121.14732">
        <ele>45.573772</ele>
        <time>2014-11-21T23:48:19.220000Z</time>
      </trkpt>
      <trkpt lat="38.817356" lon="121.14738">
        <ele>45.787064</ele>
        <time>2014-11-21T23:48:22.382000Z</time>
      </trkpt>
      <trkpt lat="38.817272" lon="121.14745">
        <ele>45.160553</ele>
        <time>2014-11-21T23:48:25.544000Z</time>
      </trkpt>
      <trkpt lat="38.817215" lon="121.14755">
        <ele>44.761543</ele>
        <time>2014-11-21T23:48:28.706000Z</time>
      </trkpt>
      <trkpt lat="38.817177" lon="121.1477">
        <ele>45.370216</ele>
        <time>2014-11-21T23:48:31.868000Z</time>
      </trkpt>
      <trkpt lat="38.81717" lon="121.14781">
        <ele>46.335762</ele>
        <time>2014-11-21T23:48:35.030000Z</time>
      </trkpt>
      <trkpt lat="38.817177" lon="121.147934">
        <ele>47.050743</ele>
        <time>2014-11-21T23:48:38.192000Z</time>
      </trkpt>
      <trkpt lat="38.817207" lon="121.14805">
        <ele>47.61405</ele>
        <time>2014-11-21T23:48:41.354000Z</time>
      </trkpt>
      <trkpt lat="38.817276" lon="121.148155">
        <ele>47.520775</ele>
        <time>2014-11-21T23:48:44.516000Z</time>
      </trkpt>
      <trkpt lat="38.817356" lon="121.14825">
        <ele>46.338257</ele>
        <time>2014-11-21T23:48:47.678000Z</time>
      </trkpt>
      <trkpt lat="38.81744" lon="121.1483">
        <ele>44.849297</ele>
        <time>2014-11-21T23:48:50.840000Z</time>
      </trkpt>
      <trkpt lat="38.817535" lon="121.14832">
        <ele>43.776585</ele>
        <time>2014-11-21T23:48:54.002000Z</time>
      </trkpt>
      <trkpt lat="38.81764" lon="121.14833">
        <ele>43.03546</ele>
        <time>2014-11-21T23:48:57.164000Z</time>
      </trkpt>
      <trkpt lat="38.81776" lon="121.14834">
        <ele>42.584393</ele>
        <time>2014-11-21T23:49:00.326000Z</time>
      </trkpt>
      <trkpt lat="38.817856" lon="121.14833">
        <ele>42.231255</ele>
        <time>2014-11-21T23:49:03.488000Z</time>
      </trkpt>
      <trkpt lat="38.817963" lon="121.14832">
        <ele>41.281372</ele>
        <time>2014-11-21T23:49:06.650000Z</time>
      </trkpt>
      <trkpt lat="38.81806" lon="121.14832">
        <ele>39.666294</ele>
        <time>2014-11-21T23:49:09.812000Z</time>
      </trkpt>
      <trkpt lat="38.818184" lon="121.14833">
        <ele>38.446774</ele>
        <time>2014-11-21T23:49:12.974000Z</time>
      </trkpt>
      <trkpt lat="38.81828" lon="121.14834">
        <ele>38.465965</ele>
        <time>2014-11-21T23:49:16.136000Z</time>
      </trkpt>
      <trkpt lat="38.818375" lon="121.148346">
        <ele>39.3217</ele>
        <time>2014-11-21T23:49:19.298000Z</time>
      </trkpt>
      <trkpt lat="38.81849" lon="121.14831">
        <ele>40.789738</ele>
        <time>2014-11-21T23:49:22.460000Z</time>
      </trkpt>
      <trkpt lat="38.81859" lon="121.14823">
        <ele>42.682247</ele>
        <time>2014-11-21T23:49:25.622000Z</time>
      </trkpt>
      <trkpt lat="38.818672" lon="121.14814">
        <ele>44.01985</ele>
        <time>2014-11-21T23:49:28.784000Z</time>
      </trkpt>
      <trkpt lat="38.818737" lon="121.14805">
        <ele>44.297962</ele>
        <time>2014-11-21T23:49:31.946000Z</time>
      </trkpt>
      <trkpt lat="38.818745" lon="121.14791">
        <ele>43.909462</ele>
        <time>2014-11-21T23:49:35.108000Z</time>
      </trkpt>
      <trkpt lat="38.818745" lon="121.14777">
        <ele>43.098515</ele>
        <time>2014-11-21T23:49:38.270000Z</time>
      </trkpt>
      <trkpt lat="38.818726" lon="121.14764">
        <ele>42.18757</ele>
        <time>2014-11-21T23:49:41.432000Z</time>
      </trkpt>
      <trkpt lat="38.81866" lon="121.14751">
        <ele>41.440617</ele>
        <time>2014-11-21T23:49:44.594000Z</time>
      </trkpt>
      <trkpt lat="38.81857" lon="121.14742">
        <ele>40.9346</ele>
        <time>2014-11-21T23:49:47.756000Z</time>
      </trkpt>
      <trkpt lat="38.818474" lon="121.147354">
        <ele>40.817993</ele>
        <time>2014-11-21T23:49:50.918000Z</time>
      </trkpt>
      <trkpt lat="38.81837" lon="121.14732">
        <ele>41.19793</ele>
        <time>2014-11-21T23:49:54.080000Z</time>
      </trkpt>
      <trkpt lat="38.81827" lon="121.14733">
        <ele>41.86084</ele>
        <time>2014-11-21T23:49:57.242000Z</time>
      </trkpt>
      <trkpt lat="38.818172" lon="121.147316">
        <ele>42.61669</ele>
        <time>2014-11-21T23:50:00.404000Z</time>
      </trkpt>
      <trkpt lat="38.81807" lon="121.147316">
        <ele>43.66307</ele>
        <time>2014-11-21T23:50:03.566000Z</time>
      </trkpt>
      <trkpt lat="38.81797" lon="121.147316">
        <ele>44.92237</ele>
        <time>2014-11-21T23:50:06.728000Z</time>
      </trkpt>
      <trkpt lat="38.817863" lon="121.147316">
        <ele>45.622025</ele>
        <time>2014-11-21T23:50:09.890000Z</time>
      </trkpt>
      <trkpt lat="38.81776" lon="121.147316">
        <ele>45.394463</ele>
        <time>2014-11-21T23:50:13.052000Z</time>
      </trkpt>
      <trkpt lat="38.817646" lon="121.1473">
        <ele>44.9347</ele>
        <time>2014-11-21T23:50:16.214000Z</time>
      </trkpt>
      <trkpt lat="38.817554" lon="121.14729">
        <ele>45.31367</ele>
        <time>2014-11-21T23:50:19.376000Z</time>
      </trkpt>
      <trkpt lat="38.817455" lon="121.14731">
        <ele>46.65087</ele>
        <time>2014-11-21T23:50:22.538000Z</time>
      </trkpt>
      <trkpt lat="38.817356" lon="121.147354">
        <ele>47.74689</ele>
        <time>2014-11-21T23:50:25.700000Z</time>
      </trkpt>
      <trkpt lat="38.817276" lon="121.14743">
        <ele>47.76038</ele>
        <time>2014-11-21T23:50:28.862000Z</time>
      </trkpt>
      <trkpt lat="38.817215" lon="121.14752">
        <ele>47.2263</ele>
        <time>2014-11-21T23:50:32.024000Z</time>
      </trkpt>
      <trkpt lat="38.81717" lon="121.14764">
        <ele>46.779263</ele>
        <time>2014-11-21T23:50:35.186000Z</time>
      </trkpt>
      <trkpt lat="38.817154" lon="121.14779">
        <ele>46.262894</ele>
        <time>2014-11-21T23:50:38.348000Z</time>
      </trkpt>
      <trkpt lat="38.817165" lon="121.14791">
        <ele>45.406437</ele>
        <time>2014-11-21T23:50:41.510000Z</time>
      </trkpt>
      <trkpt lat="38.817192" lon="121.14803">
        <ele>44.504322</ele>
        <time>2014-11-21T23:50:44.672000Z</time>
      </trkpt>
      <trkpt lat="38.817257" lon="121.148155">
        <ele>44.096874</ele>
        <time>2014-11-21T23:50:47.834000Z</time>
      </trkpt>
      <trkpt lat="38.817333" lon="121.14824">
        <ele>44.26903</ele>
        <time>2014-11-21T23:50:50.996000Z</time>
      </trkpt>
      <trkpt lat="38.817425" lon="121.14829">
        <ele>44.66281</ele>
        <time>2014-11-21T23:50:54.158000Z</time>
      </trkpt>
      <trkpt lat="38.81753" lon="121.148315">
        <ele>44.9317</ele>
        <time>2014-11-21T23:50:57.320000Z</time>
      </trkpt>
      <trkpt lat="38.81764" lon="121.14832">
        <ele>44.61333</ele>
        <time>2014-11-21T23:51:00.482000Z</time>
      </trkpt>
      <trkpt lat="38.81773" lon="121.14833">
        <ele>43.53876</ele>
        <time>2014-11-21T23:51:03.644000Z</time>
      </trkpt>
      <trkpt lat="38.817833" lon="121.14832">
        <ele>42.411346</ele>
        <time>2014-11-21T23:51:06.806000Z</time>
      </trkpt>
      <trkpt lat="38.81794" lon="121.14832">
        <ele>42.15307</ele>
        <time>2014-11-21T23:51:09.968000Z</time>
      </trkpt>
      <trkpt lat="38.818058" lon="121.14833">
        <ele>42.80381</ele>
        <time>2014-11-21T23:51:13.130000Z</time>
      </trkpt>
      <trkpt lat="38.818157" lon="121.14834">
        <ele>43.54496</ele>
        <time>2014-11-21T23:51:16.292000Z</time>
      </trkpt>
      <trkpt lat="38.818253" lon="121.148346">
        <ele>43.58879</ele>
        <time>2014-11-21T23:51:19.454000Z</time>
      </trkpt>
      <trkpt lat="38.81838" lon="121.14835">
        <ele>43.054245</ele>
        <time>2014-11-21T23:51:22.616000Z</time>
      </trkpt>
      <trkpt lat="38.81847" lon="121.14834">
        <ele>42.514816</ele>
        <time>2014-11-21T23:51:25.778000Z</time>
      </trkpt>
      <trkpt lat="38.81857" lon="121.14827">
        <ele>42.50507</ele>
        <time>2014-11-21T23:51:28.940000Z</time>
      </trkpt>
      <trkpt lat="38.818634" lon="121.14819">
        <ele>43.16211</ele>
        <time>2014-11-21T23:51:32.102000Z</time>
      </trkpt>
      <trkpt lat="38.818718" lon="121.14809">
        <ele>43.955757</ele>
        <time>2014-11-21T23:51:35.264000Z</time>
      </trkpt>
      <trkpt lat="38.818733" lon="121.147964">
        <ele>44.19402</ele>
        <time>2014-11-21T23:51:38.426000Z</time>
      </trkpt>
      <trkpt lat="38.81875" lon="121.14783">
        <ele>43.645546</ele>
        <time>2014-11-21T23:51:41.588000Z</time>
      </trkpt>
      <trkpt lat="38.818737" lon="121.14769">
        <ele>42.503246</ele>
        <time>2014-11-21T23:51:44.750000Z</time>
      </trkpt>
      <trkpt lat="38.818707" lon="121.14756">
        <ele>41.324444</ele>
        <time>2014-11-21T23:51:47.912000Z</time>
      </trkpt>
      <trkpt lat="38.818638" lon="121.14746">
        <ele>41.10635</ele>
        <time>2014-11-21T23:51:51.074000Z</time>
      </trkpt>
      <trkpt lat="38.818554" lon="121.147385">
        <ele>42.81881</ele>
        <time>2014-11-21T23:51:54.236000Z</time>
      </trkpt>
      <trkpt lat="38.81845" lon="121.14732">
        <ele>45.917755</ele>
        <time>2014-11-21T23:51:57.398000Z</time>
      </trkpt>
      <trkpt lat="38.81834" lon="121.14731">
        <ele>48.508785</ele>
        <time>2014-11-21T23:52:00.560000Z</time>
      </trkpt>
      <trkpt lat="38.81825" lon="121.14731">
        <ele>49.619812</ele>
        <time>2014-11-21T23:52:03.722000Z</time>
      </trkpt>
      <trkpt lat="38.818134" lon="121.1473">
        <ele>49.38995</ele>
        <time>2014-11-21T23:52:06.884000Z</time>
      </trkpt>
      <trkpt lat="38.81803" lon="121.1473">
        <ele>48.109047</ele>
        <time>2014-11-21T23:52:10.046000Z</time>
      </trkpt>
      <trkpt lat="38.817924" lon="121.147316">
        <ele>46.54048</ele>
        <time>2014-11-21T23:52:13.208000Z</time>
      </trkpt>
      <trkpt lat="38.817814" lon="121.14732">
        <ele>45.540363</ele>
        <time>2014-11-21T23:52:16.370000Z</time>
      </trkpt>
      <trkpt lat="38.817707" lon="121.14732">
        <ele>45.22294</ele>
        <time>2014-11-21T23:52:19.532000Z</time>
      </trkpt>
      <trkpt lat="38.817604" lon="121.147316">
        <ele>45.05034</ele>
        <time>2014-11-21T23:52:22.694000Z</time>
      </trkpt>
      <trkpt lat="38.817516" lon="121.14731">
        <ele>44.562492</ele>
        <time>2014-11-21T23:52:25.856000Z</time>
      </trkpt>
      <trkpt lat="38.817398" lon="121.14735">
        <ele>43.84669</ele>
        <time>2014-11-21T23:52:29.018000Z</time>
      </trkpt>
      <trkpt lat="38.817287" lon="121.14742">
        <ele>43.250458</ele>
        <time>2014-11-21T23:52:32.180000Z</time>
      </trkpt>
      <trkpt lat="38.81721" lon="121.14754">
        <ele>43.48348</ele>
        <time>2014-11-21T23:52:35.342000Z</time>
      </trkpt>
      <trkpt lat="38.817177" lon="121.14765">
        <ele>45.004013</ele>
        <time>2014-11-21T23:52:38.504000Z</time>
      </trkpt>
      <trkpt lat="38.81716" lon="121.14778">
        <ele>47.208797</ele>
        <time>2014-11-21T23:52:41.666000Z</time>
      </trkpt>
      <trkpt lat="38.81717" lon="121.14792">
        <ele>48.83417</ele>
        <time>2014-11-21T23:52:44.828000Z</time>
      </trkpt>
      <trkpt lat="38.817207" lon="121.14806">
        <ele>49.17369</ele>
        <time>2014-11-21T23:52:47.990000Z</time>
      </trkpt>
      <trkpt lat="38.817276" lon="121.14818">
        <ele>48.071148</ele>
        <time>2014-11-21T23:52:51.152000Z</time>
      </trkpt>
      <trkpt lat="38.817368" lon="121.14826">
        <ele>45.820827</ele>
        <time>2014-11-21T23:52:54.314000Z</time>
      </trkpt>
      <trkpt lat="38.81746" lon="121.148315">
        <ele>43.443226</ele>
        <time>2014-11-21T23:52:57.476000Z</time>
      </trkpt>
      <trkpt lat="38.817562" lon="121.14833">
        <ele>42.0579</ele>
        <time>2014-11-21T23:53:00.638000Z</time>
      </trkpt>
      <trkpt lat="38.817665" lon="121.14833">
        <ele>41.663418</ele>
        <time>2014-11-21T23:53:03.800000Z</time>
      </trkpt>
      <trkpt lat="38.817776" lon="121.14833">
        <ele>41.479336</ele>
        <time>2014-11-21T23:53:06.962000Z</time>
      </trkpt>
      <trkpt lat="38.817883" lon="121.14833">
        <ele>40.57023</ele>
        <time>2014-11-21T23:53:10.124000Z</time>
      </trkpt>
      <trkpt lat="38.81798" lon="121.14833">
        <ele>38.94217</ele>
        <time>2014-11-21T23:53:13.286000Z</time>
      </trkpt>
      <trkpt lat="38.818077" lon="121.14833">
        <ele>37.578392</ele>
        <time>2014-11-21T23:53:16.448000Z</time>
      </trkpt>
      <trkpt lat="38.818176" lon="121.14834">
        <ele>37.065857</ele>
        <time>2014-11-21T23:53:19.610000Z</time>
      </trkpt>
      <trkpt lat="38.818268" lon="121.14834">
        <ele>37.159996</ele>
        <time>2014-11-21T23:53:22.772000Z</time>
      </trkpt>
      <trkpt lat="38.81836" lon="121.148346">
        <ele>37.690414</ele>
        <time>2014-11-21T23:53:25.934000Z</time>
      </trkpt>
      <trkpt lat="38.818474" lon="121.14834">
        <ele>38.908173</ele>
        <time>2014-11-21T23:53:29.096000Z</time>
      </trkpt>
      <trkpt lat="38.818573" lon="121.14828">
        <ele>40.596287</ele>
        <time>2014-11-21T23:53:32.258000Z</time>
      </trkpt>
      <trkpt lat="38.81865" lon="121.1482">
        <ele>41.900776</ele>
        <time>2014-11-21T23:53:35.420000Z</time>
      </trkpt>
      <trkpt lat="38.81872" lon="121.1481">
        <ele>42.472034</ele>
        <time>2014-11-21T23:53:38.582000Z</time>
      </trkpt>
      <trkpt lat="38.818733" lon="121.147964">
        <ele>42.701725</ele>
        <time>2014-11-21T23:53:41.744000Z</time>
      </trkpt>
      <trkpt lat="38.818737" lon="121.14784">
        <ele>42.926357</ele>
        <time>2014-11-21T23:53:44.906000Z</time>
      </trkpt>
      <trkpt lat="38.818726" lon="121.14771">
        <ele>43.085487</ele>
        <time>2014-11-21T23:53:48.068000Z</time>
      </trkpt>
      <trkpt lat="38.8187" lon="121.1476">
        <ele>42.77032</ele>
        <time>2014-11-21T23:53:51.230000Z</time>
      </trkpt>
      <trkpt lat="38.81864" lon="121.14748">
        <ele>41.997986</ele>
        <time>2014-11-21T23:53:54.392000Z</time>
      </trkpt>
      <trkpt lat="38.818565" lon="121.14739">
        <ele>41.373646</ele>
        <time>2014-11-21T23:53:57.554000Z</time>
      </trkpt>
      <trkpt lat="38.81847" lon="121.14734">
        <ele>41.37949</ele>
        <time>2014-11-21T23:54:00.716000Z</time>
      </trkpt>
      <trkpt lat="38.818367" lon="121.14732">
        <ele>41.969852</ele>
        <time>2014-11-21T23:54:03.878000Z</time>
      </trkpt>
      <trkpt lat="38.81827" lon="121.14732">
        <ele>42.81978</ele>
        <time>2014-11-21T23:54:07.040000Z</time>
      </trkpt>
      <trkpt lat="38.81817" lon="121.14732">
        <ele>43.518078</ele>
        <time>2014-11-21T23:54:10.202000Z</time>
      </trkpt>
      <trkpt lat="38.818058" lon="121.14733">
        <ele>43.76612</ele>
        <time>2014-11-21T23:54:13.364000Z</time>
      </trkpt>
      <trkpt lat="38.817932" lon="121.14734">
        <ele>43.493237</ele>
        <time>2014-11-21T23:54:16.526000Z</time>
      </trkpt>
      <trkpt lat="38.81782" lon="121.14732">
        <ele>43.008453</ele>
        <time>2014-11-21T23:54:19.688000Z</time>
      </trkpt>
      <trkpt lat="38.81773" lon="121.147316">
        <ele>42.68601</ele>
        <time>2014-11-21T23:54:22.850000Z</time>
      </trkpt>
      <trkpt lat="38.817616" lon="121.14731">
        <ele>42.776596</ele>
        <time>2014-11-21T23:54:26.012000Z</time>
      </trkpt>
      <trkpt lat="38.81751" lon="121.147316">
        <ele>43.257854</ele>
        <time>2014-11-21T23:54:29.174000Z</time>
      </trkpt>
      <trkpt lat="38.817417" lon="121.14734">
        <ele>43.910297</ele>
        <time>2014-11-21T23:54:32.336000Z</time>
      </trkpt>
      <trkpt lat="38.81731" lon="121.14739">
        <ele>44.58427</ele>
        <time>2014-11-21T23:54:35.498000Z</time>
      </trkpt>
      <trkpt lat="38.81723" lon="121.14749">
        <ele>45.129715</ele>
        <time>2014-11-21T23:54:38.660000Z</time>
      </trkpt>
      <trkpt lat="38.81719" lon="121.147606">
        <ele>45.29318</ele>
        <time>2014-11-21T23:54:41.822000Z</time>
      </trkpt>
      <trkpt lat="38.817165" lon="121.14774">
        <ele>45.08669</ele>
        <time>2014-11-21T23:54:44.984000Z</time>
      </trkpt>
      <trkpt lat="38.817165" lon="121.14789">
        <ele>44.93432</ele>
        <time>2014-11-21T23:54:48.146000Z</time>
      </trkpt>
      <trkpt lat="38.817196" lon="121.148">
        <ele>45.14424</ele>
        <time>2014-11-21T23:54:51.308000Z</time>
      </trkpt>
      <trkpt lat="38.817253" lon="121.14811">
        <ele>45.234276</ele>
        <time>2014-11-21T23:54:54.470000Z</time>
      </trkpt>
      <trkpt lat="38.81733" lon="121.14821">
        <ele>44.770435</ele>
        <time>2014-11-21T23:54:57.632000Z</time>
      </trkpt>
      <trkpt lat="38.81741" lon="121.14828">
        <ele>44.141354</ele>
        <time>2014-11-21T23:55:00.794000Z</time>
      </trkpt>
      <trkpt lat="38.81751" lon="121.14832">
        <ele>43.83642</ele>
        <time>2014-11-21T23:55:03.956000Z</time>
      </trkpt>
      <trkpt lat="38.817608" lon="121.14833">
        <ele>43.852962</ele>
        <time>2014-11-21T23:55:07.118000Z</time>
      </trkpt>
      <trkpt lat="38.817703" lon="121.148346">
        <ele>44.07502</ele>
        <time>2014-11-21T23:55:10.280000Z</time>
      </trkpt>
      <trkpt lat="38.8178" lon="121.148346">
        <ele>44.45075</ele>
        <time>2014-11-21T23:55:13.442000Z</time>
      </trkpt>
      <trkpt lat="38.817913" lon="121.148346">
        <ele>44.854397</ele>
        <time>2014-11-21T23:55:16.604000Z</time>
      </trkpt>
      <trkpt lat="38.81803" lon="121.14834">
        <ele>44.655296</ele>
        <time>2014-11-21T23:55:19.766000Z</time>
      </trkpt>
      <trkpt lat="38.818142" lon="121.148346">
        <ele>43.56012</ele>
        <time>2014-11-21T23:55:22.928000Z</time>
      </trkpt>
      <trkpt lat="38.81825" lon="121.14835">
        <ele>42.61078</ele>
        <time>2014-11-21T23:55:26.090000Z</time>
      </trkpt>
      <trkpt lat="38.818367" lon="121.14836">
        <ele>42.701233</ele>
        <time>2014-11-21T23:55:29.252000Z</time>
      </trkpt>
      <trkpt lat="38.81848" lon="121.14834">
        <ele>43.30547</ele>
        <time>2014-11-21T23:55:32.414000Z</time>
      </trkpt>
      <trkpt lat="38.818565" lon="121.14827">
        <ele>43.818283</ele>
        <time>2014-11-21T23:55:35.576000Z</time>
      </trkpt>
      <trkpt lat="38.81865" lon="121.148186">
        <ele>44.36211</ele>
        <time>2014-11-21T23:55:38.738000Z</time>
      </trkpt>
      <trkpt lat="38.818714" lon="121.148056">
        <ele>45.032154</ele>
        <time>2014-11-21T23:55:41.900000Z</time>
      </trkpt>
      <trkpt lat="38.818733" lon="121.14792">
        <ele>45.306835</ele>
        <time>2014-11-21T23:55:45.062000Z</time>
      </trkpt>
      <trkpt lat="38.818745" lon="121.14777">
        <ele>44.558155</ele>
        <time>2014-11-21T23:55:48.224000Z</time>
      </trkpt>
      <trkpt lat="38.81872" lon="121.14765">
        <ele>43.105495</ele>
        <time>2014-11-21T23:55:51.386000Z</time>
      </trkpt>
      <trkpt lat="38.818676" lon="121.14754">
        <ele>41.906857</ele>
        <time>2014-11-21T23:55:54.548000Z</time>
      </trkpt>
      <trkpt lat="38.818604" lon="121.14743">
        <ele>41.81583</ele>
        <time>2014-11-21T23:55:57.710000Z</time>
      </trkpt>
      <trkpt lat="38.818527" lon="121.14737">
        <ele>42.98323</ele>
        <time>2014-11-21T23:56:00.872000Z</time>
      </trkpt>
      <trkpt lat="38.818417" lon="121.147316">
        <ele>44.53785</ele>
        <time>2014-11-21T23:56:04.034000Z</time>
      </trkpt>
      <trkpt lat="38.8183" lon="121.14731">
        <ele>45.421513</ele>
        <time>2014-11-21T23:56:07.196000Z</time>
      </trkpt>
      <trkpt lat="38.818188" lon="121.14731">
        <ele>45.43976</ele>
        <time>2014-11-21T23:56:10.358000Z</time>
      </trkpt>
      <trkpt lat="38.818085" lon="121.147316">
        <ele>45.07142</ele>
        <time>2014-11-21T23:56:13.520000Z</time>
      </trkpt>
      <trkpt lat="38.817986" lon="121.14732">
        <ele>44.77956</ele>
        <time>2014-11-21T23:56:16.682000Z</time>
      </trkpt>
      <trkpt lat="38.817863" lon="121.14732">
        <ele>44.428265</ele>
        <time>2014-11-21T23:56:19.844000Z</time>
      </trkpt>
      <trkpt lat="38.81775" lon="121.14732">
        <ele>43.782352</ele>
        <time>2014-11-21T23:56:23.006000Z</time>
      </trkpt>
      <trkpt lat="38.81765" lon="121.14731">
        <ele>43.096806</ele>
        <time>2014-11-21T23:56:26.168000Z</time>
      </trkpt>
      <trkpt lat="38.817547" lon="121.14731">
        <ele>42.701008</ele>
        <time>2014-11-21T23:56:29.330000Z</time>
      </trkpt>
      <trkpt lat="38.817448" lon="121.14732">
        <ele>42.536095</ele>
        <time>2014-11-21T23:56:32.492000Z</time>
      </trkpt>
      <trkpt lat="38.817352" lon="121.14737">
        <ele>42.40885</ele>
        <time>2014-11-21T23:56:35.654000Z</time>
      </trkpt>
      <trkpt lat="38.817265" lon="121.14744">
        <ele>42.805325</ele>
        <time>2014-11-21T23:56:38.816000Z</time>
      </trkpt>
      <trkpt lat="38.817207" lon="121.147545">
        <ele>44.080433</ele>
        <time>2014-11-21T23:56:41.978000Z</time>
      </trkpt>
      <trkpt lat="38.817207" lon="121.147545">
        <ele>45.170013</ele>
        <time>2014-11-21T23:56:45.140000Z</time>
      </trkpt>
      <trkpt lat="38.817173" lon="121.14766">
        <ele>44.65825</ele>
        <time>2014-11-21T23:56:48.302000Z</time>
      </trkpt>
      <trkpt lat="38.81715" lon="121.14779">
        <ele>42.79434</ele>
        <time>2014-11-21T23:56:51.464000Z</time>
      </trkpt>
      <trkpt lat="38.817165" lon="121.14791">
        <ele>41.026672</ele>
        <time>2014-11-21T23:56:54.626000Z</time>
      </trkpt>
      <trkpt lat="38.817165" lon="121.14791">
        <ele>40.285114</ele>
        <time>2014-11-21T23:56:57.788000Z</time>
      </trkpt>
      <trkpt lat="38.817204" lon="121.148056">
        <ele>40.6447</ele>
        <time>2014-11-21T23:57:00.950000Z</time>
      </trkpt>
      <trkpt lat="38.81727" lon="121.14817">
        <ele>41.96001</ele>
        <time>2014-11-21T23:57:04.112000Z</time>
      </trkpt>
      <trkpt lat="38.81735" lon="121.148254">
        <ele>43.583046</ele>
        <time>2014-11-21T23:57:07.274000Z</time>
      </trkpt>
      <trkpt lat="38.81744" lon="121.14831">
        <ele>44.677605</ele>
        <time>2014-11-21T23:57:10.436000Z</time>
      </trkpt>
      <trkpt lat="38.81755" lon="121.14833">
        <ele>44.900055</ele>
        <time>2014-11-21T23:57:13.598000Z</time>
      </trkpt>
      <trkpt lat="38.817654" lon="121.14833">
        <ele>44.499474</ele>
        <time>2014-11-21T23:57:16.760000Z</time>
      </trkpt>
      <trkpt lat="38.817753" lon="121.14834">
        <ele>43.996685</ele>
        <time>2014-11-21T23:57:19.922000Z</time>
      </trkpt>
      <trkpt lat="38.817856" lon="121.148346">
        <ele>44.077618</ele>
        <time>2014-11-21T23:57:23.084000Z</time>
      </trkpt>
      <trkpt lat="38.817966" lon="121.148346">
        <ele>44.92065</ele>
        <time>2014-11-21T23:57:26.246000Z</time>
      </trkpt>
      <trkpt lat="38.818092" lon="121.148346">
        <ele>45.71518</ele>
        <time>2014-11-21T23:57:29.408000Z</time>
      </trkpt>
      <trkpt lat="38.818195" lon="121.148346">
        <ele>45.63129</ele>
        <time>2014-11-21T23:57:32.570000Z</time>
      </trkpt>
      <trkpt lat="38.818306" lon="121.148346">
        <ele>45.05914</ele>
        <time>2014-11-21T23:57:35.732000Z</time>
      </trkpt>
      <trkpt lat="38.818413" lon="121.148346">
        <ele>44.871105</ele>
        <time>2014-11-21T23:57:38.894000Z</time>
      </trkpt>
      <trkpt lat="38.818504" lon="121.148315">
        <ele>45.394978</ele>
        <time>2014-11-21T23:57:42.056000Z</time>
      </trkpt>
      <trkpt lat="38.818592" lon="121.148254">
        <ele>46.36825</ele>
        <time>2014-11-21T23:57:45.218000Z</time>
      </trkpt>
      <trkpt lat="38.818665" lon="121.14816">
        <ele>47.472122</ele>
        <time>2014-11-21T23:57:48.380000Z</time>
      </trkpt>
      <trkpt lat="38.81874" lon="121.14804">
        <ele>48.260612</ele>
        <time>2014-11-21T23:57:51.542000Z</time>
      </trkpt>
      <trkpt lat="38.818756" lon="121.14792">
        <ele>47.570286</ele>
        <time>2014-11-21T23:57:54.704000Z</time>
      </trkpt>
      <trkpt lat="38.818764" lon="121.14778">
        <ele>44.593132</ele>
        <time>2014-11-21T23:57:57.866000Z</time>
      </trkpt>
      <trkpt lat="38.81874" lon="121.14765">
        <ele>40.73301</ele>
        <time>2014-11-21T23:58:01.028000Z</time>
      </trkpt>
      <trkpt lat="38.818687" lon="121.14754">
        <ele>38.448624</ele>
        <time>2014-11-21T23:58:04.190000Z</time>
      </trkpt>
      <trkpt lat="38.818596" lon="121.147415">
        <ele>38.659237</ele>
        <time>2014-11-21T23:58:07.352000Z</time>
      </trkpt>
      <trkpt lat="38.818512" lon="121.14735">
        <ele>40.65482</ele>
        <time>2014-11-21T23:58:10.514000Z</time>
      </trkpt>
      <trkpt lat="38.818417" lon="121.14729">
        <ele>43.086197</ele>
        <time>2014-11-21T23:58:13.676000Z</time>
      </trkpt>
      <trkpt lat="38.818306" lon="121.14729">
        <ele>44.51995</ele>
        <time>2014-11-21T23:58:16.838000Z</time>
      </trkpt>
      <trkpt lat="38.818195" lon="121.1473">
        <ele>44.50123</ele>
        <time>2014-11-21T23:58:20Z</time>
      </trkpt>
      <trkpt lat="38.8181" lon="121.147316">
        <ele>44.312504</ele>
        <time>2014-11-21T23:58:23.162000Z</time>
      </trkpt>
      <trkpt lat="38.817978" lon="121.147316">
        <ele>45.23687</ele>
        <time>2014-11-21T23:58:26.324000Z</time>
      </trkpt>
      <trkpt lat="38.81786" lon="121.147316">
        <ele>46.62836</ele>
        <time>2014-11-21T23:58:29.486000Z</time>
      </trkpt>
      <trkpt lat="38.817745" lon="121.1473">
        <ele>46.841637</ele>
        <time>2014-11-21T23:58:32.648000Z</time>
      </trkpt>
      <trkpt lat="38.817635" lon="121.14729">
        <ele>45.64688</ele>
        <time>2014-11-21T23:58:35.810000Z</time>
      </trkpt>
      <trkpt lat="38.817535" lon="121.147285">
        <ele>43.71039</ele>
        <time>2014-11-21T23:58:38.972000Z</time>
      </trkpt>
      <trkpt lat="38.81743" lon="121.14731">
        <ele>41.56615</ele>
        <time>2014-11-21T23:58:42.134000Z</time>
      </trkpt>
      <trkpt lat="38.817333" lon="121.14737">
        <ele>40.09469</ele>
        <time>2014-11-21T23:58:45.296000Z</time>
      </trkpt>
      <trkpt lat="38.81725" lon="121.14747">
        <ele>40.036366</ele>
        <time>2014-11-21T23:58:48.458000Z</time>
      </trkpt>
      <trkpt lat="38.81718" lon="121.1476">
        <ele>41.18105</ele>
        <time>2014-11-21T23:58:51.620000Z</time>
      </trkpt>
      <trkpt lat="38.81715" lon="121.14773">
        <ele>42.48893</ele>
        <time>2014-11-21T23:58:54.782000Z</time>
      </trkpt>
      <trkpt lat="38.817158" lon="121.14786">
        <ele>42.691196</ele>
        <time>2014-11-21T23:58:57.944000Z</time>
      </trkpt>
      <trkpt lat="38.81718" lon="121.14798">
        <ele>42.282494</ele>
        <time>2014-11-21T23:59:01.106000Z</time>
      </trkpt>
      <trkpt lat="38.817226" lon="121.14809">
        <ele>42.04414</ele>
        <time>2014-11-21T23:59:04.268000Z</time>
      </trkpt>
      <trkpt lat="38.817314" lon="121.1482">
        <ele>42.552677</ele>
        <time>2014-11-21T23:59:07.430000Z</time>
      </trkpt>
      <trkpt lat="38.81741" lon="121.148285">
        <ele>45.454254</ele>
        <time>2014-11-21T23:59:10.592000Z</time>
      </trkpt>
      <trkpt lat="38.817524" lon="121.14832">
        <ele>46.238045</ele>
        <time>2014-11-21T23:59:13.754000Z</time>
      </trkpt>
      <trkpt lat="38.817616" lon="121.14834">
        <time>2014-11-21T23:59:16.916000Z</time>
      </trkpt>
    </trkseg>
  </trk>
</gpx>