<?xml version="1.0" encoding="UTF-8"?>
<gpx xmlns="http://www.topografix.com/GPX/1/1" xmlns:gpxtpx="http://www.garmin.com/xmlschemas/TrackPointExtension/v1" xmlns:xsi="http://www.w3.org/2001/XMLSchema-instance" xsi:schemaLocation="http://www.topografix.com/GPX/1/1 http://www.topografix.com/GPX/1/1/gpx.xsd" version="1.1" creator="gpx.py -- https://github.com/tkrajina/gpxpy">
  <trk>
    <trkseg>
      <trkpt lat="38.902588" lon="111.83568">
        <ele>1418.1298</ele>
        <time>2015-02-09T23:15:56.283000Z</time>
      </trkpt>
      <trkpt lat="38.902637" lon="111.835785">
        <ele>1417.4755</ele>
        <time>2015-02-09T23:15:59.735000Z</time>
      </trkpt>
      <trkpt lat="38.90268" lon="111.83589">
        <ele>1417.2313</ele>
        <time>2015-02-09T23:16:03.187000Z</time>
      </trkpt>
      <trkpt lat="38.90268" lon="111.83589">
        <ele>1417.2343</ele>
        <time>2015-02-09T23:16:06.639000Z</time>
      </trkpt>
      <trkpt lat="38.902737" lon="111.836">
        <ele>1417.4441</ele>
        <time>2015-02-09T23:16:10.091000Z</time>
      </trkpt>
      <trkpt lat="38.90277" lon="111.83612">
        <ele>1417.9954</ele>
        <time>2015-02-09T23:16:13.543000Z</time>
      </trkpt>
      <trkpt lat="38.902805" lon="111.83625">
        <ele>1418.8823</ele>
        <time>2015-02-09T23:16:16.995000Z</time>
      </trkpt>
      <trkpt lat="38.902805" lon="111.83625">
        <ele>1419.7864</ele>
        <time>2015-02-09T23:16:20.447000Z</time>
      </trkpt>
      <trkpt lat="38.90284" lon="111.836365">
        <ele>1420.3518</ele>
        <time>2015-02-09T23:16:23.899000Z</time>
      </trkpt>
      <trkpt lat="38.902866" lon="111.83648">
        <ele>1420.6575</ele>
        <time>2015-02-09T23:16:27.351000Z</time>
      </trkpt>
      <trkpt lat="38.902866" lon="111.83648">
        <ele>1420.9822</ele>
        <time>2015-02-09T23:16:30.803000Z</time>
      </trkpt>
      <trkpt lat="38.902905" lon="111.8366">
        <ele>1421.0011</ele>
        <time>2015-02-09T23:16:34.255000Z</time>
      </trkpt>
      <trkpt lat="38.902946" lon="111.83673">
        <ele>1420.4109</ele>
        <time>2015-02-09T23:16:37.707000Z</time>
      </trkpt>
      <trkpt lat="38.902992" lon="111.83684">
        <ele>1419.6853</ele>
        <time>2015-02-09T23:16:41.159000Z</time>
      </trkpt>
      <trkpt lat="38.903027" lon="111.83696">
        <ele>1419.1697</ele>
        <time>2015-02-09T23:16:44.611000Z</time>
      </trkpt>
      <trkpt lat="38.903057" lon="111.8371">
        <ele>1418.5945</ele>
        <time>2015-02-09T23:16:48.063000Z</time>
      </trkpt>
      <trkpt lat="38.903107" lon="111.83721">
        <ele>1417.7765</ele>
        <time>2015-02-09T23:16:51.515000Z</time>
      </trkpt>
      <trkpt lat="38.903168" lon="111.837296">
        <ele>1416.793</ele>
        <time>2015-02-09T23:16:54.967000Z</time>
      </trkpt>
      <trkpt lat="38.903225" lon="111.83741">
        <ele>1415.616</ele>
        <time>2015-02-09T23:16:58.419000Z</time>
      </trkpt>
      <trkpt lat="38.903244" lon="111.83755">
        <ele>1414.361</ele>
        <time>2015-02-09T23:17:01.871000Z</time>
      </trkpt>
      <trkpt lat="38.90325" lon="111.83768">
        <ele>1413.6144</ele>
        <time>2015-02-09T23:17:05.323000Z</time>
      </trkpt>
      <trkpt lat="38.90328" lon="111.8378">
        <ele>1413.6666</ele>
        <time>2015-02-09T23:17:08.775000Z</time>
      </trkpt>
      <trkpt lat="38.903297" lon="111.837944">
        <ele>1414.0568</ele>
        <time>2015-02-09T23:17:12.227000Z</time>
      </trkpt>
      <trkpt lat="38.903336" lon="111.8381">
        <ele>1414.6116</ele>
        <time>2015-02-09T23:17:15.678000Z</time>
      </trkpt>
      <trkpt lat="38.903393" lon="111.83821">
        <ele>1415.8441</ele>
        <time>2015-02-09T23:17:19.129000Z</time>
      </trkpt>
      <trkpt lat="38.90344" lon="111.83832">
        <ele>1417.6572</ele>
        <time>2015-02-09T23:17:22.580000Z</time>
      </trkpt>
      <trkpt lat="38.90347" lon="111.838455">
        <ele>1419.4985</ele>
        <time>2015-02-09T23:17:26.031000Z</time>
      </trkpt>
      <trkpt lat="38.903503" lon="111.8386">
        <ele>1421.1344</ele>
        <time>2015-02-09T23:17:29.482000Z</time>
      </trkpt>
      <trkpt lat="38.90355" lon="111.838715">
        <ele>1422.3927</ele>
        <time>2015-02-09T23:17:32.933000Z</time>
      </trkpt>
      <trkpt lat="38.90361" lon="111.83884">
        <ele>1422.9906</ele>
        <time>2015-02-09T23:17:36.384000Z</time>
      </trkpt>
      <trkpt lat="38.903656" lon="111.83896">
        <ele>1422.9639</ele>
        <time>2015-02-09T23:17:39.835000Z</time>
      </trkpt>
      <trkpt lat="38.903717" lon="111.83905">
        <ele>1422.3589</ele>
        <time>2015-02-09T23:17:43.286000Z</time>
      </trkpt>
      <trkpt lat="38.90377" lon="111.83918">
        <ele>1421.3995</ele>
        <time>2015-02-09T23:17:46.737000Z</time>
      </trkpt>
      <trkpt lat="38.90383" lon="111.8393">
        <ele>1420.5742</ele>
        <time>2015-02-09T23:17:50.188000Z</time>
      </trkpt>
      <trkpt lat="38.90389" lon="111.83943">
        <ele>1420.2269</ele>
        <time>2015-02-09T23:17:53.639000Z</time>
      </trkpt>
      <trkpt lat="38.90393" lon="111.83955">
        <ele>1420.2009</ele>
        <time>2015-02-09T23:17:57.090000Z</time>
      </trkpt>
      <trkpt lat="38.90397" lon="111.83967">
        <ele>1420.1421</ele>
        <time>2015-02-09T23:18:00.541000Z</time>
      </trkpt>
      <trkpt lat="38.904" lon="111.839806">
        <ele>1419.8494</ele>
        <time>2015-02-09T23:18:03.992000Z</time>
      </trkpt>
      <trkpt lat="38.904087" lon="111.839874">
        <ele>1420.0605</ele>
        <time>2015-02-09T23:18:07.443000Z</time>
      </trkpt>
      <trkpt lat="38.904182" lon="111.839874">
        <ele>1421.8793</ele>
        <time>2015-02-09T23:18:10.894000Z</time>
      </trkpt>
      <trkpt lat="38.90428" lon="111.83983">
        <ele>1424.7635</ele>
        <time>2015-02-09T23:18:14.345000Z</time>
      </trkpt>
      <trkpt lat="38.904366" lon="111.83978">
        <ele>1426.6906</ele>
        <time>2015-02-09T23:18:17.796000Z</time>
      </trkpt>
      <trkpt lat="38.90445" lon="111.83974">
        <ele>1426.8058</ele>
        <time>2015-02-09T23:18:21.247000Z</time>
      </trkpt>
      <trkpt lat="38.90455" lon="111.839676">
        <ele>1425.3761</ele>
        <time>2015-02-09T23:18:24.698000Z</time>
      </trkpt>
      <trkpt lat="38.904655" lon="111.839615">
        <ele>1422.9884</ele>
        <time>2015-02-09T23:18:28.149000Z</time>
      </trkpt>
      <trkpt lat="38.90474" lon="111.83957">
        <ele>1421.0474</ele>
        <time>2015-02-09T23:18:31.600000Z</time>
      </trkpt>
      <trkpt lat="38.904823" lon="111.839516">
        <ele>1420.5243</ele>
        <time>2015-02-09T23:18:35.051000Z</time>
      </trkpt>
      <trkpt lat="38.90492" lon="111.83947">
        <ele>1420.9602</ele>
        <time>2015-02-09T23:18:38.502000Z</time>
      </trkpt>
      <trkpt lat="38.905006" lon="111.839424">
        <ele>1421.6931</ele>
        <time>2015-02-09T23:18:41.953000Z</time>
      </trkpt>
      <trkpt lat="38.9051" lon="111.83938">
        <ele>1422.2582</ele>
        <time>2015-02-09T23:18:45.404000Z</time>
      </trkpt>
      <trkpt lat="38.90519" lon="111.839325">
        <ele>1422.4742</ele>
        <time>2015-02-09T23:18:48.855000Z</time>
      </trkpt>
      <trkpt lat="38.90528" lon="111.83928">
        <ele>1422.4757</ele>
        <time>2015-02-09T23:18:52.306000Z</time>
      </trkpt>
      <trkpt lat="38.905365" lon="111.83923">
        <ele>1422.4153</ele>
        <time>2015-02-09T23:18:55.757000Z</time>
      </trkpt>
      <trkpt lat="38.905468" lon="111.839165">
        <ele>1422.3694</ele>
        <time>2015-02-09T23:18:59.208000Z</time>
      </trkpt>
      <trkpt lat="38.905567" lon="111.8391">
        <ele>1422.214</ele>
        <time>2015-02-09T23:19:02.659000Z</time>
      </trkpt>
      <trkpt lat="38.90565" lon="111.83905">
        <ele>1421.8541</ele>
        <time>2015-02-09T23:19:06.110000Z</time>
      </trkpt>
      <trkpt lat="38.905743" lon="111.83898">
        <ele>1421.4896</ele>
        <time>2015-02-09T23:19:09.561000Z</time>
      </trkpt>
      <trkpt lat="38.905827" lon="111.838936">
        <ele>1421.4563</ele>
        <time>2015-02-09T23:19:13.012000Z</time>
      </trkpt>
      <trkpt lat="38.90593" lon="111.83889">
        <ele>1421.9292</ele>
        <time>2015-02-09T23:19:16.463000Z</time>
      </trkpt>
      <trkpt lat="38.90603" lon="111.83885">
        <ele>1422.6885</ele>
        <time>2015-02-09T23:19:19.914000Z</time>
      </trkpt>
      <trkpt lat="38.906128" lon="111.838806">
        <ele>1422.9866</ele>
        <time>2015-02-09T23:19:23.365000Z</time>
      </trkpt>
      <trkpt lat="38.906223" lon="111.83875">
        <ele>1422.4824</ele>
        <time>2015-02-09T23:19:26.816000Z</time>
      </trkpt>
      <trkpt lat="38.906307" lon="111.8387">
        <ele>1421.742</ele>
        <time>2015-02-09T23:19:30.267000Z</time>
      </trkpt>
      <trkpt lat="38.906406" lon="111.83864">
        <ele>1421.3289</ele>
        <time>2015-02-09T23:19:33.718000Z</time>
      </trkpt>
      <trkpt lat="38.906513" lon="111.83856">
        <ele>1421.2291</ele>
        <time>2015-02-09T23:19:37.169000Z</time>
      </trkpt>
      <trkpt lat="38.906612" lon="111.83851">
        <ele>1421.8246</ele>
        <time>2015-02-09T23:19:40.620000Z</time>
      </trkpt>
      <trkpt lat="38.906673" lon="111.83841">
        <ele>1423.3247</ele>
        <time>2015-02-09T23:19:44.071000Z</time>
      </trkpt>
      <trkpt lat="38.906773" lon="111.838326">
        <ele>1424.8358</ele>
        <time>2015-02-09T23:19:47.522000Z</time>
      </trkpt>
      <trkpt lat="38.906887" lon="111.83829">
        <ele>1425.5447</ele>
        <time>2015-02-09T23:19:50.973000Z</time>
      </trkpt>
      <trkpt lat="38.90698" lon="111.83824">
        <ele>1425.9236</ele>
        <time>2015-02-09T23:19:54.424000Z</time>
      </trkpt>
      <trkpt lat="38.907074" lon="111.838196">
        <ele>1426.7948</ele>
        <time>2015-02-09T23:19:57.875000Z</time>
      </trkpt>
      <trkpt lat="38.907177" lon="111.83817">
        <ele>1428.1304</ele>
        <time>2015-02-09T23:20:01.326000Z</time>
      </trkpt>
      <trkpt lat="38.90727" lon="111.838135">
        <ele>1429.1627</ele>
        <time>2015-02-09T23:20:04.777000Z</time>
      </trkpt>
      <trkpt lat="38.907375" lon="111.83807">
        <ele>1429.2822</ele>
        <time>2015-02-09T23:20:08.228000Z</time>
      </trkpt>
      <trkpt lat="38.90746" lon="111.83803">
        <ele>1428.5659</ele>
        <time>2015-02-09T23:20:11.679000Z</time>
      </trkpt>
      <trkpt lat="38.907547" lon="111.83798">
        <ele>1427.4404</ele>
        <time>2015-02-09T23:20:15.130000Z</time>
      </trkpt>
      <trkpt lat="38.90763" lon="111.83793">
        <ele>1426.2864</ele>
        <time>2015-02-09T23:20:18.581000Z</time>
      </trkpt>
      <trkpt lat="38.90771" lon="111.837875">
        <ele>1425.4628</ele>
        <time>2015-02-09T23:20:22.032000Z</time>
      </trkpt>
      <trkpt lat="38.907803" lon="111.837814">
        <ele>1425.1722</ele>
        <time>2015-02-09T23:20:25.483000Z</time>
      </trkpt>
      <trkpt lat="38.907898" lon="111.83777">
        <ele>1425.0504</ele>
        <time>2015-02-09T23:20:28.934000Z</time>
      </trkpt>
      <trkpt lat="38.908005" lon="111.83774">
        <ele>1424.6472</ele>
        <time>2015-02-09T23:20:32.385000Z</time>
      </trkpt>
      <trkpt lat="38.908104" lon="111.837715">
        <ele>1423.9847</ele>
        <time>2015-02-09T23:20:35.836000Z</time>
      </trkpt>
      <trkpt lat="38.908203" lon="111.83769">
        <ele>1423.325</ele>
        <time>2015-02-09T23:20:39.287000Z</time>
      </trkpt>
      <trkpt lat="38.908314" lon="111.837654">
        <ele>1422.7617</ele>
        <time>2015-02-09T23:20:42.738000Z</time>
      </trkpt>
      <trkpt lat="38.908417" lon="111.83759">
        <ele>1422.388</ele>
        <time>2015-02-09T23:20:46.189000Z</time>
      </trkpt>
      <trkpt lat="38.908504" lon="111.83754">
        <ele>1421.8528</ele>
        <time>2015-02-09T23:20:49.640000Z</time>
      </trkpt>
      <trkpt lat="38.908596" lon="111.83748">
        <ele>1420.789</ele>
        <time>2015-02-09T23:20:53.091000Z</time>
      </trkpt>
      <trkpt lat="38.90869" lon="111.83744">
        <ele>1419.4506</ele>
        <time>2015-02-09T23:20:56.542000Z</time>
      </trkpt>
      <trkpt lat="38.908783" lon="111.83741">
        <ele>1418.097</ele>
        <time>2015-02-09T23:20:59.993000Z</time>
      </trkpt>
      <trkpt lat="38.908867" lon="111.837364">
        <ele>1416.7902</ele>
        <time>2015-02-09T23:21:03.444000Z</time>
      </trkpt>
      <trkpt lat="38.908966" lon="111.8373">
        <ele>1415.7988</ele>
        <time>2015-02-09T23:21:06.895000Z</time>
      </trkpt>
      <trkpt lat="38.90907" lon="111.83726">
        <ele>1415.2876</ele>
        <time>2015-02-09T23:21:10.346000Z</time>
      </trkpt>
      <trkpt lat="38.909153" lon="111.83736">
        <ele>1415.6001</ele>
        <time>2015-02-09T23:21:13.797000Z</time>
      </trkpt>
      <trkpt lat="38.909176" lon="111.83748">
        <ele>1416.7488</ele>
        <time>2015-02-09T23:21:17.248000Z</time>
      </trkpt>
      <trkpt lat="38.909176" lon="111.83748">
        <ele>1417.938</ele>
        <time>2015-02-09T23:21:20.699000Z</time>
      </trkpt>
      <trkpt lat="38.909195" lon="111.83763">
        <ele>1418.0905</ele>
        <time>2015-02-09T23:21:24.150000Z</time>
      </trkpt>
      <trkpt lat="38.909218" lon="111.837776">
        <ele>1417.0983</ele>
        <time>2015-02-09T23:21:27.601000Z</time>
      </trkpt>
      <trkpt lat="38.909218" lon="111.837776">
        <ele>1415.9078</ele>
        <time>2015-02-09T23:21:31.052000Z</time>
      </trkpt>
      <trkpt lat="38.90926" lon="111.83792">
        <ele>1415.3206</ele>
        <time>2015-02-09T23:21:34.503000Z</time>
      </trkpt>
      <trkpt lat="38.909275" lon="111.83805">
        <ele>1415.2317</ele>
        <time>2015-02-09T23:21:37.954000Z</time>
      </trkpt>
      <trkpt lat="38.909294" lon="111.83817">
        <ele>1415.3186</ele>
        <time>2015-02-09T23:21:41.405000Z</time>
      </trkpt>
      <trkpt lat="38.909332" lon="111.83829">
        <ele>1415.5223</ele>
        <time>2015-02-09T23:21:44.856000Z</time>
      </trkpt>
      <trkpt lat="38.909367" lon="111.838425">
        <ele>1415.7549</ele>
        <time>2015-02-09T23:21:48.307000Z</time>
      </trkpt>
      <trkpt lat="38.909397" lon="111.83855">
        <ele>1415.8922</ele>
        <time>2015-02-09T23:21:51.758000Z</time>
      </trkpt>
      <trkpt lat="38.909428" lon="111.8387">
        <ele>1416.0469</ele>
        <time>2015-02-09T23:21:55.209000Z</time>
      </trkpt>
      <trkpt lat="38.90946" lon="111.83882">
        <ele>1416.2623</ele>
        <time>2015-02-09T23:21:58.660000Z</time>
      </trkpt>
      <trkpt lat="38.90948" lon="111.838974">
        <ele>1416.5184</ele>
        <time>2015-02-09T23:22:02.111000Z</time>
      </trkpt>
      <trkpt lat="38.90951" lon="111.8391">
        <ele>1416.7675</ele>
        <time>2015-02-09T23:22:05.562000Z</time>
      </trkpt>
      <trkpt lat="38.909546" lon="111.839226">
        <ele>1416.9021</ele>
        <time>2015-02-09T23:22:09.013000Z</time>
      </trkpt>
      <trkpt lat="38.90958" lon="111.83933">
        <ele>1417.1884</ele>
        <time>2015-02-09T23:22:12.464000Z</time>
      </trkpt>
      <trkpt lat="38.90962" lon="111.83945">
        <ele>1417.7594</ele>
        <time>2015-02-09T23:22:15.915000Z</time>
      </trkpt>
      <trkpt lat="38.90965" lon="111.83956">
        <ele>1418.1073</ele>
        <time>2015-02-09T23:22:19.366000Z</time>
      </trkpt>
      <trkpt lat="38.909683" lon="111.839676">
        <ele>1417.9502</ele>
        <time>2015-02-09T23:22:22.817000Z</time>
      </trkpt>
      <trkpt lat="38.909714" lon="111.83978">
        <ele>1417.7329</ele>
        <time>2015-02-09T23:22:26.268000Z</time>
      </trkpt>
      <trkpt lat="38.909744" lon="111.83993">
        <ele>1418.0084</ele>
        <time>2015-02-09T23:22:29.719000Z</time>
      </trkpt>
      <trkpt lat="38.909775" lon="111.84005">
        <ele>1418.5336</ele>
        <time>2015-02-09T23:22:33.170000Z</time>
      </trkpt>
      <trkpt lat="38.909798" lon="111.840195">
        <ele>1418.732</ele>
        <time>2015-02-09T23:22:36.621000Z</time>
      </trkpt>
      <trkpt lat="38.90983" lon="111.840324">
        <ele>1418.3173</ele>
        <time>2015-02-09T23:22:40.072000Z</time>
      </trkpt>
      <trkpt lat="38.909863" lon="111.84044">
        <ele>1417.575</ele>
        <time>2015-02-09T23:22:43.523000Z</time>
      </trkpt>
      <trkpt lat="38.90989" lon="111.84057">
        <ele>1417.1146</ele>
        <time>2015-02-09T23:22:46.974000Z</time>
      </trkpt>
      <trkpt lat="38.909904" lon="111.840706">
        <ele>1417.118</ele>
        <time>2015-02-09T23:22:50.425000Z</time>
      </trkpt>
      <trkpt lat="38.909935" lon="111.84082">
        <ele>1417.1136</ele>
        <time>2015-02-09T23:22:53.876000Z</time>
      </trkpt>
      <trkpt lat="38.909958" lon="111.840935">
        <ele>1416.7152</ele>
        <time>2015-02-09T23:22:57.327000Z</time>
      </trkpt>
      <trkpt lat="38.909992" lon="111.84106">
        <ele>1415.7463</ele>
        <time>2015-02-09T23:23:00.778000Z</time>
      </trkpt>
      <trkpt lat="38.910023" lon="111.841194">
        <ele>1414.4812</ele>
        <time>2015-02-09T23:23:04.229000Z</time>
      </trkpt>
      <trkpt lat="38.91004" lon="111.84131">
        <ele>1413.5294</ele>
        <time>2015-02-09T23:23:07.680000Z</time>
      </trkpt>
      <trkpt lat="38.910084" lon="111.84144">
        <ele>1413.1743</ele>
        <time>2015-02-09T23:23:11.131000Z</time>
      </trkpt>
      <trkpt lat="38.91012" lon="111.84156">
        <ele>1413.1783</ele>
        <time>2015-02-09T23:23:14.582000Z</time>
      </trkpt>
      <trkpt lat="38.910126" lon="111.84168">
        <ele>1413.2827</ele>
        <time>2015-02-09T23:23:18.033000Z</time>
      </trkpt>
      <trkpt lat="38.910137" lon="111.841805">
        <ele>1413.3599</ele>
        <time>2015-02-09T23:23:21.484000Z</time>
      </trkpt>
      <trkpt lat="38.910164" lon="111.84192">
        <ele>1413.3883</ele>
        <time>2015-02-09T23:23:24.935000Z</time>
      </trkpt>
      <trkpt lat="38.9102" lon="111.84204">
        <ele>1413.5258</ele>
        <time>2015-02-09T23:23:28.386000Z</time>
      </trkpt>
      <trkpt lat="38.910225" lon="111.842155">
        <ele>1413.8771</ele>
        <time>2015-02-09T23:23:31.837000Z</time>
      </trkpt>
      <trkpt lat="38.91025" lon="111.84229">
        <ele>1414.3784</ele>
        <time>2015-02-09T23:23:35.288000Z</time>
      </trkpt>
      <trkpt lat="38.910282" lon="111.842415">
        <ele>1414.9114</ele>
        <time>2015-02-09T23:23:38.739000Z</time>
      </trkpt>
      <trkpt lat="38.91032" lon="111.84252">
        <ele>1415.4456</ele>
        <time>2015-02-09T23:23:42.190000Z</time>
      </trkpt>
      <trkpt lat="38.910362" lon="111.84266">
        <ele>1415.8132</ele>
        <time>2015-02-09T23:23:45.641000Z</time>
      </trkpt>
      <trkpt lat="38.910397" lon="111.84278">
        <ele>1415.8197</ele>
        <time>2015-02-09T23:23:49.092000Z</time>
      </trkpt>
      <trkpt lat="38.91043" lon="111.84293">
        <ele>1415.5817</ele>
        <time>2015-02-09T23:23:52.543000Z</time>
      </trkpt>
      <trkpt lat="38.91045" lon="111.843056">
        <ele>1415.539</ele>
        <time>2015-02-09T23:23:55.994000Z</time>
      </trkpt>
      <trkpt lat="38.91047" lon="111.84318">
        <ele>1415.8307</ele>
        <time>2015-02-09T23:23:59.445000Z</time>
      </trkpt>
      <trkpt lat="38.910503" lon="111.84331">
        <ele>1416.2004</ele>
        <time>2015-02-09T23:24:02.896000Z</time>
      </trkpt>
      <trkpt lat="38.91054" lon="111.843445">
        <ele>1416.5334</ele>
        <time>2015-02-09T23:24:06.347000Z</time>
      </trkpt>
      <trkpt lat="38.910572" lon="111.84359">
        <ele>1416.9346</ele>
        <time>2015-02-09T23:24:09.798000Z</time>
      </trkpt>
      <trkpt lat="38.910595" lon="111.84373">
        <ele>1417.2794</ele>
        <time>2015-02-09T23:24:13.249000Z</time>
      </trkpt>
      <trkpt lat="38.910625" lon="111.84386">
        <ele>1417.2864</ele>
        <time>2015-02-09T23:24:16.700000Z</time>
      </trkpt>
      <trkpt lat="38.910664" lon="111.84398">
        <ele>1416.9373</ele>
        <time>2015-02-09T23:24:20.151000Z</time>
      </trkpt>
      <trkpt lat="38.910694" lon="111.844086">
        <ele>1416.5347</ele>
        <time>2015-02-09T23:24:23.602000Z</time>
      </trkpt>
      <trkpt lat="38.91073" lon="111.84421">
        <ele>1416.1931</ele>
        <time>2015-02-09T23:24:27.053000Z</time>
      </trkpt>
      <trkpt lat="38.910763" lon="111.84433">
        <ele>1416.0714</ele>
        <time>2015-02-09T23:24:30.504000Z</time>
      </trkpt>
      <trkpt lat="38.91078" lon="111.844444">
        <ele>1416.451</ele>
        <time>2015-02-09T23:24:33.955000Z</time>
      </trkpt>
      <trkpt lat="38.910793" lon="111.84457">
        <ele>1417.0475</ele>
        <time>2015-02-09T23:24:37.406000Z</time>
      </trkpt>
      <trkpt lat="38.91082" lon="111.8447">
        <ele>1417.1115</ele>
        <time>2015-02-09T23:24:40.857000Z</time>
      </trkpt>
      <trkpt lat="38.910866" lon="111.84484">
        <ele>1416.3395</ele>
        <time>2015-02-09T23:24:44.308000Z</time>
      </trkpt>
      <trkpt lat="38.91089" lon="111.84496">
        <ele>1415.2085</ele>
        <time>2015-02-09T23:24:47.759000Z</time>
      </trkpt>
      <trkpt lat="38.910946" lon="111.8451">
        <ele>1414.4397</ele>
        <time>2015-02-09T23:24:51.210000Z</time>
      </trkpt>
      <trkpt lat="38.91101" lon="111.84522">
        <ele>1414.1838</ele>
        <time>2015-02-09T23:24:54.661000Z</time>
      </trkpt>
      <trkpt lat="38.91104" lon="111.84535">
        <ele>1414.2106</ele>
        <time>2015-02-09T23:24:58.112000Z</time>
      </trkpt>
      <trkpt lat="38.911068" lon="111.845474">
        <ele>1414.4417</ele>
        <time>2015-02-09T23:25:01.563000Z</time>
      </trkpt>
      <trkpt lat="38.911106" lon="111.84559">
        <ele>1415.0021</ele>
        <time>2015-02-09T23:25:05.014000Z</time>
      </trkpt>
      <trkpt lat="38.911133" lon="111.84574">
        <ele>1415.7517</ele>
        <time>2015-02-09T23:25:08.465000Z</time>
      </trkpt>
      <trkpt lat="38.911133" lon="111.84586">
        <ele>1416.4321</ele>
        <time>2015-02-09T23:25:11.916000Z</time>
      </trkpt>
      <trkpt lat="38.91115" lon="111.84601">
        <ele>1417.2626</ele>
        <time>2015-02-09T23:25:15.367000Z</time>
      </trkpt>
      <trkpt lat="38.911198" lon="111.846146">
        <ele>1418.6196</ele>
        <time>2015-02-09T23:25:18.818000Z</time>
      </trkpt>
      <trkpt lat="38.911217" lon="111.846275">
        <ele>1420.1919</ele>
        <time>2015-02-09T23:25:22.269000Z</time>
      </trkpt>
      <trkpt lat="38.91124" lon="111.84641">
        <ele>1420.9874</ele>
        <time>2015-02-09T23:25:25.720000Z</time>
      </trkpt>
      <trkpt lat="38.911278" lon="111.84655">
        <ele>1420.6257</ele>
        <time>2015-02-09T23:25:29.171000Z</time>
      </trkpt>
      <trkpt lat="38.911312" lon="111.846695">
        <ele>1419.8507</ele>
        <time>2015-02-09T23:25:32.622000Z</time>
      </trkpt>
      <trkpt lat="38.91135" lon="111.84683">
        <ele>1419.371</ele>
        <time>2015-02-09T23:25:36.073000Z</time>
      </trkpt>
      <trkpt lat="38.911392" lon="111.84697">
        <ele>1419.2311</ele>
        <time>2015-02-09T23:25:39.524000Z</time>
      </trkpt>
      <trkpt lat="38.91142" lon="111.84711">
        <ele>1419.2626</ele>
        <time>2015-02-09T23:25:42.975000Z</time>
      </trkpt>
      <trkpt lat="38.91146" lon="111.847244">
        <ele>1419.326</ele>
        <time>2015-02-09T23:25:46.426000Z</time>
      </trkpt>
      <trkpt lat="38.9115" lon="111.84738">
        <ele>1419.3649</ele>
        <time>2015-02-09T23:25:49.877000Z</time>
      </trkpt>
      <trkpt lat="38.91154" lon="111.84751">
        <ele>1419.376</ele>
        <time>2015-02-09T23:25:53.328000Z</time>
      </trkpt>
      <trkpt lat="38.911575" lon="111.84764">
        <ele>1419.3733</ele>
        <time>2015-02-09T23:25:56.779000Z</time>
      </trkpt>
      <trkpt lat="38.911594" lon="111.84778">
        <ele>1419.368</ele>
        <time>2015-02-09T23:26:00.230000Z</time>
      </trkpt>
      <trkpt lat="38.91162" lon="111.84792">
        <ele>1419.503</ele>
        <time>2015-02-09T23:26:03.681000Z</time>
      </trkpt>
      <trkpt lat="38.911648" lon="111.84804">
        <ele>1419.862</ele>
        <time>2015-02-09T23:26:07.132000Z</time>
      </trkpt>
      <trkpt lat="38.911674" lon="111.848145">
        <ele>1420.2318</ele>
        <time>2015-02-09T23:26:10.583000Z</time>
      </trkpt>
      <trkpt lat="38.9117" lon="111.84826">
        <ele>1420.4075</ele>
        <time>2015-02-09T23:26:14.034000Z</time>
      </trkpt>
      <trkpt lat="38.91173" lon="111.848366">
        <ele>1420.4342</ele>
        <time>2015-02-09T23:26:17.485000Z</time>
      </trkpt>
      <trkpt lat="38.911762" lon="111.8485">
        <ele>1420.5425</ele>
        <time>2015-02-09T23:26:20.936000Z</time>
      </trkpt>
      <trkpt lat="38.911797" lon="111.84865">
        <ele>1420.8723</ele>
        <time>2015-02-09T23:26:24.387000Z</time>
      </trkpt>
      <trkpt lat="38.911827" lon="111.848755">
        <ele>1421.3657</ele>
        <time>2015-02-09T23:26:27.838000Z</time>
      </trkpt>
      <trkpt lat="38.911858" lon="111.84887">
        <ele>1421.8989</ele>
        <time>2015-02-09T23:26:31.289000Z</time>
      </trkpt>
      <trkpt lat="38.911896" lon="111.84901">
        <ele>1422.2974</ele>
        <time>2015-02-09T23:26:34.740000Z</time>
      </trkpt>
      <trkpt lat="38.91193" lon="111.849144">
        <ele>1422.4451</ele>
        <time>2015-02-09T23:26:38.191000Z</time>
      </trkpt>
      <trkpt lat="38.91197" lon="111.84929">
        <ele>1422.4426</ele>
        <time>2015-02-09T23:26:41.642000Z</time>
      </trkpt>
      <trkpt lat="38.912006" lon="111.849434">
        <ele>1422.3987</ele>
        <time>2015-02-09T23:26:45.093000Z</time>
      </trkpt>
      <trkpt lat="38.91203" lon="111.84958">
        <ele>1422.3663</ele>
        <time>2015-02-09T23:26:48.544000Z</time>
      </trkpt>
      <trkpt lat="38.91206" lon="111.84971">
        <ele>1422.3546</ele>
        <time>2015-02-09T23:26:51.995000Z</time>
      </trkpt>
      <trkpt lat="38.91209" lon="111.84985">
        <ele>1422.3549</ele>
        <time>2015-02-09T23:26:55.446000Z</time>
      </trkpt>
      <trkpt lat="38.91211" lon="111.84997">
        <ele>1422.4967</ele>
        <time>2015-02-09T23:26:58.897000Z</time>
      </trkpt>
      <trkpt lat="38.912148" lon="111.850105">
        <ele>1422.8593</ele>
        <time>2015-02-09T23:27:02.348000Z</time>
      </trkpt>
      <trkpt lat="38.91218" lon="111.850235">
        <ele>1423.3678</ele>
        <time>2015-02-09T23:27:05.799000Z</time>
      </trkpt>
      <trkpt lat="38.912216" lon="111.85037">
        <ele>1424.041</ele>
        <time>2015-02-09T23:27:09.250000Z</time>
      </trkpt>
      <trkpt lat="38.91225" lon="111.85052">
        <ele>1424.7966</ele>
        <time>2015-02-09T23:27:12.701000Z</time>
      </trkpt>
      <trkpt lat="38.91229" lon="111.85066">
        <ele>1425.3112</ele>
        <time>2015-02-09T23:27:16.152000Z</time>
      </trkpt>
      <trkpt lat="38.91233" lon="111.85079">
        <ele>1425.4827</ele>
        <time>2015-02-09T23:27:19.603000Z</time>
      </trkpt>
      <trkpt lat="38.91237" lon="111.85094">
        <ele>1425.6034</ele>
        <time>2015-02-09T23:27:23.054000Z</time>
      </trkpt>
      <trkpt lat="38.912388" lon="111.85105">
        <ele>1425.9011</ele>
        <time>2015-02-09T23:27:26.505000Z</time>
      </trkpt>
      <trkpt lat="38.912403" lon="111.8512">
        <ele>1426.2289</ele>
        <time>2015-02-09T23:27:29.956000Z</time>
      </trkpt>
      <trkpt lat="38.912422" lon="111.85134">
        <ele>1426.2523</ele>
        <time>2015-02-09T23:27:33.407000Z</time>
      </trkpt>
      <trkpt lat="38.91245" lon="111.85148">
        <ele>1425.9205</ele>
        <time>2015-02-09T23:27:36.858000Z</time>
      </trkpt>
      <trkpt lat="38.91249" lon="111.85161">
        <ele>1425.5262</ele>
        <time>2015-02-09T23:27:40.309000Z</time>
      </trkpt>
      <trkpt lat="38.912518" lon="111.85176">
        <ele>1425.3242</ele>
        <time>2015-02-09T23:27:43.760000Z</time>
      </trkpt>
      <trkpt lat="38.91254" lon="111.851906">
        <ele>1425.2847</ele>
        <time>2015-02-09T23:27:47.211000Z</time>
      </trkpt>
      <trkpt lat="38.912582" lon="111.852036">
        <ele>1425.3125</ele>
        <time>2015-02-09T23:27:50.662000Z</time>
      </trkpt>
      <trkpt lat="38.912617" lon="111.85217">
        <ele>1425.4829</ele>
        <time>2015-02-09T23:27:54.113000Z</time>
      </trkpt>
      <trkpt lat="38.912647" lon="111.8523">
        <ele>1425.9972</ele>
        <time>2015-02-09T23:27:57.564000Z</time>
      </trkpt>
      <trkpt lat="38.91267" lon="111.85245">
        <ele>1426.7296</ele>
        <time>2015-02-09T23:28:01.015000Z</time>
      </trkpt>
      <trkpt lat="38.9127" lon="111.85259">
        <ele>1427.272</ele>
        <time>2015-02-09T23:28:04.466000Z</time>
      </trkpt>
      <trkpt lat="38.91274" lon="111.85274">
        <ele>1427.4712</ele>
        <time>2015-02-09T23:28:07.917000Z</time>
      </trkpt>
      <trkpt lat="38.912766" lon="111.85288">
        <ele>1427.3282</ele>
        <time>2015-02-09T23:28:11.368000Z</time>
      </trkpt>
      <trkpt lat="38.912796" lon="111.85303">
        <ele>1426.908</ele>
        <time>2015-02-09T23:28:14.819000Z</time>
      </trkpt>
      <trkpt lat="38.912827" lon="111.853165">
        <ele>1426.4945</ele>
        <time>2015-02-09T23:28:18.270000Z</time>
      </trkpt>
      <trkpt lat="38.912865" lon="111.85331">
        <ele>1426.3033</ele>
        <time>2015-02-09T23:28:21.721000Z</time>
      </trkpt>
      <trkpt lat="38.912884" lon="111.853424">
        <ele>1426.2775</ele>
        <time>2015-02-09T23:28:25.172000Z</time>
      </trkpt>
      <trkpt lat="38.91291" lon="111.85354">
        <ele>1426.3124</ele>
        <time>2015-02-09T23:28:28.623000Z</time>
      </trkpt>
      <trkpt lat="38.912975" lon="111.853645">
        <ele>1426.3461</ele>
        <time>2015-02-09T23:28:32.074000Z</time>
      </trkpt>
      <trkpt lat="38.91305" lon="111.85372">
        <ele>1426.4996</ele>
        <time>2015-02-09T23:28:35.525000Z</time>
      </trkpt>
      <trkpt lat="38.91305" lon="111.85372">
        <ele>1426.8615</ele>
        <time>2015-02-09T23:28:38.976000Z</time>
      </trkpt>
      <trkpt lat="38.913063" lon="111.85384">
        <ele>1427.3662</ele>
        <time>2015-02-09T23:28:42.427000Z</time>
      </trkpt>
      <trkpt lat="38.913456" lon="111.85469">
        <ele>1431.3252</ele>
        <time>2015-02-09T23:28:45.878000Z</time>
      </trkpt>
      <trkpt lat="38.913456" lon="111.85469">
        <ele>1430.8868</ele>
        <time>2015-02-09T23:28:49.329000Z</time>
      </trkpt>
      <trkpt lat="38.91334" lon="111.854774">
        <ele>1430.3943</ele>
        <time>2015-02-09T23:28:52.780000Z</time>
      </trkpt>
      <trkpt lat="38.91332" lon="111.854774">
        <ele>1430.4633</ele>
        <time>2015-02-09T23:28:56.231000Z</time>
      </trkpt>
      <trkpt lat="38.913223" lon="111.8548">
        <ele>1431.2122</ele>
        <time>2015-02-09T23:28:59.682000Z</time>
      </trkpt>
      <trkpt lat="38.913116" lon="111.85486">
        <ele>1432.17</ele>
        <time>2015-02-09T23:29:03.133000Z</time>
      </trkpt>
      <trkpt lat="38.91303" lon="111.85496">
        <ele>1432.9331</ele>
        <time>2015-02-09T23:29:06.584000Z</time>
      </trkpt>
      <trkpt lat="38.91303" lon="111.85496">
        <ele>1433.3721</ele>
        <time>2015-02-09T23:29:10.035000Z</time>
      </trkpt>
      <trkpt lat="38.91297" lon="111.85507">
        <ele>1433.4847</ele>
        <time>2015-02-09T23:29:13.486000Z</time>
      </trkpt>
      <trkpt lat="38.91292" lon="111.8552">
        <ele>1433.1681</ele>
        <time>2015-02-09T23:29:16.937000Z</time>
      </trkpt>
      <trkpt lat="38.912853" lon="111.85532">
        <ele>1432.3859</ele>
        <time>2015-02-09T23:29:20.388000Z</time>
      </trkpt>
      <trkpt lat="38.912796" lon="111.85542">
        <ele>1431.3352</ele>
        <time>2015-02-09T23:29:23.839000Z</time>
      </trkpt>
      <trkpt lat="38.91275" lon="111.85552">
        <ele>1430.256</ele>
        <time>2015-02-09T23:29:27.290000Z</time>
      </trkpt>
      <trkpt lat="38.9127" lon="111.855644">
        <ele>1429.4675</ele>
        <time>2015-02-09T23:29:30.741000Z</time>
      </trkpt>
      <trkpt lat="38.91265" lon="111.85575">
        <ele>1429.182</ele>
        <time>2015-02-09T23:29:34.192000Z</time>
      </trkpt>
      <trkpt lat="38.912594" lon="111.85585">
        <ele>1429.3302</ele>
        <time>2015-02-09T23:29:37.643000Z</time>
      </trkpt>
      <trkpt lat="38.91255" lon="111.85596">
        <ele>1429.779</ele>
        <time>2015-02-09T23:29:41.094000Z</time>
      </trkpt>
      <trkpt lat="38.912495" lon="111.85609">
        <ele>1430.3506</ele>
        <time>2015-02-09T23:29:44.545000Z</time>
      </trkpt>
      <trkpt lat="38.912453" lon="111.85619">
        <ele>1431.323</ele>
        <time>2015-02-09T23:29:47.996000Z</time>
      </trkpt>
      <trkpt lat="38.91241" lon="111.8563">
        <ele>1432.7976</ele>
        <time>2015-02-09T23:29:51.447000Z</time>
      </trkpt>
      <trkpt lat="38.912365" lon="111.85641">
        <ele>1434.182</ele>
        <time>2015-02-09T23:29:54.898000Z</time>
      </trkpt>
      <trkpt lat="38.912334" lon="111.85654">
        <ele>1435.059</ele>
        <time>2015-02-09T23:29:58.349000Z</time>
      </trkpt>
      <trkpt lat="38.9123" lon="111.85665">
        <ele>1435.1857</ele>
        <time>2015-02-09T23:30:01.800000Z</time>
      </trkpt>
      <trkpt lat="38.91226" lon="111.856766">
        <ele>1434.5192</ele>
        <time>2015-02-09T23:30:05.251000Z</time>
      </trkpt>
      <trkpt lat="38.91221" lon="111.85688">
        <ele>1433.8438</ele>
        <time>2015-02-09T23:30:08.702000Z</time>
      </trkpt>
      <trkpt lat="38.912167" lon="111.857">
        <ele>1433.9199</ele>
        <time>2015-02-09T23:30:12.153000Z</time>
      </trkpt>
      <trkpt lat="38.91211" lon="111.85711">
        <ele>1434.4255</ele>
        <time>2015-02-09T23:30:15.604000Z</time>
      </trkpt>
      <trkpt lat="38.91206" lon="111.85723">
        <ele>1434.8044</ele>
        <time>2015-02-09T23:30:19.055000Z</time>
      </trkpt>
      <trkpt lat="38.912003" lon="111.857346">
        <ele>1435.0632</ele>
        <time>2015-02-09T23:30:22.506000Z</time>
      </trkpt>
      <trkpt lat="38.911953" lon="111.857475">
        <ele>1435.426</ele>
        <time>2015-02-09T23:30:25.957000Z</time>
      </trkpt>
      <trkpt lat="38.911892" lon="111.8576">
        <ele>1435.8812</ele>
        <time>2015-02-09T23:30:29.408000Z</time>
      </trkpt>
      <trkpt lat="38.91184" lon="111.8577">
        <ele>1436.3965</ele>
        <time>2015-02-09T23:30:32.859000Z</time>
      </trkpt>
      <trkpt lat="38.911793" lon="111.85781">
        <ele>1436.9103</ele>
        <time>2015-02-09T23:30:36.310000Z</time>
      </trkpt>
      <trkpt lat="38.911736" lon="111.85795">
        <ele>1437.288</ele>
        <time>2015-02-09T23:30:39.761000Z</time>
      </trkpt>
      <trkpt lat="38.91169" lon="111.858055">
        <ele>1437.4255</ele>
        <time>2015-02-09T23:30:43.212000Z</time>
      </trkpt>
      <trkpt lat="38.911644" lon="111.85816">
        <ele>1437.4214</ele>
        <time>2015-02-09T23:30:46.663000Z</time>
      </trkpt>
      <trkpt lat="38.911606" lon="111.85827">
        <ele>1437.3792</ele>
        <time>2015-02-09T23:30:50.114000Z</time>
      </trkpt>
      <trkpt lat="38.911556" lon="111.85837">
        <ele>1437.3485</ele>
        <time>2015-02-09T23:30:53.565000Z</time>
      </trkpt>
      <trkpt lat="38.91151" lon="111.858475">
        <ele>1437.3375</ele>
        <time>2015-02-09T23:30:57.016000Z</time>
      </trkpt>
      <trkpt lat="38.911446" lon="111.85861">
        <ele>1437.6143</ele>
        <time>2015-02-09T23:31:00.467000Z</time>
      </trkpt>
      <trkpt lat="38.911404" lon="111.85872">
        <ele>1438.4757</ele>
        <time>2015-02-09T23:31:03.918000Z</time>
      </trkpt>
      <trkpt lat="38.91135" lon="111.85885">
        <ele>1439.7152</ele>
        <time>2015-02-09T23:31:07.369000Z</time>
      </trkpt>
      <trkpt lat="38.91129" lon="111.85896">
        <ele>1440.7959</ele>
        <time>2015-02-09T23:31:10.820000Z</time>
      </trkpt>
      <trkpt lat="38.91124" lon="111.85907">
        <ele>1441.1173</ele>
        <time>2015-02-09T23:31:14.271000Z</time>
      </trkpt>
      <trkpt lat="38.911198" lon="111.8592">
        <ele>1440.5391</ele>
        <time>2015-02-09T23:31:17.722000Z</time>
      </trkpt>
      <trkpt lat="38.911156" lon="111.8593">
        <ele>1439.8744</ele>
        <time>2015-02-09T23:31:21.173000Z</time>
      </trkpt>
      <trkpt lat="38.911118" lon="111.85941">
        <ele>1439.7954</ele>
        <time>2015-02-09T23:31:24.624000Z</time>
      </trkpt>
      <trkpt lat="38.91107" lon="111.85953">
        <ele>1439.9254</ele>
        <time>2015-02-09T23:31:28.075000Z</time>
      </trkpt>
      <trkpt lat="38.91102" lon="111.85963">
        <ele>1439.7897</ele>
        <time>2015-02-09T23:31:31.526000Z</time>
      </trkpt>
      <trkpt lat="38.91094" lon="111.859726">
        <ele>1439.5123</ele>
        <time>2015-02-09T23:31:34.977000Z</time>
      </trkpt>
      <trkpt lat="38.910896" lon="111.85986">
        <ele>1439.6189</ele>
        <time>2015-02-09T23:31:38.428000Z</time>
      </trkpt>
      <trkpt lat="38.91086" lon="111.85998">
        <ele>1440.4281</ele>
        <time>2015-02-09T23:31:41.879000Z</time>
      </trkpt>
      <trkpt lat="38.910816" lon="111.86011">
        <ele>1441.6769</ele>
        <time>2015-02-09T23:31:45.330000Z</time>
      </trkpt>
      <trkpt lat="38.910767" lon="111.86022">
        <ele>1442.9176</ele>
        <time>2015-02-09T23:31:48.781000Z</time>
      </trkpt>
      <trkpt lat="38.91073" lon="111.860344">
        <ele>1444.0272</ele>
        <time>2015-02-09T23:31:52.232000Z</time>
      </trkpt>
      <trkpt lat="38.910675" lon="111.86045">
        <ele>1444.9022</ele>
        <time>2015-02-09T23:31:55.683000Z</time>
      </trkpt>
      <trkpt lat="38.910614" lon="111.86055">
        <ele>1445.3822</ele>
        <time>2015-02-09T23:31:59.134000Z</time>
      </trkpt>
      <trkpt lat="38.910557" lon="111.86066">
        <ele>1445.4938</ele>
        <time>2015-02-09T23:32:02.585000Z</time>
      </trkpt>
      <trkpt lat="38.910507" lon="111.86076">
        <ele>1445.441</ele>
        <time>2015-02-09T23:32:06.036000Z</time>
      </trkpt>
      <trkpt lat="38.91046" lon="111.86087">
        <ele>1445.3695</ele>
        <time>2015-02-09T23:32:09.487000Z</time>
      </trkpt>
      <trkpt lat="38.9104" lon="111.86099">
        <ele>1445.0544</ele>
        <time>2015-02-09T23:32:12.938000Z</time>
      </trkpt>
      <trkpt lat="38.91035" lon="111.86109">
        <ele>1444.1876</ele>
        <time>2015-02-09T23:32:16.389000Z</time>
      </trkpt>
      <trkpt lat="38.9103" lon="111.86123">
        <ele>1443.0934</ele>
        <time>2015-02-09T23:32:19.840000Z</time>
      </trkpt>
      <trkpt lat="38.91025" lon="111.86133">
        <ele>1442.3793</ele>
        <time>2015-02-09T23:32:23.291000Z</time>
      </trkpt>
      <trkpt lat="38.91021" lon="111.861435">
        <ele>1442.154</ele>
        <time>2015-02-09T23:32:26.742000Z</time>
      </trkpt>
      <trkpt lat="38.910156" lon="111.861534">
        <ele>1442.3264</ele>
        <time>2015-02-09T23:32:30.193000Z</time>
      </trkpt>
      <trkpt lat="38.9101" lon="111.86167">
        <ele>1443.0525</ele>
        <time>2015-02-09T23:32:33.644000Z</time>
      </trkpt>
      <trkpt lat="38.910038" lon="111.8618">
        <ele>1444.1995</ele>
        <time>2015-02-09T23:32:37.095000Z</time>
      </trkpt>
      <trkpt lat="38.90997" lon="111.86193">
        <ele>1445.546</ele>
        <time>2015-02-09T23:32:40.546000Z</time>
      </trkpt>
      <trkpt lat="38.909904" lon="111.862045">
        <ele>1446.9998</ele>
        <time>2015-02-09T23:32:43.997000Z</time>
      </trkpt>
      <trkpt lat="38.90984" lon="111.86217">
        <ele>1448.1238</ele>
        <time>2015-02-09T23:32:47.448000Z</time>
      </trkpt>
      <trkpt lat="38.909786" lon="111.86229">
        <ele>1448.5548</ele>
        <time>2015-02-09T23:32:50.899000Z</time>
      </trkpt>
      <trkpt lat="38.909737" lon="111.8624">
        <ele>1448.4204</ele>
        <time>2015-02-09T23:32:54.350000Z</time>
      </trkpt>
      <trkpt lat="38.90969" lon="111.8625">
        <ele>1447.9407</ele>
        <time>2015-02-09T23:32:57.801000Z</time>
      </trkpt>
      <trkpt lat="38.90964" lon="111.86261">
        <ele>1447.7563</ele>
        <time>2015-02-09T23:33:01.252000Z</time>
      </trkpt>
      <trkpt lat="38.90959" lon="111.86272">
        <ele>1448.2664</ele>
        <time>2015-02-09T23:33:04.703000Z</time>
      </trkpt>
      <trkpt lat="38.909527" lon="111.86284">
        <ele>1448.9788</ele>
        <time>2015-02-09T23:33:08.154000Z</time>
      </trkpt>
      <trkpt lat="38.90947" lon="111.86294">
        <ele>1449.3691</ele>
        <time>2015-02-09T23:33:11.605000Z</time>
      </trkpt>
      <trkpt lat="38.9094" lon="111.86307">
        <ele>1449.3215</ele>
        <time>2015-02-09T23:33:15.056000Z</time>
      </trkpt>
      <trkpt lat="38.909344" lon="111.86317">
        <ele>1448.7804</ele>
        <time>2015-02-09T23:33:18.507000Z</time>
      </trkpt>
      <trkpt lat="38.909283" lon="111.86328">
        <ele>1447.9928</ele>
        <time>2015-02-09T23:33:21.958000Z</time>
      </trkpt>
      <trkpt lat="38.909218" lon="111.86338">
        <ele>1447.4166</ele>
        <time>2015-02-09T23:33:25.409000Z</time>
      </trkpt>
      <trkpt lat="38.909153" lon="111.863495">
        <ele>1447.2078</ele>
        <time>2015-02-09T23:33:28.860000Z</time>
      </trkpt>
      <trkpt lat="38.909103" lon="111.863594">
        <ele>1447.2148</ele>
        <time>2015-02-09T23:33:32.311000Z</time>
      </trkpt>
      <trkpt lat="38.909054" lon="111.86369">
        <ele>1447.2797</ele>
        <time>2015-02-09T23:33:35.762000Z</time>
      </trkpt>
      <trkpt lat="38.908993" lon="111.86382">
        <ele>1447.6028</ele>
        <time>2015-02-09T23:33:39.213000Z</time>
      </trkpt>
      <trkpt lat="38.908936" lon="111.86393">
        <ele>1448.3392</ele>
        <time>2015-02-09T23:33:42.664000Z</time>
      </trkpt>
      <trkpt lat="38.908875" lon="111.86405">
        <ele>1448.801</ele>
        <time>2015-02-09T23:33:46.115000Z</time>
      </trkpt>
      <trkpt lat="38.90882" lon="111.86417">
        <ele>1448.4264</ele>
        <time>2015-02-09T23:33:49.566000Z</time>
      </trkpt>
      <trkpt lat="38.908764" lon="111.86427">
        <ele>1447.7368</ele>
        <time>2015-02-09T23:33:53.017000Z</time>
      </trkpt>
      <trkpt lat="38.90871" lon="111.86441">
        <ele>1447.325</ele>
        <time>2015-02-09T23:33:56.468000Z</time>
      </trkpt>
      <trkpt lat="38.908657" lon="111.86455">
        <ele>1447.35</ele>
        <time>2015-02-09T23:33:59.919000Z</time>
      </trkpt>
      <trkpt lat="38.90861" lon="111.86465">
        <ele>1447.6039</ele>
        <time>2015-02-09T23:34:03.370000Z</time>
      </trkpt>
      <trkpt lat="38.908543" lon="111.864746">
        <ele>1447.6699</ele>
        <time>2015-02-09T23:34:06.821000Z</time>
      </trkpt>
      <trkpt lat="38.908432" lon="111.86477">
        <ele>1447.3708</ele>
        <time>2015-02-09T23:34:10.272000Z</time>
      </trkpt>
      <trkpt lat="38.908344" lon="111.86472">
        <ele>1446.8712</ele>
        <time>2015-02-09T23:34:13.723000Z</time>
      </trkpt>
      <trkpt lat="38.90831" lon="111.864586">
        <ele>1446.3043</ele>
        <time>2015-02-09T23:34:17.174000Z</time>
      </trkpt>
      <trkpt lat="38.908264" lon="111.864456">
        <ele>1445.2117</ele>
        <time>2015-02-09T23:34:20.625000Z</time>
      </trkpt>
      <trkpt lat="38.908226" lon="111.86436">
        <ele>1443.113</ele>
        <time>2015-02-09T23:34:24.076000Z</time>
      </trkpt>
      <trkpt lat="38.90819" lon="111.864235">
        <ele>1440.7816</ele>
        <time>2015-02-09T23:34:27.527000Z</time>
      </trkpt>
      <trkpt lat="38.908165" lon="111.86411">
        <ele>1439.3501</ele>
        <time>2015-02-09T23:34:30.978000Z</time>
      </trkpt>
      <trkpt lat="38.908115" lon="111.86399">
        <ele>1438.9379</ele>
        <time>2015-02-09T23:34:34.429000Z</time>
      </trkpt>
      <trkpt lat="38.908073" lon="111.86385">
        <ele>1439.0358</ele>
        <time>2015-02-09T23:34:37.880000Z</time>
      </trkpt>
      <trkpt lat="38.90803" lon="111.86374">
        <ele>1439.0886</ele>
        <time>2015-02-09T23:34:41.331000Z</time>
      </trkpt>
      <trkpt lat="38.907974" lon="111.86363">
        <ele>1438.8446</ele>
        <time>2015-02-09T23:34:44.782000Z</time>
      </trkpt>
      <trkpt lat="38.907917" lon="111.863525">
        <ele>1438.5077</ele>
        <time>2015-02-09T23:34:48.233000Z</time>
      </trkpt>
      <trkpt lat="38.907875" lon="111.86342">
        <ele>1438.324</ele>
        <time>2015-02-09T23:34:51.684000Z</time>
      </trkpt>
      <trkpt lat="38.907825" lon="111.86328">
        <ele>1438.5582</ele>
        <time>2015-02-09T23:34:55.135000Z</time>
      </trkpt>
      <trkpt lat="38.907776" lon="111.86318">
        <ele>1439.2986</ele>
        <time>2015-02-09T23:34:58.586000Z</time>
      </trkpt>
      <trkpt lat="38.907722" lon="111.86305">
        <ele>1440.3413</ele>
        <time>2015-02-09T23:35:02.037000Z</time>
      </trkpt>
      <trkpt lat="38.907692" lon="111.862946">
        <ele>1441.4265</ele>
        <time>2015-02-09T23:35:05.488000Z</time>
      </trkpt>
      <trkpt lat="38.907658" lon="111.86283">
        <ele>1442.3599</ele>
        <time>2015-02-09T23:35:08.939000Z</time>
      </trkpt>
      <trkpt lat="38.907604" lon="111.8627">
        <ele>1443.1467</ele>
        <time>2015-02-09T23:35:12.390000Z</time>
      </trkpt>
      <trkpt lat="38.907555" lon="111.8626">
        <ele>1443.8667</ele>
        <time>2015-02-09T23:35:15.841000Z</time>
      </trkpt>
      <trkpt lat="38.907505" lon="111.86247">
        <ele>1444.4602</ele>
        <time>2015-02-09T23:35:19.292000Z</time>
      </trkpt>
      <trkpt lat="38.90746" lon="111.86235">
        <ele>1444.9574</ele>
        <time>2015-02-09T23:35:22.743000Z</time>
      </trkpt>
      <trkpt lat="38.907425" lon="111.86221">
        <ele>1445.0239</ele>
        <time>2015-02-09T23:35:26.194000Z</time>
      </trkpt>
      <trkpt lat="38.90738" lon="111.86208">
        <ele>1444.4204</ele>
        <time>2015-02-09T23:35:29.645000Z</time>
      </trkpt>
      <trkpt lat="38.90734" lon="111.861946">
        <ele>1443.8093</ele>
        <time>2015-02-09T23:35:33.096000Z</time>
      </trkpt>
      <trkpt lat="38.907276" lon="111.86182">
        <ele>1443.7778</ele>
        <time>2015-02-09T23:35:36.547000Z</time>
      </trkpt>
      <trkpt lat="38.90721" lon="111.861725">
        <ele>1444.0664</ele>
        <time>2015-02-09T23:35:39.998000Z</time>
      </trkpt>
      <trkpt lat="38.90713" lon="111.86162">
        <ele>1444.2925</ele>
        <time>2015-02-09T23:35:43.449000Z</time>
      </trkpt>
      <trkpt lat="38.907066" lon="111.86151">
        <ele>1444.6565</ele>
        <time>2015-02-09T23:35:46.900000Z</time>
      </trkpt>
      <trkpt lat="38.906994" lon="111.861404">
        <ele>1445.516</ele>
        <time>2015-02-09T23:35:50.351000Z</time>
      </trkpt>
      <trkpt lat="38.906918" lon="111.86133">
        <ele>1446.591</ele>
        <time>2015-02-09T23:35:53.802000Z</time>
      </trkpt>
      <trkpt lat="38.906837" lon="111.86125">
        <ele>1447.1544</ele>
        <time>2015-02-09T23:35:57.253000Z</time>
      </trkpt>
      <trkpt lat="38.90675" lon="111.86117">
        <ele>1446.8777</ele>
        <time>2015-02-09T23:36:00.704000Z</time>
      </trkpt>
      <trkpt lat="38.906662" lon="111.86107">
        <ele>1445.9767</ele>
        <time>2015-02-09T23:36:04.155000Z</time>
      </trkpt>
      <trkpt lat="38.906574" lon="111.86099">
        <ele>1444.9838</ele>
        <time>2015-02-09T23:36:07.606000Z</time>
      </trkpt>
      <trkpt lat="38.906464" lon="111.86092">
        <ele>1444.2177</ele>
        <time>2015-02-09T23:36:11.057000Z</time>
      </trkpt>
      <trkpt lat="38.906384" lon="111.86086">
        <ele>1443.6683</ele>
        <time>2015-02-09T23:36:14.508000Z</time>
      </trkpt>
      <trkpt lat="38.906307" lon="111.86079">
        <ele>1443.6118</ele>
        <time>2015-02-09T23:36:17.959000Z</time>
      </trkpt>
      <trkpt lat="38.906223" lon="111.86071">
        <ele>1444.514</ele>
        <time>2015-02-09T23:36:21.410000Z</time>
      </trkpt>
      <trkpt lat="38.90614" lon="111.860664">
        <ele>1446.1353</ele>
        <time>2015-02-09T23:36:24.861000Z</time>
      </trkpt>
      <trkpt lat="38.90604" lon="111.86064">
        <ele>1447.6295</ele>
        <time>2015-02-09T23:36:28.312000Z</time>
      </trkpt>
      <trkpt lat="38.905933" lon="111.8606">
        <ele>1448.4294</ele>
        <time>2015-02-09T23:36:31.763000Z</time>
      </trkpt>
      <trkpt lat="38.90582" lon="111.86057">
        <ele>1448.6052</ele>
        <time>2015-02-09T23:36:35.214000Z</time>
      </trkpt>
      <trkpt lat="38.905716" lon="111.860565">
        <ele>1448.6476</ele>
        <time>2015-02-09T23:36:38.665000Z</time>
      </trkpt>
      <trkpt lat="38.905617" lon="111.86056">
        <ele>1448.8855</ele>
        <time>2015-02-09T23:36:42.116000Z</time>
      </trkpt>
      <trkpt lat="38.905502" lon="111.86055">
        <ele>1448.4995</ele>
        <time>2015-02-09T23:36:45.567000Z</time>
      </trkpt>
      <trkpt lat="38.9054" lon="111.86051">
        <ele>1446.8616</ele>
        <time>2015-02-09T23:36:49.018000Z</time>
      </trkpt>
      <trkpt lat="38.905308" lon="111.860466">
        <ele>1445.049</ele>
        <time>2015-02-09T23:36:52.469000Z</time>
      </trkpt>
      <trkpt lat="38.90522" lon="111.8604">
        <ele>1444.1526</ele>
        <time>2015-02-09T23:36:55.920000Z</time>
      </trkpt>
      <trkpt lat="38.905117" lon="111.86034">
        <ele>1443.9951</ele>
        <time>2015-02-09T23:36:59.371000Z</time>
      </trkpt>
      <trkpt lat="38.905037" lon="111.860275">
        <ele>1444.132</ele>
        <time>2015-02-09T23:37:02.822000Z</time>
      </trkpt>
      <trkpt lat="38.90497" lon="111.86019">
        <ele>1444.2798</ele>
        <time>2015-02-09T23:37:06.273000Z</time>
      </trkpt>
      <trkpt lat="38.90489" lon="111.86011">
        <ele>1444.4901</ele>
        <time>2015-02-09T23:37:09.724000Z</time>
      </trkpt>
      <trkpt lat="38.904804" lon="111.86004">
        <ele>1445.2767</ele>
        <time>2015-02-09T23:37:13.175000Z</time>
      </trkpt>
      <trkpt lat="38.904728" lon="111.85996">
        <ele>1446.7144</ele>
        <time>2015-02-09T23:37:16.626000Z</time>
      </trkpt>
      <trkpt lat="38.90466" lon="111.85987">
        <ele>1448.1241</ele>
        <time>2015-02-09T23:37:20.077000Z</time>
      </trkpt>
      <trkpt lat="38.90459" lon="111.85976">
        <ele>1449.1687</ele>
        <time>2015-02-09T23:37:23.528000Z</time>
      </trkpt>
      <trkpt lat="38.904537" lon="111.85962">
        <ele>1450.3612</ele>
        <time>2015-02-09T23:37:26.979000Z</time>
      </trkpt>
      <trkpt lat="38.904514" lon="111.859474">
        <ele>1452.0046</ele>
        <time>2015-02-09T23:37:30.430000Z</time>
      </trkpt>
      <trkpt lat="38.9045" lon="111.85932">
        <ele>1453.5712</ele>
        <time>2015-02-09T23:37:33.881000Z</time>
      </trkpt>
      <trkpt lat="38.904488" lon="111.85918">
        <ele>1454.4191</ele>
        <time>2015-02-09T23:37:37.332000Z</time>
      </trkpt>
      <trkpt lat="38.904465" lon="111.85905">
        <ele>1454.6104</ele>
        <time>2015-02-09T23:37:40.783000Z</time>
      </trkpt>
      <trkpt lat="38.90449" lon="111.8589">
        <ele>1454.5126</ele>
        <time>2015-02-09T23:37:44.234000Z</time>
      </trkpt>
      <trkpt lat="38.904503" lon="111.85876">
        <ele>1453.9701</ele>
        <time>2015-02-09T23:37:47.685000Z</time>
      </trkpt>
      <trkpt lat="38.904507" lon="111.858635">
        <ele>1452.6838</ele>
        <time>2015-02-09T23:37:51.136000Z</time>
      </trkpt>
      <trkpt lat="38.904503" lon="111.8585">
        <ele>1450.7861</ele>
        <time>2015-02-09T23:37:54.587000Z</time>
      </trkpt>
      <trkpt lat="38.904522" lon="111.85838">
        <ele>1448.8195</ele>
        <time>2015-02-09T23:37:58.038000Z</time>
      </trkpt>
      <trkpt lat="38.904526" lon="111.85825">
        <ele>1447.3286</ele>
        <time>2015-02-09T23:38:01.489000Z</time>
      </trkpt>
      <trkpt lat="38.904526" lon="111.85812">
        <ele>1446.5118</ele>
        <time>2015-02-09T23:38:04.940000Z</time>
      </trkpt>
      <trkpt lat="38.904526" lon="111.85801">
        <ele>1446.1843</ele>
        <time>2015-02-09T23:38:08.391000Z</time>
      </trkpt>
      <trkpt lat="38.90454" lon="111.85786">
        <ele>1446.1707</ele>
        <time>2015-02-09T23:38:11.842000Z</time>
      </trkpt>
      <trkpt lat="38.904552" lon="111.857735">
        <ele>1445.9774</ele>
        <time>2015-02-09T23:38:15.293000Z</time>
      </trkpt>
      <trkpt lat="38.904564" lon="111.85761">
        <ele>1445.324</ele>
        <time>2015-02-09T23:38:18.744000Z</time>
      </trkpt>
      <trkpt lat="38.90458" lon="111.85746">
        <ele>1444.6113</ele>
        <time>2015-02-09T23:38:22.195000Z</time>
      </trkpt>
      <trkpt lat="38.904583" lon="111.857346">
        <ele>1444.2617</ele>
        <time>2015-02-09T23:38:25.646000Z</time>
      </trkpt>
      <trkpt lat="38.90459" lon="111.85722">
        <ele>1444.2018</ele>
        <time>2015-02-09T23:38:29.097000Z</time>
      </trkpt>
      <trkpt lat="38.904602" lon="111.8571">
        <ele>1444.3945</ele>
        <time>2015-02-09T23:38:32.548000Z</time>
      </trkpt>
      <trkpt lat="38.904617" lon="111.85699">
        <ele>1444.8125</ele>
        <time>2015-02-09T23:38:35.999000Z</time>
      </trkpt>
      <trkpt lat="38.904636" lon="111.856865">
        <ele>1445.2101</ele>
        <time>2015-02-09T23:38:39.450000Z</time>
      </trkpt>
      <trkpt lat="38.904655" lon="111.85674">
        <ele>1445.2518</ele>
        <time>2015-02-09T23:38:42.901000Z</time>
      </trkpt>
      <trkpt lat="38.904663" lon="111.85663">
        <ele>1444.9138</ele>
        <time>2015-02-09T23:38:46.352000Z</time>
      </trkpt>
      <trkpt lat="38.90467" lon="111.856514">
        <ele>1444.5098</ele>
        <time>2015-02-09T23:38:49.803000Z</time>
      </trkpt>
      <trkpt lat="38.90469" lon="111.85639">
        <ele>1443.8876</ele>
        <time>2015-02-09T23:38:53.254000Z</time>
      </trkpt>
      <trkpt lat="38.9047" lon="111.85627">
        <ele>1442.6287</ele>
        <time>2015-02-09T23:38:56.705000Z</time>
      </trkpt>
      <trkpt lat="38.90471" lon="111.85613">
        <ele>1441.0507</ele>
        <time>2015-02-09T23:39:00.156000Z</time>
      </trkpt>
      <trkpt lat="38.90472" lon="111.85599">
        <ele>1439.8286</ele>
        <time>2015-02-09T23:39:03.607000Z</time>
      </trkpt>
      <trkpt lat="38.904747" lon="111.85588">
        <ele>1439.221</ele>
        <time>2015-02-09T23:39:07.058000Z</time>
      </trkpt>
      <trkpt lat="38.904762" lon="111.85575">
        <ele>1438.9741</ele>
        <time>2015-02-09T23:39:10.509000Z</time>
      </trkpt>
      <trkpt lat="38.904774" lon="111.85563">
        <ele>1438.7057</ele>
        <time>2015-02-09T23:39:13.960000Z</time>
      </trkpt>
      <trkpt lat="38.904778" lon="111.85549">
        <ele>1438.4359</ele>
        <time>2015-02-09T23:39:17.411000Z</time>
      </trkpt>
      <trkpt lat="38.90478" lon="111.85536">
        <ele>1438.1714</ele>
        <time>2015-02-09T23:39:20.862000Z</time>
      </trkpt>
      <trkpt lat="38.904797" lon="111.85524">
        <ele>1437.7933</ele>
        <time>2015-02-09T23:39:24.313000Z</time>
      </trkpt>
      <trkpt lat="38.904823" lon="111.85513">
        <ele>1437.4463</ele>
        <time>2015-02-09T23:39:27.764000Z</time>
      </trkpt>
      <trkpt lat="38.904842" lon="111.85501">
        <ele>1437.4312</ele>
        <time>2015-02-09T23:39:31.215000Z</time>
      </trkpt>
      <trkpt lat="38.90486" lon="111.85488">
        <ele>1437.7747</ele>
        <time>2015-02-09T23:39:34.666000Z</time>
      </trkpt>
      <trkpt lat="38.904865" lon="111.854744">
        <ele>1438.1755</ele>
        <time>2015-02-09T23:39:38.117000Z</time>
      </trkpt>
      <trkpt lat="38.90486" lon="111.854614">
        <ele>1438.379</ele>
        <time>2015-02-09T23:39:41.568000Z</time>
      </trkpt>
      <trkpt lat="38.904873" lon="111.85449">
        <ele>1438.4178</ele>
        <time>2015-02-09T23:39:45.019000Z</time>
      </trkpt>
      <trkpt lat="38.904877" lon="111.85436">
        <ele>1438.5272</ele>
        <time>2015-02-09T23:39:48.470000Z</time>
      </trkpt>
      <trkpt lat="38.90488" lon="111.85423">
        <ele>1438.8545</ele>
        <time>2015-02-09T23:39:51.921000Z</time>
      </trkpt>
      <trkpt lat="38.90492" lon="111.854095">
        <ele>1439.2075</ele>
        <time>2015-02-09T23:39:55.372000Z</time>
      </trkpt>
      <trkpt lat="38.904938" lon="111.85398">
        <ele>1439.3798</ele>
        <time>2015-02-09T23:39:58.823000Z</time>
      </trkpt>
      <trkpt lat="38.904957" lon="111.85385">
        <ele>1439.4087</ele>
        <time>2015-02-09T23:40:02.274000Z</time>
      </trkpt>
      <trkpt lat="38.904972" lon="111.85373">
        <ele>1439.5195</ele>
        <time>2015-02-09T23:40:05.725000Z</time>
      </trkpt>
      <trkpt lat="38.904984" lon="111.85361">
        <ele>1439.9888</ele>
        <time>2015-02-09T23:40:09.176000Z</time>
      </trkpt>
      <trkpt lat="38.90498" lon="111.85345">
        <ele>1440.8424</ele>
        <time>2015-02-09T23:40:12.627000Z</time>
      </trkpt>
      <trkpt lat="38.90498" lon="111.853325">
        <ele>1441.7449</ele>
        <time>2015-02-09T23:40:16.078000Z</time>
      </trkpt>
      <trkpt lat="38.904987" lon="111.8532">
        <ele>1442.1802</ele>
        <time>2015-02-09T23:40:19.529000Z</time>
      </trkpt>
      <trkpt lat="38.904987" lon="111.85308">
        <ele>1441.9944</ele>
        <time>2015-02-09T23:40:22.980000Z</time>
      </trkpt>
      <trkpt lat="38.904984" lon="111.85297">
        <ele>1441.7307</ele>
        <time>2015-02-09T23:40:26.431000Z</time>
      </trkpt>
      <trkpt lat="38.904972" lon="111.852844">
        <ele>1441.8413</ele>
        <time>2015-02-09T23:40:29.882000Z</time>
      </trkpt>
      <trkpt lat="38.90497" lon="111.8527">
        <ele>1442.1378</ele>
        <time>2015-02-09T23:40:33.333000Z</time>
      </trkpt>
      <trkpt lat="38.904953" lon="111.852585">
        <ele>1442.3292</ele>
        <time>2015-02-09T23:40:36.784000Z</time>
      </trkpt>
      <trkpt lat="38.904934" lon="111.85243">
        <ele>1442.3887</ele>
        <time>2015-02-09T23:40:40.235000Z</time>
      </trkpt>
      <trkpt lat="38.904915" lon="111.85229">
        <ele>1442.1025</ele>
        <time>2015-02-09T23:40:43.686000Z</time>
      </trkpt>
      <trkpt lat="38.904892" lon="111.85217">
        <ele>1441.082</ele>
        <time>2015-02-09T23:40:47.137000Z</time>
      </trkpt>
      <trkpt lat="38.904842" lon="111.85205">
        <ele>1439.6079</ele>
        <time>2015-02-09T23:40:50.588000Z</time>
      </trkpt>
      <trkpt lat="38.9048" lon="111.851944">
        <ele>1438.3756</ele>
        <time>2015-02-09T23:40:54.039000Z</time>
      </trkpt>
      <trkpt lat="38.90476" lon="111.85184">
        <ele>1437.4749</ele>
        <time>2015-02-09T23:40:57.490000Z</time>
      </trkpt>
      <trkpt lat="38.904743" lon="111.85169">
        <ele>1436.6162</ele>
        <time>2015-02-09T23:41:00.941000Z</time>
      </trkpt>
      <trkpt lat="38.90471" lon="111.851585">
        <ele>1435.8331</ele>
        <time>2015-02-09T23:41:04.392000Z</time>
      </trkpt>
      <trkpt lat="38.904675" lon="111.85147">
        <ele>1435.3506</ele>
        <time>2015-02-09T23:41:07.843000Z</time>
      </trkpt>
      <trkpt lat="38.904625" lon="111.85134">
        <ele>1435.0729</ele>
        <time>2015-02-09T23:41:11.294000Z</time>
      </trkpt>
      <trkpt lat="38.904583" lon="111.851234">
        <ele>1434.7454</ele>
        <time>2015-02-09T23:41:14.745000Z</time>
      </trkpt>
      <trkpt lat="38.90454" lon="111.85113">
        <ele>1434.4402</ele>
        <time>2015-02-09T23:41:18.196000Z</time>
      </trkpt>
      <trkpt lat="38.904495" lon="111.85101">
        <ele>1434.304</ele>
        <time>2015-02-09T23:41:21.647000Z</time>
      </trkpt>
      <trkpt lat="38.904457" lon="111.85091">
        <ele>1434.703</ele>
        <time>2015-02-09T23:41:25.098000Z</time>
      </trkpt>
      <trkpt lat="38.90443" lon="111.85079">
        <ele>1435.8098</ele>
        <time>2015-02-09T23:41:28.549000Z</time>
      </trkpt>
      <trkpt lat="38.90439" lon="111.85065">
        <ele>1436.943</ele>
        <time>2015-02-09T23:41:32Z</time>
      </trkpt>
      <trkpt lat="38.90433" lon="111.85053">
        <ele>1437.6179</ele>
        <time>2015-02-09T23:41:35.451000Z</time>
      </trkpt>
      <trkpt lat="38.904285" lon="111.85041">
        <ele>1438.0585</ele>
        <time>2015-02-09T23:41:38.902000Z</time>
      </trkpt>
      <trkpt lat="38.90426" lon="111.850296">
        <ele>1438.1975</ele>
        <time>2015-02-09T23:41:42.353000Z</time>
      </trkpt>
      <trkpt lat="38.904205" lon="111.850174">
        <ele>1437.9205</ele>
        <time>2015-02-09T23:41:45.804000Z</time>
      </trkpt>
      <trkpt lat="38.904163" lon="111.850044">
        <ele>1437.3964</ele>
        <time>2015-02-09T23:41:49.255000Z</time>
      </trkpt>
      <trkpt lat="38.90412" lon="111.84994">
        <ele>1436.8251</ele>
        <time>2015-02-09T23:41:52.706000Z</time>
      </trkpt>
      <trkpt lat="38.904068" lon="111.8498">
        <ele>1436.2684</ele>
        <time>2015-02-09T23:41:56.157000Z</time>
      </trkpt>
      <trkpt lat="38.90401" lon="111.849686">
        <ele>1435.7567</ele>
        <time>2015-02-09T23:41:59.608000Z</time>
      </trkpt>
      <trkpt lat="38.90396" lon="111.84957">
        <ele>1435.3923</ele>
        <time>2015-02-09T23:42:03.059000Z</time>
      </trkpt>
      <trkpt lat="38.903904" lon="111.849464">
        <ele>1435.1259</ele>
        <time>2015-02-09T23:42:06.510000Z</time>
      </trkpt>
      <trkpt lat="38.903854" lon="111.84936">
        <ele>1434.6353</ele>
        <time>2015-02-09T23:42:09.961000Z</time>
      </trkpt>
      <trkpt lat="38.903812" lon="111.84926">
        <ele>1433.8098</ele>
        <time>2015-02-09T23:42:13.412000Z</time>
      </trkpt>
      <trkpt lat="38.903767" lon="111.84915">
        <ele>1432.9348</ele>
        <time>2015-02-09T23:42:16.863000Z</time>
      </trkpt>
      <trkpt lat="38.90371" lon="111.849045">
        <ele>1432.512</ele>
        <time>2015-02-09T23:42:20.314000Z</time>
      </trkpt>
      <trkpt lat="38.90366" lon="111.84894">
        <ele>1432.8375</ele>
        <time>2015-02-09T23:42:23.765000Z</time>
      </trkpt>
      <trkpt lat="38.903603" lon="111.84883">
        <ele>1433.5969</ele>
        <time>2015-02-09T23:42:27.216000Z</time>
      </trkpt>
      <trkpt lat="38.903553" lon="111.848724">
        <ele>1434.4897</ele>
        <time>2015-02-09T23:42:30.667000Z</time>
      </trkpt>
      <trkpt lat="38.903507" lon="111.848625">
        <ele>1435.4568</ele>
        <time>2015-02-09T23:42:34.118000Z</time>
      </trkpt>
      <trkpt lat="38.903454" lon="111.848526">
        <ele>1436.2059</ele>
        <time>2015-02-09T23:42:37.569000Z</time>
      </trkpt>
      <trkpt lat="38.903397" lon="111.848434">
        <ele>1436.77</ele>
        <time>2015-02-09T23:42:41.020000Z</time>
      </trkpt>
      <trkpt lat="38.903343" lon="111.848335">
        <ele>1437.4928</ele>
        <time>2015-02-09T23:42:44.471000Z</time>
      </trkpt>
      <trkpt lat="38.903286" lon="111.84824">
        <ele>1438.1519</ele>
        <time>2015-02-09T23:42:47.922000Z</time>
      </trkpt>
      <trkpt lat="38.903225" lon="111.848145">
        <ele>1438.4415</ele>
        <time>2015-02-09T23:42:51.373000Z</time>
      </trkpt>
      <trkpt lat="38.903156" lon="111.84804">
        <ele>1438.6099</ele>
        <time>2015-02-09T23:42:54.824000Z</time>
      </trkpt>
      <trkpt lat="38.903076" lon="111.84794">
        <ele>1439.3243</ele>
        <time>2015-02-09T23:42:58.275000Z</time>
      </trkpt>
      <trkpt lat="38.902996" lon="111.84783">
        <ele>1440.9961</ele>
        <time>2015-02-09T23:43:01.726000Z</time>
      </trkpt>
      <trkpt lat="38.902924" lon="111.84773">
        <ele>1442.9762</ele>
        <time>2015-02-09T23:43:05.177000Z</time>
      </trkpt>
      <trkpt lat="38.902855" lon="111.84763">
        <ele>1444.2651</ele>
        <time>2015-02-09T23:43:08.628000Z</time>
      </trkpt>
      <trkpt lat="38.902798" lon="111.847534">
        <ele>1444.5321</ele>
        <time>2015-02-09T23:43:12.079000Z</time>
      </trkpt>
      <trkpt lat="38.90273" lon="111.847435">
        <ele>1444.1096</ele>
        <time>2015-02-09T23:43:15.530000Z</time>
      </trkpt>
      <trkpt lat="38.902657" lon="111.84733">
        <ele>1443.5776</ele>
        <time>2015-02-09T23:43:18.981000Z</time>
      </trkpt>
      <trkpt lat="38.902588" lon="111.84721">
        <ele>1443.4362</ele>
        <time>2015-02-09T23:43:22.432000Z</time>
      </trkpt>
      <trkpt lat="38.90253" lon="111.84709">
        <ele>1443.5992</ele>
        <time>2015-02-09T23:43:25.883000Z</time>
      </trkpt>
      <trkpt lat="38.902473" lon="111.847">
        <ele>1443.6443</ele>
        <time>2015-02-09T23:43:29.334000Z</time>
      </trkpt>
      <trkpt lat="38.902416" lon="111.846886">
        <ele>1443.2172</ele>
        <time>2015-02-09T23:43:32.785000Z</time>
      </trkpt>
      <trkpt lat="38.90235" lon="111.8468">
        <ele>1442.0948</ele>
        <time>2015-02-09T23:43:36.236000Z</time>
      </trkpt>
      <trkpt lat="38.902283" lon="111.84671">
        <ele>1440.5842</ele>
        <time>2015-02-09T23:43:39.687000Z</time>
      </trkpt>
      <trkpt lat="38.902214" lon="111.846596">
        <ele>1439.4917</ele>
        <time>2015-02-09T23:43:43.138000Z</time>
      </trkpt>
      <trkpt lat="38.902145" lon="111.8465">
        <ele>1438.8242</ele>
        <time>2015-02-09T23:43:46.589000Z</time>
      </trkpt>
      <trkpt lat="38.90209" lon="111.8464">
        <ele>1437.8453</ele>
        <time>2015-02-09T23:43:50.040000Z</time>
      </trkpt>
      <trkpt lat="38.902023" lon="111.84629">
        <ele>1436.511</ele>
        <time>2015-02-09T23:43:53.491000Z</time>
      </trkpt>
      <trkpt lat="38.901962" lon="111.846176">
        <ele>1435.3721</ele>
        <time>2015-02-09T23:43:56.942000Z</time>
      </trkpt>
      <trkpt lat="38.90191" lon="111.84608">
        <ele>1434.9161</ele>
        <time>2015-02-09T23:44:00.393000Z</time>
      </trkpt>
      <trkpt lat="38.901844" lon="111.84598">
        <ele>1435.1334</ele>
        <time>2015-02-09T23:44:03.844000Z</time>
      </trkpt>
      <trkpt lat="38.901756" lon="111.84587">
        <ele>1435.5853</ele>
        <time>2015-02-09T23:44:07.295000Z</time>
      </trkpt>
      <trkpt lat="38.901676" lon="111.845764">
        <ele>1435.981</ele>
        <time>2015-02-09T23:44:10.746000Z</time>
      </trkpt>
      <trkpt lat="38.901596" lon="111.84567">
        <ele>1436.4261</ele>
        <time>2015-02-09T23:44:14.197000Z</time>
      </trkpt>
      <trkpt lat="38.901546" lon="111.84556">
        <ele>1436.904</ele>
        <time>2015-02-09T23:44:17.648000Z</time>
      </trkpt>
      <trkpt lat="38.901466" lon="111.84546">
        <ele>1437.2749</ele>
        <time>2015-02-09T23:44:21.099000Z</time>
      </trkpt>
      <trkpt lat="38.901386" lon="111.84535">
        <ele>1437.5557</ele>
        <time>2015-02-09T23:44:24.550000Z</time>
      </trkpt>
      <trkpt lat="38.90132" lon="111.84523">
        <ele>1437.9171</ele>
        <time>2015-02-09T23:44:28.001000Z</time>
      </trkpt>
      <trkpt lat="38.90126" lon="111.84514">
        <ele>1437.8326</ele>
        <time>2015-02-09T23:44:31.452000Z</time>
      </trkpt>
      <trkpt lat="38.901188" lon="111.84505">
        <ele>1436.8981</ele>
        <time>2015-02-09T23:44:34.903000Z</time>
      </trkpt>
      <trkpt lat="38.90112" lon="111.84495">
        <ele>1435.8049</ele>
        <time>2015-02-09T23:44:38.354000Z</time>
      </trkpt>
      <trkpt lat="38.90105" lon="111.84485">
        <ele>1435.3873</ele>
        <time>2015-02-09T23:44:41.805000Z</time>
      </trkpt>
      <trkpt lat="38.900993" lon="111.84475">
        <ele>1435.6407</ele>
        <time>2015-02-09T23:44:45.256000Z</time>
      </trkpt>
      <trkpt lat="38.900925" lon="111.84465">
        <ele>1436.2267</ele>
        <time>2015-02-09T23:44:48.707000Z</time>
      </trkpt>
      <trkpt lat="38.900867" lon="111.84455">
        <ele>1436.9893</ele>
        <time>2015-02-09T23:44:52.158000Z</time>
      </trkpt>
      <trkpt lat="38.900787" lon="111.84447">
        <ele>1438.0663</ele>
        <time>2015-02-09T23:44:55.609000Z</time>
      </trkpt>
      <trkpt lat="38.900723" lon="111.844376">
        <ele>1439.309</ele>
        <time>2015-02-09T23:44:59.060000Z</time>
      </trkpt>
      <trkpt lat="38.900723" lon="111.844376">
        <ele>1440.213</ele>
        <time>2015-02-09T23:45:02.511000Z</time>
      </trkpt>
      <trkpt lat="38.90066" lon="111.84427">
        <ele>1440.4005</ele>
        <time>2015-02-09T23:45:05.962000Z</time>
      </trkpt>
      <trkpt lat="38.90059" lon="111.844154">
        <ele>1440.028</ele>
        <time>2015-02-09T23:45:09.413000Z</time>
      </trkpt>
      <trkpt lat="38.90053" lon="111.84406">
        <ele>1439.6943</ele>
        <time>2015-02-09T23:45:12.864000Z</time>
      </trkpt>
      <trkpt lat="38.90053" lon="111.84406">
        <ele>1439.8057</ele>
        <time>2015-02-09T23:45:16.315000Z</time>
      </trkpt>
      <trkpt lat="38.90047" lon="111.84395">
        <ele>1440.2607</ele>
        <time>2015-02-09T23:45:19.766000Z</time>
      </trkpt>
      <trkpt lat="38.900406" lon="111.84386">
        <ele>1440.5509</ele>
        <time>2015-02-09T23:45:23.217000Z</time>
      </trkpt>
      <trkpt lat="38.900356" lon="111.84376">
        <ele>1440.542</ele>
        <time>2015-02-09T23:45:26.668000Z</time>
      </trkpt>
      <trkpt lat="38.900303" lon="111.843666">
        <ele>1440.55</ele>
        <time>2015-02-09T23:45:30.119000Z</time>
      </trkpt>
      <trkpt lat="38.90025" lon="111.843544">
        <ele>1440.7172</ele>
        <time>2015-02-09T23:45:33.570000Z</time>
      </trkpt>
      <trkpt lat="38.90019" lon="111.84345">
        <ele>1441.0966</ele>
        <time>2015-02-09T23:45:37.021000Z</time>
      </trkpt>
      <trkpt lat="38.900143" lon="111.843346">
        <ele>1441.7284</ele>
        <time>2015-02-09T23:45:40.472000Z</time>
      </trkpt>
      <trkpt lat="38.90008" lon="111.843254">
        <ele>1442.0953</ele>
        <time>2015-02-09T23:45:43.923000Z</time>
      </trkpt>
      <trkpt lat="38.900017" lon="111.843155">
        <ele>1441.9353</ele>
        <time>2015-02-09T23:45:47.374000Z</time>
      </trkpt>
      <trkpt lat="38.899956" lon="111.84305">
        <ele>1441.2959</ele>
        <time>2015-02-09T23:45:50.825000Z</time>
      </trkpt>
      <trkpt lat="38.89988" lon="111.84294">
        <ele>1440.2106</ele>
        <time>2015-02-09T23:45:54.276000Z</time>
      </trkpt>
      <trkpt lat="38.899826" lon="111.84282">
        <ele>1438.906</ele>
        <time>2015-02-09T23:45:57.727000Z</time>
      </trkpt>
      <trkpt lat="38.89976" lon="111.84271">
        <ele>1437.9783</ele>
        <time>2015-02-09T23:46:01.178000Z</time>
      </trkpt>
      <trkpt lat="38.899696" lon="111.84259">
        <ele>1437.6321</ele>
        <time>2015-02-09T23:46:04.629000Z</time>
      </trkpt>
      <trkpt lat="38.89963" lon="111.84246">
        <ele>1437.2418</ele>
        <time>2015-02-09T23:46:08.080000Z</time>
      </trkpt>
      <trkpt lat="38.89957" lon="111.84236">
        <ele>1436.3969</ele>
        <time>2015-02-09T23:46:11.531000Z</time>
      </trkpt>
      <trkpt lat="38.89952" lon="111.84226">
        <ele>1435.5963</ele>
        <time>2015-02-09T23:46:14.982000Z</time>
      </trkpt>
      <trkpt lat="38.89946" lon="111.84214">
        <ele>1435.2351</ele>
        <time>2015-02-09T23:46:18.433000Z</time>
      </trkpt>
      <trkpt lat="38.899384" lon="111.84205">
        <ele>1435.1915</ele>
        <time>2015-02-09T23:46:21.884000Z</time>
      </trkpt>
      <trkpt lat="38.899334" lon="111.84195">
        <ele>1435.2617</ele>
        <time>2015-02-09T23:46:25.335000Z</time>
      </trkpt>
      <trkpt lat="38.899284" lon="111.841835">
        <ele>1435.3269</ele>
        <time>2015-02-09T23:46:28.786000Z</time>
      </trkpt>
      <trkpt lat="38.89923" lon="111.84173">
        <ele>1435.0796</ele>
        <time>2015-02-09T23:46:32.237000Z</time>
      </trkpt>
      <trkpt lat="38.899162" lon="111.8416">
        <ele>1434.363</ele>
        <time>2015-02-09T23:46:35.688000Z</time>
      </trkpt>
      <trkpt lat="38.89911" lon="111.84151">
        <ele>1433.6184</ele>
        <time>2015-02-09T23:46:39.139000Z</time>
      </trkpt>
      <trkpt lat="38.899044" lon="111.841385">
        <ele>1433.2626</ele>
        <time>2015-02-09T23:46:42.590000Z</time>
      </trkpt>
      <trkpt lat="38.89897" lon="111.84128">
        <ele>1433.2072</ele>
        <time>2015-02-09T23:46:46.041000Z</time>
      </trkpt>
      <trkpt lat="38.898907" lon="111.84115">
        <ele>1433.5432</ele>
        <time>2015-02-09T23:46:49.492000Z</time>
      </trkpt>
      <trkpt lat="38.89884" lon="111.84103">
        <ele>1434.6001</ele>
        <time>2015-02-09T23:46:52.943000Z</time>
      </trkpt>
      <trkpt lat="38.898777" lon="111.84093">
        <ele>1436.3638</ele>
        <time>2015-02-09T23:46:56.394000Z</time>
      </trkpt>
      <trkpt lat="38.898716" lon="111.840805">
        <ele>1438.3153</ele>
        <time>2015-02-09T23:46:59.845000Z</time>
      </trkpt>
      <trkpt lat="38.898674" lon="111.84068">
        <ele>1439.9508</ele>
        <time>2015-02-09T23:47:03.296000Z</time>
      </trkpt>
      <trkpt lat="38.89861" lon="111.84057">
        <ele>1441.0188</ele>
        <time>2015-02-09T23:47:06.747000Z</time>
      </trkpt>
      <trkpt lat="38.89855" lon="111.84048">
        <ele>1441.6323</ele>
        <time>2015-02-09T23:47:10.198000Z</time>
      </trkpt>
      <trkpt lat="38.898487" lon="111.840355">
        <ele>1442.0453</ele>
        <time>2015-02-09T23:47:13.649000Z</time>
      </trkpt>
      <trkpt lat="38.898422" lon="111.84024">
        <ele>1442.3192</ele>
        <time>2015-02-09T23:47:17.100000Z</time>
      </trkpt>
      <trkpt lat="38.898365" lon="111.84015">
        <ele>1442.5458</ele>
        <time>2015-02-09T23:47:20.551000Z</time>
      </trkpt>
      <trkpt lat="38.898296" lon="111.840034">
        <ele>1442.8939</ele>
        <time>2015-02-09T23:47:24.002000Z</time>
      </trkpt>
      <trkpt lat="38.89823" lon="111.83994">
        <ele>1443.644</ele>
        <time>2015-02-09T23:47:27.453000Z</time>
      </trkpt>
      <trkpt lat="38.898174" lon="111.83984">
        <ele>1445.4294</ele>
        <time>2015-02-09T23:47:30.904000Z</time>
      </trkpt>
      <trkpt lat="38.898113" lon="111.839714">
        <ele>1448.135</ele>
        <time>2015-02-09T23:47:34.355000Z</time>
      </trkpt>
      <trkpt lat="38.898045" lon="111.83961">
        <ele>1450.4695</ele>
        <time>2015-02-09T23:47:37.806000Z</time>
      </trkpt>
      <trkpt lat="38.897976" lon="111.83949">
        <ele>1452.0068</ele>
        <time>2015-02-09T23:47:41.257000Z</time>
      </trkpt>
      <trkpt lat="38.897903" lon="111.839386">
        <ele>1453.542</ele>
        <time>2015-02-09T23:47:44.708000Z</time>
      </trkpt>
      <trkpt lat="38.897846" lon="111.83927">
        <ele>1455.4612</ele>
        <time>2015-02-09T23:47:48.159000Z</time>
      </trkpt>
      <trkpt lat="38.8978" lon="111.83916">
        <ele>1457.2554</ele>
        <time>2015-02-09T23:47:51.610000Z</time>
      </trkpt>
      <trkpt lat="38.8978" lon="111.83916">
        <ele>1458.0576</ele>
        <time>2015-02-09T23:47:55.061000Z</time>
      </trkpt>
      <trkpt lat="38.897743" lon="111.83904">
        <ele>1457.6378</ele>
        <time>2015-02-09T23:47:58.512000Z</time>
      </trkpt>
      <trkpt lat="38.89769" lon="111.83894">
        <ele>1456.8171</ele>
        <time>2015-02-09T23:48:01.963000Z</time>
      </trkpt>
      <trkpt lat="38.897617" lon="111.83883">
        <ele>1456.4578</ele>
        <time>2015-02-09T23:48:05.414000Z</time>
      </trkpt>
      <trkpt lat="38.897617" lon="111.83883">
        <ele>1456.6774</ele>
        <time>2015-02-09T23:48:08.865000Z</time>
      </trkpt>
      <trkpt lat="38.89756" lon="111.83871">
        <ele>1457.2213</ele>
        <time>2015-02-09T23:48:12.316000Z</time>
      </trkpt>
      <trkpt lat="38.89751" lon="111.838585">
        <ele>1457.8237</ele>
        <time>2015-02-09T23:48:15.767000Z</time>
      </trkpt>
      <trkpt lat="38.89747" lon="111.83846">
        <ele>1458.8126</ele>
        <time>2015-02-09T23:48:19.218000Z</time>
      </trkpt>
      <trkpt lat="38.89742" lon="111.83836">
        <ele>1460.823</ele>
        <time>2015-02-09T23:48:22.669000Z</time>
      </trkpt>
      <trkpt lat="38.89739" lon="111.838234">
        <ele>1463.3738</ele>
        <time>2015-02-09T23:48:26.120000Z</time>
      </trkpt>
      <trkpt lat="38.897354" lon="111.8381">
        <ele>1465.1335</ele>
        <time>2015-02-09T23:48:29.571000Z</time>
      </trkpt>
      <trkpt lat="38.89737" lon="111.83798">
        <ele>1465.7301</ele>
        <time>2015-02-09T23:48:33.022000Z</time>
      </trkpt>
      <trkpt lat="38.897373" lon="111.83784">
        <ele>1465.8154</ele>
        <time>2015-02-09T23:48:36.473000Z</time>
      </trkpt>
      <trkpt lat="38.89738" lon="111.83769">
        <ele>1465.9656</ele>
        <time>2015-02-09T23:48:39.924000Z</time>
      </trkpt>
      <trkpt lat="38.89737" lon="111.83758">
        <ele>1466.1924</ele>
        <time>2015-02-09T23:48:43.375000Z</time>
      </trkpt>
      <trkpt lat="38.897366" lon="111.837456">
        <ele>1466.3202</ele>
        <time>2015-02-09T23:48:46.826000Z</time>
      </trkpt>
      <trkpt lat="38.897373" lon="111.83733">
        <ele>1466.3516</ele>
        <time>2015-02-09T23:48:50.277000Z</time>
      </trkpt>
      <trkpt lat="38.89738" lon="111.83721">
        <ele>1466.2007</ele>
        <time>2015-02-09T23:48:53.728000Z</time>
      </trkpt>
      <trkpt lat="38.897404" lon="111.83708">
        <ele>1465.8223</ele>
        <time>2015-02-09T23:48:57.179000Z</time>
      </trkpt>
      <trkpt lat="38.89741" lon="111.83694">
        <ele>1465.4425</ele>
        <time>2015-02-09T23:49:00.630000Z</time>
      </trkpt>
      <trkpt lat="38.897434" lon="111.8368">
        <ele>1465.2648</ele>
        <time>2015-02-09T23:49:04.081000Z</time>
      </trkpt>
      <trkpt lat="38.897446" lon="111.836655">
        <ele>1465.5156</ele>
        <time>2015-02-09T23:49:07.532000Z</time>
      </trkpt>
      <trkpt lat="38.897453" lon="111.83651">
        <ele>1466.267</ele>
        <time>2015-02-09T23:49:10.983000Z</time>
      </trkpt>
      <trkpt lat="38.897457" lon="111.836365">
        <ele>1466.8986</ele>
        <time>2015-02-09T23:49:14.434000Z</time>
      </trkpt>
      <trkpt lat="38.89748" lon="111.83621">
        <ele>1466.489</ele>
        <time>2015-02-09T23:49:17.885000Z</time>
      </trkpt>
      <trkpt lat="38.897484" lon="111.836075">
        <ele>1465.0948</ele>
        <time>2015-02-09T23:49:21.336000Z</time>
      </trkpt>
      <trkpt lat="38.897472" lon="111.83594">
        <ele>1463.6105</ele>
        <time>2015-02-09T23:49:24.787000Z</time>
      </trkpt>
      <trkpt lat="38.89746" lon="111.83581">
        <ele>1462.6356</ele>
        <time>2015-02-09T23:49:28.238000Z</time>
      </trkpt>
      <trkpt lat="38.897453" lon="111.83567">
        <ele>1462.1871</ele>
        <time>2015-02-09T23:49:31.689000Z</time>
      </trkpt>
      <trkpt lat="38.897453" lon="111.83555">
        <ele>1462.1278</ele>
        <time>2015-02-09T23:49:35.140000Z</time>
      </trkpt>
      <trkpt lat="38.897484" lon="111.83541">
        <ele>1462.3491</ele>
        <time>2015-02-09T23:49:38.591000Z</time>
      </trkpt>
      <trkpt lat="38.897503" lon="111.83527">
        <ele>1462.7883</ele>
        <time>2015-02-09T23:49:42.042000Z</time>
      </trkpt>
      <trkpt lat="38.897526" lon="111.83512">
        <ele>1462.6411</ele>
        <time>2015-02-09T23:49:45.493000Z</time>
      </trkpt>
      <trkpt lat="38.897533" lon="111.834984">
        <ele>1461.3813</ele>
        <time>2015-02-09T23:49:48.944000Z</time>
      </trkpt>
      <trkpt lat="38.89753" lon="111.83485">
        <ele>1459.9232</ele>
        <time>2015-02-09T23:49:52.395000Z</time>
      </trkpt>
      <trkpt lat="38.89754" lon="111.834724">
        <ele>1459.1857</ele>
        <time>2015-02-09T23:49:55.846000Z</time>
      </trkpt>
      <trkpt lat="38.897537" lon="111.8346">
        <ele>1458.9084</ele>
        <time>2015-02-09T23:49:59.297000Z</time>
      </trkpt>
      <trkpt lat="38.89754" lon="111.83446">
        <ele>1458.654</ele>
        <time>2015-02-09T23:50:02.748000Z</time>
      </trkpt>
      <trkpt lat="38.897533" lon="111.83431">
        <ele>1458.4036</ele>
        <time>2015-02-09T23:50:06.199000Z</time>
      </trkpt>
      <trkpt lat="38.897514" lon="111.83419">
        <ele>1458.2877</ele>
        <time>2015-02-09T23:50:09.650000Z</time>
      </trkpt>
      <trkpt lat="38.897533" lon="111.834045">
        <ele>1458.272</ele>
        <time>2015-02-09T23:50:13.101000Z</time>
      </trkpt>
      <trkpt lat="38.897568" lon="111.83394">
        <ele>1458.1549</ele>
        <time>2015-02-09T23:50:16.552000Z</time>
      </trkpt>
      <trkpt lat="38.897587" lon="111.83382">
        <ele>1457.8154</ele>
        <time>2015-02-09T23:50:20.003000Z</time>
      </trkpt>
      <trkpt lat="38.897552" lon="111.83369">
        <ele>1457.7317</ele>
        <time>2015-02-09T23:50:23.454000Z</time>
      </trkpt>
      <trkpt lat="38.89753" lon="111.833565">
        <ele>1458.4155</ele>
        <time>2015-02-09T23:50:26.905000Z</time>
      </trkpt>
      <trkpt lat="38.897507" lon="111.833435">
        <ele>1459.4861</ele>
        <time>2015-02-09T23:50:30.356000Z</time>
      </trkpt>
      <trkpt lat="38.897488" lon="111.833305">
        <ele>1460.2344</ele>
        <time>2015-02-09T23:50:33.807000Z</time>
      </trkpt>
      <trkpt lat="38.89749" lon="111.833176">
        <ele>1460.492</ele>
        <time>2015-02-09T23:50:37.258000Z</time>
      </trkpt>
      <trkpt lat="38.89749" lon="111.83306">
        <ele>1460.4725</ele>
        <time>2015-02-09T23:50:40.709000Z</time>
      </trkpt>
      <trkpt lat="38.897472" lon="111.83293">
        <ele>1460.2463</ele>
        <time>2015-02-09T23:50:44.160000Z</time>
      </trkpt>
      <trkpt lat="38.897465" lon="111.83278">
        <ele>1459.6876</ele>
        <time>2015-02-09T23:50:47.611000Z</time>
      </trkpt>
      <trkpt lat="38.897465" lon="111.83266">
        <ele>1458.9377</ele>
        <time>2015-02-09T23:50:51.062000Z</time>
      </trkpt>
      <trkpt lat="38.897457" lon="111.83251">
        <ele>1458.1185</ele>
        <time>2015-02-09T23:50:54.513000Z</time>
      </trkpt>
      <trkpt lat="38.897434" lon="111.832405">
        <ele>1456.9279</ele>
        <time>2015-02-09T23:50:57.964000Z</time>
      </trkpt>
      <trkpt lat="38.89742" lon="111.832275">
        <ele>1455.4775</ele>
        <time>2015-02-09T23:51:01.415000Z</time>
      </trkpt>
      <trkpt lat="38.89741" lon="111.83215">
        <ele>1454.45</ele>
        <time>2015-02-09T23:51:04.866000Z</time>
      </trkpt>
      <trkpt lat="38.897404" lon="111.83203">
        <ele>1453.9521</ele>
        <time>2015-02-09T23:51:08.317000Z</time>
      </trkpt>
      <trkpt lat="38.89739" lon="111.831894">
        <ele>1453.4766</ele>
        <time>2015-02-09T23:51:11.768000Z</time>
      </trkpt>
      <trkpt lat="38.89739" lon="111.83177">
        <ele>1452.5902</ele>
        <time>2015-02-09T23:51:15.219000Z</time>
      </trkpt>
      <trkpt lat="38.897404" lon="111.831635">
        <ele>1451.409</ele>
        <time>2015-02-09T23:51:18.670000Z</time>
      </trkpt>
      <trkpt lat="38.897427" lon="111.8315">
        <ele>1450.4971</ele>
        <time>2015-02-09T23:51:22.121000Z</time>
      </trkpt>
      <trkpt lat="38.897434" lon="111.83136">
        <ele>1449.7333</ele>
        <time>2015-02-09T23:51:25.572000Z</time>
      </trkpt>
      <trkpt lat="38.897434" lon="111.83122">
        <ele>1448.6508</ele>
        <time>2015-02-09T23:51:29.023000Z</time>
      </trkpt>
      <trkpt lat="38.897423" lon="111.8311">
        <ele>1447.5017</ele>
        <time>2015-02-09T23:51:32.474000Z</time>
      </trkpt>
      <trkpt lat="38.897415" lon="111.83097">
        <ele>1446.4137</ele>
        <time>2015-02-09T23:51:35.925000Z</time>
      </trkpt>
      <trkpt lat="38.897396" lon="111.83085">
        <ele>1445.411</ele>
        <time>2015-02-09T23:51:39.376000Z</time>
      </trkpt>
      <trkpt lat="38.897377" lon="111.83073">
        <ele>1444.9467</ele>
        <time>2015-02-09T23:51:42.827000Z</time>
      </trkpt>
      <trkpt lat="38.897377" lon="111.8306">
        <ele>1445.0214</ele>
        <time>2015-02-09T23:51:46.278000Z</time>
      </trkpt>
      <trkpt lat="38.897366" lon="111.830475">
        <ele>1444.9335</ele>
        <time>2015-02-09T23:51:49.729000Z</time>
      </trkpt>
      <trkpt lat="38.897358" lon="111.83033">
        <ele>1444.3341</ele>
        <time>2015-02-09T23:51:53.180000Z</time>
      </trkpt>
      <trkpt lat="38.897354" lon="111.83017">
        <ele>1443.3557</ele>
        <time>2015-02-09T23:51:56.631000Z</time>
      </trkpt>
      <trkpt lat="38.897346" lon="111.83005">
        <ele>1442.0024</ele>
        <time>2015-02-09T23:52:00.082000Z</time>
      </trkpt>
      <trkpt lat="38.897343" lon="111.829926">
        <ele>1440.0608</ele>
        <time>2015-02-09T23:52:03.533000Z</time>
      </trkpt>
      <trkpt lat="38.89734" lon="111.82981">
        <ele>1437.3893</ele>
        <time>2015-02-09T23:52:06.984000Z</time>
      </trkpt>
      <trkpt lat="38.89732" lon="111.82969">
        <ele>1434.4951</ele>
        <time>2015-02-09T23:52:10.435000Z</time>
      </trkpt>
      <trkpt lat="38.897293" lon="111.82956">
        <ele>1432.5272</ele>
        <time>2015-02-09T23:52:13.886000Z</time>
      </trkpt>
      <trkpt lat="38.897293" lon="111.829414">
        <ele>1431.8721</ele>
        <time>2015-02-09T23:52:17.337000Z</time>
      </trkpt>
      <trkpt lat="38.89729" lon="111.82929">
        <ele>1432.0782</ele>
        <time>2015-02-09T23:52:20.788000Z</time>
      </trkpt>
      <trkpt lat="38.897293" lon="111.82916">
        <ele>1432.676</ele>
        <time>2015-02-09T23:52:24.239000Z</time>
      </trkpt>
      <trkpt lat="38.89738" lon="111.82908">
        <ele>1433.4813</ele>
        <time>2015-02-09T23:52:27.690000Z</time>
      </trkpt>
      <trkpt lat="38.89747" lon="111.829">
        <ele>1434.5667</ele>
        <time>2015-02-09T23:52:31.141000Z</time>
      </trkpt>
      <trkpt lat="38.897575" lon="111.828964">
        <ele>1435.5475</ele>
        <time>2015-02-09T23:52:34.592000Z</time>
      </trkpt>
      <trkpt lat="38.897675" lon="111.828995">
        <ele>1435.7198</ele>
        <time>2015-02-09T23:52:38.043000Z</time>
      </trkpt>
      <trkpt lat="38.897778" lon="111.82901">
        <ele>1435.1759</ele>
        <time>2015-02-09T23:52:41.494000Z</time>
      </trkpt>
      <trkpt lat="38.897877" lon="111.82902">
        <ele>1434.5795</ele>
        <time>2015-02-09T23:52:44.945000Z</time>
      </trkpt>
      <trkpt lat="38.89797" lon="111.82903">
        <ele>1434.286</ele>
        <time>2015-02-09T23:52:48.396000Z</time>
      </trkpt>
      <trkpt lat="38.898064" lon="111.82904">
        <ele>1434.2352</ele>
        <time>2015-02-09T23:52:51.847000Z</time>
      </trkpt>
      <trkpt lat="38.898155" lon="111.82906">
        <ele>1434.2808</ele>
        <time>2015-02-09T23:52:55.298000Z</time>
      </trkpt>
      <trkpt lat="38.898262" lon="111.82911">
        <ele>1434.3293</ele>
        <time>2015-02-09T23:52:58.749000Z</time>
      </trkpt>
      <trkpt lat="38.898357" lon="111.82911">
        <ele>1434.2148</ele>
        <time>2015-02-09T23:53:02.200000Z</time>
      </trkpt>
      <trkpt lat="38.89846" lon="111.82911">
        <ele>1433.8589</ele>
        <time>2015-02-09T23:53:05.651000Z</time>
      </trkpt>
      <trkpt lat="38.898556" lon="111.82911">
        <ele>1433.4856</ele>
        <time>2015-02-09T23:53:09.102000Z</time>
      </trkpt>
      <trkpt lat="38.898647" lon="111.8291">
        <ele>1433.3064</ele>
        <time>2015-02-09T23:53:12.553000Z</time>
      </trkpt>
      <trkpt lat="38.89874" lon="111.8291">
        <ele>1433.278</ele>
        <time>2015-02-09T23:53:16.004000Z</time>
      </trkpt>
      <trkpt lat="38.89885" lon="111.82912">
        <ele>1433.4458</ele>
        <time>2015-02-09T23:53:19.455000Z</time>
      </trkpt>
      <trkpt lat="38.89896" lon="111.82911">
        <ele>1433.8362</ele>
        <time>2015-02-09T23:53:22.906000Z</time>
      </trkpt>
      <trkpt lat="38.899055" lon="111.829124">
        <ele>1433.8054</ele>
        <time>2015-02-09T23:53:26.357000Z</time>
      </trkpt>
      <trkpt lat="38.89915" lon="111.82914">
        <ele>1432.9032</ele>
        <time>2015-02-09T23:53:29.808000Z</time>
      </trkpt>
      <trkpt lat="38.89926" lon="111.829185">
        <ele>1431.819</ele>
        <time>2015-02-09T23:53:33.259000Z</time>
      </trkpt>
      <trkpt lat="38.899345" lon="111.82925">
        <ele>1431.1226</ele>
        <time>2015-02-09T23:53:36.710000Z</time>
      </trkpt>
      <trkpt lat="38.8994" lon="111.829346">
        <ele>1430.5135</ele>
        <time>2015-02-09T23:53:40.161000Z</time>
      </trkpt>
      <trkpt lat="38.89945" lon="111.82946">
        <ele>1429.86</ele>
        <time>2015-02-09T23:53:43.612000Z</time>
      </trkpt>
      <trkpt lat="38.899513" lon="111.82957">
        <ele>1429.4038</ele>
        <time>2015-02-09T23:53:47.063000Z</time>
      </trkpt>
      <trkpt lat="38.89957" lon="111.82969">
        <ele>1429.3851</ele>
        <time>2015-02-09T23:53:50.514000Z</time>
      </trkpt>
      <trkpt lat="38.899628" lon="111.82979">
        <ele>1429.8953</ele>
        <time>2015-02-09T23:53:53.965000Z</time>
      </trkpt>
      <trkpt lat="38.89968" lon="111.82989">
        <ele>1430.6783</ele>
        <time>2015-02-09T23:53:57.416000Z</time>
      </trkpt>
      <trkpt lat="38.899715" lon="111.83">
        <ele>1431.5364</ele>
        <time>2015-02-09T23:54:00.867000Z</time>
      </trkpt>
      <trkpt lat="38.899776" lon="111.830124">
        <ele>1432.4705</ele>
        <time>2015-02-09T23:54:04.318000Z</time>
      </trkpt>
      <trkpt lat="38.899845" lon="111.830246">
        <ele>1433.0665</ele>
        <time>2015-02-09T23:54:07.769000Z</time>
      </trkpt>
      <trkpt lat="38.899914" lon="111.83036">
        <ele>1432.9927</ele>
        <time>2015-02-09T23:54:11.220000Z</time>
      </trkpt>
      <trkpt lat="38.899967" lon="111.8305">
        <ele>1432.6292</ele>
        <time>2015-02-09T23:54:14.671000Z</time>
      </trkpt>
      <trkpt lat="38.9" lon="111.830635">
        <ele>1432.3767</ele>
        <time>2015-02-09T23:54:18.122000Z</time>
      </trkpt>
      <trkpt lat="38.900063" lon="111.830765">
        <ele>1432.1525</ele>
        <time>2015-02-09T23:54:21.573000Z</time>
      </trkpt>
      <trkpt lat="38.9001" lon="111.830894">
        <ele>1431.7997</ele>
        <time>2015-02-09T23:54:25.024000Z</time>
      </trkpt>
      <trkpt lat="38.90014" lon="111.831024">
        <ele>1431.4601</ele>
        <time>2015-02-09T23:54:28.475000Z</time>
      </trkpt>
      <trkpt lat="38.900192" lon="111.83115">
        <ele>1430.7526</ele>
        <time>2015-02-09T23:54:31.926000Z</time>
      </trkpt>
      <trkpt lat="38.900223" lon="111.83126">
        <ele>1429.2933</ele>
        <time>2015-02-09T23:54:35.377000Z</time>
      </trkpt>
      <trkpt lat="38.900257" lon="111.83139">
        <ele>1427.7068</ele>
        <time>2015-02-09T23:54:38.828000Z</time>
      </trkpt>
      <trkpt lat="38.900307" lon="111.83153">
        <ele>1426.6735</ele>
        <time>2015-02-09T23:54:42.279000Z</time>
      </trkpt>
      <trkpt lat="38.90034" lon="111.831665">
        <ele>1426.2103</ele>
        <time>2015-02-09T23:54:45.730000Z</time>
      </trkpt>
      <trkpt lat="38.90037" lon="111.83181">
        <ele>1426.571</ele>
        <time>2015-02-09T23:54:49.181000Z</time>
      </trkpt>
      <trkpt lat="38.900414" lon="111.831924">
        <ele>1427.7422</ele>
        <time>2015-02-09T23:54:52.632000Z</time>
      </trkpt>
      <trkpt lat="38.900448" lon="111.83205">
        <ele>1428.9346</ele>
        <time>2015-02-09T23:54:56.083000Z</time>
      </trkpt>
      <trkpt lat="38.90045" lon="111.83217">
        <ele>1429.3594</ele>
        <time>2015-02-09T23:54:59.534000Z</time>
      </trkpt>
      <trkpt lat="38.900486" lon="111.83232">
        <ele>1428.8068</ele>
        <time>2015-02-09T23:55:02.985000Z</time>
      </trkpt>
      <trkpt lat="38.90051" lon="111.83244">
        <ele>1427.3436</ele>
        <time>2015-02-09T23:55:06.436000Z</time>
      </trkpt>
      <trkpt lat="38.900524" lon="111.832565">
        <ele>1425.3362</ele>
        <time>2015-02-09T23:55:09.887000Z</time>
      </trkpt>
      <trkpt lat="38.900578" lon="111.832664">
        <ele>1423.1788</ele>
        <time>2015-02-09T23:55:13.338000Z</time>
      </trkpt>
      <trkpt lat="38.900642" lon="111.83278">
        <ele>1421.3402</ele>
        <time>2015-02-09T23:55:16.789000Z</time>
      </trkpt>
      <trkpt lat="38.900642" lon="111.83293">
        <ele>1420.1578</ele>
        <time>2015-02-09T23:55:20.240000Z</time>
      </trkpt>
      <trkpt lat="38.900642" lon="111.833046">
        <ele>1419.5365</ele>
        <time>2015-02-09T23:55:23.691000Z</time>
      </trkpt>
      <trkpt lat="38.900677" lon="111.83319">
        <ele>1419.2681</ele>
        <time>2015-02-09T23:55:27.142000Z</time>
      </trkpt>
      <trkpt lat="38.900703" lon="111.83331">
        <ele>1419.2432</ele>
        <time>2015-02-09T23:55:30.593000Z</time>
      </trkpt>
      <trkpt lat="38.900726" lon="111.83346">
        <ele>1419.4392</ele>
        <time>2015-02-09T23:55:34.044000Z</time>
      </trkpt>
      <trkpt lat="38.900745" lon="111.83358">
        <ele>1419.8496</ele>
        <time>2015-02-09T23:55:37.495000Z</time>
      </trkpt>
      <trkpt lat="38.900734" lon="111.833694">
        <ele>1420.3788</ele>
        <time>2015-02-09T23:55:40.946000Z</time>
      </trkpt>
      <trkpt lat="38.90072" lon="111.83382">
        <ele>1421.054</ele>
        <time>2015-02-09T23:55:44.397000Z</time>
      </trkpt>
      <trkpt lat="38.900734" lon="111.83396">
        <ele>1421.9431</ele>
        <time>2015-02-09T23:55:47.848000Z</time>
      </trkpt>
      <trkpt lat="38.90075" lon="111.83411">
        <ele>1422.8136</ele>
        <time>2015-02-09T23:55:51.299000Z</time>
      </trkpt>
      <trkpt lat="38.900772" lon="111.83425">
        <ele>1423.7676</ele>
        <time>2015-02-09T23:55:54.750000Z</time>
      </trkpt>
      <trkpt lat="38.900803" lon="111.83437">
        <ele>1425.4193</ele>
        <time>2015-02-09T23:55:58.201000Z</time>
      </trkpt>
      <trkpt lat="38.900837" lon="111.834496">
        <ele>1427.5721</ele>
        <time>2015-02-09T23:56:01.652000Z</time>
      </trkpt>
      <trkpt lat="38.90087" lon="111.83461">
        <ele>1429.1349</ele>
        <time>2015-02-09T23:56:05.103000Z</time>
      </trkpt>
      <trkpt lat="38.90089" lon="111.83473">
        <ele>1429.6967</ele>
        <time>2015-02-09T23:56:08.554000Z</time>
      </trkpt>
      <trkpt lat="38.900894" lon="111.834854">
        <ele>1429.812</ele>
        <time>2015-02-09T23:56:12.005000Z</time>
      </trkpt>
      <trkpt lat="38.90092" lon="111.834984">
        <ele>1429.9946</ele>
        <time>2015-02-09T23:56:15.456000Z</time>
      </trkpt>
      <trkpt lat="38.900936" lon="111.835106">
        <ele>1430.0991</ele>
        <time>2015-02-09T23:56:18.907000Z</time>
      </trkpt>
      <trkpt lat="38.900963" lon="111.83523">
        <ele>1429.7314</ele>
        <time>2015-02-09T23:56:22.358000Z</time>
      </trkpt>
      <trkpt lat="38.900993" lon="111.83535">
        <ele>1428.893</ele>
        <time>2015-02-09T23:56:25.809000Z</time>
      </trkpt>
      <trkpt lat="38.90102" lon="111.835464">
        <ele>1427.9729</ele>
        <time>2015-02-09T23:56:29.260000Z</time>
      </trkpt>
      <trkpt lat="38.90106" lon="111.83558">
        <ele>1427.3818</ele>
        <time>2015-02-09T23:56:32.711000Z</time>
      </trkpt>
      <trkpt lat="38.90109" lon="111.83572">
        <ele>1427.1996</ele>
        <time>2015-02-09T23:56:36.162000Z</time>
      </trkpt>
      <trkpt lat="38.90112" lon="111.83584">
        <ele>1427.5072</ele>
        <time>2015-02-09T23:56:39.613000Z</time>
      </trkpt>
      <trkpt lat="38.901215" lon="111.8359">
        <ele>1428.3025</ele>
        <time>2015-02-09T23:56:43.064000Z</time>
      </trkpt>
      <trkpt lat="38.90132" lon="111.83585">
        <ele>1429.0892</ele>
        <time>2015-02-09T23:56:46.515000Z</time>
      </trkpt>
      <trkpt lat="38.901417" lon="111.83576">
        <ele>1429.1779</ele>
        <time>2015-02-09T23:56:49.966000Z</time>
      </trkpt>
      <trkpt lat="38.901505" lon="111.8357">
        <ele>1428.2319</ele>
        <time>2015-02-09T23:56:53.417000Z</time>
      </trkpt>
      <trkpt lat="38.90162" lon="111.835686">
        <ele>1426.7072</ele>
        <time>2015-02-09T23:56:56.868000Z</time>
      </trkpt>
      <trkpt lat="38.90165" lon="111.83579">
        <time>2015-02-09T23:57:00.319000Z</time>
      </trkpt>
    </trkseg>
  </trk>
</gpx>