<?xml version="1.0" encoding="UTF-8"?>
<gpx xmlns="http://www.topografix.com/GPX/1/1" xmlns:gpxtpx="http://www.garmin.com/xmlschemas/TrackPointExtension/v1" xmlns:xsi="http://www.w3.org/2001/XMLSchema-instance" xsi:schemaLocation="http://www.topografix.com/GPX/1/1 http://www.topografix.com/GPX/1/1/gpx.xsd" version="1.1" creator="gpx.py -- https://github.com/tkrajina/gpxpy">
  <trk>
    <trkseg>
      <trkpt lat="38.90185" lon="111.8359">
        <ele>1428.1237</ele>
        <time>2015-02-04T23:12:01.118000Z</time>
      </trkpt>
      <trkpt lat="38.901955" lon="111.835884">
        <ele>1427.4647</ele>
        <time>2015-02-04T23:12:04.711000Z</time>
      </trkpt>
      <trkpt lat="38.90205" lon="111.835846">
        <ele>1427.2189</ele>
        <time>2015-02-04T23:12:08.304000Z</time>
      </trkpt>
      <trkpt lat="38.90205" lon="111.835846">
        <ele>1427.2218</ele>
        <time>2015-02-04T23:12:11.897000Z</time>
      </trkpt>
      <trkpt lat="38.902134" lon="111.835785">
        <ele>1427.0479</ele>
        <time>2015-02-04T23:12:15.490000Z</time>
      </trkpt>
      <trkpt lat="38.902206" lon="111.83569">
        <ele>1426.4603</ele>
        <time>2015-02-04T23:12:19.083000Z</time>
      </trkpt>
      <trkpt lat="38.902206" lon="111.83569">
        <ele>1425.7172</ele>
        <time>2015-02-04T23:12:22.676000Z</time>
      </trkpt>
      <trkpt lat="38.902306" lon="111.835655">
        <ele>1425.1316</ele>
        <time>2015-02-04T23:12:26.269000Z</time>
      </trkpt>
      <trkpt lat="38.90252" lon="111.83562">
        <ele>1424.7982</ele>
        <time>2015-02-04T23:12:29.862000Z</time>
      </trkpt>
      <trkpt lat="38.902584" lon="111.83572">
        <ele>1424.6506</ele>
        <time>2015-02-04T23:12:33.455000Z</time>
      </trkpt>
      <trkpt lat="38.902634" lon="111.835815">
        <ele>1424.1024</ele>
        <time>2015-02-04T23:12:37.048000Z</time>
      </trkpt>
      <trkpt lat="38.9027" lon="111.835915">
        <ele>1422.9005</ele>
        <time>2015-02-04T23:12:40.641000Z</time>
      </trkpt>
      <trkpt lat="38.902725" lon="111.836044">
        <ele>1421.6003</ele>
        <time>2015-02-04T23:12:44.234000Z</time>
      </trkpt>
      <trkpt lat="38.90272" lon="111.83618">
        <ele>1420.5708</ele>
        <time>2015-02-04T23:12:47.827000Z</time>
      </trkpt>
      <trkpt lat="38.902756" lon="111.836296">
        <ele>1419.7731</ele>
        <time>2015-02-04T23:12:51.420000Z</time>
      </trkpt>
      <trkpt lat="38.902817" lon="111.83641">
        <ele>1419.4664</ele>
        <time>2015-02-04T23:12:55.013000Z</time>
      </trkpt>
      <trkpt lat="38.902874" lon="111.836525">
        <ele>1419.7191</ele>
        <time>2015-02-04T23:12:58.606000Z</time>
      </trkpt>
      <trkpt lat="38.902905" lon="111.83667">
        <ele>1420.273</ele>
        <time>2015-02-04T23:13:02.199000Z</time>
      </trkpt>
      <trkpt lat="38.902927" lon="111.83679">
        <ele>1420.8733</ele>
        <time>2015-02-04T23:13:05.792000Z</time>
      </trkpt>
      <trkpt lat="38.902966" lon="111.8369">
        <ele>1421.4434</ele>
        <time>2015-02-04T23:13:09.385000Z</time>
      </trkpt>
      <trkpt lat="38.903023" lon="111.83702">
        <ele>1421.9569</ele>
        <time>2015-02-04T23:13:12.978000Z</time>
      </trkpt>
      <trkpt lat="38.903076" lon="111.83711">
        <ele>1422.3188</ele>
        <time>2015-02-04T23:13:16.571000Z</time>
      </trkpt>
      <trkpt lat="38.903145" lon="111.83719">
        <ele>1422.0302</ele>
        <time>2015-02-04T23:13:20.164000Z</time>
      </trkpt>
      <trkpt lat="38.903233" lon="111.837234">
        <ele>1420.6656</ele>
        <time>2015-02-04T23:13:23.757000Z</time>
      </trkpt>
      <trkpt lat="38.903282" lon="111.83733">
        <ele>1418.5189</ele>
        <time>2015-02-04T23:13:27.350000Z</time>
      </trkpt>
      <trkpt lat="38.903316" lon="111.837456">
        <ele>1416.5051</ele>
        <time>2015-02-04T23:13:30.943000Z</time>
      </trkpt>
      <trkpt lat="38.90335" lon="111.83759">
        <ele>1415.4644</ele>
        <time>2015-02-04T23:13:34.536000Z</time>
      </trkpt>
      <trkpt lat="38.90335" lon="111.83773">
        <ele>1415.6497</ele>
        <time>2015-02-04T23:13:38.129000Z</time>
      </trkpt>
      <trkpt lat="38.90336" lon="111.83788">
        <ele>1416.8942</ele>
        <time>2015-02-04T23:13:41.722000Z</time>
      </trkpt>
      <trkpt lat="38.90338" lon="111.83802">
        <ele>1418.9597</ele>
        <time>2015-02-04T23:13:45.315000Z</time>
      </trkpt>
      <trkpt lat="38.90343" lon="111.83815">
        <ele>1421.085</ele>
        <time>2015-02-04T23:13:48.908000Z</time>
      </trkpt>
      <trkpt lat="38.903477" lon="111.83827">
        <ele>1422.3707</ele>
        <time>2015-02-04T23:13:52.501000Z</time>
      </trkpt>
      <trkpt lat="38.903458" lon="111.83841">
        <ele>1422.3176</ele>
        <time>2015-02-04T23:13:56.094000Z</time>
      </trkpt>
      <trkpt lat="38.90349" lon="111.838554">
        <ele>1420.5907</ele>
        <time>2015-02-04T23:13:59.687000Z</time>
      </trkpt>
      <trkpt lat="38.903557" lon="111.83868">
        <ele>1417.8688</ele>
        <time>2015-02-04T23:14:03.280000Z</time>
      </trkpt>
      <trkpt lat="38.903625" lon="111.8388">
        <ele>1416.1758</ele>
        <time>2015-02-04T23:14:06.873000Z</time>
      </trkpt>
      <trkpt lat="38.903687" lon="111.83888">
        <ele>1416.7225</ele>
        <time>2015-02-04T23:14:10.466000Z</time>
      </trkpt>
      <trkpt lat="38.903763" lon="111.83899">
        <ele>1419.2335</ele>
        <time>2015-02-04T23:14:14.059000Z</time>
      </trkpt>
      <trkpt lat="38.90379" lon="111.83911">
        <ele>1422.5222</ele>
        <time>2015-02-04T23:14:17.652000Z</time>
      </trkpt>
      <trkpt lat="38.90381" lon="111.83924">
        <ele>1424.4178</ele>
        <time>2015-02-04T23:14:21.245000Z</time>
      </trkpt>
      <trkpt lat="38.903862" lon="111.83936">
        <ele>1423.4679</ele>
        <time>2015-02-04T23:14:24.838000Z</time>
      </trkpt>
      <trkpt lat="38.903946" lon="111.83947">
        <ele>1420.8927</ele>
        <time>2015-02-04T23:14:28.431000Z</time>
      </trkpt>
      <trkpt lat="38.90402" lon="111.83954">
        <ele>1418.8124</ele>
        <time>2015-02-04T23:14:32.024000Z</time>
      </trkpt>
      <trkpt lat="38.904045" lon="111.83965">
        <ele>1417.9818</ele>
        <time>2015-02-04T23:14:35.617000Z</time>
      </trkpt>
      <trkpt lat="38.904087" lon="111.83978">
        <ele>1417.95</ele>
        <time>2015-02-04T23:14:39.210000Z</time>
      </trkpt>
      <trkpt lat="38.904182" lon="111.8398">
        <ele>1418.0245</ele>
        <time>2015-02-04T23:14:42.803000Z</time>
      </trkpt>
      <trkpt lat="38.904274" lon="111.83978">
        <ele>1417.9718</ele>
        <time>2015-02-04T23:14:46.396000Z</time>
      </trkpt>
      <trkpt lat="38.904373" lon="111.83975">
        <ele>1418.0288</ele>
        <time>2015-02-04T23:14:49.989000Z</time>
      </trkpt>
      <trkpt lat="38.90445" lon="111.83968">
        <ele>1418.7775</ele>
        <time>2015-02-04T23:14:53.582000Z</time>
      </trkpt>
      <trkpt lat="38.904552" lon="111.83963">
        <ele>1420.3483</ele>
        <time>2015-02-04T23:14:57.175000Z</time>
      </trkpt>
      <trkpt lat="38.904636" lon="111.83958">
        <ele>1421.5924</ele>
        <time>2015-02-04T23:15:00.768000Z</time>
      </trkpt>
      <trkpt lat="38.904743" lon="111.8395">
        <ele>1421.5685</ele>
        <time>2015-02-04T23:15:04.361000Z</time>
      </trkpt>
      <trkpt lat="38.90482" lon="111.83945">
        <ele>1421.0577</ele>
        <time>2015-02-04T23:15:07.954000Z</time>
      </trkpt>
      <trkpt lat="38.9049" lon="111.83938">
        <ele>1420.9366</ele>
        <time>2015-02-04T23:15:11.547000Z</time>
      </trkpt>
      <trkpt lat="38.904987" lon="111.839294">
        <ele>1421.4055</ele>
        <time>2015-02-04T23:15:15.140000Z</time>
      </trkpt>
      <trkpt lat="38.905064" lon="111.83922">
        <ele>1422.8573</ele>
        <time>2015-02-04T23:15:18.733000Z</time>
      </trkpt>
      <trkpt lat="38.905148" lon="111.83914">
        <ele>1425.1157</ele>
        <time>2015-02-04T23:15:22.326000Z</time>
      </trkpt>
      <trkpt lat="38.905235" lon="111.83909">
        <ele>1426.953</ele>
        <time>2015-02-04T23:15:25.919000Z</time>
      </trkpt>
      <trkpt lat="38.90531" lon="111.83903">
        <ele>1427.6912</ele>
        <time>2015-02-04T23:15:29.512000Z</time>
      </trkpt>
      <trkpt lat="38.905426" lon="111.83896">
        <ele>1427.7227</ele>
        <time>2015-02-04T23:15:33.105000Z</time>
      </trkpt>
      <trkpt lat="38.90553" lon="111.83891">
        <ele>1427.6743</ele>
        <time>2015-02-04T23:15:36.698000Z</time>
      </trkpt>
      <trkpt lat="38.905617" lon="111.838875">
        <ele>1427.7467</ele>
        <time>2015-02-04T23:15:40.291000Z</time>
      </trkpt>
      <trkpt lat="38.905712" lon="111.83883">
        <ele>1427.6971</ele>
        <time>2015-02-04T23:15:43.884000Z</time>
      </trkpt>
      <trkpt lat="38.905823" lon="111.83879">
        <ele>1427.5011</ele>
        <time>2015-02-04T23:15:47.477000Z</time>
      </trkpt>
      <trkpt lat="38.905914" lon="111.83878">
        <ele>1427.3678</ele>
        <time>2015-02-04T23:15:51.070000Z</time>
      </trkpt>
      <trkpt lat="38.906013" lon="111.83875">
        <ele>1427.3234</ele>
        <time>2015-02-04T23:15:54.663000Z</time>
      </trkpt>
      <trkpt lat="38.906124" lon="111.8387">
        <ele>1427.7426</ele>
        <time>2015-02-04T23:15:58.256000Z</time>
      </trkpt>
      <trkpt lat="38.906208" lon="111.83865">
        <ele>1428.9764</ele>
        <time>2015-02-04T23:16:01.849000Z</time>
      </trkpt>
      <trkpt lat="38.906307" lon="111.838585">
        <ele>1430.4554</ele>
        <time>2015-02-04T23:16:05.442000Z</time>
      </trkpt>
      <trkpt lat="38.90641" lon="111.83853">
        <ele>1430.8015</ele>
        <time>2015-02-04T23:16:09.035000Z</time>
      </trkpt>
      <trkpt lat="38.906513" lon="111.83848">
        <ele>1429.34</ele>
        <time>2015-02-04T23:16:12.628000Z</time>
      </trkpt>
      <trkpt lat="38.9066" lon="111.838425">
        <ele>1427.0778</ele>
        <time>2015-02-04T23:16:16.221000Z</time>
      </trkpt>
      <trkpt lat="38.906708" lon="111.838356">
        <ele>1425.5166</ele>
        <time>2015-02-04T23:16:19.814000Z</time>
      </trkpt>
      <trkpt lat="38.906796" lon="111.8383">
        <ele>1424.9873</ele>
        <time>2015-02-04T23:16:23.407000Z</time>
      </trkpt>
      <trkpt lat="38.9069" lon="111.838264">
        <ele>1425.034</ele>
        <time>2015-02-04T23:16:27Z</time>
      </trkpt>
      <trkpt lat="38.90699" lon="111.838234">
        <ele>1425.2201</ele>
        <time>2015-02-04T23:16:30.593000Z</time>
      </trkpt>
      <trkpt lat="38.907097" lon="111.8382">
        <ele>1425.2084</ele>
        <time>2015-02-04T23:16:34.186000Z</time>
      </trkpt>
      <trkpt lat="38.907196" lon="111.83817">
        <ele>1424.8906</ele>
        <time>2015-02-04T23:16:37.779000Z</time>
      </trkpt>
      <trkpt lat="38.9073" lon="111.83812">
        <ele>1424.3787</ele>
        <time>2015-02-04T23:16:41.372000Z</time>
      </trkpt>
      <trkpt lat="38.907383" lon="111.83805">
        <ele>1423.8282</ele>
        <time>2015-02-04T23:16:44.965000Z</time>
      </trkpt>
      <trkpt lat="38.907475" lon="111.83798">
        <ele>1423.4221</ele>
        <time>2015-02-04T23:16:48.558000Z</time>
      </trkpt>
      <trkpt lat="38.907578" lon="111.83791">
        <ele>1423.2734</ele>
        <time>2015-02-04T23:16:52.151000Z</time>
      </trkpt>
      <trkpt lat="38.907646" lon="111.83783">
        <ele>1423.0011</ele>
        <time>2015-02-04T23:16:55.744000Z</time>
      </trkpt>
      <trkpt lat="38.90775" lon="111.837746">
        <ele>1420.6685</ele>
        <time>2015-02-04T23:16:59.337000Z</time>
      </trkpt>
      <trkpt lat="38.907845" lon="111.8377">
        <ele>1415.6438</ele>
        <time>2015-02-04T23:17:02.930000Z</time>
      </trkpt>
      <trkpt lat="38.907936" lon="111.837654">
        <ele>1410.872</ele>
        <time>2015-02-04T23:17:06.523000Z</time>
      </trkpt>
      <trkpt lat="38.908047" lon="111.83761">
        <ele>1408.8535</ele>
        <time>2015-02-04T23:17:10.116000Z</time>
      </trkpt>
      <trkpt lat="38.90814" lon="111.83757">
        <ele>1409.2277</ele>
        <time>2015-02-04T23:17:13.709000Z</time>
      </trkpt>
      <trkpt lat="38.908253" lon="111.837524">
        <ele>1410.7343</ele>
        <time>2015-02-04T23:17:17.302000Z</time>
      </trkpt>
      <trkpt lat="38.90834" lon="111.8375">
        <ele>1412.0369</ele>
        <time>2015-02-04T23:17:20.895000Z</time>
      </trkpt>
      <trkpt lat="38.908443" lon="111.83749">
        <ele>1412.5872</ele>
        <time>2015-02-04T23:17:24.488000Z</time>
      </trkpt>
      <trkpt lat="38.908543" lon="111.8375">
        <ele>1412.9061</ele>
        <time>2015-02-04T23:17:28.081000Z</time>
      </trkpt>
      <trkpt lat="38.908634" lon="111.83747">
        <ele>1413.5012</ele>
        <time>2015-02-04T23:17:31.674000Z</time>
      </trkpt>
      <trkpt lat="38.908722" lon="111.83744">
        <ele>1414.1342</ele>
        <time>2015-02-04T23:17:35.267000Z</time>
      </trkpt>
      <trkpt lat="38.908813" lon="111.8374">
        <ele>1414.3024</ele>
        <time>2015-02-04T23:17:38.860000Z</time>
      </trkpt>
      <trkpt lat="38.90892" lon="111.83736">
        <ele>1413.9926</ele>
        <time>2015-02-04T23:17:42.453000Z</time>
      </trkpt>
      <trkpt lat="38.909027" lon="111.837395">
        <ele>1413.5735</ele>
        <time>2015-02-04T23:17:46.046000Z</time>
      </trkpt>
      <trkpt lat="38.90913" lon="111.83745">
        <ele>1413.4847</ele>
        <time>2015-02-04T23:17:49.639000Z</time>
      </trkpt>
      <trkpt lat="38.90922" lon="111.83753">
        <ele>1413.7935</ele>
        <time>2015-02-04T23:17:53.232000Z</time>
      </trkpt>
      <trkpt lat="38.90923" lon="111.83767">
        <ele>1414.3273</ele>
        <time>2015-02-04T23:17:56.825000Z</time>
      </trkpt>
      <trkpt lat="38.90922" lon="111.83779">
        <ele>1414.8966</ele>
        <time>2015-02-04T23:18:00.418000Z</time>
      </trkpt>
      <trkpt lat="38.909214" lon="111.83794">
        <ele>1415.3109</ele>
        <time>2015-02-04T23:18:04.011000Z</time>
      </trkpt>
      <trkpt lat="38.909237" lon="111.83807">
        <ele>1415.5984</ele>
        <time>2015-02-04T23:18:07.604000Z</time>
      </trkpt>
      <trkpt lat="38.909264" lon="111.83821">
        <ele>1416.0907</ele>
        <time>2015-02-04T23:18:11.197000Z</time>
      </trkpt>
      <trkpt lat="38.909332" lon="111.83828">
        <ele>1416.9113</ele>
        <time>2015-02-04T23:18:14.790000Z</time>
      </trkpt>
      <trkpt lat="38.909393" lon="111.838394">
        <ele>1417.7822</ele>
        <time>2015-02-04T23:18:18.383000Z</time>
      </trkpt>
      <trkpt lat="38.90944" lon="111.83854">
        <ele>1418.4797</ele>
        <time>2015-02-04T23:18:21.976000Z</time>
      </trkpt>
      <trkpt lat="38.909462" lon="111.83865">
        <ele>1418.8739</ele>
        <time>2015-02-04T23:18:25.569000Z</time>
      </trkpt>
      <trkpt lat="38.909496" lon="111.83878">
        <ele>1418.7156</ele>
        <time>2015-02-04T23:18:29.162000Z</time>
      </trkpt>
      <trkpt lat="38.90951" lon="111.838905">
        <ele>1417.8137</ele>
        <time>2015-02-04T23:18:32.755000Z</time>
      </trkpt>
      <trkpt lat="38.909485" lon="111.83904">
        <ele>1415.9778</ele>
        <time>2015-02-04T23:18:36.348000Z</time>
      </trkpt>
      <trkpt lat="38.909492" lon="111.83917">
        <ele>1413.5538</ele>
        <time>2015-02-04T23:18:39.941000Z</time>
      </trkpt>
      <trkpt lat="38.909515" lon="111.839294">
        <ele>1411.7015</ele>
        <time>2015-02-04T23:18:43.534000Z</time>
      </trkpt>
      <trkpt lat="38.909576" lon="111.83943">
        <ele>1411.2756</ele>
        <time>2015-02-04T23:18:47.127000Z</time>
      </trkpt>
      <trkpt lat="38.909637" lon="111.83954">
        <ele>1411.9951</ele>
        <time>2015-02-04T23:18:50.720000Z</time>
      </trkpt>
      <trkpt lat="38.909683" lon="111.83966">
        <ele>1412.7957</ele>
        <time>2015-02-04T23:18:54.313000Z</time>
      </trkpt>
      <trkpt lat="38.909763" lon="111.83975">
        <ele>1412.9366</ele>
        <time>2015-02-04T23:18:57.906000Z</time>
      </trkpt>
      <trkpt lat="38.90982" lon="111.83988">
        <ele>1412.5383</ele>
        <time>2015-02-04T23:19:01.499000Z</time>
      </trkpt>
      <trkpt lat="38.90985" lon="111.840004">
        <ele>1411.9425</ele>
        <time>2015-02-04T23:19:05.092000Z</time>
      </trkpt>
      <trkpt lat="38.909878" lon="111.84012">
        <ele>1411.4698</ele>
        <time>2015-02-04T23:19:08.685000Z</time>
      </trkpt>
      <trkpt lat="38.909904" lon="111.84024">
        <ele>1411.2842</ele>
        <time>2015-02-04T23:19:12.278000Z</time>
      </trkpt>
      <trkpt lat="38.909927" lon="111.84036">
        <ele>1411.5555</ele>
        <time>2015-02-04T23:19:15.871000Z</time>
      </trkpt>
      <trkpt lat="38.909966" lon="111.84048">
        <ele>1412.4628</ele>
        <time>2015-02-04T23:19:19.464000Z</time>
      </trkpt>
      <trkpt lat="38.909992" lon="111.84059">
        <ele>1413.5999</ele>
        <time>2015-02-04T23:19:23.057000Z</time>
      </trkpt>
      <trkpt lat="38.910007" lon="111.84074">
        <ele>1414.4729</ele>
        <time>2015-02-04T23:19:26.650000Z</time>
      </trkpt>
      <trkpt lat="38.910034" lon="111.84086">
        <ele>1415.0613</ele>
        <time>2015-02-04T23:19:30.243000Z</time>
      </trkpt>
      <trkpt lat="38.910107" lon="111.84097">
        <ele>1415.3933</ele>
        <time>2015-02-04T23:19:33.836000Z</time>
      </trkpt>
      <trkpt lat="38.910152" lon="111.8411">
        <ele>1415.4752</ele>
        <time>2015-02-04T23:19:37.429000Z</time>
      </trkpt>
      <trkpt lat="38.91017" lon="111.841225">
        <ele>1416.1332</ele>
        <time>2015-02-04T23:19:41.022000Z</time>
      </trkpt>
      <trkpt lat="38.91021" lon="111.84136">
        <ele>1418.1608</ele>
        <time>2015-02-04T23:19:44.615000Z</time>
      </trkpt>
      <trkpt lat="38.910263" lon="111.84149">
        <ele>1420.7009</ele>
        <time>2015-02-04T23:19:48.208000Z</time>
      </trkpt>
      <trkpt lat="38.910294" lon="111.84164">
        <ele>1422.3097</ele>
        <time>2015-02-04T23:19:51.801000Z</time>
      </trkpt>
      <trkpt lat="38.910313" lon="111.84178">
        <ele>1422.5193</ele>
        <time>2015-02-04T23:19:55.394000Z</time>
      </trkpt>
      <trkpt lat="38.910336" lon="111.84193">
        <ele>1421.7067</ele>
        <time>2015-02-04T23:19:58.987000Z</time>
      </trkpt>
      <trkpt lat="38.91035" lon="111.84207">
        <ele>1420.8976</ele>
        <time>2015-02-04T23:20:02.580000Z</time>
      </trkpt>
      <trkpt lat="38.91036" lon="111.84219">
        <ele>1420.9149</ele>
        <time>2015-02-04T23:20:06.173000Z</time>
      </trkpt>
      <trkpt lat="38.91035" lon="111.84233">
        <ele>1421.4144</ele>
        <time>2015-02-04T23:20:09.766000Z</time>
      </trkpt>
      <trkpt lat="38.91035" lon="111.84246">
        <ele>1421.5292</ele>
        <time>2015-02-04T23:20:13.359000Z</time>
      </trkpt>
      <trkpt lat="38.910366" lon="111.842575">
        <ele>1420.9408</ele>
        <time>2015-02-04T23:20:16.952000Z</time>
      </trkpt>
      <trkpt lat="38.91039" lon="111.8427">
        <ele>1420.0714</ele>
        <time>2015-02-04T23:20:20.545000Z</time>
      </trkpt>
      <trkpt lat="38.910408" lon="111.84284">
        <ele>1419.4473</ele>
        <time>2015-02-04T23:20:24.138000Z</time>
      </trkpt>
      <trkpt lat="38.91042" lon="111.84299">
        <ele>1418.811</ele>
        <time>2015-02-04T23:20:27.731000Z</time>
      </trkpt>
      <trkpt lat="38.910435" lon="111.84314">
        <ele>1417.7424</ele>
        <time>2015-02-04T23:20:31.324000Z</time>
      </trkpt>
      <trkpt lat="38.910473" lon="111.843285">
        <ele>1416.5675</ele>
        <time>2015-02-04T23:20:34.917000Z</time>
      </trkpt>
      <trkpt lat="38.910507" lon="111.84342">
        <ele>1415.7324</ele>
        <time>2015-02-04T23:20:38.510000Z</time>
      </trkpt>
      <trkpt lat="38.910564" lon="111.84351">
        <ele>1414.7484</ele>
        <time>2015-02-04T23:20:42.103000Z</time>
      </trkpt>
      <trkpt lat="38.910606" lon="111.84364">
        <ele>1413.0842</ele>
        <time>2015-02-04T23:20:45.696000Z</time>
      </trkpt>
      <trkpt lat="38.910664" lon="111.84378">
        <ele>1411.3046</ele>
        <time>2015-02-04T23:20:49.289000Z</time>
      </trkpt>
      <trkpt lat="38.910694" lon="111.84389">
        <ele>1410.3022</ele>
        <time>2015-02-04T23:20:52.882000Z</time>
      </trkpt>
      <trkpt lat="38.91073" lon="111.84402">
        <ele>1410.0555</ele>
        <time>2015-02-04T23:20:56.475000Z</time>
      </trkpt>
      <trkpt lat="38.910778" lon="111.84415">
        <ele>1410.1558</ele>
        <time>2015-02-04T23:21:00.068000Z</time>
      </trkpt>
      <trkpt lat="38.910793" lon="111.84429">
        <ele>1410.5776</ele>
        <time>2015-02-04T23:21:03.661000Z</time>
      </trkpt>
      <trkpt lat="38.910828" lon="111.84444">
        <ele>1411.3783</ele>
        <time>2015-02-04T23:21:07.254000Z</time>
      </trkpt>
      <trkpt lat="38.910862" lon="111.84457">
        <ele>1412.1366</ele>
        <time>2015-02-04T23:21:10.847000Z</time>
      </trkpt>
      <trkpt lat="38.910892" lon="111.84468">
        <ele>1412.4786</ele>
        <time>2015-02-04T23:21:14.440000Z</time>
      </trkpt>
      <trkpt lat="38.91093" lon="111.844795">
        <ele>1412.5198</ele>
        <time>2015-02-04T23:21:18.033000Z</time>
      </trkpt>
      <trkpt lat="38.910973" lon="111.844925">
        <ele>1412.8678</ele>
        <time>2015-02-04T23:21:21.626000Z</time>
      </trkpt>
      <trkpt lat="38.910988" lon="111.84508">
        <ele>1414.0239</ele>
        <time>2015-02-04T23:21:25.219000Z</time>
      </trkpt>
      <trkpt lat="38.91099" lon="111.8452">
        <ele>1415.741</ele>
        <time>2015-02-04T23:21:28.812000Z</time>
      </trkpt>
      <trkpt lat="38.91104" lon="111.84534">
        <ele>1417.3529</ele>
        <time>2015-02-04T23:21:32.405000Z</time>
      </trkpt>
      <trkpt lat="38.911083" lon="111.84545">
        <ele>1418.4904</ele>
        <time>2015-02-04T23:21:35.998000Z</time>
      </trkpt>
      <trkpt lat="38.91113" lon="111.84556">
        <ele>1419.1423</ele>
        <time>2015-02-04T23:21:39.591000Z</time>
      </trkpt>
      <trkpt lat="38.911163" lon="111.845695">
        <ele>1419.4468</ele>
        <time>2015-02-04T23:21:43.184000Z</time>
      </trkpt>
      <trkpt lat="38.911163" lon="111.84581">
        <ele>1419.4899</ele>
        <time>2015-02-04T23:21:46.777000Z</time>
      </trkpt>
      <trkpt lat="38.91118" lon="111.845955">
        <ele>1419.4355</ele>
        <time>2015-02-04T23:21:50.370000Z</time>
      </trkpt>
      <trkpt lat="38.91121" lon="111.846085">
        <ele>1419.3824</ele>
        <time>2015-02-04T23:21:53.963000Z</time>
      </trkpt>
      <trkpt lat="38.911213" lon="111.84621">
        <ele>1419.358</ele>
        <time>2015-02-04T23:21:57.556000Z</time>
      </trkpt>
      <trkpt lat="38.911232" lon="111.84632">
        <ele>1419.0784</ele>
        <time>2015-02-04T23:22:01.149000Z</time>
      </trkpt>
      <trkpt lat="38.91127" lon="111.84644">
        <ele>1418.3632</ele>
        <time>2015-02-04T23:22:04.742000Z</time>
      </trkpt>
      <trkpt lat="38.91131" lon="111.84658">
        <ele>1417.4904</ele>
        <time>2015-02-04T23:22:08.335000Z</time>
      </trkpt>
      <trkpt lat="38.911327" lon="111.8467">
        <ele>1416.5056</ele>
        <time>2015-02-04T23:22:11.928000Z</time>
      </trkpt>
      <trkpt lat="38.911343" lon="111.84682">
        <ele>1415.3635</ele>
        <time>2015-02-04T23:22:15.521000Z</time>
      </trkpt>
      <trkpt lat="38.911366" lon="111.84693">
        <ele>1414.509</ele>
        <time>2015-02-04T23:22:19.114000Z</time>
      </trkpt>
      <trkpt lat="38.91142" lon="111.84707">
        <ele>1414.33</ele>
        <time>2015-02-04T23:22:22.707000Z</time>
      </trkpt>
      <trkpt lat="38.91144" lon="111.847206">
        <ele>1414.833</ele>
        <time>2015-02-04T23:22:26.300000Z</time>
      </trkpt>
      <trkpt lat="38.911457" lon="111.84734">
        <ele>1415.6565</ele>
        <time>2015-02-04T23:22:29.893000Z</time>
      </trkpt>
      <trkpt lat="38.91149" lon="111.84748">
        <ele>1415.9941</ele>
        <time>2015-02-04T23:22:33.486000Z</time>
      </trkpt>
      <trkpt lat="38.91152" lon="111.847595">
        <ele>1415.5015</ele>
        <time>2015-02-04T23:22:37.079000Z</time>
      </trkpt>
      <trkpt lat="38.911533" lon="111.84771">
        <ele>1415.0348</ele>
        <time>2015-02-04T23:22:40.672000Z</time>
      </trkpt>
      <trkpt lat="38.911606" lon="111.84784">
        <ele>1415.6125</ele>
        <time>2015-02-04T23:22:44.265000Z</time>
      </trkpt>
      <trkpt lat="38.91166" lon="111.84795">
        <ele>1416.9684</ele>
        <time>2015-02-04T23:22:47.858000Z</time>
      </trkpt>
      <trkpt lat="38.91167" lon="111.84811">
        <ele>1418.2378</ele>
        <time>2015-02-04T23:22:51.451000Z</time>
      </trkpt>
      <trkpt lat="38.911697" lon="111.84826">
        <ele>1419.062</ele>
        <time>2015-02-04T23:22:55.044000Z</time>
      </trkpt>
      <trkpt lat="38.91173" lon="111.848366">
        <ele>1419.4584</ele>
        <time>2015-02-04T23:22:58.637000Z</time>
      </trkpt>
      <trkpt lat="38.91177" lon="111.8485">
        <ele>1419.5215</ele>
        <time>2015-02-04T23:23:02.230000Z</time>
      </trkpt>
      <trkpt lat="38.911808" lon="111.84865">
        <ele>1419.8706</ele>
        <time>2015-02-04T23:23:05.823000Z</time>
      </trkpt>
      <trkpt lat="38.911854" lon="111.84877">
        <ele>1420.883</ele>
        <time>2015-02-04T23:23:09.416000Z</time>
      </trkpt>
      <trkpt lat="38.911903" lon="111.84891">
        <ele>1422.0977</ele>
        <time>2015-02-04T23:23:13.009000Z</time>
      </trkpt>
      <trkpt lat="38.911926" lon="111.84904">
        <ele>1423.1167</ele>
        <time>2015-02-04T23:23:16.602000Z</time>
      </trkpt>
      <trkpt lat="38.911953" lon="111.84917">
        <ele>1423.931</ele>
        <time>2015-02-04T23:23:20.195000Z</time>
      </trkpt>
      <trkpt lat="38.911976" lon="111.84929">
        <ele>1424.3912</ele>
        <time>2015-02-04T23:23:23.788000Z</time>
      </trkpt>
      <trkpt lat="38.912" lon="111.84943">
        <ele>1424.7816</ele>
        <time>2015-02-04T23:23:27.381000Z</time>
      </trkpt>
      <trkpt lat="38.91202" lon="111.84956">
        <ele>1425.456</ele>
        <time>2015-02-04T23:23:30.974000Z</time>
      </trkpt>
      <trkpt lat="38.911987" lon="111.84969">
        <ele>1425.8519</ele>
        <time>2015-02-04T23:23:34.567000Z</time>
      </trkpt>
      <trkpt lat="38.912003" lon="111.84982">
        <ele>1425.4456</ele>
        <time>2015-02-04T23:23:38.160000Z</time>
      </trkpt>
      <trkpt lat="38.91206" lon="111.84994">
        <ele>1425.0271</ele>
        <time>2015-02-04T23:23:41.753000Z</time>
      </trkpt>
      <trkpt lat="38.91211" lon="111.85006">
        <ele>1425.3402</ele>
        <time>2015-02-04T23:23:45.346000Z</time>
      </trkpt>
      <trkpt lat="38.912155" lon="111.8502">
        <ele>1425.2804</ele>
        <time>2015-02-04T23:23:48.939000Z</time>
      </trkpt>
      <trkpt lat="38.91219" lon="111.85033">
        <ele>1423.3136</ele>
        <time>2015-02-04T23:23:52.532000Z</time>
      </trkpt>
      <trkpt lat="38.912216" lon="111.85047">
        <ele>1420.1367</ele>
        <time>2015-02-04T23:23:56.125000Z</time>
      </trkpt>
      <trkpt lat="38.912247" lon="111.850586">
        <ele>1417.7556</ele>
        <time>2015-02-04T23:23:59.718000Z</time>
      </trkpt>
      <trkpt lat="38.912277" lon="111.85069">
        <ele>1416.8701</ele>
        <time>2015-02-04T23:24:03.311000Z</time>
      </trkpt>
      <trkpt lat="38.912327" lon="111.85082">
        <ele>1417.2974</ele>
        <time>2015-02-04T23:24:06.904000Z</time>
      </trkpt>
      <trkpt lat="38.91236" lon="111.850945">
        <ele>1419.1915</ele>
        <time>2015-02-04T23:24:10.497000Z</time>
      </trkpt>
      <trkpt lat="38.912388" lon="111.851074">
        <ele>1421.9326</ele>
        <time>2015-02-04T23:24:14.090000Z</time>
      </trkpt>
      <trkpt lat="38.912415" lon="111.85122">
        <ele>1424.007</ele>
        <time>2015-02-04T23:24:17.683000Z</time>
      </trkpt>
      <trkpt lat="38.912434" lon="111.85135">
        <ele>1424.7856</ele>
        <time>2015-02-04T23:24:21.276000Z</time>
      </trkpt>
      <trkpt lat="38.912457" lon="111.851494">
        <ele>1424.7803</ele>
        <time>2015-02-04T23:24:24.869000Z</time>
      </trkpt>
      <trkpt lat="38.912495" lon="111.85164">
        <ele>1424.6925</ele>
        <time>2015-02-04T23:24:28.462000Z</time>
      </trkpt>
      <trkpt lat="38.912533" lon="111.85174">
        <ele>1425.0222</ele>
        <time>2015-02-04T23:24:32.055000Z</time>
      </trkpt>
      <trkpt lat="38.91256" lon="111.85185">
        <ele>1425.8275</ele>
        <time>2015-02-04T23:24:35.648000Z</time>
      </trkpt>
      <trkpt lat="38.9126" lon="111.851974">
        <ele>1427.0096</ele>
        <time>2015-02-04T23:24:39.241000Z</time>
      </trkpt>
      <trkpt lat="38.912643" lon="111.85211">
        <ele>1428.3192</ele>
        <time>2015-02-04T23:24:42.834000Z</time>
      </trkpt>
      <trkpt lat="38.91268" lon="111.85225">
        <ele>1429.3817</ele>
        <time>2015-02-04T23:24:46.427000Z</time>
      </trkpt>
      <trkpt lat="38.912724" lon="111.85238">
        <ele>1430.6163</ele>
        <time>2015-02-04T23:24:50.020000Z</time>
      </trkpt>
      <trkpt lat="38.912766" lon="111.852516">
        <ele>1432.9567</ele>
        <time>2015-02-04T23:24:53.613000Z</time>
      </trkpt>
      <trkpt lat="38.912796" lon="111.85264">
        <ele>1435.9415</ele>
        <time>2015-02-04T23:24:57.206000Z</time>
      </trkpt>
      <trkpt lat="38.91283" lon="111.852776">
        <ele>1438.0719</ele>
        <time>2015-02-04T23:25:00.799000Z</time>
      </trkpt>
      <trkpt lat="38.91287" lon="111.85289">
        <ele>1438.8235</ele>
        <time>2015-02-04T23:25:04.392000Z</time>
      </trkpt>
      <trkpt lat="38.912907" lon="111.85302">
        <ele>1438.7816</ele>
        <time>2015-02-04T23:25:07.985000Z</time>
      </trkpt>
      <trkpt lat="38.912933" lon="111.85314">
        <ele>1438.5359</ele>
        <time>2015-02-04T23:25:11.578000Z</time>
      </trkpt>
      <trkpt lat="38.912956" lon="111.853264">
        <ele>1438.5013</ele>
        <time>2015-02-04T23:25:15.171000Z</time>
      </trkpt>
      <trkpt lat="38.91299" lon="111.853386">
        <ele>1438.8013</ele>
        <time>2015-02-04T23:25:18.764000Z</time>
      </trkpt>
      <trkpt lat="38.913025" lon="111.85351">
        <ele>1439.3131</ele>
        <time>2015-02-04T23:25:22.357000Z</time>
      </trkpt>
      <trkpt lat="38.913063" lon="111.85364">
        <ele>1439.8684</ele>
        <time>2015-02-04T23:25:25.950000Z</time>
      </trkpt>
      <trkpt lat="38.913086" lon="111.85377">
        <ele>1439.7257</ele>
        <time>2015-02-04T23:25:29.543000Z</time>
      </trkpt>
      <trkpt lat="38.91313" lon="111.85388">
        <ele>1438.1598</ele>
        <time>2015-02-04T23:25:33.136000Z</time>
      </trkpt>
      <trkpt lat="38.913197" lon="111.854">
        <ele>1435.9584</ele>
        <time>2015-02-04T23:25:36.729000Z</time>
      </trkpt>
      <trkpt lat="38.913277" lon="111.854095">
        <ele>1434.749</ele>
        <time>2015-02-04T23:25:40.322000Z</time>
      </trkpt>
      <trkpt lat="38.913338" lon="111.8542">
        <ele>1434.9789</ele>
        <time>2015-02-04T23:25:43.915000Z</time>
      </trkpt>
      <trkpt lat="38.913403" lon="111.8543">
        <ele>1435.6345</ele>
        <time>2015-02-04T23:25:47.508000Z</time>
      </trkpt>
      <trkpt lat="38.913403" lon="111.8543">
        <ele>1435.806</ele>
        <time>2015-02-04T23:25:51.101000Z</time>
      </trkpt>
      <trkpt lat="38.913467" lon="111.85439">
        <ele>1435.61</ele>
        <time>2015-02-04T23:25:54.694000Z</time>
      </trkpt>
      <trkpt lat="38.91341" lon="111.85466">
        <ele>1430.9946</ele>
        <time>2015-02-04T23:25:58.287000Z</time>
      </trkpt>
      <trkpt lat="38.91341" lon="111.85466">
        <ele>1430.8829</ele>
        <time>2015-02-04T23:26:01.880000Z</time>
      </trkpt>
      <trkpt lat="38.91341" lon="111.85466">
        <ele>1430.4905</ele>
        <time>2015-02-04T23:26:05.473000Z</time>
      </trkpt>
      <trkpt lat="38.9133" lon="111.85467">
        <ele>1429.8672</ele>
        <time>2015-02-04T23:26:09.066000Z</time>
      </trkpt>
      <trkpt lat="38.913193" lon="111.854706">
        <ele>1430.2428</ele>
        <time>2015-02-04T23:26:12.659000Z</time>
      </trkpt>
      <trkpt lat="38.913113" lon="111.85478">
        <ele>1432.2401</ele>
        <time>2015-02-04T23:26:16.252000Z</time>
      </trkpt>
      <trkpt lat="38.9131" lon="111.854904">
        <ele>1434.4647</ele>
        <time>2015-02-04T23:26:19.845000Z</time>
      </trkpt>
      <trkpt lat="38.91305" lon="111.855">
        <ele>1435.5686</ele>
        <time>2015-02-04T23:26:23.438000Z</time>
      </trkpt>
      <trkpt lat="38.912994" lon="111.85511">
        <ele>1435.6266</ele>
        <time>2015-02-04T23:26:27.031000Z</time>
      </trkpt>
      <trkpt lat="38.912933" lon="111.85524">
        <ele>1434.9615</ele>
        <time>2015-02-04T23:26:30.624000Z</time>
      </trkpt>
      <trkpt lat="38.912872" lon="111.85532">
        <ele>1434.0507</ele>
        <time>2015-02-04T23:26:34.217000Z</time>
      </trkpt>
      <trkpt lat="38.912823" lon="111.85544">
        <ele>1433.4171</ele>
        <time>2015-02-04T23:26:37.810000Z</time>
      </trkpt>
      <trkpt lat="38.912785" lon="111.855545">
        <ele>1433.3384</ele>
        <time>2015-02-04T23:26:41.403000Z</time>
      </trkpt>
      <trkpt lat="38.912746" lon="111.85567">
        <ele>1433.9921</ele>
        <time>2015-02-04T23:26:44.996000Z</time>
      </trkpt>
      <trkpt lat="38.912693" lon="111.855774">
        <ele>1435.1561</ele>
        <time>2015-02-04T23:26:48.589000Z</time>
      </trkpt>
      <trkpt lat="38.912647" lon="111.8559">
        <ele>1435.9835</ele>
        <time>2015-02-04T23:26:52.182000Z</time>
      </trkpt>
      <trkpt lat="38.9126" lon="111.85603">
        <ele>1436.018</ele>
        <time>2015-02-04T23:26:55.775000Z</time>
      </trkpt>
      <trkpt lat="38.91256" lon="111.85615">
        <ele>1435.6699</ele>
        <time>2015-02-04T23:26:59.368000Z</time>
      </trkpt>
      <trkpt lat="38.912514" lon="111.85627">
        <ele>1435.3984</ele>
        <time>2015-02-04T23:27:02.961000Z</time>
      </trkpt>
      <trkpt lat="38.912464" lon="111.85638">
        <ele>1435.2935</ele>
        <time>2015-02-04T23:27:06.554000Z</time>
      </trkpt>
      <trkpt lat="38.912407" lon="111.85649">
        <ele>1435.1537</ele>
        <time>2015-02-04T23:27:10.147000Z</time>
      </trkpt>
      <trkpt lat="38.912357" lon="111.8566">
        <ele>1434.5461</ele>
        <time>2015-02-04T23:27:13.740000Z</time>
      </trkpt>
      <trkpt lat="38.912304" lon="111.8567">
        <ele>1433.3407</ele>
        <time>2015-02-04T23:27:17.333000Z</time>
      </trkpt>
      <trkpt lat="38.912254" lon="111.85682">
        <ele>1432.0751</ele>
        <time>2015-02-04T23:27:20.926000Z</time>
      </trkpt>
      <trkpt lat="38.91221" lon="111.85695">
        <ele>1431.3286</ele>
        <time>2015-02-04T23:27:24.519000Z</time>
      </trkpt>
      <trkpt lat="38.91217" lon="111.85706">
        <ele>1431.4043</ele>
        <time>2015-02-04T23:27:28.112000Z</time>
      </trkpt>
      <trkpt lat="38.91212" lon="111.85716">
        <ele>1432.1859</ele>
        <time>2015-02-04T23:27:31.705000Z</time>
      </trkpt>
      <trkpt lat="38.91207" lon="111.85727">
        <ele>1432.8901</ele>
        <time>2015-02-04T23:27:35.298000Z</time>
      </trkpt>
      <trkpt lat="38.91202" lon="111.85739">
        <ele>1432.803</ele>
        <time>2015-02-04T23:27:38.891000Z</time>
      </trkpt>
      <trkpt lat="38.91196" lon="111.85753">
        <ele>1432.1426</ele>
        <time>2015-02-04T23:27:42.484000Z</time>
      </trkpt>
      <trkpt lat="38.911903" lon="111.857635">
        <ele>1431.5326</ele>
        <time>2015-02-04T23:27:46.077000Z</time>
      </trkpt>
      <trkpt lat="38.91186" lon="111.857735">
        <ele>1431.2621</ele>
        <time>2015-02-04T23:27:49.670000Z</time>
      </trkpt>
      <trkpt lat="38.911808" lon="111.857834">
        <ele>1431.0944</ele>
        <time>2015-02-04T23:27:53.263000Z</time>
      </trkpt>
      <trkpt lat="38.91175" lon="111.85793">
        <ele>1430.7892</ele>
        <time>2015-02-04T23:27:56.856000Z</time>
      </trkpt>
      <trkpt lat="38.911705" lon="111.85805">
        <ele>1430.3313</ele>
        <time>2015-02-04T23:28:00.449000Z</time>
      </trkpt>
      <trkpt lat="38.91167" lon="111.85816">
        <ele>1429.6797</ele>
        <time>2015-02-04T23:28:04.042000Z</time>
      </trkpt>
      <trkpt lat="38.911625" lon="111.85827">
        <ele>1428.926</ele>
        <time>2015-02-04T23:28:07.635000Z</time>
      </trkpt>
      <trkpt lat="38.911587" lon="111.85839">
        <ele>1428.4067</ele>
        <time>2015-02-04T23:28:11.228000Z</time>
      </trkpt>
      <trkpt lat="38.91154" lon="111.85853">
        <ele>1428.3691</ele>
        <time>2015-02-04T23:28:14.821000Z</time>
      </trkpt>
      <trkpt lat="38.9115" lon="111.85863">
        <ele>1429.0212</ele>
        <time>2015-02-04T23:28:18.414000Z</time>
      </trkpt>
      <trkpt lat="38.91145" lon="111.858734">
        <ele>1430.1724</ele>
        <time>2015-02-04T23:28:22.007000Z</time>
      </trkpt>
      <trkpt lat="38.911404" lon="111.85883">
        <ele>1431.1287</ele>
        <time>2015-02-04T23:28:25.600000Z</time>
      </trkpt>
      <trkpt lat="38.91137" lon="111.85895">
        <ele>1431.5197</ele>
        <time>2015-02-04T23:28:29.193000Z</time>
      </trkpt>
      <trkpt lat="38.91131" lon="111.85906">
        <ele>1431.4031</ele>
        <time>2015-02-04T23:28:32.786000Z</time>
      </trkpt>
      <trkpt lat="38.911263" lon="111.85918">
        <ele>1430.948</ele>
        <time>2015-02-04T23:28:36.379000Z</time>
      </trkpt>
      <trkpt lat="38.911205" lon="111.8593">
        <ele>1430.5009</ele>
        <time>2015-02-04T23:28:39.972000Z</time>
      </trkpt>
      <trkpt lat="38.911163" lon="111.859436">
        <ele>1430.2943</ele>
        <time>2015-02-04T23:28:43.565000Z</time>
      </trkpt>
      <trkpt lat="38.911102" lon="111.85956">
        <ele>1430.4045</ele>
        <time>2015-02-04T23:28:47.158000Z</time>
      </trkpt>
      <trkpt lat="38.91105" lon="111.859665">
        <ele>1430.8022</ele>
        <time>2015-02-04T23:28:50.751000Z</time>
      </trkpt>
      <trkpt lat="38.911003" lon="111.85977">
        <ele>1431.07</ele>
        <time>2015-02-04T23:28:54.344000Z</time>
      </trkpt>
      <trkpt lat="38.910954" lon="111.85987">
        <ele>1430.4874</ele>
        <time>2015-02-04T23:28:57.937000Z</time>
      </trkpt>
      <trkpt lat="38.9109" lon="111.85998">
        <ele>1428.7905</ele>
        <time>2015-02-04T23:29:01.530000Z</time>
      </trkpt>
      <trkpt lat="38.910835" lon="111.8601">
        <ele>1426.6158</ele>
        <time>2015-02-04T23:29:05.123000Z</time>
      </trkpt>
      <trkpt lat="38.910805" lon="111.860214">
        <ele>1424.9318</ele>
        <time>2015-02-04T23:29:08.716000Z</time>
      </trkpt>
      <trkpt lat="38.910748" lon="111.860344">
        <ele>1424.1467</ele>
        <time>2015-02-04T23:29:12.309000Z</time>
      </trkpt>
      <trkpt lat="38.91071" lon="111.86048">
        <ele>1424.0363</ele>
        <time>2015-02-04T23:29:15.902000Z</time>
      </trkpt>
      <trkpt lat="38.910667" lon="111.86062">
        <ele>1424.3151</ele>
        <time>2015-02-04T23:29:19.495000Z</time>
      </trkpt>
      <trkpt lat="38.91065" lon="111.86074">
        <ele>1425.0886</ele>
        <time>2015-02-04T23:29:23.088000Z</time>
      </trkpt>
      <trkpt lat="38.910637" lon="111.86086">
        <ele>1426.379</ele>
        <time>2015-02-04T23:29:26.681000Z</time>
      </trkpt>
      <trkpt lat="38.91061" lon="111.86101">
        <ele>1428.2141</ele>
        <time>2015-02-04T23:29:30.274000Z</time>
      </trkpt>
      <trkpt lat="38.910553" lon="111.86111">
        <ele>1430.5267</ele>
        <time>2015-02-04T23:29:33.867000Z</time>
      </trkpt>
      <trkpt lat="38.910492" lon="111.86121">
        <ele>1432.6897</ele>
        <time>2015-02-04T23:29:37.460000Z</time>
      </trkpt>
      <trkpt lat="38.910446" lon="111.86132">
        <ele>1434.0514</ele>
        <time>2015-02-04T23:29:41.053000Z</time>
      </trkpt>
      <trkpt lat="38.910385" lon="111.86145">
        <ele>1434.5973</ele>
        <time>2015-02-04T23:29:44.646000Z</time>
      </trkpt>
      <trkpt lat="38.910343" lon="111.86157">
        <ele>1434.6199</ele>
        <time>2015-02-04T23:29:48.239000Z</time>
      </trkpt>
      <trkpt lat="38.91029" lon="111.86169">
        <ele>1434.2048</ele>
        <time>2015-02-04T23:29:51.832000Z</time>
      </trkpt>
      <trkpt lat="38.91022" lon="111.86177">
        <ele>1432.9598</ele>
        <time>2015-02-04T23:29:55.425000Z</time>
      </trkpt>
      <trkpt lat="38.910145" lon="111.86187">
        <ele>1431.0977</ele>
        <time>2015-02-04T23:29:59.018000Z</time>
      </trkpt>
      <trkpt lat="38.910072" lon="111.86197">
        <ele>1429.6375</ele>
        <time>2015-02-04T23:30:02.611000Z</time>
      </trkpt>
      <trkpt lat="38.910004" lon="111.86206">
        <ele>1429.2083</ele>
        <time>2015-02-04T23:30:06.204000Z</time>
      </trkpt>
      <trkpt lat="38.909935" lon="111.86219">
        <ele>1429.5575</ele>
        <time>2015-02-04T23:30:09.797000Z</time>
      </trkpt>
      <trkpt lat="38.90988" lon="111.86229">
        <ele>1430.0806</ele>
        <time>2015-02-04T23:30:13.390000Z</time>
      </trkpt>
      <trkpt lat="38.90982" lon="111.8624">
        <ele>1430.5126</ele>
        <time>2015-02-04T23:30:16.983000Z</time>
      </trkpt>
      <trkpt lat="38.90976" lon="111.8625">
        <ele>1431.2208</ele>
        <time>2015-02-04T23:30:20.576000Z</time>
      </trkpt>
      <trkpt lat="38.9097" lon="111.862595">
        <ele>1432.4186</ele>
        <time>2015-02-04T23:30:24.169000Z</time>
      </trkpt>
      <trkpt lat="38.90964" lon="111.86269">
        <ele>1433.6498</ele>
        <time>2015-02-04T23:30:27.762000Z</time>
      </trkpt>
      <trkpt lat="38.909588" lon="111.86279">
        <ele>1434.3726</ele>
        <time>2015-02-04T23:30:31.355000Z</time>
      </trkpt>
      <trkpt lat="38.90953" lon="111.86293">
        <ele>1434.5652</ele>
        <time>2015-02-04T23:30:34.948000Z</time>
      </trkpt>
      <trkpt lat="38.909473" lon="111.86304">
        <ele>1434.2278</ele>
        <time>2015-02-04T23:30:38.541000Z</time>
      </trkpt>
      <trkpt lat="38.909412" lon="111.86313">
        <ele>1433.269</ele>
        <time>2015-02-04T23:30:42.134000Z</time>
      </trkpt>
      <trkpt lat="38.90935" lon="111.863235">
        <ele>1431.8356</ele>
        <time>2015-02-04T23:30:45.727000Z</time>
      </trkpt>
      <trkpt lat="38.909298" lon="111.86334">
        <ele>1430.3806</ele>
        <time>2015-02-04T23:30:49.320000Z</time>
      </trkpt>
      <trkpt lat="38.909245" lon="111.86344">
        <ele>1429.695</ele>
        <time>2015-02-04T23:30:52.913000Z</time>
      </trkpt>
      <trkpt lat="38.90922" lon="111.86357">
        <ele>1430.106</ele>
        <time>2015-02-04T23:30:56.506000Z</time>
      </trkpt>
      <trkpt lat="38.909184" lon="111.86368">
        <ele>1431.1631</ele>
        <time>2015-02-04T23:31:00.099000Z</time>
      </trkpt>
      <trkpt lat="38.90912" lon="111.863785">
        <ele>1432.3528</ele>
        <time>2015-02-04T23:31:03.692000Z</time>
      </trkpt>
      <trkpt lat="38.90906" lon="111.86388">
        <ele>1433.2227</ele>
        <time>2015-02-04T23:31:07.285000Z</time>
      </trkpt>
      <trkpt lat="38.908997" lon="111.86399">
        <ele>1433.5377</ele>
        <time>2015-02-04T23:31:10.878000Z</time>
      </trkpt>
      <trkpt lat="38.908936" lon="111.864075">
        <ele>1433.3887</ele>
        <time>2015-02-04T23:31:14.471000Z</time>
      </trkpt>
      <trkpt lat="38.908875" lon="111.86418">
        <ele>1432.5162</ele>
        <time>2015-02-04T23:31:18.064000Z</time>
      </trkpt>
      <trkpt lat="38.90882" lon="111.864296">
        <ele>1430.9966</ele>
        <time>2015-02-04T23:31:21.657000Z</time>
      </trkpt>
      <trkpt lat="38.90875" lon="111.86441">
        <ele>1429.826</ele>
        <time>2015-02-04T23:31:25.250000Z</time>
      </trkpt>
      <trkpt lat="38.908688" lon="111.86451">
        <ele>1430.0493</ele>
        <time>2015-02-04T23:31:28.843000Z</time>
      </trkpt>
      <trkpt lat="38.908688" lon="111.86451">
        <ele>1431.4569</ele>
        <time>2015-02-04T23:31:32.436000Z</time>
      </trkpt>
      <trkpt lat="38.90863" lon="111.86459">
        <ele>1433.0045</ele>
        <time>2015-02-04T23:31:36.029000Z</time>
      </trkpt>
      <trkpt lat="38.90855" lon="111.86466">
        <ele>1434.2994</ele>
        <time>2015-02-04T23:31:39.622000Z</time>
      </trkpt>
      <trkpt lat="38.908474" lon="111.86473">
        <ele>1436.5558</ele>
        <time>2015-02-04T23:31:43.215000Z</time>
      </trkpt>
      <trkpt lat="38.908382" lon="111.86465">
        <ele>1437.8142</ele>
        <time>2015-02-04T23:31:46.808000Z</time>
      </trkpt>
      <trkpt lat="38.908325" lon="111.86454">
        <ele>1439.2429</ele>
        <time>2015-02-04T23:31:50.401000Z</time>
      </trkpt>
      <trkpt lat="38.908276" lon="111.86443">
        <ele>1440.2351</ele>
        <time>2015-02-04T23:31:53.994000Z</time>
      </trkpt>
      <trkpt lat="38.90823" lon="111.86432">
        <ele>1440.5741</ele>
        <time>2015-02-04T23:31:57.587000Z</time>
      </trkpt>
      <trkpt lat="38.90819" lon="111.864204">
        <ele>1440.6846</ele>
        <time>2015-02-04T23:32:01.180000Z</time>
      </trkpt>
      <trkpt lat="38.908142" lon="111.864075">
        <ele>1440.927</ele>
        <time>2015-02-04T23:32:04.773000Z</time>
      </trkpt>
      <trkpt lat="38.908092" lon="111.86396">
        <ele>1441.216</ele>
        <time>2015-02-04T23:32:08.366000Z</time>
      </trkpt>
      <trkpt lat="38.908054" lon="111.863815">
        <ele>1441.2261</ele>
        <time>2015-02-04T23:32:11.959000Z</time>
      </trkpt>
      <trkpt lat="38.908012" lon="111.86369">
        <ele>1440.8953</ele>
        <time>2015-02-04T23:32:15.552000Z</time>
      </trkpt>
      <trkpt lat="38.907974" lon="111.86359">
        <ele>1440.5055</ele>
        <time>2015-02-04T23:32:19.145000Z</time>
      </trkpt>
      <trkpt lat="38.90793" lon="111.86348">
        <ele>1440.4448</ele>
        <time>2015-02-04T23:32:22.738000Z</time>
      </trkpt>
      <trkpt lat="38.90787" lon="111.86338">
        <ele>1440.7662</ele>
        <time>2015-02-04T23:32:26.331000Z</time>
      </trkpt>
      <trkpt lat="38.90782" lon="111.86328">
        <ele>1441.1635</ele>
        <time>2015-02-04T23:32:29.924000Z</time>
      </trkpt>
      <trkpt lat="38.907784" lon="111.863174">
        <ele>1441.3705</ele>
        <time>2015-02-04T23:32:33.517000Z</time>
      </trkpt>
      <trkpt lat="38.90774" lon="111.863075">
        <ele>1441.5513</ele>
        <time>2015-02-04T23:32:37.110000Z</time>
      </trkpt>
      <trkpt lat="38.907696" lon="111.86296">
        <ele>1441.8842</ele>
        <time>2015-02-04T23:32:40.703000Z</time>
      </trkpt>
      <trkpt lat="38.90765" lon="111.86286">
        <ele>1442.083</ele>
        <time>2015-02-04T23:32:44.296000Z</time>
      </trkpt>
      <trkpt lat="38.90762" lon="111.86275">
        <ele>1441.8816</ele>
        <time>2015-02-04T23:32:47.889000Z</time>
      </trkpt>
      <trkpt lat="38.907574" lon="111.8626">
        <ele>1441.6736</ele>
        <time>2015-02-04T23:32:51.482000Z</time>
      </trkpt>
      <trkpt lat="38.90752" lon="111.8625">
        <ele>1441.8304</ele>
        <time>2015-02-04T23:32:55.075000Z</time>
      </trkpt>
      <trkpt lat="38.90747" lon="111.862404">
        <ele>1442.0078</ele>
        <time>2015-02-04T23:32:58.668000Z</time>
      </trkpt>
      <trkpt lat="38.90742" lon="111.8623">
        <ele>1441.7021</ele>
        <time>2015-02-04T23:33:02.261000Z</time>
      </trkpt>
      <trkpt lat="38.90737" lon="111.86218">
        <ele>1441.0277</ele>
        <time>2015-02-04T23:33:05.854000Z</time>
      </trkpt>
      <trkpt lat="38.907326" lon="111.862076">
        <ele>1440.4695</ele>
        <time>2015-02-04T23:33:09.447000Z</time>
      </trkpt>
      <trkpt lat="38.907272" lon="111.86198">
        <ele>1440.2418</ele>
        <time>2015-02-04T23:33:13.040000Z</time>
      </trkpt>
      <trkpt lat="38.907227" lon="111.86187">
        <ele>1440.0916</ele>
        <time>2015-02-04T23:33:16.633000Z</time>
      </trkpt>
      <trkpt lat="38.907185" lon="111.86174">
        <ele>1439.7874</ele>
        <time>2015-02-04T23:33:20.226000Z</time>
      </trkpt>
      <trkpt lat="38.907116" lon="111.86162">
        <ele>1440.016</ele>
        <time>2015-02-04T23:33:23.819000Z</time>
      </trkpt>
      <trkpt lat="38.907055" lon="111.86152">
        <ele>1441.4368</ele>
        <time>2015-02-04T23:33:27.412000Z</time>
      </trkpt>
      <trkpt lat="38.906994" lon="111.86142">
        <ele>1443.525</ele>
        <time>2015-02-04T23:33:31.005000Z</time>
      </trkpt>
      <trkpt lat="38.90693" lon="111.86134">
        <ele>1445.3407</ele>
        <time>2015-02-04T23:33:34.598000Z</time>
      </trkpt>
      <trkpt lat="38.906853" lon="111.86125">
        <ele>1446.3873</ele>
        <time>2015-02-04T23:33:38.191000Z</time>
      </trkpt>
      <trkpt lat="38.906773" lon="111.86119">
        <ele>1446.9335</ele>
        <time>2015-02-04T23:33:41.784000Z</time>
      </trkpt>
      <trkpt lat="38.906666" lon="111.86115">
        <ele>1447.696</ele>
        <time>2015-02-04T23:33:45.377000Z</time>
      </trkpt>
      <trkpt lat="38.906567" lon="111.86107">
        <ele>1448.6462</ele>
        <time>2015-02-04T23:33:48.970000Z</time>
      </trkpt>
      <trkpt lat="38.90648" lon="111.86101">
        <ele>1449.1434</ele>
        <time>2015-02-04T23:33:52.563000Z</time>
      </trkpt>
      <trkpt lat="38.906384" lon="111.86092">
        <ele>1448.9906</ele>
        <time>2015-02-04T23:33:56.156000Z</time>
      </trkpt>
      <trkpt lat="38.906307" lon="111.86085">
        <ele>1448.5958</ele>
        <time>2015-02-04T23:33:59.749000Z</time>
      </trkpt>
      <trkpt lat="38.906227" lon="111.86079">
        <ele>1448.3425</ele>
        <time>2015-02-04T23:34:03.342000Z</time>
      </trkpt>
      <trkpt lat="38.90613" lon="111.86075">
        <ele>1448.4027</ele>
        <time>2015-02-04T23:34:06.935000Z</time>
      </trkpt>
      <trkpt lat="38.90604" lon="111.860725">
        <ele>1449.0525</ele>
        <time>2015-02-04T23:34:10.528000Z</time>
      </trkpt>
      <trkpt lat="38.905952" lon="111.860695">
        <ele>1450.1741</ele>
        <time>2015-02-04T23:34:14.121000Z</time>
      </trkpt>
      <trkpt lat="38.905846" lon="111.86064">
        <ele>1450.9706</ele>
        <time>2015-02-04T23:34:17.714000Z</time>
      </trkpt>
      <trkpt lat="38.90574" lon="111.860596">
        <ele>1450.8557</ele>
        <time>2015-02-04T23:34:21.307000Z</time>
      </trkpt>
      <trkpt lat="38.905647" lon="111.860565">
        <ele>1450.1483</ele>
        <time>2015-02-04T23:34:24.900000Z</time>
      </trkpt>
      <trkpt lat="38.90556" lon="111.86054">
        <ele>1449.3727</ele>
        <time>2015-02-04T23:34:28.493000Z</time>
      </trkpt>
      <trkpt lat="38.905464" lon="111.86051">
        <ele>1448.5968</ele>
        <time>2015-02-04T23:34:32.086000Z</time>
      </trkpt>
      <trkpt lat="38.905376" lon="111.86049">
        <ele>1447.702</ele>
        <time>2015-02-04T23:34:35.679000Z</time>
      </trkpt>
      <trkpt lat="38.905273" lon="111.86046">
        <ele>1446.8561</ele>
        <time>2015-02-04T23:34:39.272000Z</time>
      </trkpt>
      <trkpt lat="38.905163" lon="111.86043">
        <ele>1446.3368</ele>
        <time>2015-02-04T23:34:42.865000Z</time>
      </trkpt>
      <trkpt lat="38.905075" lon="111.86038">
        <ele>1446.1873</ele>
        <time>2015-02-04T23:34:46.458000Z</time>
      </trkpt>
      <trkpt lat="38.904995" lon="111.86033">
        <ele>1446.2228</ele>
        <time>2015-02-04T23:34:50.051000Z</time>
      </trkpt>
      <trkpt lat="38.90492" lon="111.860245">
        <ele>1446.4303</ele>
        <time>2015-02-04T23:34:53.644000Z</time>
      </trkpt>
      <trkpt lat="38.904846" lon="111.86017">
        <ele>1446.8322</ele>
        <time>2015-02-04T23:34:57.237000Z</time>
      </trkpt>
      <trkpt lat="38.90477" lon="111.860054">
        <ele>1447.2135</ele>
        <time>2015-02-04T23:35:00.830000Z</time>
      </trkpt>
      <trkpt lat="38.904694" lon="111.85995">
        <ele>1447.2474</ele>
        <time>2015-02-04T23:35:04.423000Z</time>
      </trkpt>
      <trkpt lat="38.904636" lon="111.85985">
        <ele>1446.7703</ele>
        <time>2015-02-04T23:35:08.016000Z</time>
      </trkpt>
      <trkpt lat="38.90459" lon="111.85975">
        <ele>1446.0076</ele>
        <time>2015-02-04T23:35:11.609000Z</time>
      </trkpt>
      <trkpt lat="38.904526" lon="111.85965">
        <ele>1445.4318</ele>
        <time>2015-02-04T23:35:15.202000Z</time>
      </trkpt>
      <trkpt lat="38.904488" lon="111.859535">
        <ele>1445.2162</ele>
        <time>2015-02-04T23:35:18.794000Z</time>
      </trkpt>
      <trkpt lat="38.904465" lon="111.85942">
        <ele>1445.2181</ele>
        <time>2015-02-04T23:35:22.386000Z</time>
      </trkpt>
      <trkpt lat="38.90445" lon="111.8593">
        <ele>1445.0046</ele>
        <time>2015-02-04T23:35:25.978000Z</time>
      </trkpt>
      <trkpt lat="38.904434" lon="111.85918">
        <ele>1444.0552</ele>
        <time>2015-02-04T23:35:29.570000Z</time>
      </trkpt>
      <trkpt lat="38.904427" lon="111.859055">
        <ele>1442.6138</ele>
        <time>2015-02-04T23:35:33.162000Z</time>
      </trkpt>
      <trkpt lat="38.90443" lon="111.858925">
        <ele>1441.8004</ele>
        <time>2015-02-04T23:35:36.754000Z</time>
      </trkpt>
      <trkpt lat="38.904434" lon="111.85879">
        <ele>1442.2496</ele>
        <time>2015-02-04T23:35:40.346000Z</time>
      </trkpt>
      <trkpt lat="38.90445" lon="111.858665">
        <ele>1443.3514</ele>
        <time>2015-02-04T23:35:43.938000Z</time>
      </trkpt>
      <trkpt lat="38.904465" lon="111.85852">
        <ele>1443.7756</ele>
        <time>2015-02-04T23:35:47.530000Z</time>
      </trkpt>
      <trkpt lat="38.904476" lon="111.85838">
        <ele>1442.7365</ele>
        <time>2015-02-04T23:35:51.122000Z</time>
      </trkpt>
      <trkpt lat="38.904495" lon="111.85825">
        <ele>1440.9076</ele>
        <time>2015-02-04T23:35:54.714000Z</time>
      </trkpt>
      <trkpt lat="38.904522" lon="111.85811">
        <ele>1439.5521</ele>
        <time>2015-02-04T23:35:58.306000Z</time>
      </trkpt>
      <trkpt lat="38.904545" lon="111.857956">
        <ele>1439.0538</ele>
        <time>2015-02-04T23:36:01.898000Z</time>
      </trkpt>
      <trkpt lat="38.90455" lon="111.857834">
        <ele>1438.9272</ele>
        <time>2015-02-04T23:36:05.490000Z</time>
      </trkpt>
      <trkpt lat="38.904545" lon="111.85771">
        <ele>1438.5798</ele>
        <time>2015-02-04T23:36:09.082000Z</time>
      </trkpt>
      <trkpt lat="38.90455" lon="111.85758">
        <ele>1437.9606</ele>
        <time>2015-02-04T23:36:12.674000Z</time>
      </trkpt>
      <trkpt lat="38.90456" lon="111.85745">
        <ele>1437.4556</ele>
        <time>2015-02-04T23:36:16.266000Z</time>
      </trkpt>
      <trkpt lat="38.90457" lon="111.8573">
        <ele>1437.2524</ele>
        <time>2015-02-04T23:36:19.858000Z</time>
      </trkpt>
      <trkpt lat="38.90459" lon="111.857185">
        <ele>1437.2434</ele>
        <time>2015-02-04T23:36:23.450000Z</time>
      </trkpt>
      <trkpt lat="38.904602" lon="111.857056">
        <ele>1437.2946</ele>
        <time>2015-02-04T23:36:27.042000Z</time>
      </trkpt>
      <trkpt lat="38.90461" lon="111.856926">
        <ele>1437.3357</ele>
        <time>2015-02-04T23:36:30.634000Z</time>
      </trkpt>
      <trkpt lat="38.904625" lon="111.8568">
        <ele>1437.3519</ele>
        <time>2015-02-04T23:36:34.226000Z</time>
      </trkpt>
      <trkpt lat="38.904636" lon="111.856636">
        <ele>1437.3524</ele>
        <time>2015-02-04T23:36:37.818000Z</time>
      </trkpt>
      <trkpt lat="38.90464" lon="111.856514">
        <ele>1437.4865</ele>
        <time>2015-02-04T23:36:41.410000Z</time>
      </trkpt>
      <trkpt lat="38.904655" lon="111.856384">
        <ele>1437.9812</ele>
        <time>2015-02-04T23:36:45.002000Z</time>
      </trkpt>
      <trkpt lat="38.90468" lon="111.85626">
        <ele>1438.7092</ele>
        <time>2015-02-04T23:36:48.594000Z</time>
      </trkpt>
      <trkpt lat="38.904697" lon="111.85614">
        <ele>1439.1157</ele>
        <time>2015-02-04T23:36:52.186000Z</time>
      </trkpt>
      <trkpt lat="38.904716" lon="111.856026">
        <ele>1438.8197</ele>
        <time>2015-02-04T23:36:55.778000Z</time>
      </trkpt>
      <trkpt lat="38.904724" lon="111.85591">
        <ele>1437.9491</ele>
        <time>2015-02-04T23:36:59.370000Z</time>
      </trkpt>
      <trkpt lat="38.90473" lon="111.85578">
        <ele>1437.1227</ele>
        <time>2015-02-04T23:37:02.962000Z</time>
      </trkpt>
      <trkpt lat="38.904736" lon="111.85566">
        <ele>1437.0052</ele>
        <time>2015-02-04T23:37:06.554000Z</time>
      </trkpt>
      <trkpt lat="38.90474" lon="111.85553">
        <ele>1437.5466</ele>
        <time>2015-02-04T23:37:10.146000Z</time>
      </trkpt>
      <trkpt lat="38.904747" lon="111.8554">
        <ele>1438.1254</ele>
        <time>2015-02-04T23:37:13.738000Z</time>
      </trkpt>
      <trkpt lat="38.904766" lon="111.855255">
        <ele>1438.4062</ele>
        <time>2015-02-04T23:37:17.330000Z</time>
      </trkpt>
      <trkpt lat="38.904804" lon="111.855125">
        <ele>1438.729</ele>
        <time>2015-02-04T23:37:20.922000Z</time>
      </trkpt>
      <trkpt lat="38.90481" lon="111.85501">
        <ele>1439.4036</ele>
        <time>2015-02-04T23:37:24.514000Z</time>
      </trkpt>
      <trkpt lat="38.904823" lon="111.85489">
        <ele>1440.0953</ele>
        <time>2015-02-04T23:37:28.106000Z</time>
      </trkpt>
      <trkpt lat="38.90484" lon="111.854774">
        <ele>1440.5614</ele>
        <time>2015-02-04T23:37:31.698000Z</time>
      </trkpt>
      <trkpt lat="38.904846" lon="111.85466">
        <ele>1441.109</ele>
        <time>2015-02-04T23:37:35.290000Z</time>
      </trkpt>
      <trkpt lat="38.904846" lon="111.85454">
        <ele>1441.7821</ele>
        <time>2015-02-04T23:37:38.882000Z</time>
      </trkpt>
      <trkpt lat="38.90485" lon="111.85441">
        <ele>1442.2704</ele>
        <time>2015-02-04T23:37:42.474000Z</time>
      </trkpt>
      <trkpt lat="38.90486" lon="111.85428">
        <ele>1442.9985</ele>
        <time>2015-02-04T23:37:46.066000Z</time>
      </trkpt>
      <trkpt lat="38.90487" lon="111.85416">
        <ele>1444.4309</ele>
        <time>2015-02-04T23:37:49.658000Z</time>
      </trkpt>
      <trkpt lat="38.904865" lon="111.85404">
        <ele>1445.8531</ele>
        <time>2015-02-04T23:37:53.250000Z</time>
      </trkpt>
      <trkpt lat="38.90487" lon="111.85391">
        <ele>1446.5146</ele>
        <time>2015-02-04T23:37:56.842000Z</time>
      </trkpt>
      <trkpt lat="38.904884" lon="111.85378">
        <ele>1446.4686</ele>
        <time>2015-02-04T23:38:00.434000Z</time>
      </trkpt>
      <trkpt lat="38.904896" lon="111.85365">
        <ele>1445.9895</ele>
        <time>2015-02-04T23:38:04.026000Z</time>
      </trkpt>
      <trkpt lat="38.904922" lon="111.85352">
        <ele>1445.5042</ele>
        <time>2015-02-04T23:38:07.618000Z</time>
      </trkpt>
      <trkpt lat="38.90493" lon="111.8534">
        <ele>1445.2758</ele>
        <time>2015-02-04T23:38:11.210000Z</time>
      </trkpt>
      <trkpt lat="38.90493" lon="111.85328">
        <ele>1444.966</ele>
        <time>2015-02-04T23:38:14.802000Z</time>
      </trkpt>
      <trkpt lat="38.904934" lon="111.85314">
        <ele>1444.286</ele>
        <time>2015-02-04T23:38:18.394000Z</time>
      </trkpt>
      <trkpt lat="38.90494" lon="111.85299">
        <ele>1443.5867</ele>
        <time>2015-02-04T23:38:21.986000Z</time>
      </trkpt>
      <trkpt lat="38.904938" lon="111.852875">
        <ele>1443.2545</ele>
        <time>2015-02-04T23:38:25.578000Z</time>
      </trkpt>
      <trkpt lat="38.904938" lon="111.85274">
        <ele>1443.204</ele>
        <time>2015-02-04T23:38:29.170000Z</time>
      </trkpt>
      <trkpt lat="38.904938" lon="111.8526">
        <ele>1443.3989</ele>
        <time>2015-02-04T23:38:32.762000Z</time>
      </trkpt>
      <trkpt lat="38.90492" lon="111.85248">
        <ele>1444.3684</ele>
        <time>2015-02-04T23:38:36.354000Z</time>
      </trkpt>
      <trkpt lat="38.904877" lon="111.85234">
        <ele>1446.2042</ele>
        <time>2015-02-04T23:38:39.946000Z</time>
      </trkpt>
      <trkpt lat="38.904846" lon="111.85222">
        <ele>1447.7229</ele>
        <time>2015-02-04T23:38:43.538000Z</time>
      </trkpt>
      <trkpt lat="38.904823" lon="111.8521">
        <ele>1448.0858</ele>
        <time>2015-02-04T23:38:47.130000Z</time>
      </trkpt>
      <trkpt lat="38.9048" lon="111.85197">
        <ele>1447.7878</ele>
        <time>2015-02-04T23:38:50.722000Z</time>
      </trkpt>
      <trkpt lat="38.904766" lon="111.85185">
        <ele>1447.4604</ele>
        <time>2015-02-04T23:38:54.314000Z</time>
      </trkpt>
      <trkpt lat="38.904736" lon="111.85173">
        <ele>1447.1609</ele>
        <time>2015-02-04T23:38:57.906000Z</time>
      </trkpt>
      <trkpt lat="38.904694" lon="111.851616">
        <ele>1446.773</ele>
        <time>2015-02-04T23:39:01.498000Z</time>
      </trkpt>
      <trkpt lat="38.90465" lon="111.85151">
        <ele>1446.4285</ele>
        <time>2015-02-04T23:39:05.090000Z</time>
      </trkpt>
      <trkpt lat="38.904606" lon="111.85138">
        <ele>1446.1417</ele>
        <time>2015-02-04T23:39:08.682000Z</time>
      </trkpt>
      <trkpt lat="38.90456" lon="111.851265">
        <ele>1445.6301</ele>
        <time>2015-02-04T23:39:12.274000Z</time>
      </trkpt>
      <trkpt lat="38.904522" lon="111.85115">
        <ele>1444.9329</ele>
        <time>2015-02-04T23:39:15.866000Z</time>
      </trkpt>
      <trkpt lat="38.904488" lon="111.85103">
        <ele>1444.5544</ele>
        <time>2015-02-04T23:39:19.458000Z</time>
      </trkpt>
      <trkpt lat="38.904446" lon="111.85092">
        <ele>1444.7245</ele>
        <time>2015-02-04T23:39:23.050000Z</time>
      </trkpt>
      <trkpt lat="38.90442" lon="111.85081">
        <ele>1445.0983</ele>
        <time>2015-02-04T23:39:26.642000Z</time>
      </trkpt>
      <trkpt lat="38.904377" lon="111.85069">
        <ele>1445.1929</ele>
        <time>2015-02-04T23:39:30.234000Z</time>
      </trkpt>
      <trkpt lat="38.90433" lon="111.850586">
        <ele>1444.9014</ele>
        <time>2015-02-04T23:39:33.826000Z</time>
      </trkpt>
      <trkpt lat="38.90428" lon="111.85048">
        <ele>1444.5171</ele>
        <time>2015-02-04T23:39:37.418000Z</time>
      </trkpt>
      <trkpt lat="38.904236" lon="111.85034">
        <ele>1444.3112</ele>
        <time>2015-02-04T23:39:41.010000Z</time>
      </trkpt>
      <trkpt lat="38.9042" lon="111.85023">
        <ele>1444.404</ele>
        <time>2015-02-04T23:39:44.602000Z</time>
      </trkpt>
      <trkpt lat="38.90416" lon="111.8501">
        <ele>1445.203</ele>
        <time>2015-02-04T23:39:48.194000Z</time>
      </trkpt>
      <trkpt lat="38.90412" lon="111.84999">
        <ele>1446.6835</ele>
        <time>2015-02-04T23:39:51.786000Z</time>
      </trkpt>
      <trkpt lat="38.904064" lon="111.84988">
        <ele>1447.9836</ele>
        <time>2015-02-04T23:39:55.378000Z</time>
      </trkpt>
      <trkpt lat="38.90402" lon="111.84977">
        <ele>1448.5396</ele>
        <time>2015-02-04T23:39:58.970000Z</time>
      </trkpt>
      <trkpt lat="38.90398" lon="111.84966">
        <ele>1448.1726</ele>
        <time>2015-02-04T23:40:02.562000Z</time>
      </trkpt>
      <trkpt lat="38.903934" lon="111.84954">
        <ele>1446.5557</ele>
        <time>2015-02-04T23:40:06.154000Z</time>
      </trkpt>
      <trkpt lat="38.903885" lon="111.84942">
        <ele>1444.1238</ele>
        <time>2015-02-04T23:40:09.746000Z</time>
      </trkpt>
      <trkpt lat="38.903835" lon="111.849304">
        <ele>1441.947</ele>
        <time>2015-02-04T23:40:13.338000Z</time>
      </trkpt>
      <trkpt lat="38.90378" lon="111.84918">
        <ele>1440.0563</ele>
        <time>2015-02-04T23:40:16.930000Z</time>
      </trkpt>
      <trkpt lat="38.903717" lon="111.84906">
        <ele>1438.0925</ele>
        <time>2015-02-04T23:40:20.522000Z</time>
      </trkpt>
      <trkpt lat="38.90365" lon="111.84894">
        <ele>1436.6018</ele>
        <time>2015-02-04T23:40:24.114000Z</time>
      </trkpt>
      <trkpt lat="38.903595" lon="111.84884">
        <ele>1436.3168</ele>
        <time>2015-02-04T23:40:27.706000Z</time>
      </trkpt>
      <trkpt lat="38.903534" lon="111.84872">
        <ele>1437.1774</ele>
        <time>2015-02-04T23:40:31.298000Z</time>
      </trkpt>
      <trkpt lat="38.90346" lon="111.848595">
        <ele>1438.438</ele>
        <time>2015-02-04T23:40:34.890000Z</time>
      </trkpt>
      <trkpt lat="38.903393" lon="111.84849">
        <ele>1439.2789</ele>
        <time>2015-02-04T23:40:38.482000Z</time>
      </trkpt>
      <trkpt lat="38.903316" lon="111.8484">
        <ele>1439.414</ele>
        <time>2015-02-04T23:40:42.074000Z</time>
      </trkpt>
      <trkpt lat="38.903255" lon="111.8483">
        <ele>1438.7435</ele>
        <time>2015-02-04T23:40:45.666000Z</time>
      </trkpt>
      <trkpt lat="38.90321" lon="111.84819">
        <ele>1437.4126</ele>
        <time>2015-02-04T23:40:49.258000Z</time>
      </trkpt>
      <trkpt lat="38.90316" lon="111.84805">
        <ele>1436.0704</ele>
        <time>2015-02-04T23:40:52.850000Z</time>
      </trkpt>
      <trkpt lat="38.90308" lon="111.84795">
        <ele>1435.5786</ele>
        <time>2015-02-04T23:40:56.442000Z</time>
      </trkpt>
      <trkpt lat="38.903027" lon="111.847855">
        <ele>1436.5177</ele>
        <time>2015-02-04T23:41:00.034000Z</time>
      </trkpt>
      <trkpt lat="38.902973" lon="111.84776">
        <ele>1438.8228</ele>
        <time>2015-02-04T23:41:03.626000Z</time>
      </trkpt>
      <trkpt lat="38.902912" lon="111.847664">
        <ele>1441.4711</ele>
        <time>2015-02-04T23:41:07.218000Z</time>
      </trkpt>
      <trkpt lat="38.90285" lon="111.84757">
        <ele>1443.3585</ele>
        <time>2015-02-04T23:41:10.810000Z</time>
      </trkpt>
      <trkpt lat="38.90279" lon="111.84748">
        <ele>1444.2792</ele>
        <time>2015-02-04T23:41:14.402000Z</time>
      </trkpt>
      <trkpt lat="38.902725" lon="111.84737">
        <ele>1444.5719</ele>
        <time>2015-02-04T23:41:17.994000Z</time>
      </trkpt>
      <trkpt lat="38.90266" lon="111.84728">
        <ele>1444.3915</ele>
        <time>2015-02-04T23:41:21.586000Z</time>
      </trkpt>
      <trkpt lat="38.9026" lon="111.84716">
        <ele>1443.9165</ele>
        <time>2015-02-04T23:41:25.178000Z</time>
      </trkpt>
      <trkpt lat="38.902534" lon="111.84704">
        <ele>1443.887</ele>
        <time>2015-02-04T23:41:28.770000Z</time>
      </trkpt>
      <trkpt lat="38.902477" lon="111.84694">
        <ele>1444.9064</ele>
        <time>2015-02-04T23:41:32.362000Z</time>
      </trkpt>
      <trkpt lat="38.902416" lon="111.846855">
        <ele>1446.49</ele>
        <time>2015-02-04T23:41:35.954000Z</time>
      </trkpt>
      <trkpt lat="38.902355" lon="111.84676">
        <ele>1447.7844</ele>
        <time>2015-02-04T23:41:39.546000Z</time>
      </trkpt>
      <trkpt lat="38.902306" lon="111.846664">
        <ele>1448.445</ele>
        <time>2015-02-04T23:41:43.138000Z</time>
      </trkpt>
      <trkpt lat="38.90226" lon="111.84656">
        <ele>1448.849</ele>
        <time>2015-02-04T23:41:46.730000Z</time>
      </trkpt>
      <trkpt lat="38.90218" lon="111.84646">
        <ele>1449.4767</ele>
        <time>2015-02-04T23:41:50.322000Z</time>
      </trkpt>
      <trkpt lat="38.902107" lon="111.846375">
        <ele>1449.9718</ele>
        <time>2015-02-04T23:41:53.914000Z</time>
      </trkpt>
      <trkpt lat="38.902042" lon="111.84628">
        <ele>1449.771</ele>
        <time>2015-02-04T23:41:57.506000Z</time>
      </trkpt>
      <trkpt lat="38.901978" lon="111.84619">
        <ele>1449.0848</ele>
        <time>2015-02-04T23:42:01.098000Z</time>
      </trkpt>
      <trkpt lat="38.901928" lon="111.846085">
        <ele>1448.4879</ele>
        <time>2015-02-04T23:42:04.690000Z</time>
      </trkpt>
      <trkpt lat="38.90187" lon="111.84599">
        <ele>1448.3727</ele>
        <time>2015-02-04T23:42:08.282000Z</time>
      </trkpt>
      <trkpt lat="38.901787" lon="111.845894">
        <ele>1448.7122</ele>
        <time>2015-02-04T23:42:11.874000Z</time>
      </trkpt>
      <trkpt lat="38.90171" lon="111.845825">
        <ele>1449.1384</ele>
        <time>2015-02-04T23:42:15.466000Z</time>
      </trkpt>
      <trkpt lat="38.901646" lon="111.84573">
        <ele>1449.224</ele>
        <time>2015-02-04T23:42:19.058000Z</time>
      </trkpt>
      <trkpt lat="38.90159" lon="111.84563">
        <ele>1448.911</ele>
        <time>2015-02-04T23:42:22.650000Z</time>
      </trkpt>
      <trkpt lat="38.90153" lon="111.845535">
        <ele>1448.2366</ele>
        <time>2015-02-04T23:42:26.242000Z</time>
      </trkpt>
      <trkpt lat="38.901478" lon="111.845436">
        <ele>1447.3068</ele>
        <time>2015-02-04T23:42:29.834000Z</time>
      </trkpt>
      <trkpt lat="38.901424" lon="111.845345">
        <ele>1445.8324</ele>
        <time>2015-02-04T23:42:33.426000Z</time>
      </trkpt>
      <trkpt lat="38.90135" lon="111.84523">
        <ele>1443.5706</ele>
        <time>2015-02-04T23:42:37.018000Z</time>
      </trkpt>
      <trkpt lat="38.901268" lon="111.845116">
        <ele>1441.343</ele>
        <time>2015-02-04T23:42:40.610000Z</time>
      </trkpt>
      <trkpt lat="38.90122" lon="111.845024">
        <ele>1440.036</ele>
        <time>2015-02-04T23:42:44.202000Z</time>
      </trkpt>
      <trkpt lat="38.90116" lon="111.84493">
        <ele>1439.4319</ele>
        <time>2015-02-04T23:42:47.794000Z</time>
      </trkpt>
      <trkpt lat="38.901085" lon="111.844826">
        <ele>1439.2118</ele>
        <time>2015-02-04T23:42:51.386000Z</time>
      </trkpt>
      <trkpt lat="38.901024" lon="111.844734">
        <ele>1439.4949</ele>
        <time>2015-02-04T23:42:54.978000Z</time>
      </trkpt>
      <trkpt lat="38.900944" lon="111.84463">
        <ele>1440.4205</ele>
        <time>2015-02-04T23:42:58.570000Z</time>
      </trkpt>
      <trkpt lat="38.900864" lon="111.84451">
        <ele>1441.5682</ele>
        <time>2015-02-04T23:43:02.162000Z</time>
      </trkpt>
      <trkpt lat="38.900803" lon="111.84442">
        <ele>1442.3058</ele>
        <time>2015-02-04T23:43:05.754000Z</time>
      </trkpt>
      <trkpt lat="38.90075" lon="111.84433">
        <ele>1442.5333</ele>
        <time>2015-02-04T23:43:09.346000Z</time>
      </trkpt>
      <trkpt lat="38.900684" lon="111.84423">
        <ele>1442.6326</ele>
        <time>2015-02-04T23:43:12.938000Z</time>
      </trkpt>
      <trkpt lat="38.900608" lon="111.84412">
        <ele>1443.1746</ele>
        <time>2015-02-04T23:43:16.530000Z</time>
      </trkpt>
      <trkpt lat="38.90055" lon="111.84402">
        <ele>1444.895</ele>
        <time>2015-02-04T23:43:20.122000Z</time>
      </trkpt>
      <trkpt lat="38.900497" lon="111.84392">
        <ele>1447.5906</ele>
        <time>2015-02-04T23:43:23.714000Z</time>
      </trkpt>
      <trkpt lat="38.900444" lon="111.84382">
        <ele>1450.2327</ele>
        <time>2015-02-04T23:43:27.306000Z</time>
      </trkpt>
      <trkpt lat="38.90039" lon="111.84372">
        <ele>1452.2195</ele>
        <time>2015-02-04T23:43:30.898000Z</time>
      </trkpt>
      <trkpt lat="38.90032" lon="111.84364">
        <ele>1453.3752</ele>
        <time>2015-02-04T23:43:34.490000Z</time>
      </trkpt>
      <trkpt lat="38.900253" lon="111.84356">
        <ele>1453.6782</ele>
        <time>2015-02-04T23:43:38.082000Z</time>
      </trkpt>
      <trkpt lat="38.900196" lon="111.84345">
        <ele>1453.3004</ele>
        <time>2015-02-04T23:43:41.674000Z</time>
      </trkpt>
      <trkpt lat="38.900135" lon="111.84336">
        <ele>1452.418</ele>
        <time>2015-02-04T23:43:45.266000Z</time>
      </trkpt>
      <trkpt lat="38.900078" lon="111.84327">
        <ele>1451.5857</ele>
        <time>2015-02-04T23:43:48.858000Z</time>
      </trkpt>
      <trkpt lat="38.900024" lon="111.84317">
        <ele>1451.2113</ele>
        <time>2015-02-04T23:43:52.450000Z</time>
      </trkpt>
      <trkpt lat="38.89997" lon="111.84307">
        <ele>1450.8905</ele>
        <time>2015-02-04T23:43:56.042000Z</time>
      </trkpt>
      <trkpt lat="38.89989" lon="111.842964">
        <ele>1450.1058</ele>
        <time>2015-02-04T23:43:59.634000Z</time>
      </trkpt>
      <trkpt lat="38.89983" lon="111.84287">
        <ele>1448.7985</ele>
        <time>2015-02-04T23:44:03.226000Z</time>
      </trkpt>
      <trkpt lat="38.899773" lon="111.84276">
        <ele>1447.2506</ele>
        <time>2015-02-04T23:44:06.818000Z</time>
      </trkpt>
      <trkpt lat="38.899723" lon="111.84265">
        <ele>1445.9269</ele>
        <time>2015-02-04T23:44:10.410000Z</time>
      </trkpt>
      <trkpt lat="38.89967" lon="111.84253">
        <ele>1445.787</ele>
        <time>2015-02-04T23:44:14.002000Z</time>
      </trkpt>
      <trkpt lat="38.899612" lon="111.8424">
        <ele>1447.4974</ele>
        <time>2015-02-04T23:44:17.594000Z</time>
      </trkpt>
      <trkpt lat="38.89956" lon="111.84228">
        <ele>1450.1442</ele>
        <time>2015-02-04T23:44:21.186000Z</time>
      </trkpt>
      <trkpt lat="38.899494" lon="111.842155">
        <ele>1452.1998</ele>
        <time>2015-02-04T23:44:24.778000Z</time>
      </trkpt>
      <trkpt lat="38.899433" lon="111.842026">
        <ele>1453.2474</ele>
        <time>2015-02-04T23:44:28.370000Z</time>
      </trkpt>
      <trkpt lat="38.899376" lon="111.84191">
        <ele>1453.5878</ele>
        <time>2015-02-04T23:44:31.962000Z</time>
      </trkpt>
      <trkpt lat="38.89932" lon="111.84178">
        <ele>1453.545</ele>
        <time>2015-02-04T23:44:35.554000Z</time>
      </trkpt>
      <trkpt lat="38.899242" lon="111.84166">
        <ele>1453.4161</ele>
        <time>2015-02-04T23:44:39.146000Z</time>
      </trkpt>
      <trkpt lat="38.89917" lon="111.84155">
        <ele>1453.1931</ele>
        <time>2015-02-04T23:44:42.738000Z</time>
      </trkpt>
      <trkpt lat="38.8991" lon="111.84145">
        <ele>1452.8062</ele>
        <time>2015-02-04T23:44:46.330000Z</time>
      </trkpt>
      <trkpt lat="38.899036" lon="111.84133">
        <ele>1452.4406</ele>
        <time>2015-02-04T23:44:49.922000Z</time>
      </trkpt>
      <trkpt lat="38.898975" lon="111.84125">
        <ele>1452.1377</ele>
        <time>2015-02-04T23:44:53.514000Z</time>
      </trkpt>
      <trkpt lat="38.89891" lon="111.841156">
        <ele>1451.758</ele>
        <time>2015-02-04T23:44:57.106000Z</time>
      </trkpt>
      <trkpt lat="38.89885" lon="111.84107">
        <ele>1451.4208</ele>
        <time>2015-02-04T23:45:00.698000Z</time>
      </trkpt>
      <trkpt lat="38.898785" lon="111.84096">
        <ele>1451.2753</ele>
        <time>2015-02-04T23:45:04.290000Z</time>
      </trkpt>
      <trkpt lat="38.898727" lon="111.84084">
        <ele>1451.262</ele>
        <time>2015-02-04T23:45:07.882000Z</time>
      </trkpt>
      <trkpt lat="38.898666" lon="111.84072">
        <ele>1451.2935</ele>
        <time>2015-02-04T23:45:11.474000Z</time>
      </trkpt>
      <trkpt lat="38.89861" lon="111.84063">
        <ele>1451.0446</ele>
        <time>2015-02-04T23:45:15.066000Z</time>
      </trkpt>
      <trkpt lat="38.89854" lon="111.84052">
        <ele>1450.06</ele>
        <time>2015-02-04T23:45:18.658000Z</time>
      </trkpt>
      <trkpt lat="38.89848" lon="111.84044">
        <ele>1448.6024</ele>
        <time>2015-02-04T23:45:22.250000Z</time>
      </trkpt>
      <trkpt lat="38.89842" lon="111.84035">
        <ele>1447.5104</ele>
        <time>2015-02-04T23:45:25.842000Z</time>
      </trkpt>
      <trkpt lat="38.89835" lon="111.840225">
        <ele>1447.1046</ele>
        <time>2015-02-04T23:45:29.434000Z</time>
      </trkpt>
      <trkpt lat="38.898308" lon="111.84012">
        <ele>1446.9724</ele>
        <time>2015-02-04T23:45:33.026000Z</time>
      </trkpt>
      <trkpt lat="38.898243" lon="111.83999">
        <ele>1446.7325</ele>
        <time>2015-02-04T23:45:36.618000Z</time>
      </trkpt>
      <trkpt lat="38.898167" lon="111.8399">
        <ele>1446.59</ele>
        <time>2015-02-04T23:45:40.210000Z</time>
      </trkpt>
      <trkpt lat="38.89809" lon="111.8398">
        <ele>1446.9452</ele>
        <time>2015-02-04T23:45:43.802000Z</time>
      </trkpt>
      <trkpt lat="38.898018" lon="111.83969">
        <ele>1447.7853</ele>
        <time>2015-02-04T23:45:47.394000Z</time>
      </trkpt>
      <trkpt lat="38.897964" lon="111.83958">
        <ele>1448.8481</ele>
        <time>2015-02-04T23:45:50.986000Z</time>
      </trkpt>
      <trkpt lat="38.897896" lon="111.83947">
        <ele>1450.0785</ele>
        <time>2015-02-04T23:45:54.578000Z</time>
      </trkpt>
      <trkpt lat="38.897827" lon="111.83935">
        <ele>1451.4893</ele>
        <time>2015-02-04T23:45:58.170000Z</time>
      </trkpt>
      <trkpt lat="38.897766" lon="111.839226">
        <ele>1452.87</ele>
        <time>2015-02-04T23:46:01.762000Z</time>
      </trkpt>
      <trkpt lat="38.89773" lon="111.8391">
        <ele>1454.0387</ele>
        <time>2015-02-04T23:46:05.354000Z</time>
      </trkpt>
      <trkpt lat="38.897675" lon="111.838974">
        <ele>1455.0564</ele>
        <time>2015-02-04T23:46:08.946000Z</time>
      </trkpt>
      <trkpt lat="38.897617" lon="111.83886">
        <ele>1456.1593</ele>
        <time>2015-02-04T23:46:12.538000Z</time>
      </trkpt>
      <trkpt lat="38.89757" lon="111.83874">
        <ele>1457.3488</ele>
        <time>2015-02-04T23:46:16.130000Z</time>
      </trkpt>
      <trkpt lat="38.89752" lon="111.83863">
        <ele>1458.3435</ele>
        <time>2015-02-04T23:46:19.722000Z</time>
      </trkpt>
      <trkpt lat="38.897465" lon="111.83852">
        <ele>1459.1469</ele>
        <time>2015-02-04T23:46:23.314000Z</time>
      </trkpt>
      <trkpt lat="38.897408" lon="111.83839">
        <ele>1459.9998</ele>
        <time>2015-02-04T23:46:26.906000Z</time>
      </trkpt>
      <trkpt lat="38.89736" lon="111.83825">
        <ele>1461.0828</ele>
        <time>2015-02-04T23:46:30.498000Z</time>
      </trkpt>
      <trkpt lat="38.89733" lon="111.83811">
        <ele>1462.3043</ele>
        <time>2015-02-04T23:46:34.090000Z</time>
      </trkpt>
      <trkpt lat="38.897312" lon="111.83797">
        <ele>1463.1907</ele>
        <time>2015-02-04T23:46:37.682000Z</time>
      </trkpt>
      <trkpt lat="38.897312" lon="111.837845">
        <ele>1463.5092</ele>
        <time>2015-02-04T23:46:41.274000Z</time>
      </trkpt>
      <trkpt lat="38.897305" lon="111.83771">
        <ele>1463.496</ele>
        <time>2015-02-04T23:46:44.866000Z</time>
      </trkpt>
      <trkpt lat="38.897324" lon="111.83757">
        <ele>1463.5337</ele>
        <time>2015-02-04T23:46:48.458000Z</time>
      </trkpt>
      <trkpt lat="38.897346" lon="111.83744">
        <ele>1463.9598</ele>
        <time>2015-02-04T23:46:52.050000Z</time>
      </trkpt>
      <trkpt lat="38.897373" lon="111.837296">
        <ele>1464.8019</ele>
        <time>2015-02-04T23:46:55.642000Z</time>
      </trkpt>
      <trkpt lat="38.897385" lon="111.83715">
        <ele>1465.7079</ele>
        <time>2015-02-04T23:46:59.234000Z</time>
      </trkpt>
      <trkpt lat="38.897404" lon="111.837">
        <ele>1466.2874</ele>
        <time>2015-02-04T23:47:02.826000Z</time>
      </trkpt>
      <trkpt lat="38.89741" lon="111.83687">
        <ele>1466.1886</ele>
        <time>2015-02-04T23:47:06.418000Z</time>
      </trkpt>
      <trkpt lat="38.89741" lon="111.83674">
        <ele>1465.4374</ele>
        <time>2015-02-04T23:47:10.010000Z</time>
      </trkpt>
      <trkpt lat="38.897438" lon="111.8366">
        <time>2015-02-04T23:47:13.602000Z</time>
      </trkpt>
    </trkseg>
  </trk>
</gpx>