<?xml version="1.0" encoding="UTF-8"?>
<gpx xmlns="http://www.topografix.com/GPX/1/1" xmlns:gpxtpx="http://www.garmin.com/xmlschemas/TrackPointExtension/v1" xmlns:xsi="http://www.w3.org/2001/XMLSchema-instance" xsi:schemaLocation="http://www.topografix.com/GPX/1/1 http://www.topografix.com/GPX/1/1/gpx.xsd" version="1.1" creator="gpx.py -- https://github.com/tkrajina/gpxpy">
  <trk>
    <trkseg>
      <trkpt lat="38.81829" lon="121.14731">
        <ele>37.976696</ele>
        <time>2015-03-20T09:25:16.669000Z</time>
      </trkpt>
      <trkpt lat="38.818195" lon="121.1473">
        <ele>37.959175</ele>
        <time>2015-03-20T09:25:19.838000Z</time>
      </trkpt>
      <trkpt lat="38.818104" lon="121.1473">
        <ele>37.952637</ele>
        <time>2015-03-20T09:25:23.007000Z</time>
      </trkpt>
      <trkpt lat="38.818104" lon="121.1473">
        <ele>37.952713</ele>
        <time>2015-03-20T09:25:26.176000Z</time>
      </trkpt>
      <trkpt lat="38.817997" lon="121.147285">
        <ele>37.954636</ele>
        <time>2015-03-20T09:25:29.345000Z</time>
      </trkpt>
      <trkpt lat="38.817883" lon="121.14726">
        <ele>37.949512</ele>
        <time>2015-03-20T09:25:32.514000Z</time>
      </trkpt>
      <trkpt lat="38.817795" lon="121.147224">
        <ele>37.939533</ele>
        <time>2015-03-20T09:25:35.683000Z</time>
      </trkpt>
      <trkpt lat="38.817688" lon="121.147194">
        <ele>38.077248</ele>
        <time>2015-03-20T09:25:38.852000Z</time>
      </trkpt>
      <trkpt lat="38.817577" lon="121.14719">
        <ele>38.722534</ele>
        <time>2015-03-20T09:25:42.021000Z</time>
      </trkpt>
      <trkpt lat="38.817474" lon="121.14719">
        <ele>39.81868</ele>
        <time>2015-03-20T09:25:45.190000Z</time>
      </trkpt>
      <trkpt lat="38.817375" lon="121.147224">
        <ele>40.45909</ele>
        <time>2015-03-20T09:25:48.359000Z</time>
      </trkpt>
      <trkpt lat="38.81729" lon="121.14727">
        <ele>40.116367</ele>
        <time>2015-03-20T09:25:51.528000Z</time>
      </trkpt>
      <trkpt lat="38.817245" lon="121.14741">
        <ele>39.67618</ele>
        <time>2015-03-20T09:25:54.697000Z</time>
      </trkpt>
      <trkpt lat="38.817207" lon="121.14754">
        <ele>39.954803</ele>
        <time>2015-03-20T09:25:57.866000Z</time>
      </trkpt>
      <trkpt lat="38.817165" lon="121.14769">
        <ele>40.56609</ele>
        <time>2015-03-20T09:26:01.035000Z</time>
      </trkpt>
      <trkpt lat="38.81715" lon="121.14783">
        <ele>40.670017</ele>
        <time>2015-03-20T09:26:04.204000Z</time>
      </trkpt>
      <trkpt lat="38.81717" lon="121.147964">
        <ele>39.923843</ele>
        <time>2015-03-20T09:26:07.373000Z</time>
      </trkpt>
      <trkpt lat="38.817215" lon="121.14808">
        <ele>38.38626</ele>
        <time>2015-03-20T09:26:10.542000Z</time>
      </trkpt>
      <trkpt lat="38.817257" lon="121.1482">
        <ele>36.39833</ele>
        <time>2015-03-20T09:26:13.711000Z</time>
      </trkpt>
      <trkpt lat="38.817326" lon="121.148315">
        <ele>34.671047</ele>
        <time>2015-03-20T09:26:16.880000Z</time>
      </trkpt>
      <trkpt lat="38.817432" lon="121.14834">
        <ele>33.800415</ele>
        <time>2015-03-20T09:26:20.049000Z</time>
      </trkpt>
      <trkpt lat="38.817543" lon="121.148315">
        <ele>33.91423</ele>
        <time>2015-03-20T09:26:23.218000Z</time>
      </trkpt>
      <trkpt lat="38.817654" lon="121.14832">
        <ele>34.898026</ele>
        <time>2015-03-20T09:26:26.387000Z</time>
      </trkpt>
      <trkpt lat="38.81777" lon="121.14834">
        <ele>36.2759</ele>
        <time>2015-03-20T09:26:29.556000Z</time>
      </trkpt>
      <trkpt lat="38.81786" lon="121.14833">
        <ele>37.564056</ele>
        <time>2015-03-20T09:26:32.725000Z</time>
      </trkpt>
      <trkpt lat="38.81797" lon="121.14833">
        <ele>38.534283</ele>
        <time>2015-03-20T09:26:35.894000Z</time>
      </trkpt>
      <trkpt lat="38.81808" lon="121.14831">
        <ele>39.449547</ele>
        <time>2015-03-20T09:26:39.063000Z</time>
      </trkpt>
      <trkpt lat="38.81818" lon="121.14829">
        <ele>40.90567</ele>
        <time>2015-03-20T09:26:42.232000Z</time>
      </trkpt>
      <trkpt lat="38.818268" lon="121.14834">
        <ele>42.66636</ele>
        <time>2015-03-20T09:26:45.401000Z</time>
      </trkpt>
      <trkpt lat="38.818367" lon="121.14837">
        <ele>43.16092</ele>
        <time>2015-03-20T09:26:48.570000Z</time>
      </trkpt>
      <trkpt lat="38.818474" lon="121.14833">
        <ele>41.751217</ele>
        <time>2015-03-20T09:26:51.739000Z</time>
      </trkpt>
      <trkpt lat="38.81854" lon="121.14825">
        <ele>40.135723</ele>
        <time>2015-03-20T09:26:54.908000Z</time>
      </trkpt>
      <trkpt lat="38.8186" lon="121.148155">
        <ele>40.24909</ele>
        <time>2015-03-20T09:26:58.077000Z</time>
      </trkpt>
      <trkpt lat="38.81864" lon="121.14805">
        <ele>41.977123</ele>
        <time>2015-03-20T09:27:01.246000Z</time>
      </trkpt>
      <trkpt lat="38.81868" lon="121.14792">
        <ele>45.158367</ele>
        <time>2015-03-20T09:27:04.415000Z</time>
      </trkpt>
      <trkpt lat="38.818718" lon="121.147804">
        <ele>49.77662</ele>
        <time>2015-03-20T09:27:07.584000Z</time>
      </trkpt>
      <trkpt lat="38.81874" lon="121.147675">
        <ele>54.236732</ele>
        <time>2015-03-20T09:27:10.753000Z</time>
      </trkpt>
      <trkpt lat="38.818737" lon="121.147545">
        <ele>56.945267</ele>
        <time>2015-03-20T09:27:13.922000Z</time>
      </trkpt>
      <trkpt lat="38.818672" lon="121.14742">
        <ele>58.10537</ele>
        <time>2015-03-20T09:27:17.091000Z</time>
      </trkpt>
      <trkpt lat="38.818577" lon="121.14732">
        <ele>57.929653</ele>
        <time>2015-03-20T09:27:20.260000Z</time>
      </trkpt>
      <trkpt lat="38.818493" lon="121.147255">
        <ele>56.28448</ele>
        <time>2015-03-20T09:27:23.429000Z</time>
      </trkpt>
      <trkpt lat="38.81839" lon="121.147194">
        <ele>53.638584</ele>
        <time>2015-03-20T09:27:26.598000Z</time>
      </trkpt>
      <trkpt lat="38.81828" lon="121.147194">
        <ele>51.053017</ele>
        <time>2015-03-20T09:27:29.767000Z</time>
      </trkpt>
      <trkpt lat="38.818184" lon="121.1472">
        <ele>49.33029</ele>
        <time>2015-03-20T09:27:32.936000Z</time>
      </trkpt>
      <trkpt lat="38.81809" lon="121.1472">
        <ele>49.0479</ele>
        <time>2015-03-20T09:27:36.105000Z</time>
      </trkpt>
      <trkpt lat="38.817993" lon="121.147194">
        <ele>50.09436</ele>
        <time>2015-03-20T09:27:39.274000Z</time>
      </trkpt>
      <trkpt lat="38.81789" lon="121.14719">
        <ele>51.238075</ele>
        <time>2015-03-20T09:27:42.443000Z</time>
      </trkpt>
      <trkpt lat="38.8178" lon="121.14719">
        <ele>51.40579</ele>
        <time>2015-03-20T09:27:45.612000Z</time>
      </trkpt>
      <trkpt lat="38.817696" lon="121.14719">
        <ele>50.673687</ele>
        <time>2015-03-20T09:27:48.781000Z</time>
      </trkpt>
      <trkpt lat="38.81758" lon="121.14717">
        <ele>49.543045</ele>
        <time>2015-03-20T09:27:51.950000Z</time>
      </trkpt>
      <trkpt lat="38.817467" lon="121.14716">
        <ele>48.09273</ele>
        <time>2015-03-20T09:27:55.119000Z</time>
      </trkpt>
      <trkpt lat="38.817375" lon="121.14716">
        <ele>46.41815</ele>
        <time>2015-03-20T09:27:58.288000Z</time>
      </trkpt>
      <trkpt lat="38.817287" lon="121.1472">
        <ele>45.15762</ele>
        <time>2015-03-20T09:28:01.457000Z</time>
      </trkpt>
      <trkpt lat="38.817215" lon="121.147285">
        <ele>44.825043</ele>
        <time>2015-03-20T09:28:04.626000Z</time>
      </trkpt>
      <trkpt lat="38.81716" lon="121.14742">
        <ele>45.466454</ele>
        <time>2015-03-20T09:28:07.795000Z</time>
      </trkpt>
      <trkpt lat="38.817127" lon="121.14754">
        <ele>46.693684</ele>
        <time>2015-03-20T09:28:10.964000Z</time>
      </trkpt>
      <trkpt lat="38.817154" lon="121.14768">
        <ele>47.43377</ele>
        <time>2015-03-20T09:28:14.133000Z</time>
      </trkpt>
      <trkpt lat="38.817196" lon="121.14781">
        <ele>46.85229</ele>
        <time>2015-03-20T09:28:17.302000Z</time>
      </trkpt>
      <trkpt lat="38.81725" lon="121.147934">
        <ele>45.13949</ele>
        <time>2015-03-20T09:28:20.471000Z</time>
      </trkpt>
      <trkpt lat="38.8173" lon="121.14805">
        <ele>42.814327</ele>
        <time>2015-03-20T09:28:23.640000Z</time>
      </trkpt>
      <trkpt lat="38.81734" lon="121.14817">
        <ele>40.509586</ele>
        <time>2015-03-20T09:28:26.809000Z</time>
      </trkpt>
      <trkpt lat="38.817406" lon="121.148254">
        <ele>39.024452</ele>
        <time>2015-03-20T09:28:29.978000Z</time>
      </trkpt>
      <trkpt lat="38.817505" lon="121.148315">
        <ele>38.426178</ele>
        <time>2015-03-20T09:28:33.147000Z</time>
      </trkpt>
      <trkpt lat="38.81761" lon="121.14834">
        <ele>38.143456</ele>
        <time>2015-03-20T09:28:36.316000Z</time>
      </trkpt>
      <trkpt lat="38.817707" lon="121.14832">
        <ele>38.101322</ele>
        <time>2015-03-20T09:28:39.485000Z</time>
      </trkpt>
      <trkpt lat="38.817814" lon="121.1483">
        <ele>38.544357</ele>
        <time>2015-03-20T09:28:42.654000Z</time>
      </trkpt>
      <trkpt lat="38.817913" lon="121.14831">
        <ele>39.560028</ele>
        <time>2015-03-20T09:28:45.823000Z</time>
      </trkpt>
      <trkpt lat="38.81801" lon="121.14831">
        <ele>40.98588</ele>
        <time>2015-03-20T09:28:48.992000Z</time>
      </trkpt>
      <trkpt lat="38.818115" lon="121.14829">
        <ele>42.577385</ele>
        <time>2015-03-20T09:28:52.161000Z</time>
      </trkpt>
      <trkpt lat="38.81823" lon="121.14831">
        <ele>44.018036</ele>
        <time>2015-03-20T09:28:55.330000Z</time>
      </trkpt>
      <trkpt lat="38.818325" lon="121.148315">
        <ele>44.647903</ele>
        <time>2015-03-20T09:28:58.499000Z</time>
      </trkpt>
      <trkpt lat="38.818417" lon="121.14831">
        <ele>44.199093</ele>
        <time>2015-03-20T09:29:01.668000Z</time>
      </trkpt>
      <trkpt lat="38.818516" lon="121.148285">
        <ele>43.405785</ele>
        <time>2015-03-20T09:29:04.837000Z</time>
      </trkpt>
      <trkpt lat="38.81861" lon="121.14822">
        <ele>43.075294</ele>
        <time>2015-03-20T09:29:08.006000Z</time>
      </trkpt>
      <trkpt lat="38.818672" lon="121.1481">
        <ele>43.3088</ele>
        <time>2015-03-20T09:29:11.175000Z</time>
      </trkpt>
      <trkpt lat="38.818703" lon="121.14798">
        <ele>43.57855</ele>
        <time>2015-03-20T09:29:14.344000Z</time>
      </trkpt>
      <trkpt lat="38.818726" lon="121.147865">
        <ele>43.458874</ele>
        <time>2015-03-20T09:29:17.513000Z</time>
      </trkpt>
      <trkpt lat="38.81874" lon="121.14774">
        <ele>43.430202</ele>
        <time>2015-03-20T09:29:20.682000Z</time>
      </trkpt>
      <trkpt lat="38.818737" lon="121.14762">
        <ele>44.23107</ele>
        <time>2015-03-20T09:29:23.851000Z</time>
      </trkpt>
      <trkpt lat="38.8187" lon="121.14749">
        <ele>46.04433</ele>
        <time>2015-03-20T09:29:27.020000Z</time>
      </trkpt>
      <trkpt lat="38.818634" lon="121.147385">
        <ele>48.223972</ele>
        <time>2015-03-20T09:29:30.189000Z</time>
      </trkpt>
      <trkpt lat="38.818565" lon="121.1473">
        <ele>49.760883</ele>
        <time>2015-03-20T09:29:33.358000Z</time>
      </trkpt>
      <trkpt lat="38.818474" lon="121.147255">
        <ele>50.019207</ele>
        <time>2015-03-20T09:29:36.527000Z</time>
      </trkpt>
      <trkpt lat="38.818348" lon="121.14724">
        <ele>49.125404</ele>
        <time>2015-03-20T09:29:39.696000Z</time>
      </trkpt>
      <trkpt lat="38.81825" lon="121.147224">
        <ele>47.57099</ele>
        <time>2015-03-20T09:29:42.865000Z</time>
      </trkpt>
      <trkpt lat="38.81814" lon="121.14721">
        <ele>46.006638</ele>
        <time>2015-03-20T09:29:46.034000Z</time>
      </trkpt>
      <trkpt lat="38.818043" lon="121.14721">
        <ele>44.99683</ele>
        <time>2015-03-20T09:29:49.203000Z</time>
      </trkpt>
      <trkpt lat="38.817932" lon="121.147194">
        <ele>44.821384</ele>
        <time>2015-03-20T09:29:52.372000Z</time>
      </trkpt>
      <trkpt lat="38.817837" lon="121.14719">
        <ele>45.23316</ele>
        <time>2015-03-20T09:29:55.541000Z</time>
      </trkpt>
      <trkpt lat="38.817738" lon="121.14719">
        <ele>46.007324</ele>
        <time>2015-03-20T09:29:58.710000Z</time>
      </trkpt>
      <trkpt lat="38.81763" lon="121.14719">
        <ele>46.98412</ele>
        <time>2015-03-20T09:30:01.879000Z</time>
      </trkpt>
      <trkpt lat="38.817535" lon="121.147194">
        <ele>47.774414</ele>
        <time>2015-03-20T09:30:05.048000Z</time>
      </trkpt>
      <trkpt lat="38.81742" lon="121.14722">
        <ele>48.228558</ele>
        <time>2015-03-20T09:30:08.217000Z</time>
      </trkpt>
      <trkpt lat="38.817318" lon="121.14726">
        <ele>48.462692</ele>
        <time>2015-03-20T09:30:11.386000Z</time>
      </trkpt>
      <trkpt lat="38.817204" lon="121.14731">
        <ele>48.253372</ele>
        <time>2015-03-20T09:30:14.555000Z</time>
      </trkpt>
      <trkpt lat="38.817116" lon="121.14739">
        <ele>47.496918</ele>
        <time>2015-03-20T09:30:17.724000Z</time>
      </trkpt>
      <trkpt lat="38.81709" lon="121.14752">
        <ele>46.317207</ele>
        <time>2015-03-20T09:30:20.893000Z</time>
      </trkpt>
      <trkpt lat="38.817085" lon="121.14768">
        <ele>44.857307</ele>
        <time>2015-03-20T09:30:24.062000Z</time>
      </trkpt>
      <trkpt lat="38.817112" lon="121.14781">
        <ele>43.425117</ele>
        <time>2015-03-20T09:30:27.231000Z</time>
      </trkpt>
      <trkpt lat="38.81715" lon="121.147934">
        <ele>42.231773</ele>
        <time>2015-03-20T09:30:30.400000Z</time>
      </trkpt>
      <trkpt lat="38.817192" lon="121.14805">
        <ele>41.07196</ele>
        <time>2015-03-20T09:30:33.569000Z</time>
      </trkpt>
      <trkpt lat="38.817257" lon="121.14815">
        <ele>39.613323</ele>
        <time>2015-03-20T09:30:36.738000Z</time>
      </trkpt>
      <trkpt lat="38.81732" lon="121.14825">
        <ele>37.920425</ele>
        <time>2015-03-20T09:30:39.907000Z</time>
      </trkpt>
      <trkpt lat="38.817394" lon="121.14833">
        <ele>36.530678</ele>
        <time>2015-03-20T09:30:43.076000Z</time>
      </trkpt>
      <trkpt lat="38.817474" lon="121.148384">
        <ele>35.967983</ele>
        <time>2015-03-20T09:30:46.245000Z</time>
      </trkpt>
      <trkpt lat="38.817574" lon="121.14839">
        <ele>36.196808</ele>
        <time>2015-03-20T09:30:49.414000Z</time>
      </trkpt>
      <trkpt lat="38.817665" lon="121.14841">
        <ele>36.529205</ele>
        <time>2015-03-20T09:30:52.583000Z</time>
      </trkpt>
      <trkpt lat="38.817764" lon="121.14838">
        <ele>36.45797</ele>
        <time>2015-03-20T09:30:55.752000Z</time>
      </trkpt>
      <trkpt lat="38.817867" lon="121.14835">
        <ele>36.447876</ele>
        <time>2015-03-20T09:30:58.921000Z</time>
      </trkpt>
      <trkpt lat="38.81798" lon="121.148346">
        <ele>37.38709</ele>
        <time>2015-03-20T09:31:02.090000Z</time>
      </trkpt>
      <trkpt lat="38.81808" lon="121.14835">
        <ele>39.278717</ele>
        <time>2015-03-20T09:31:05.259000Z</time>
      </trkpt>
      <trkpt lat="38.818188" lon="121.14837">
        <ele>41.104076</ele>
        <time>2015-03-20T09:31:08.428000Z</time>
      </trkpt>
      <trkpt lat="38.818306" lon="121.14841">
        <ele>42.075893</ele>
        <time>2015-03-20T09:31:11.597000Z</time>
      </trkpt>
      <trkpt lat="38.818424" lon="121.148415">
        <ele>42.424763</ele>
        <time>2015-03-20T09:31:14.766000Z</time>
      </trkpt>
      <trkpt lat="38.81852" lon="121.148384">
        <ele>42.66619</ele>
        <time>2015-03-20T09:31:17.935000Z</time>
      </trkpt>
      <trkpt lat="38.818607" lon="121.148315">
        <ele>43.024696</ele>
        <time>2015-03-20T09:31:21.104000Z</time>
      </trkpt>
      <trkpt lat="38.818703" lon="121.148224">
        <ele>43.61965</ele>
        <time>2015-03-20T09:31:24.273000Z</time>
      </trkpt>
      <trkpt lat="38.818756" lon="121.14811">
        <ele>44.49724</ele>
        <time>2015-03-20T09:31:27.442000Z</time>
      </trkpt>
      <trkpt lat="38.81878" lon="121.14797">
        <ele>45.51998</ele>
        <time>2015-03-20T09:31:30.611000Z</time>
      </trkpt>
      <trkpt lat="38.818737" lon="121.147766">
        <ele>46.571346</ele>
        <time>2015-03-20T09:31:33.780000Z</time>
      </trkpt>
      <trkpt lat="38.81873" lon="121.14763">
        <ele>47.464703</ele>
        <time>2015-03-20T09:31:36.949000Z</time>
      </trkpt>
      <trkpt lat="38.818684" lon="121.14751">
        <ele>47.975094</ele>
        <time>2015-03-20T09:31:40.118000Z</time>
      </trkpt>
      <trkpt lat="38.818607" lon="121.14742">
        <ele>47.828</ele>
        <time>2015-03-20T09:31:43.287000Z</time>
      </trkpt>
      <trkpt lat="38.818527" lon="121.14736">
        <ele>46.921814</ele>
        <time>2015-03-20T09:31:46.456000Z</time>
      </trkpt>
      <trkpt lat="38.818424" lon="121.1473">
        <ele>45.611782</ele>
        <time>2015-03-20T09:31:49.625000Z</time>
      </trkpt>
      <trkpt lat="38.818333" lon="121.14728">
        <ele>44.49071</ele>
        <time>2015-03-20T09:31:52.794000Z</time>
      </trkpt>
      <trkpt lat="38.818214" lon="121.14726">
        <ele>43.882782</ele>
        <time>2015-03-20T09:31:55.963000Z</time>
      </trkpt>
      <trkpt lat="38.81811" lon="121.14726">
        <ele>43.74506</ele>
        <time>2015-03-20T09:31:59.132000Z</time>
      </trkpt>
      <trkpt lat="38.818" lon="121.14726">
        <ele>43.81471</ele>
        <time>2015-03-20T09:32:02.301000Z</time>
      </trkpt>
      <trkpt lat="38.817898" lon="121.147255">
        <ele>43.768147</ele>
        <time>2015-03-20T09:32:05.470000Z</time>
      </trkpt>
      <trkpt lat="38.817783" lon="121.14725">
        <ele>43.4573</ele>
        <time>2015-03-20T09:32:08.639000Z</time>
      </trkpt>
      <trkpt lat="38.817677" lon="121.14725">
        <ele>42.960464</ele>
        <time>2015-03-20T09:32:11.808000Z</time>
      </trkpt>
      <trkpt lat="38.817562" lon="121.14724">
        <ele>42.41944</ele>
        <time>2015-03-20T09:32:14.977000Z</time>
      </trkpt>
      <trkpt lat="38.817455" lon="121.14725">
        <ele>42.292347</ele>
        <time>2015-03-20T09:32:18.146000Z</time>
      </trkpt>
      <trkpt lat="38.817356" lon="121.14727">
        <ele>43.00108</ele>
        <time>2015-03-20T09:32:21.315000Z</time>
      </trkpt>
      <trkpt lat="38.817265" lon="121.147316">
        <ele>44.240753</ele>
        <time>2015-03-20T09:32:24.484000Z</time>
      </trkpt>
      <trkpt lat="38.81719" lon="121.14741">
        <ele>45.503357</ele>
        <time>2015-03-20T09:32:27.653000Z</time>
      </trkpt>
      <trkpt lat="38.817146" lon="121.14754">
        <ele>46.493748</ele>
        <time>2015-03-20T09:32:30.822000Z</time>
      </trkpt>
      <trkpt lat="38.817142" lon="121.1477">
        <ele>47.016922</ele>
        <time>2015-03-20T09:32:33.991000Z</time>
      </trkpt>
      <trkpt lat="38.817154" lon="121.147865">
        <ele>46.989967</ele>
        <time>2015-03-20T09:32:37.160000Z</time>
      </trkpt>
      <trkpt lat="38.817204" lon="121.14801">
        <ele>46.288292</ele>
        <time>2015-03-20T09:32:40.329000Z</time>
      </trkpt>
      <trkpt lat="38.817272" lon="121.148125">
        <ele>44.703648</ele>
        <time>2015-03-20T09:32:43.498000Z</time>
      </trkpt>
      <trkpt lat="38.81736" lon="121.148224">
        <ele>42.253124</ele>
        <time>2015-03-20T09:32:46.667000Z</time>
      </trkpt>
      <trkpt lat="38.817463" lon="121.1483">
        <ele>39.541237</ele>
        <time>2015-03-20T09:32:49.836000Z</time>
      </trkpt>
      <trkpt lat="38.81757" lon="121.14833">
        <ele>37.391502</ele>
        <time>2015-03-20T09:32:53.005000Z</time>
      </trkpt>
      <trkpt lat="38.817677" lon="121.14833">
        <ele>36.153484</ele>
        <time>2015-03-20T09:32:56.174000Z</time>
      </trkpt>
      <trkpt lat="38.81777" lon="121.14834">
        <ele>35.69687</ele>
        <time>2015-03-20T09:32:59.343000Z</time>
      </trkpt>
      <trkpt lat="38.817863" lon="121.14834">
        <ele>35.982605</ele>
        <time>2015-03-20T09:33:02.512000Z</time>
      </trkpt>
      <trkpt lat="38.81796" lon="121.148346">
        <ele>36.839542</ele>
        <time>2015-03-20T09:33:05.681000Z</time>
      </trkpt>
      <trkpt lat="38.818073" lon="121.14836">
        <ele>37.81705</ele>
        <time>2015-03-20T09:33:08.850000Z</time>
      </trkpt>
      <trkpt lat="38.818172" lon="121.14836">
        <ele>38.70211</ele>
        <time>2015-03-20T09:33:12.019000Z</time>
      </trkpt>
      <trkpt lat="38.818283" lon="121.14837">
        <ele>39.75965</ele>
        <time>2015-03-20T09:33:15.188000Z</time>
      </trkpt>
      <trkpt lat="38.818394" lon="121.14837">
        <ele>41.09104</ele>
        <time>2015-03-20T09:33:18.357000Z</time>
      </trkpt>
      <trkpt lat="38.81849" lon="121.14833">
        <ele>42.461407</ele>
        <time>2015-03-20T09:33:21.526000Z</time>
      </trkpt>
      <trkpt lat="38.818584" lon="121.14827">
        <ele>43.5067</ele>
        <time>2015-03-20T09:33:24.695000Z</time>
      </trkpt>
      <trkpt lat="38.818695" lon="121.14817">
        <ele>43.211384</ele>
        <time>2015-03-20T09:33:27.864000Z</time>
      </trkpt>
      <trkpt lat="38.818768" lon="121.14803">
        <ele>41.155567</ele>
        <time>2015-03-20T09:33:31.033000Z</time>
      </trkpt>
      <trkpt lat="38.818783" lon="121.14789">
        <ele>38.86474</ele>
        <time>2015-03-20T09:33:34.202000Z</time>
      </trkpt>
      <trkpt lat="38.818756" lon="121.14773">
        <ele>37.727856</ele>
        <time>2015-03-20T09:33:37.371000Z</time>
      </trkpt>
      <trkpt lat="38.818745" lon="121.14757">
        <ele>37.66385</ele>
        <time>2015-03-20T09:33:40.540000Z</time>
      </trkpt>
      <trkpt lat="38.8187" lon="121.147446">
        <ele>38.19563</ele>
        <time>2015-03-20T09:33:43.709000Z</time>
      </trkpt>
      <trkpt lat="38.81861" lon="121.14736">
        <ele>38.751923</ele>
        <time>2015-03-20T09:33:46.878000Z</time>
      </trkpt>
      <trkpt lat="38.81852" lon="121.147316">
        <ele>38.46601</ele>
        <time>2015-03-20T09:33:50.047000Z</time>
      </trkpt>
      <trkpt lat="38.818413" lon="121.14726">
        <ele>36.65403</ele>
        <time>2015-03-20T09:33:53.216000Z</time>
      </trkpt>
      <trkpt lat="38.8183" lon="121.147255">
        <ele>34.052273</ele>
        <time>2015-03-20T09:33:56.385000Z</time>
      </trkpt>
      <trkpt lat="38.818172" lon="121.14726">
        <ele>32.0594</ele>
        <time>2015-03-20T09:33:59.554000Z</time>
      </trkpt>
      <trkpt lat="38.81806" lon="121.147285">
        <ele>31.184317</ele>
        <time>2015-03-20T09:34:02.723000Z</time>
      </trkpt>
      <trkpt lat="38.817963" lon="121.14728">
        <ele>31.211908</ele>
        <time>2015-03-20T09:34:05.892000Z</time>
      </trkpt>
      <trkpt lat="38.81787" lon="121.14727">
        <ele>31.75834</ele>
        <time>2015-03-20T09:34:09.061000Z</time>
      </trkpt>
      <trkpt lat="38.81775" lon="121.14728">
        <ele>32.8319</ele>
        <time>2015-03-20T09:34:12.230000Z</time>
      </trkpt>
      <trkpt lat="38.817623" lon="121.14728">
        <ele>34.38963</ele>
        <time>2015-03-20T09:34:15.399000Z</time>
      </trkpt>
      <trkpt lat="38.81751" lon="121.14727">
        <ele>35.80782</ele>
        <time>2015-03-20T09:34:18.568000Z</time>
      </trkpt>
      <trkpt lat="38.81741" lon="121.147285">
        <ele>36.68641</ele>
        <time>2015-03-20T09:34:21.737000Z</time>
      </trkpt>
      <trkpt lat="38.817326" lon="121.14733">
        <ele>36.943</ele>
        <time>2015-03-20T09:34:24.906000Z</time>
      </trkpt>
      <trkpt lat="38.817257" lon="121.14744">
        <ele>36.629635</ele>
        <time>2015-03-20T09:34:28.075000Z</time>
      </trkpt>
      <trkpt lat="38.817207" lon="121.14756">
        <ele>36.182705</ele>
        <time>2015-03-20T09:34:31.244000Z</time>
      </trkpt>
      <trkpt lat="38.81718" lon="121.14769">
        <ele>35.935913</ele>
        <time>2015-03-20T09:34:34.413000Z</time>
      </trkpt>
      <trkpt lat="38.817165" lon="121.14783">
        <ele>35.601322</ele>
        <time>2015-03-20T09:34:37.582000Z</time>
      </trkpt>
      <trkpt lat="38.817173" lon="121.14797">
        <ele>34.90806</ele>
        <time>2015-03-20T09:34:40.751000Z</time>
      </trkpt>
      <trkpt lat="38.81721" lon="121.14811">
        <ele>34.205727</ele>
        <time>2015-03-20T09:34:43.920000Z</time>
      </trkpt>
      <trkpt lat="38.817287" lon="121.14822">
        <ele>33.875122</ele>
        <time>2015-03-20T09:34:47.089000Z</time>
      </trkpt>
      <trkpt lat="38.81738" lon="121.148315">
        <ele>33.82663</ele>
        <time>2015-03-20T09:34:50.258000Z</time>
      </trkpt>
      <trkpt lat="38.81749" lon="121.14837">
        <ele>34.160717</ele>
        <time>2015-03-20T09:34:53.427000Z</time>
      </trkpt>
      <trkpt lat="38.81761" lon="121.14838">
        <ele>35.07591</ele>
        <time>2015-03-20T09:34:56.596000Z</time>
      </trkpt>
      <trkpt lat="38.817726" lon="121.14838">
        <ele>36.201256</ele>
        <time>2015-03-20T09:34:59.765000Z</time>
      </trkpt>
      <trkpt lat="38.817837" lon="121.14838">
        <ele>37.063076</ele>
        <time>2015-03-20T09:35:02.934000Z</time>
      </trkpt>
      <trkpt lat="38.81794" lon="121.14838">
        <ele>37.784664</ele>
        <time>2015-03-20T09:35:06.103000Z</time>
      </trkpt>
      <trkpt lat="38.818043" lon="121.14836">
        <ele>38.752243</ele>
        <time>2015-03-20T09:35:09.272000Z</time>
      </trkpt>
      <trkpt lat="38.818146" lon="121.14835">
        <ele>40.062565</ele>
        <time>2015-03-20T09:35:12.441000Z</time>
      </trkpt>
      <trkpt lat="38.81826" lon="121.14835">
        <ele>41.30454</ele>
        <time>2015-03-20T09:35:15.610000Z</time>
      </trkpt>
      <trkpt lat="38.818375" lon="121.14835">
        <ele>42.14148</ele>
        <time>2015-03-20T09:35:18.779000Z</time>
      </trkpt>
      <trkpt lat="38.818775" lon="121.14793">
        <ele>42.796032</ele>
        <time>2015-03-20T09:35:21.948000Z</time>
      </trkpt>
      <trkpt lat="38.81878" lon="121.14791">
        <ele>41.71346</ele>
        <time>2015-03-20T09:35:25.117000Z</time>
      </trkpt>
      <trkpt lat="38.81878" lon="121.14791">
        <ele>40.999626</ele>
        <time>2015-03-20T09:35:28.286000Z</time>
      </trkpt>
      <trkpt lat="38.818775" lon="121.14777">
        <ele>40.869877</ele>
        <time>2015-03-20T09:35:31.455000Z</time>
      </trkpt>
      <trkpt lat="38.818733" lon="121.14765">
        <ele>41.33611</ele>
        <time>2015-03-20T09:35:34.624000Z</time>
      </trkpt>
      <trkpt lat="38.81868" lon="121.14753">
        <ele>42.28977</ele>
        <time>2015-03-20T09:35:37.793000Z</time>
      </trkpt>
      <trkpt lat="38.818592" lon="121.14744">
        <ele>43.307804</ele>
        <time>2015-03-20T09:35:40.962000Z</time>
      </trkpt>
      <trkpt lat="38.81849" lon="121.147354">
        <ele>43.939793</ele>
        <time>2015-03-20T09:35:44.131000Z</time>
      </trkpt>
      <trkpt lat="38.818394" lon="121.147316">
        <ele>44.124966</ele>
        <time>2015-03-20T09:35:47.300000Z</time>
      </trkpt>
      <trkpt lat="38.81829" lon="121.14732">
        <ele>44.084145</ele>
        <time>2015-03-20T09:35:50.469000Z</time>
      </trkpt>
      <trkpt lat="38.81818" lon="121.14732">
        <ele>44.000683</ele>
        <time>2015-03-20T09:35:53.638000Z</time>
      </trkpt>
      <trkpt lat="38.818077" lon="121.14732">
        <ele>43.94956</ele>
        <time>2015-03-20T09:35:56.807000Z</time>
      </trkpt>
      <trkpt lat="38.817978" lon="121.147316">
        <ele>43.93489</ele>
        <time>2015-03-20T09:35:59.976000Z</time>
      </trkpt>
      <trkpt lat="38.81788" lon="121.14729">
        <ele>43.80025</ele>
        <time>2015-03-20T09:36:03.145000Z</time>
      </trkpt>
      <trkpt lat="38.817776" lon="121.147285">
        <ele>43.30902</ele>
        <time>2015-03-20T09:36:06.314000Z</time>
      </trkpt>
      <trkpt lat="38.81768" lon="121.14727">
        <ele>42.58383</ele>
        <time>2015-03-20T09:36:09.483000Z</time>
      </trkpt>
      <trkpt lat="38.817585" lon="121.14728">
        <ele>42.040295</ele>
        <time>2015-03-20T09:36:12.652000Z</time>
      </trkpt>
      <trkpt lat="38.817493" lon="121.147285">
        <ele>41.8382</ele>
        <time>2015-03-20T09:36:15.821000Z</time>
      </trkpt>
      <trkpt lat="38.817398" lon="121.14731">
        <ele>41.702915</ele>
        <time>2015-03-20T09:36:18.990000Z</time>
      </trkpt>
      <trkpt lat="38.817303" lon="121.14738">
        <ele>41.264606</ele>
        <time>2015-03-20T09:36:22.159000Z</time>
      </trkpt>
      <trkpt lat="38.81721" lon="121.14746">
        <ele>40.57939</ele>
        <time>2015-03-20T09:36:25.328000Z</time>
      </trkpt>
      <trkpt lat="38.817142" lon="121.14758">
        <ele>40.189014</ele>
        <time>2015-03-20T09:36:28.497000Z</time>
      </trkpt>
      <trkpt lat="38.817116" lon="121.14772">
        <ele>40.346687</ele>
        <time>2015-03-20T09:36:31.666000Z</time>
      </trkpt>
      <trkpt lat="38.817116" lon="121.147865">
        <ele>40.714657</ele>
        <time>2015-03-20T09:36:34.835000Z</time>
      </trkpt>
      <trkpt lat="38.817154" lon="121.14802">
        <ele>40.808254</ele>
        <time>2015-03-20T09:36:38.004000Z</time>
      </trkpt>
      <trkpt lat="38.817223" lon="121.148155">
        <ele>40.517807</ele>
        <time>2015-03-20T09:36:41.173000Z</time>
      </trkpt>
      <trkpt lat="38.81731" lon="121.14826">
        <ele>40.134556</ele>
        <time>2015-03-20T09:36:44.342000Z</time>
      </trkpt>
      <trkpt lat="38.817417" lon="121.14833">
        <ele>39.929115</ele>
        <time>2015-03-20T09:36:47.511000Z</time>
      </trkpt>
      <trkpt lat="38.817524" lon="121.14837">
        <ele>39.88383</ele>
        <time>2015-03-20T09:36:50.680000Z</time>
      </trkpt>
      <trkpt lat="38.81762" lon="121.14837">
        <ele>39.90831</ele>
        <time>2015-03-20T09:36:53.849000Z</time>
      </trkpt>
      <trkpt lat="38.817738" lon="121.14837">
        <ele>40.0778</ele>
        <time>2015-03-20T09:36:57.018000Z</time>
      </trkpt>
      <trkpt lat="38.81785" lon="121.14838">
        <ele>40.45426</ele>
        <time>2015-03-20T09:37:00.187000Z</time>
      </trkpt>
      <trkpt lat="38.817944" lon="121.14841">
        <ele>40.827236</ele>
        <time>2015-03-20T09:37:03.356000Z</time>
      </trkpt>
      <trkpt lat="38.818035" lon="121.14842">
        <ele>41.276794</ele>
        <time>2015-03-20T09:37:06.525000Z</time>
      </trkpt>
      <trkpt lat="38.81815" lon="121.148415">
        <ele>42.02055</ele>
        <time>2015-03-20T09:37:09.694000Z</time>
      </trkpt>
      <trkpt lat="38.81824" lon="121.14842">
        <ele>42.58992</ele>
        <time>2015-03-20T09:37:12.863000Z</time>
      </trkpt>
      <trkpt lat="38.81834" lon="121.14844">
        <ele>42.550167</ele>
        <time>2015-03-20T09:37:16.032000Z</time>
      </trkpt>
      <trkpt lat="38.81843" lon="121.14844">
        <ele>42.21987</ele>
        <time>2015-03-20T09:37:19.201000Z</time>
      </trkpt>
      <trkpt lat="38.818542" lon="121.148384">
        <ele>41.982822</ele>
        <time>2015-03-20T09:37:22.370000Z</time>
      </trkpt>
      <trkpt lat="38.818626" lon="121.1483">
        <ele>41.89868</ele>
        <time>2015-03-20T09:37:25.539000Z</time>
      </trkpt>
      <trkpt lat="38.8187" lon="121.148186">
        <ele>42.04113</ele>
        <time>2015-03-20T09:37:28.708000Z</time>
      </trkpt>
      <trkpt lat="38.818752" lon="121.14805">
        <ele>42.428204</ele>
        <time>2015-03-20T09:37:31.877000Z</time>
      </trkpt>
      <trkpt lat="38.818783" lon="121.14791">
        <ele>42.816864</ele>
        <time>2015-03-20T09:37:35.046000Z</time>
      </trkpt>
      <trkpt lat="38.81878" lon="121.14776">
        <ele>43.137012</ele>
        <time>2015-03-20T09:37:38.215000Z</time>
      </trkpt>
      <trkpt lat="38.818745" lon="121.147644">
        <ele>43.523006</ele>
        <time>2015-03-20T09:37:41.384000Z</time>
      </trkpt>
      <trkpt lat="38.81869" lon="121.1475">
        <ele>43.860218</ele>
        <time>2015-03-20T09:37:44.553000Z</time>
      </trkpt>
      <trkpt lat="38.81862" lon="121.147385">
        <ele>44.003815</ele>
        <time>2015-03-20T09:37:47.722000Z</time>
      </trkpt>
      <trkpt lat="38.81853" lon="121.14731">
        <ele>44.015713</ele>
        <time>2015-03-20T09:37:50.891000Z</time>
      </trkpt>
      <trkpt lat="38.818417" lon="121.147285">
        <ele>43.84557</ele>
        <time>2015-03-20T09:37:54.060000Z</time>
      </trkpt>
      <trkpt lat="38.818295" lon="121.14729">
        <ele>43.45825</ele>
        <time>2015-03-20T09:37:57.229000Z</time>
      </trkpt>
      <trkpt lat="38.818176" lon="121.14729">
        <ele>43.077297</ele>
        <time>2015-03-20T09:38:00.398000Z</time>
      </trkpt>
      <trkpt lat="38.818077" lon="121.14729">
        <ele>42.90119</ele>
        <time>2015-03-20T09:38:03.567000Z</time>
      </trkpt>
      <trkpt lat="38.817974" lon="121.14731">
        <ele>42.60095</ele>
        <time>2015-03-20T09:38:06.736000Z</time>
      </trkpt>
      <trkpt lat="38.81787" lon="121.1473">
        <ele>41.775204</ele>
        <time>2015-03-20T09:38:09.905000Z</time>
      </trkpt>
      <trkpt lat="38.817772" lon="121.14729">
        <ele>40.707474</ele>
        <time>2015-03-20T09:38:13.074000Z</time>
      </trkpt>
      <trkpt lat="38.817665" lon="121.14729">
        <ele>40.00167</ele>
        <time>2015-03-20T09:38:16.243000Z</time>
      </trkpt>
      <trkpt lat="38.817566" lon="121.147285">
        <ele>39.77515</ele>
        <time>2015-03-20T09:38:19.412000Z</time>
      </trkpt>
      <trkpt lat="38.817467" lon="121.1473">
        <ele>39.944096</ele>
        <time>2015-03-20T09:38:22.581000Z</time>
      </trkpt>
      <trkpt lat="38.817356" lon="121.14735">
        <ele>40.668015</ele>
        <time>2015-03-20T09:38:25.750000Z</time>
      </trkpt>
      <trkpt lat="38.817257" lon="121.14743">
        <ele>41.8144</ele>
        <time>2015-03-20T09:38:28.919000Z</time>
      </trkpt>
      <trkpt lat="38.817177" lon="121.147545">
        <ele>42.884712</ele>
        <time>2015-03-20T09:38:32.088000Z</time>
      </trkpt>
      <trkpt lat="38.817135" lon="121.14766">
        <ele>43.757084</ele>
        <time>2015-03-20T09:38:35.257000Z</time>
      </trkpt>
      <trkpt lat="38.817123" lon="121.14779">
        <ele>44.50229</ele>
        <time>2015-03-20T09:38:38.426000Z</time>
      </trkpt>
      <trkpt lat="38.81713" lon="121.14792">
        <ele>44.8141</ele>
        <time>2015-03-20T09:38:41.595000Z</time>
      </trkpt>
      <trkpt lat="38.817177" lon="121.14806">
        <ele>44.44208</ele>
        <time>2015-03-20T09:38:44.764000Z</time>
      </trkpt>
      <trkpt lat="38.817234" lon="121.14818">
        <ele>43.54115</ele>
        <time>2015-03-20T09:38:47.933000Z</time>
      </trkpt>
      <trkpt lat="38.817303" lon="121.14827">
        <ele>42.575512</ele>
        <time>2015-03-20T09:38:51.102000Z</time>
      </trkpt>
      <trkpt lat="38.8174" lon="121.148346">
        <ele>41.829723</ele>
        <time>2015-03-20T09:38:54.271000Z</time>
      </trkpt>
      <trkpt lat="38.8175" lon="121.14838">
        <ele>41.28806</ele>
        <time>2015-03-20T09:38:57.440000Z</time>
      </trkpt>
      <trkpt lat="38.817608" lon="121.14838">
        <ele>41.09324</ele>
        <time>2015-03-20T09:39:00.609000Z</time>
      </trkpt>
      <trkpt lat="38.8177" lon="121.14838">
        <ele>41.35706</ele>
        <time>2015-03-20T09:39:03.778000Z</time>
      </trkpt>
      <trkpt lat="38.8178" lon="121.148384">
        <ele>41.88731</ele>
        <time>2015-03-20T09:39:06.947000Z</time>
      </trkpt>
      <trkpt lat="38.81791" lon="121.14839">
        <ele>43.01957</ele>
        <time>2015-03-20T09:39:10.116000Z</time>
      </trkpt>
      <trkpt lat="38.818012" lon="121.1484">
        <ele>44.88204</ele>
        <time>2015-03-20T09:39:13.285000Z</time>
      </trkpt>
      <trkpt lat="38.81812" lon="121.1484">
        <ele>46.512657</ele>
        <time>2015-03-20T09:39:16.454000Z</time>
      </trkpt>
      <trkpt lat="38.81822" lon="121.1484">
        <ele>47.208168</ele>
        <time>2015-03-20T09:39:19.623000Z</time>
      </trkpt>
      <trkpt lat="38.81832" lon="121.1484">
        <ele>47.266567</ele>
        <time>2015-03-20T09:39:22.792000Z</time>
      </trkpt>
      <trkpt lat="38.818424" lon="121.14839">
        <ele>47.52685</ele>
        <time>2015-03-20T09:39:25.961000Z</time>
      </trkpt>
      <trkpt lat="38.818516" lon="121.14837">
        <ele>48.473896</ele>
        <time>2015-03-20T09:39:29.130000Z</time>
      </trkpt>
      <trkpt lat="38.818615" lon="121.148315">
        <ele>49.388237</ele>
        <time>2015-03-20T09:39:32.299000Z</time>
      </trkpt>
      <trkpt lat="38.8187" lon="121.1482">
        <ele>49.54997</ele>
        <time>2015-03-20T09:39:35.468000Z</time>
      </trkpt>
      <trkpt lat="38.818756" lon="121.14806">
        <ele>49.134716</ele>
        <time>2015-03-20T09:39:38.637000Z</time>
      </trkpt>
      <trkpt lat="38.818783" lon="121.1479">
        <ele>48.38221</ele>
        <time>2015-03-20T09:39:41.806000Z</time>
      </trkpt>
      <trkpt lat="38.81879" lon="121.14775">
        <ele>47.540504</ele>
        <time>2015-03-20T09:39:44.975000Z</time>
      </trkpt>
      <trkpt lat="38.818752" lon="121.14761">
        <ele>46.983795</ele>
        <time>2015-03-20T09:39:48.144000Z</time>
      </trkpt>
      <trkpt lat="38.818665" lon="121.14749">
        <ele>46.80499</ele>
        <time>2015-03-20T09:39:51.313000Z</time>
      </trkpt>
      <trkpt lat="38.818565" lon="121.1474">
        <ele>46.96733</ele>
        <time>2015-03-20T09:39:54.482000Z</time>
      </trkpt>
      <trkpt lat="38.81847" lon="121.14735">
        <ele>47.39634</ele>
        <time>2015-03-20T09:39:57.651000Z</time>
      </trkpt>
      <trkpt lat="38.818367" lon="121.147316">
        <ele>47.534508</ele>
        <time>2015-03-20T09:40:00.820000Z</time>
      </trkpt>
      <trkpt lat="38.818253" lon="121.147316">
        <ele>46.86602</ele>
        <time>2015-03-20T09:40:03.989000Z</time>
      </trkpt>
      <trkpt lat="38.818146" lon="121.14732">
        <ele>45.791626</ele>
        <time>2015-03-20T09:40:07.158000Z</time>
      </trkpt>
      <trkpt lat="38.818043" lon="121.14732">
        <ele>45.03601</ele>
        <time>2015-03-20T09:40:10.327000Z</time>
      </trkpt>
      <trkpt lat="38.817936" lon="121.14731">
        <ele>44.497574</ele>
        <time>2015-03-20T09:40:13.496000Z</time>
      </trkpt>
      <trkpt lat="38.81783" lon="121.1473">
        <ele>43.65783</ele>
        <time>2015-03-20T09:40:16.665000Z</time>
      </trkpt>
      <trkpt lat="38.817707" lon="121.14731">
        <ele>42.647438</ele>
        <time>2015-03-20T09:40:19.834000Z</time>
      </trkpt>
      <trkpt lat="38.817593" lon="121.147316">
        <ele>41.850563</ele>
        <time>2015-03-20T09:40:23.003000Z</time>
      </trkpt>
      <trkpt lat="38.817497" lon="121.147316">
        <ele>41.283237</ele>
        <time>2015-03-20T09:40:26.172000Z</time>
      </trkpt>
      <trkpt lat="38.81741" lon="121.14735">
        <ele>40.9455</ele>
        <time>2015-03-20T09:40:29.341000Z</time>
      </trkpt>
      <trkpt lat="38.81733" lon="121.14741">
        <ele>40.714996</ele>
        <time>2015-03-20T09:40:32.510000Z</time>
      </trkpt>
      <trkpt lat="38.81725" lon="121.14751">
        <ele>40.38191</ele>
        <time>2015-03-20T09:40:35.679000Z</time>
      </trkpt>
      <trkpt lat="38.817204" lon="121.14765">
        <ele>40.197113</ele>
        <time>2015-03-20T09:40:38.848000Z</time>
      </trkpt>
      <trkpt lat="38.817192" lon="121.14778">
        <ele>40.823578</ele>
        <time>2015-03-20T09:40:42.017000Z</time>
      </trkpt>
      <trkpt lat="38.817177" lon="121.14794">
        <ele>42.667984</ele>
        <time>2015-03-20T09:40:45.186000Z</time>
      </trkpt>
      <trkpt lat="38.81721" lon="121.14809">
        <ele>45.058914</ele>
        <time>2015-03-20T09:40:48.355000Z</time>
      </trkpt>
      <trkpt lat="38.817245" lon="121.1482">
        <ele>46.60766</ele>
        <time>2015-03-20T09:40:51.524000Z</time>
      </trkpt>
      <trkpt lat="38.817295" lon="121.14831">
        <ele>46.69687</ele>
        <time>2015-03-20T09:40:54.693000Z</time>
      </trkpt>
      <trkpt lat="38.817375" lon="121.14839">
        <ele>45.790333</ele>
        <time>2015-03-20T09:40:57.862000Z</time>
      </trkpt>
      <trkpt lat="38.81748" lon="121.148445">
        <ele>44.689068</ele>
        <time>2015-03-20T09:41:01.031000Z</time>
      </trkpt>
      <trkpt lat="38.8176" lon="121.14843">
        <ele>43.981068</ele>
        <time>2015-03-20T09:41:04.200000Z</time>
      </trkpt>
      <trkpt lat="38.81772" lon="121.14841">
        <ele>43.07156</ele>
        <time>2015-03-20T09:41:07.369000Z</time>
      </trkpt>
      <trkpt lat="38.817825" lon="121.1484">
        <ele>41.309433</ele>
        <time>2015-03-20T09:41:10.538000Z</time>
      </trkpt>
      <trkpt lat="38.817924" lon="121.14839">
        <ele>39.55262</ele>
        <time>2015-03-20T09:41:13.707000Z</time>
      </trkpt>
      <trkpt lat="38.818024" lon="121.14839">
        <ele>38.733624</ele>
        <time>2015-03-20T09:41:16.876000Z</time>
      </trkpt>
      <trkpt lat="38.818127" lon="121.148384">
        <ele>38.618324</ele>
        <time>2015-03-20T09:41:20.045000Z</time>
      </trkpt>
      <trkpt lat="38.81824" lon="121.14837">
        <ele>38.903152</ele>
        <time>2015-03-20T09:41:23.214000Z</time>
      </trkpt>
      <trkpt lat="38.81834" lon="121.14836">
        <ele>39.544346</ele>
        <time>2015-03-20T09:41:26.383000Z</time>
      </trkpt>
      <trkpt lat="38.81846" lon="121.14834">
        <ele>40.477695</ele>
        <time>2015-03-20T09:41:29.552000Z</time>
      </trkpt>
      <trkpt lat="38.818554" lon="121.148285">
        <ele>41.391014</ele>
        <time>2015-03-20T09:41:32.721000Z</time>
      </trkpt>
      <trkpt lat="38.81864" lon="121.14822">
        <ele>41.950047</ele>
        <time>2015-03-20T09:41:35.890000Z</time>
      </trkpt>
      <trkpt lat="38.81871" lon="121.14811">
        <ele>42.24837</ele>
        <time>2015-03-20T09:41:39.059000Z</time>
      </trkpt>
      <trkpt lat="38.818752" lon="121.14797">
        <ele>42.70759</ele>
        <time>2015-03-20T09:41:42.228000Z</time>
      </trkpt>
      <trkpt lat="38.818764" lon="121.14783">
        <ele>43.91478</ele>
        <time>2015-03-20T09:41:45.397000Z</time>
      </trkpt>
      <trkpt lat="38.81875" lon="121.14771">
        <ele>45.853832</ele>
        <time>2015-03-20T09:41:48.566000Z</time>
      </trkpt>
      <trkpt lat="38.81869" lon="121.147575">
        <ele>47.52069</ele>
        <time>2015-03-20T09:41:51.735000Z</time>
      </trkpt>
      <trkpt lat="38.81862" lon="121.14749">
        <ele>47.94528</ele>
        <time>2015-03-20T09:41:54.904000Z</time>
      </trkpt>
      <trkpt lat="38.81852" lon="121.14741">
        <ele>47.139473</ele>
        <time>2015-03-20T09:41:58.073000Z</time>
      </trkpt>
      <trkpt lat="38.818314" lon="121.147415">
        <ele>45.88022</ele>
        <time>2015-03-20T09:42:01.242000Z</time>
      </trkpt>
      <trkpt lat="38.818226" lon="121.147385">
        <ele>45.30107</ele>
        <time>2015-03-20T09:42:04.411000Z</time>
      </trkpt>
      <trkpt lat="38.81811" lon="121.14738">
        <ele>45.87451</ele>
        <time>2015-03-20T09:42:07.580000Z</time>
      </trkpt>
      <trkpt lat="38.818012" lon="121.14734">
        <ele>46.8649</ele>
        <time>2015-03-20T09:42:10.749000Z</time>
      </trkpt>
      <trkpt lat="38.817913" lon="121.14735">
        <ele>47.052086</ele>
        <time>2015-03-20T09:42:13.918000Z</time>
      </trkpt>
      <trkpt lat="38.8178" lon="121.14735">
        <ele>46.26051</ele>
        <time>2015-03-20T09:42:17.087000Z</time>
      </trkpt>
      <trkpt lat="38.81768" lon="121.14732">
        <ele>45.33558</ele>
        <time>2015-03-20T09:42:20.256000Z</time>
      </trkpt>
      <trkpt lat="38.817577" lon="121.147316">
        <ele>44.8656</ele>
        <time>2015-03-20T09:42:23.425000Z</time>
      </trkpt>
      <trkpt lat="38.817486" lon="121.147316">
        <ele>44.775726</ele>
        <time>2015-03-20T09:42:26.594000Z</time>
      </trkpt>
      <trkpt lat="38.81739" lon="121.14733">
        <ele>44.703873</ele>
        <time>2015-03-20T09:42:29.763000Z</time>
      </trkpt>
      <trkpt lat="38.8173" lon="121.14739">
        <ele>44.419464</ele>
        <time>2015-03-20T09:42:32.932000Z</time>
      </trkpt>
      <trkpt lat="38.817234" lon="121.14749">
        <ele>43.94971</ele>
        <time>2015-03-20T09:42:36.101000Z</time>
      </trkpt>
      <trkpt lat="38.81718" lon="121.14763">
        <ele>43.421524</ele>
        <time>2015-03-20T09:42:39.270000Z</time>
      </trkpt>
      <trkpt lat="38.817154" lon="121.147766">
        <ele>42.88183</ele>
        <time>2015-03-20T09:42:42.439000Z</time>
      </trkpt>
      <trkpt lat="38.817154" lon="121.14788">
        <ele>41.81779</ele>
        <time>2015-03-20T09:42:45.608000Z</time>
      </trkpt>
      <trkpt lat="38.817173" lon="121.148">
        <ele>40.009315</ele>
        <time>2015-03-20T09:42:48.777000Z</time>
      </trkpt>
      <trkpt lat="38.817215" lon="121.14811">
        <ele>38.39986</ele>
        <time>2015-03-20T09:42:51.946000Z</time>
      </trkpt>
      <trkpt lat="38.81729" lon="121.14821">
        <ele>37.70488</ele>
        <time>2015-03-20T09:42:55.115000Z</time>
      </trkpt>
      <trkpt lat="38.817368" lon="121.14828">
        <ele>37.779022</ele>
        <time>2015-03-20T09:42:58.284000Z</time>
      </trkpt>
      <trkpt lat="38.817467" lon="121.14833">
        <ele>38.288784</ele>
        <time>2015-03-20T09:43:01.453000Z</time>
      </trkpt>
      <trkpt lat="38.817562" lon="121.14836">
        <ele>38.927334</ele>
        <time>2015-03-20T09:43:04.622000Z</time>
      </trkpt>
      <trkpt lat="38.817677" lon="121.14837">
        <ele>39.656425</ele>
        <time>2015-03-20T09:43:07.791000Z</time>
      </trkpt>
      <trkpt lat="38.817787" lon="121.14837">
        <ele>40.41691</ele>
        <time>2015-03-20T09:43:10.960000Z</time>
      </trkpt>
      <trkpt lat="38.817883" lon="121.14836">
        <ele>40.919205</ele>
        <time>2015-03-20T09:43:14.129000Z</time>
      </trkpt>
      <trkpt lat="38.81798" lon="121.14837">
        <ele>41.63295</ele>
        <time>2015-03-20T09:43:17.298000Z</time>
      </trkpt>
      <trkpt lat="38.818092" lon="121.14837">
        <ele>43.050495</ele>
        <time>2015-03-20T09:43:20.467000Z</time>
      </trkpt>
      <trkpt lat="38.8182" lon="121.14836">
        <ele>44.60397</ele>
        <time>2015-03-20T09:43:23.636000Z</time>
      </trkpt>
      <trkpt lat="38.818302" lon="121.14836">
        <ele>45.624226</ele>
        <time>2015-03-20T09:43:26.805000Z</time>
      </trkpt>
      <trkpt lat="38.818405" lon="121.14835">
        <ele>46.22516</ele>
        <time>2015-03-20T09:43:29.974000Z</time>
      </trkpt>
      <trkpt lat="38.818504" lon="121.14833">
        <ele>46.504158</ele>
        <time>2015-03-20T09:43:33.143000Z</time>
      </trkpt>
      <trkpt lat="38.818592" lon="121.148285">
        <ele>46.424927</ele>
        <time>2015-03-20T09:43:36.312000Z</time>
      </trkpt>
      <trkpt lat="38.81866" lon="121.1482">
        <ele>46.0095</ele>
        <time>2015-03-20T09:43:39.481000Z</time>
      </trkpt>
      <trkpt lat="38.818733" lon="121.14809">
        <ele>45.463696</ele>
        <time>2015-03-20T09:43:42.650000Z</time>
      </trkpt>
      <trkpt lat="38.818768" lon="121.14796">
        <ele>45.17164</ele>
        <time>2015-03-20T09:43:45.819000Z</time>
      </trkpt>
      <trkpt lat="38.81876" lon="121.147804">
        <ele>45.501694</ele>
        <time>2015-03-20T09:43:48.988000Z</time>
      </trkpt>
      <trkpt lat="38.81873" lon="121.14767">
        <ele>46.22727</ele>
        <time>2015-03-20T09:43:52.157000Z</time>
      </trkpt>
      <trkpt lat="38.818676" lon="121.147545">
        <ele>46.95519</ele>
        <time>2015-03-20T09:43:55.326000Z</time>
      </trkpt>
      <trkpt lat="38.818607" lon="121.14744">
        <ele>47.551815</ele>
        <time>2015-03-20T09:43:58.495000Z</time>
      </trkpt>
      <trkpt lat="38.81851" lon="121.14733">
        <ele>47.793056</ele>
        <time>2015-03-20T09:44:01.664000Z</time>
      </trkpt>
      <trkpt lat="38.8184" lon="121.14729">
        <ele>47.13395</ele>
        <time>2015-03-20T09:44:04.833000Z</time>
      </trkpt>
      <trkpt lat="38.818287" lon="121.147255">
        <ele>45.66345</ele>
        <time>2015-03-20T09:44:08.002000Z</time>
      </trkpt>
      <trkpt lat="38.81817" lon="121.14723">
        <ele>44.33094</ele>
        <time>2015-03-20T09:44:11.171000Z</time>
      </trkpt>
      <trkpt lat="38.81806" lon="121.14723">
        <ele>43.74792</ele>
        <time>2015-03-20T09:44:14.340000Z</time>
      </trkpt>
      <trkpt lat="38.817963" lon="121.14725">
        <ele>43.412815</ele>
        <time>2015-03-20T09:44:17.509000Z</time>
      </trkpt>
      <trkpt lat="38.817863" lon="121.14726">
        <ele>42.814964</ele>
        <time>2015-03-20T09:44:20.678000Z</time>
      </trkpt>
      <trkpt lat="38.81776" lon="121.14726">
        <ele>42.18453</ele>
        <time>2015-03-20T09:44:23.847000Z</time>
      </trkpt>
      <trkpt lat="38.81766" lon="121.14726">
        <ele>41.880802</ele>
        <time>2015-03-20T09:44:27.016000Z</time>
      </trkpt>
      <trkpt lat="38.817554" lon="121.147255">
        <ele>41.832035</ele>
        <time>2015-03-20T09:44:30.185000Z</time>
      </trkpt>
      <trkpt lat="38.817463" lon="121.14727">
        <ele>41.46737</ele>
        <time>2015-03-20T09:44:33.354000Z</time>
      </trkpt>
      <trkpt lat="38.817368" lon="121.147316">
        <ele>40.439087</ele>
        <time>2015-03-20T09:44:36.523000Z</time>
      </trkpt>
      <trkpt lat="38.817303" lon="121.1474">
        <ele>39.90793</ele>
        <time>2015-03-20T09:44:39.692000Z</time>
      </trkpt>
      <trkpt lat="38.817253" lon="121.14753">
        <ele>40.825447</ele>
        <time>2015-03-20T09:44:42.861000Z</time>
      </trkpt>
      <trkpt lat="38.817207" lon="121.14769">
        <ele>41.943085</ele>
        <time>2015-03-20T09:44:46.030000Z</time>
      </trkpt>
      <trkpt lat="38.817192" lon="121.147835">
        <ele>42.010117</ele>
        <time>2015-03-20T09:44:49.199000Z</time>
      </trkpt>
      <trkpt lat="38.81722" lon="121.14801">
        <ele>41.465725</ele>
        <time>2015-03-20T09:44:52.368000Z</time>
      </trkpt>
      <trkpt lat="38.81726" lon="121.148155">
        <ele>41.175438</ele>
        <time>2015-03-20T09:44:55.537000Z</time>
      </trkpt>
      <trkpt lat="38.817337" lon="121.14828">
        <ele>41.506428</ele>
        <time>2015-03-20T09:44:58.706000Z</time>
      </trkpt>
      <trkpt lat="38.817417" lon="121.14834">
        <ele>42.370373</ele>
        <time>2015-03-20T09:45:01.875000Z</time>
      </trkpt>
      <trkpt lat="38.817535" lon="121.148346">
        <ele>43.45807</ele>
        <time>2015-03-20T09:45:05.044000Z</time>
      </trkpt>
      <trkpt lat="38.817635" lon="121.14833">
        <ele>44.562164</ele>
        <time>2015-03-20T09:45:08.213000Z</time>
      </trkpt>
      <trkpt lat="38.81774" lon="121.14834">
        <ele>45.47666</ele>
        <time>2015-03-20T09:45:11.382000Z</time>
      </trkpt>
      <trkpt lat="38.817856" lon="121.14836">
        <ele>45.849754</ele>
        <time>2015-03-20T09:45:14.551000Z</time>
      </trkpt>
      <trkpt lat="38.817947" lon="121.14838">
        <ele>45.47558</ele>
        <time>2015-03-20T09:45:17.720000Z</time>
      </trkpt>
      <trkpt lat="38.818043" lon="121.148384">
        <ele>44.693745</ele>
        <time>2015-03-20T09:45:20.889000Z</time>
      </trkpt>
      <trkpt lat="38.81816" lon="121.1484">
        <ele>43.79791</ele>
        <time>2015-03-20T09:45:24.058000Z</time>
      </trkpt>
      <trkpt lat="38.81828" lon="121.1484">
        <ele>42.835056</ele>
        <time>2015-03-20T09:45:27.227000Z</time>
      </trkpt>
      <trkpt lat="38.818367" lon="121.14837">
        <ele>42.228092</ele>
        <time>2015-03-20T09:45:30.396000Z</time>
      </trkpt>
      <trkpt lat="38.81846" lon="121.14833">
        <ele>42.302</ele>
        <time>2015-03-20T09:45:33.565000Z</time>
      </trkpt>
      <trkpt lat="38.81857" lon="121.148254">
        <ele>42.668694</ele>
        <time>2015-03-20T09:45:36.734000Z</time>
      </trkpt>
      <trkpt lat="38.818653" lon="121.14818">
        <ele>43.19973</ele>
        <time>2015-03-20T09:45:39.902000Z</time>
      </trkpt>
      <trkpt lat="38.8187" lon="121.14806">
        <ele>44.144726</ele>
        <time>2015-03-20T09:45:43.070000Z</time>
      </trkpt>
      <trkpt lat="38.81875" lon="121.14796">
        <ele>45.23637</ele>
        <time>2015-03-20T09:45:46.238000Z</time>
      </trkpt>
      <trkpt lat="38.818775" lon="121.14781">
        <ele>45.926178</ele>
        <time>2015-03-20T09:45:49.406000Z</time>
      </trkpt>
      <trkpt lat="38.81875" lon="121.14769">
        <ele>46.54839</ele>
        <time>2015-03-20T09:45:52.574000Z</time>
      </trkpt>
      <trkpt lat="38.818707" lon="121.14756">
        <ele>47.58769</ele>
        <time>2015-03-20T09:45:55.742000Z</time>
      </trkpt>
      <trkpt lat="38.81864" lon="121.14745">
        <ele>48.19193</ele>
        <time>2015-03-20T09:45:58.910000Z</time>
      </trkpt>
      <trkpt lat="38.818546" lon="121.147354">
        <ele>47.305855</ele>
        <time>2015-03-20T09:46:02.078000Z</time>
      </trkpt>
      <trkpt lat="38.818447" lon="121.147285">
        <ele>45.540894</ele>
        <time>2015-03-20T09:46:05.246000Z</time>
      </trkpt>
      <trkpt lat="38.818333" lon="121.14726">
        <ele>44.051624</ele>
        <time>2015-03-20T09:46:08.414000Z</time>
      </trkpt>
      <trkpt lat="38.81823" lon="121.14726">
        <ele>43.17864</ele>
        <time>2015-03-20T09:46:11.582000Z</time>
      </trkpt>
      <trkpt lat="38.81813" lon="121.14727">
        <ele>43.084682</ele>
        <time>2015-03-20T09:46:14.750000Z</time>
      </trkpt>
      <trkpt lat="38.818024" lon="121.14728">
        <ele>43.774742</ele>
        <time>2015-03-20T09:46:17.918000Z</time>
      </trkpt>
      <trkpt lat="38.817917" lon="121.14728">
        <ele>44.596767</ele>
        <time>2015-03-20T09:46:21.086000Z</time>
      </trkpt>
      <trkpt lat="38.81781" lon="121.14726">
        <ele>45.01829</ele>
        <time>2015-03-20T09:46:24.254000Z</time>
      </trkpt>
      <trkpt lat="38.81771" lon="121.147255">
        <ele>45.101048</ele>
        <time>2015-03-20T09:46:27.422000Z</time>
      </trkpt>
      <trkpt lat="38.817604" lon="121.147255">
        <ele>45.04318</ele>
        <time>2015-03-20T09:46:30.590000Z</time>
      </trkpt>
      <trkpt lat="38.8175" lon="121.14726">
        <ele>44.97608</ele>
        <time>2015-03-20T09:46:33.758000Z</time>
      </trkpt>
      <trkpt lat="38.817398" lon="121.14729">
        <ele>45.21847</ele>
        <time>2015-03-20T09:46:36.926000Z</time>
      </trkpt>
      <trkpt lat="38.817303" lon="121.147354">
        <ele>45.93183</ele>
        <time>2015-03-20T09:46:40.094000Z</time>
      </trkpt>
      <trkpt lat="38.81724" lon="121.14747">
        <ele>46.399193</ele>
        <time>2015-03-20T09:46:43.262000Z</time>
      </trkpt>
      <trkpt lat="38.817184" lon="121.14758">
        <ele>46.035408</ele>
        <time>2015-03-20T09:46:46.430000Z</time>
      </trkpt>
      <trkpt lat="38.817184" lon="121.14758">
        <ele>44.99102</ele>
        <time>2015-03-20T09:46:49.598000Z</time>
      </trkpt>
      <trkpt lat="38.8172" lon="121.1477">
        <ele>45.004143</ele>
        <time>2015-03-20T09:46:52.766000Z</time>
      </trkpt>
      <trkpt lat="38.817173" lon="121.147835">
        <ele>44.702423</ele>
        <time>2015-03-20T09:46:55.934000Z</time>
      </trkpt>
      <trkpt lat="38.81715" lon="121.14796">
        <ele>43.613644</ele>
        <time>2015-03-20T09:46:59.102000Z</time>
      </trkpt>
      <trkpt lat="38.81715" lon="121.14796">
        <ele>42.41767</ele>
        <time>2015-03-20T09:47:02.270000Z</time>
      </trkpt>
      <trkpt lat="38.817177" lon="121.1481">
        <ele>41.966732</ele>
        <time>2015-03-20T09:47:05.438000Z</time>
      </trkpt>
      <trkpt lat="38.817234" lon="121.14823">
        <ele>42.22439</ele>
        <time>2015-03-20T09:47:08.606000Z</time>
      </trkpt>
      <trkpt lat="38.817314" lon="121.14832">
        <ele>42.54662</ele>
        <time>2015-03-20T09:47:11.774000Z</time>
      </trkpt>
      <trkpt lat="38.817425" lon="121.14837">
        <ele>42.45953</ele>
        <time>2015-03-20T09:47:14.942000Z</time>
      </trkpt>
      <trkpt lat="38.817528" lon="121.14839">
        <ele>42.16405</ele>
        <time>2015-03-20T09:47:18.110000Z</time>
      </trkpt>
      <trkpt lat="38.817635" lon="121.1484">
        <ele>41.966675</ele>
        <time>2015-03-20T09:47:21.278000Z</time>
      </trkpt>
      <trkpt lat="38.817738" lon="121.14839">
        <ele>41.902443</ele>
        <time>2015-03-20T09:47:24.446000Z</time>
      </trkpt>
      <trkpt lat="38.81785" lon="121.148384">
        <ele>41.910378</ele>
        <time>2015-03-20T09:47:27.614000Z</time>
      </trkpt>
      <trkpt lat="38.81794" lon="121.1484">
        <ele>41.93465</ele>
        <time>2015-03-20T09:47:30.782000Z</time>
      </trkpt>
      <trkpt lat="38.81805" lon="121.148415">
        <ele>41.812458</ele>
        <time>2015-03-20T09:47:33.950000Z</time>
      </trkpt>
      <trkpt lat="38.818153" lon="121.14843">
        <ele>41.319496</ele>
        <time>2015-03-20T09:47:37.118000Z</time>
      </trkpt>
      <trkpt lat="38.818253" lon="121.14843">
        <ele>40.45128</ele>
        <time>2015-03-20T09:47:40.286000Z</time>
      </trkpt>
      <trkpt lat="38.818363" lon="121.14844">
        <ele>39.406517</ele>
        <time>2015-03-20T09:47:43.454000Z</time>
      </trkpt>
      <trkpt lat="38.818462" lon="121.14846">
        <ele>38.335926</ele>
        <time>2015-03-20T09:47:46.622000Z</time>
      </trkpt>
      <trkpt lat="38.81856" lon="121.148415">
        <ele>37.434387</ele>
        <time>2015-03-20T09:47:49.790000Z</time>
      </trkpt>
      <trkpt lat="38.818638" lon="121.148346">
        <ele>37.199677</ele>
        <time>2015-03-20T09:47:52.958000Z</time>
      </trkpt>
      <trkpt lat="38.818726" lon="121.14824">
        <ele>37.792023</ele>
        <time>2015-03-20T09:47:56.126000Z</time>
      </trkpt>
      <trkpt lat="38.818783" lon="121.14811">
        <ele>38.580677</ele>
        <time>2015-03-20T09:47:59.294000Z</time>
      </trkpt>
      <trkpt lat="38.8188" lon="121.14794">
        <ele>39.004948</ele>
        <time>2015-03-20T09:48:02.462000Z</time>
      </trkpt>
      <trkpt lat="38.81879" lon="121.14782">
        <ele>39.237457</ele>
        <time>2015-03-20T09:48:05.630000Z</time>
      </trkpt>
      <trkpt lat="38.818756" lon="121.147644">
        <ele>39.685577</ele>
        <time>2015-03-20T09:48:08.798000Z</time>
      </trkpt>
      <trkpt lat="38.818684" lon="121.147514">
        <ele>40.488644</ele>
        <time>2015-03-20T09:48:11.966000Z</time>
      </trkpt>
      <trkpt lat="38.818596" lon="121.14741">
        <ele>41.35901</ele>
        <time>2015-03-20T09:48:15.134000Z</time>
      </trkpt>
      <trkpt lat="38.81851" lon="121.14733">
        <ele>41.92286</ele>
        <time>2015-03-20T09:48:18.302000Z</time>
      </trkpt>
      <trkpt lat="38.818398" lon="121.14729">
        <ele>42.09887</ele>
        <time>2015-03-20T09:48:21.470000Z</time>
      </trkpt>
      <trkpt lat="38.81828" lon="121.14727">
        <ele>42.07057</ele>
        <time>2015-03-20T09:48:24.638000Z</time>
      </trkpt>
      <trkpt lat="38.81816" lon="121.147255">
        <ele>41.860962</ele>
        <time>2015-03-20T09:48:27.806000Z</time>
      </trkpt>
      <trkpt lat="38.81805" lon="121.14725">
        <ele>41.31724</ele>
        <time>2015-03-20T09:48:30.974000Z</time>
      </trkpt>
      <trkpt lat="38.817936" lon="121.14724">
        <ele>40.57394</ele>
        <time>2015-03-20T09:48:34.142000Z</time>
      </trkpt>
      <trkpt lat="38.817806" lon="121.14723">
        <ele>40.16992</ele>
        <time>2015-03-20T09:48:37.310000Z</time>
      </trkpt>
      <trkpt lat="38.817673" lon="121.14724">
        <ele>40.610237</ele>
        <time>2015-03-20T09:48:40.478000Z</time>
      </trkpt>
      <trkpt lat="38.81755" lon="121.14725">
        <ele>41.706608</ele>
        <time>2015-03-20T09:48:43.646000Z</time>
      </trkpt>
      <trkpt lat="38.81744" lon="121.14724">
        <ele>42.681942</ele>
        <time>2015-03-20T09:48:46.814000Z</time>
      </trkpt>
      <trkpt lat="38.81734" lon="121.147285">
        <ele>42.9648</ele>
        <time>2015-03-20T09:48:49.982000Z</time>
      </trkpt>
      <trkpt lat="38.817257" lon="121.14735">
        <ele>42.50544</ele>
        <time>2015-03-20T09:48:53.150000Z</time>
      </trkpt>
      <trkpt lat="38.81719" lon="121.14747">
        <ele>41.68526</ele>
        <time>2015-03-20T09:48:56.318000Z</time>
      </trkpt>
      <trkpt lat="38.81716" lon="121.1476">
        <ele>40.92304</ele>
        <time>2015-03-20T09:48:59.486000Z</time>
      </trkpt>
      <trkpt lat="38.817146" lon="121.147766">
        <ele>40.32757</ele>
        <time>2015-03-20T09:49:02.654000Z</time>
      </trkpt>
      <trkpt lat="38.817165" lon="121.14793">
        <ele>39.9588</ele>
        <time>2015-03-20T09:49:05.822000Z</time>
      </trkpt>
      <trkpt lat="38.817223" lon="121.14809">
        <ele>39.85116</ele>
        <time>2015-03-20T09:49:08.990000Z</time>
      </trkpt>
      <trkpt lat="38.817276" lon="121.148186">
        <ele>39.875282</ele>
        <time>2015-03-20T09:49:12.158000Z</time>
      </trkpt>
      <trkpt lat="38.81734" lon="121.14827">
        <ele>40.062275</ele>
        <time>2015-03-20T09:49:15.326000Z</time>
      </trkpt>
      <trkpt lat="38.817448" lon="121.14836">
        <ele>40.590176</ele>
        <time>2015-03-20T09:49:18.494000Z</time>
      </trkpt>
      <trkpt lat="38.817562" lon="121.14842">
        <ele>41.32803</ele>
        <time>2015-03-20T09:49:21.662000Z</time>
      </trkpt>
      <trkpt lat="38.817673" lon="121.14844">
        <ele>41.870636</ele>
        <time>2015-03-20T09:49:24.830000Z</time>
      </trkpt>
      <trkpt lat="38.817787" lon="121.148415">
        <ele>42.206604</ele>
        <time>2015-03-20T09:49:27.998000Z</time>
      </trkpt>
      <trkpt lat="38.81789" lon="121.14842">
        <ele>42.560627</ele>
        <time>2015-03-20T09:49:31.166000Z</time>
      </trkpt>
      <trkpt lat="38.818" lon="121.14842">
        <ele>42.45476</ele>
        <time>2015-03-20T09:49:34.334000Z</time>
      </trkpt>
      <trkpt lat="38.818096" lon="121.1484">
        <ele>41.368145</ele>
        <time>2015-03-20T09:49:37.502000Z</time>
      </trkpt>
      <trkpt lat="38.818195" lon="121.14838">
        <ele>39.910686</ele>
        <time>2015-03-20T09:49:40.670000Z</time>
      </trkpt>
      <trkpt lat="38.8183" lon="121.14838">
        <ele>38.986153</ele>
        <time>2015-03-20T09:49:43.838000Z</time>
      </trkpt>
      <trkpt lat="38.818405" lon="121.14838">
        <ele>38.42984</ele>
        <time>2015-03-20T09:49:47.006000Z</time>
      </trkpt>
      <trkpt lat="38.818497" lon="121.14836">
        <ele>37.76296</ele>
        <time>2015-03-20T09:49:50.174000Z</time>
      </trkpt>
      <trkpt lat="38.818584" lon="121.148254">
        <ele>37.143635</ele>
        <time>2015-03-20T09:49:53.342000Z</time>
      </trkpt>
      <trkpt lat="38.81865" lon="121.14814">
        <ele>36.4534</ele>
        <time>2015-03-20T09:49:56.510000Z</time>
      </trkpt>
      <trkpt lat="38.818703" lon="121.14801">
        <ele>35.342865</ele>
        <time>2015-03-20T09:49:59.678000Z</time>
      </trkpt>
      <trkpt lat="38.81873" lon="121.14789">
        <ele>34.42809</ele>
        <time>2015-03-20T09:50:02.846000Z</time>
      </trkpt>
      <trkpt lat="38.818737" lon="121.147766">
        <ele>34.450787</ele>
        <time>2015-03-20T09:50:06.014000Z</time>
      </trkpt>
      <trkpt lat="38.818707" lon="121.14762">
        <ele>35.12266</ele>
        <time>2015-03-20T09:50:09.182000Z</time>
      </trkpt>
      <trkpt lat="38.818634" lon="121.147484">
        <ele>35.7596</ele>
        <time>2015-03-20T09:50:12.350000Z</time>
      </trkpt>
      <trkpt lat="38.81856" lon="121.147385">
        <ele>36.185303</ele>
        <time>2015-03-20T09:50:15.518000Z</time>
      </trkpt>
      <trkpt lat="38.81847" lon="121.14732">
        <ele>36.7181</ele>
        <time>2015-03-20T09:50:18.686000Z</time>
      </trkpt>
      <trkpt lat="38.818375" lon="121.14729">
        <ele>37.66798</ele>
        <time>2015-03-20T09:50:21.854000Z</time>
      </trkpt>
      <trkpt lat="38.818264" lon="121.147255">
        <ele>39.01878</ele>
        <time>2015-03-20T09:50:25.022000Z</time>
      </trkpt>
      <trkpt lat="38.818157" lon="121.14726">
        <ele>40.296234</ele>
        <time>2015-03-20T09:50:28.190000Z</time>
      </trkpt>
      <trkpt lat="38.818047" lon="121.147285">
        <ele>41.010143</ele>
        <time>2015-03-20T09:50:31.358000Z</time>
      </trkpt>
      <trkpt lat="38.817947" lon="121.14729">
        <ele>41.183006</ele>
        <time>2015-03-20T09:50:34.526000Z</time>
      </trkpt>
      <trkpt lat="38.817837" lon="121.1473">
        <ele>41.10958</ele>
        <time>2015-03-20T09:50:37.694000Z</time>
      </trkpt>
      <trkpt lat="38.81773" lon="121.14729">
        <ele>41.005116</ele>
        <time>2015-03-20T09:50:40.862000Z</time>
      </trkpt>
      <trkpt lat="38.81763" lon="121.14728">
        <ele>41.08566</ele>
        <time>2015-03-20T09:50:44.030000Z</time>
      </trkpt>
      <trkpt lat="38.817516" lon="121.147285">
        <ele>41.43198</ele>
        <time>2015-03-20T09:50:47.198000Z</time>
      </trkpt>
      <trkpt lat="38.817406" lon="121.14732">
        <ele>41.66945</ele>
        <time>2015-03-20T09:50:50.366000Z</time>
      </trkpt>
      <trkpt lat="38.81731" lon="121.1474">
        <ele>41.49336</ele>
        <time>2015-03-20T09:50:53.534000Z</time>
      </trkpt>
      <trkpt lat="38.817238" lon="121.14752">
        <ele>41.016926</ele>
        <time>2015-03-20T09:50:56.702000Z</time>
      </trkpt>
      <trkpt lat="38.817184" lon="121.14764">
        <ele>40.59103</ele>
        <time>2015-03-20T09:50:59.870000Z</time>
      </trkpt>
      <trkpt lat="38.817146" lon="121.14774">
        <ele>40.524326</ele>
        <time>2015-03-20T09:51:03.038000Z</time>
      </trkpt>
      <trkpt lat="38.817142" lon="121.14787">
        <ele>40.73369</ele>
        <time>2015-03-20T09:51:06.206000Z</time>
      </trkpt>
      <trkpt lat="38.817142" lon="121.14801">
        <ele>41.04831</ele>
        <time>2015-03-20T09:51:09.374000Z</time>
      </trkpt>
      <trkpt lat="38.8172" lon="121.14813">
        <ele>41.619404</ele>
        <time>2015-03-20T09:51:12.542000Z</time>
      </trkpt>
      <trkpt lat="38.81729" lon="121.14823">
        <ele>42.49155</ele>
        <time>2015-03-20T09:51:15.710000Z</time>
      </trkpt>
      <trkpt lat="38.81739" lon="121.14831">
        <ele>43.378822</ele>
        <time>2015-03-20T09:51:18.878000Z</time>
      </trkpt>
      <trkpt lat="38.817524" lon="121.148346">
        <ele>44.073883</ele>
        <time>2015-03-20T09:51:22.046000Z</time>
      </trkpt>
      <trkpt lat="38.817627" lon="121.14835">
        <ele>44.599728</ele>
        <time>2015-03-20T09:51:25.214000Z</time>
      </trkpt>
      <trkpt lat="38.817726" lon="121.14836">
        <ele>44.797108</ele>
        <time>2015-03-20T09:51:28.382000Z</time>
      </trkpt>
      <trkpt lat="38.817825" lon="121.14837">
        <ele>44.53972</ele>
        <time>2015-03-20T09:51:31.550000Z</time>
      </trkpt>
      <trkpt lat="38.817936" lon="121.148384">
        <ele>44.151752</ele>
        <time>2015-03-20T09:51:34.718000Z</time>
      </trkpt>
      <trkpt lat="38.818043" lon="121.14841">
        <ele>43.933353</ele>
        <time>2015-03-20T09:51:37.886000Z</time>
      </trkpt>
      <trkpt lat="38.81814" lon="121.14843">
        <ele>43.741486</ele>
        <time>2015-03-20T09:51:41.054000Z</time>
      </trkpt>
      <trkpt lat="38.81823" lon="121.148445">
        <ele>43.403446</ele>
        <time>2015-03-20T09:51:44.222000Z</time>
      </trkpt>
      <trkpt lat="38.818348" lon="121.14844">
        <ele>42.789387</ele>
        <time>2015-03-20T09:51:47.390000Z</time>
      </trkpt>
      <trkpt lat="38.81846" lon="121.14841">
        <ele>41.911976</ele>
        <time>2015-03-20T09:51:50.558000Z</time>
      </trkpt>
      <trkpt lat="38.818558" lon="121.14833">
        <ele>41.150795</ele>
        <time>2015-03-20T09:51:53.726000Z</time>
      </trkpt>
      <trkpt lat="38.818626" lon="121.14825">
        <ele>40.828407</ele>
        <time>2015-03-20T09:51:56.894000Z</time>
      </trkpt>
      <trkpt lat="38.81855" lon="121.14832">
        <ele>40.80286</ele>
        <time>2015-03-20T09:52:00.062000Z</time>
      </trkpt>
      <trkpt lat="38.81845" lon="121.148346">
        <ele>40.737328</ele>
        <time>2015-03-20T09:52:03.230000Z</time>
      </trkpt>
      <trkpt lat="38.81834" lon="121.14835">
        <ele>40.57752</ele>
        <time>2015-03-20T09:52:06.398000Z</time>
      </trkpt>
      <trkpt lat="38.81822" lon="121.14834">
        <ele>40.870186</ele>
        <time>2015-03-20T09:52:09.566000Z</time>
      </trkpt>
      <trkpt lat="38.818108" lon="121.148346">
        <ele>41.785946</ele>
        <time>2015-03-20T09:52:12.734000Z</time>
      </trkpt>
      <trkpt lat="38.817986" lon="121.14833">
        <ele>42.529358</ele>
        <time>2015-03-20T09:52:15.902000Z</time>
      </trkpt>
      <trkpt lat="38.817863" lon="121.148315">
        <ele>42.57147</ele>
        <time>2015-03-20T09:52:19.070000Z</time>
      </trkpt>
      <trkpt lat="38.81776" lon="121.14831">
        <ele>42.253143</ele>
        <time>2015-03-20T09:52:22.238000Z</time>
      </trkpt>
      <trkpt lat="38.817665" lon="121.14831">
        <ele>42.001774</ele>
        <time>2015-03-20T09:52:25.406000Z</time>
      </trkpt>
      <trkpt lat="38.81757" lon="121.14832">
        <ele>41.627098</ele>
        <time>2015-03-20T09:52:28.574000Z</time>
      </trkpt>
      <trkpt lat="38.817474" lon="121.14833">
        <ele>40.76682</ele>
        <time>2015-03-20T09:52:31.742000Z</time>
      </trkpt>
      <trkpt lat="38.81737" lon="121.14829">
        <ele>39.694332</ele>
        <time>2015-03-20T09:52:34.910000Z</time>
      </trkpt>
      <trkpt lat="38.817265" lon="121.14824">
        <ele>38.99479</ele>
        <time>2015-03-20T09:52:38.078000Z</time>
      </trkpt>
      <trkpt lat="38.81718" lon="121.14816">
        <ele>38.636158</ele>
        <time>2015-03-20T09:52:41.246000Z</time>
      </trkpt>
      <trkpt lat="38.81712" lon="121.14806">
        <ele>38.03345</ele>
        <time>2015-03-20T09:52:44.414000Z</time>
      </trkpt>
      <trkpt lat="38.817066" lon="121.147964">
        <ele>36.75591</ele>
        <time>2015-03-20T09:52:47.582000Z</time>
      </trkpt>
      <trkpt lat="38.817066" lon="121.14785">
        <ele>35.178635</ele>
        <time>2015-03-20T09:52:50.750000Z</time>
      </trkpt>
      <trkpt lat="38.817112" lon="121.1477">
        <ele>34.218403</ele>
        <time>2015-03-20T09:52:53.918000Z</time>
      </trkpt>
      <trkpt lat="38.817177" lon="121.147575">
        <ele>34.201725</ele>
        <time>2015-03-20T09:52:57.086000Z</time>
      </trkpt>
      <trkpt lat="38.817257" lon="121.147484">
        <ele>34.600956</ele>
        <time>2015-03-20T09:53:00.254000Z</time>
      </trkpt>
      <trkpt lat="38.817345" lon="121.14739">
        <ele>34.905914</ele>
        <time>2015-03-20T09:53:03.422000Z</time>
      </trkpt>
      <trkpt lat="38.81743" lon="121.14733">
        <ele>35.159664</ele>
        <time>2015-03-20T09:53:06.590000Z</time>
      </trkpt>
      <trkpt lat="38.817528" lon="121.14728">
        <ele>35.65775</ele>
        <time>2015-03-20T09:53:09.758000Z</time>
      </trkpt>
      <trkpt lat="38.817642" lon="121.14727">
        <ele>36.354156</ele>
        <time>2015-03-20T09:53:12.926000Z</time>
      </trkpt>
      <trkpt lat="38.817757" lon="121.14729">
        <ele>36.874096</ele>
        <time>2015-03-20T09:53:16.094000Z</time>
      </trkpt>
      <trkpt lat="38.81786" lon="121.1473">
        <ele>37.06665</ele>
        <time>2015-03-20T09:53:19.262000Z</time>
      </trkpt>
      <trkpt lat="38.81797" lon="121.14731">
        <ele>37.0633</ele>
        <time>2015-03-20T09:53:22.430000Z</time>
      </trkpt>
      <trkpt lat="38.818077" lon="121.147316">
        <ele>37.00592</ele>
        <time>2015-03-20T09:53:25.598000Z</time>
      </trkpt>
      <trkpt lat="38.818172" lon="121.14731">
        <ele>36.963726</ele>
        <time>2015-03-20T09:53:28.766000Z</time>
      </trkpt>
      <trkpt lat="38.818283" lon="121.14732">
        <ele>36.948345</ele>
        <time>2015-03-20T09:53:31.934000Z</time>
      </trkpt>
      <trkpt lat="38.818386" lon="121.14734">
        <ele>36.948803</ele>
        <time>2015-03-20T09:53:35.102000Z</time>
      </trkpt>
      <trkpt lat="38.818504" lon="121.147354">
        <ele>37.229885</ele>
        <time>2015-03-20T09:53:38.270000Z</time>
      </trkpt>
      <trkpt lat="38.818615" lon="121.1474">
        <ele>37.953094</ele>
        <time>2015-03-20T09:53:41.438000Z</time>
      </trkpt>
      <trkpt lat="38.81871" lon="121.14751">
        <ele>38.69319</ele>
        <time>2015-03-20T09:53:44.606000Z</time>
      </trkpt>
      <trkpt lat="38.81878" lon="121.147644">
        <ele>39.32002</ele>
        <time>2015-03-20T09:53:47.774000Z</time>
      </trkpt>
      <trkpt lat="38.8188" lon="121.14778">
        <ele>40.092472</ele>
        <time>2015-03-20T09:53:50.942000Z</time>
      </trkpt>
      <trkpt lat="38.818806" lon="121.147934">
        <ele>40.632915</ele>
        <time>2015-03-20T09:53:54.110000Z</time>
      </trkpt>
      <trkpt lat="38.81877" lon="121.14807">
        <ele>40.286877</ele>
        <time>2015-03-20T09:53:57.278000Z</time>
      </trkpt>
      <trkpt lat="38.81872" lon="121.14818">
        <ele>38.946175</ele>
        <time>2015-03-20T09:54:00.446000Z</time>
      </trkpt>
      <trkpt lat="38.818604" lon="121.148254">
        <ele>37.248276</ele>
        <time>2015-03-20T09:54:03.614000Z</time>
      </trkpt>
      <trkpt lat="38.818516" lon="121.148315">
        <ele>36.491688</ele>
        <time>2015-03-20T09:54:06.782000Z</time>
      </trkpt>
      <trkpt lat="38.818428" lon="121.148384">
        <ele>37.174488</ele>
        <time>2015-03-20T09:54:09.950000Z</time>
      </trkpt>
      <trkpt lat="38.818336" lon="121.14836">
        <ele>38.318035</ele>
        <time>2015-03-20T09:54:13.118000Z</time>
      </trkpt>
      <trkpt lat="38.818226" lon="121.14836">
        <ele>39.259754</ele>
        <time>2015-03-20T09:54:16.286000Z</time>
      </trkpt>
      <trkpt lat="38.818127" lon="121.14836">
        <ele>40.430405</ele>
        <time>2015-03-20T09:54:19.454000Z</time>
      </trkpt>
      <trkpt lat="38.818027" lon="121.14835">
        <ele>42.24524</ele>
        <time>2015-03-20T09:54:22.622000Z</time>
      </trkpt>
      <trkpt lat="38.81792" lon="121.14833">
        <ele>44.320705</ele>
        <time>2015-03-20T09:54:25.790000Z</time>
      </trkpt>
      <trkpt lat="38.817814" lon="121.148315">
        <ele>45.778835</ele>
        <time>2015-03-20T09:54:28.958000Z</time>
      </trkpt>
      <trkpt lat="38.817703" lon="121.14832">
        <ele>46.28395</ele>
        <time>2015-03-20T09:54:32.126000Z</time>
      </trkpt>
      <trkpt lat="38.817593" lon="121.148346">
        <ele>46.11015</ele>
        <time>2015-03-20T09:54:35.294000Z</time>
      </trkpt>
      <trkpt lat="38.8175" lon="121.14834">
        <ele>45.57955</ele>
        <time>2015-03-20T09:54:38.462000Z</time>
      </trkpt>
      <trkpt lat="38.817406" lon="121.148346">
        <ele>45.0919</ele>
        <time>2015-03-20T09:54:41.630000Z</time>
      </trkpt>
      <trkpt lat="38.817314" lon="121.14829">
        <ele>45.01456</ele>
        <time>2015-03-20T09:54:44.798000Z</time>
      </trkpt>
      <trkpt lat="38.817238" lon="121.1482">
        <ele>45.351334</ele>
        <time>2015-03-20T09:54:47.966000Z</time>
      </trkpt>
      <trkpt lat="38.817177" lon="121.1481">
        <ele>45.76479</ele>
        <time>2015-03-20T09:54:51.134000Z</time>
      </trkpt>
      <trkpt lat="38.81714" lon="121.14797">
        <ele>45.841564</ele>
        <time>2015-03-20T09:54:54.302000Z</time>
      </trkpt>
      <trkpt lat="38.817135" lon="121.14781">
        <ele>45.525505</ele>
        <time>2015-03-20T09:54:57.470000Z</time>
      </trkpt>
      <trkpt lat="38.817142" lon="121.14767">
        <ele>45.127785</ele>
        <time>2015-03-20T09:55:00.638000Z</time>
      </trkpt>
      <trkpt lat="38.817173" lon="121.14753">
        <ele>45.056946</ele>
        <time>2015-03-20T09:55:03.806000Z</time>
      </trkpt>
      <trkpt lat="38.81727" lon="121.14743">
        <ele>45.372982</ele>
        <time>2015-03-20T09:55:06.974000Z</time>
      </trkpt>
      <trkpt lat="38.817375" lon="121.14738">
        <ele>45.768993</ele>
        <time>2015-03-20T09:55:10.142000Z</time>
      </trkpt>
      <trkpt lat="38.817493" lon="121.14735">
        <ele>45.976734</ele>
        <time>2015-03-20T09:55:13.310000Z</time>
      </trkpt>
      <trkpt lat="38.817627" lon="121.14733">
        <ele>46.15829</ele>
        <time>2015-03-20T09:55:16.478000Z</time>
      </trkpt>
      <trkpt lat="38.81775" lon="121.14731">
        <ele>46.491615</ele>
        <time>2015-03-20T09:55:19.646000Z</time>
      </trkpt>
      <trkpt lat="38.817863" lon="121.14729">
        <ele>46.828712</ele>
        <time>2015-03-20T09:55:22.814000Z</time>
      </trkpt>
      <trkpt lat="38.81798" lon="121.14729">
        <ele>46.987225</ele>
        <time>2015-03-20T09:55:25.982000Z</time>
      </trkpt>
      <trkpt lat="38.818104" lon="121.14731">
        <ele>47.010376</ele>
        <time>2015-03-20T09:55:29.150000Z</time>
      </trkpt>
      <trkpt lat="38.818203" lon="121.14731">
        <ele>46.84444</ele>
        <time>2015-03-20T09:55:32.318000Z</time>
      </trkpt>
      <trkpt lat="38.818306" lon="121.147316">
        <ele>46.59526</ele>
        <time>2015-03-20T09:55:35.486000Z</time>
      </trkpt>
      <trkpt lat="38.818424" lon="121.14733">
        <ele>46.43479</ele>
        <time>2015-03-20T09:55:38.654000Z</time>
      </trkpt>
      <trkpt lat="38.818554" lon="121.147354">
        <ele>46.267315</ele>
        <time>2015-03-20T09:55:41.822000Z</time>
      </trkpt>
      <trkpt lat="38.81866" lon="121.14741">
        <ele>46.04892</ele>
        <time>2015-03-20T09:55:44.990000Z</time>
      </trkpt>
      <trkpt lat="38.818737" lon="121.147545">
        <ele>45.932415</ele>
        <time>2015-03-20T09:55:48.158000Z</time>
      </trkpt>
      <trkpt lat="38.818783" lon="121.1477">
        <ele>45.90703</ele>
        <time>2015-03-20T09:55:51.326000Z</time>
      </trkpt>
      <trkpt lat="38.818806" lon="121.14785">
        <ele>45.78296</ele>
        <time>2015-03-20T09:55:54.494000Z</time>
      </trkpt>
      <trkpt lat="38.818794" lon="121.147995">
        <ele>45.026375</ele>
        <time>2015-03-20T09:55:57.662000Z</time>
      </trkpt>
      <trkpt lat="38.81876" lon="121.14814">
        <ele>43.448483</ele>
        <time>2015-03-20T09:56:00.830000Z</time>
      </trkpt>
      <trkpt lat="38.818707" lon="121.14827">
        <ele>41.807007</ele>
        <time>2015-03-20T09:56:03.998000Z</time>
      </trkpt>
      <trkpt lat="38.818615" lon="121.148346">
        <ele>40.88407</ele>
        <time>2015-03-20T09:56:07.166000Z</time>
      </trkpt>
      <trkpt lat="38.818527" lon="121.1484">
        <ele>40.65775</ele>
        <time>2015-03-20T09:56:10.334000Z</time>
      </trkpt>
      <trkpt lat="38.818424" lon="121.148415">
        <time>2015-03-20T09:56:13.502000Z</time>
      </trkpt>
    </trkseg>
  </trk>
</gpx>