<?xml version="1.0" encoding="UTF-8"?>
<gpx xmlns="http://www.topografix.com/GPX/1/1" xmlns:gpxtpx="http://www.garmin.com/xmlschemas/TrackPointExtension/v1" xmlns:xsi="http://www.w3.org/2001/XMLSchema-instance" xsi:schemaLocation="http://www.topografix.com/GPX/1/1 http://www.topografix.com/GPX/1/1/gpx.xsd" version="1.1" creator="gpx.py -- https://github.com/tkrajina/gpxpy">
  <trk>
    <trkseg>
      <trkpt lat="38.818672" lon="121.148">
        <ele>42.97363</ele>
        <time>2015-03-19T09:33:30.005000Z</time>
      </trkpt>
      <trkpt lat="38.818672" lon="121.148">
        <ele>42.953804</ele>
        <time>2015-03-19T09:33:33.126000Z</time>
      </trkpt>
      <trkpt lat="38.818672" lon="121.148">
        <ele>42.94276</ele>
        <time>2015-03-19T09:33:36.247000Z</time>
      </trkpt>
      <trkpt lat="38.818684" lon="121.14786">
        <ele>42.933357</ele>
        <time>2015-03-19T09:33:39.368000Z</time>
      </trkpt>
      <trkpt lat="38.81869" lon="121.147736">
        <ele>43.06761</ele>
        <time>2015-03-19T09:33:42.489000Z</time>
      </trkpt>
      <trkpt lat="38.81869" lon="121.147736">
        <ele>43.433983</ele>
        <time>2015-03-19T09:33:45.610000Z</time>
      </trkpt>
      <trkpt lat="38.818695" lon="121.1476">
        <ele>43.684216</ele>
        <time>2015-03-19T09:33:48.731000Z</time>
      </trkpt>
      <trkpt lat="38.818695" lon="121.1476">
        <ele>43.276497</ele>
        <time>2015-03-19T09:33:51.852000Z</time>
      </trkpt>
      <trkpt lat="38.818626" lon="121.14743">
        <ele>43.248714</ele>
        <time>2015-03-19T09:33:54.973000Z</time>
      </trkpt>
      <trkpt lat="38.81855" lon="121.147354">
        <ele>42.875977</ele>
        <time>2015-03-19T09:33:58.094000Z</time>
      </trkpt>
      <trkpt lat="38.818462" lon="121.1473">
        <ele>41.70015</ele>
        <time>2015-03-19T09:34:01.215000Z</time>
      </trkpt>
      <trkpt lat="38.818462" lon="121.1473">
        <ele>40.434494</ele>
        <time>2015-03-19T09:34:04.336000Z</time>
      </trkpt>
      <trkpt lat="38.81837" lon="121.1473">
        <ele>39.679607</ele>
        <time>2015-03-19T09:34:07.457000Z</time>
      </trkpt>
      <trkpt lat="38.818264" lon="121.14729">
        <ele>39.216583</ele>
        <time>2015-03-19T09:34:10.578000Z</time>
      </trkpt>
      <trkpt lat="38.818165" lon="121.14727">
        <ele>38.530777</ele>
        <time>2015-03-19T09:34:13.699000Z</time>
      </trkpt>
      <trkpt lat="38.818165" lon="121.14727">
        <ele>37.37904</ele>
        <time>2015-03-19T09:34:16.820000Z</time>
      </trkpt>
      <trkpt lat="38.818073" lon="121.14729">
        <ele>36.643536</ele>
        <time>2015-03-19T09:34:19.941000Z</time>
      </trkpt>
      <trkpt lat="38.817978" lon="121.14733">
        <ele>37.066467</ele>
        <time>2015-03-19T09:34:23.062000Z</time>
      </trkpt>
      <trkpt lat="38.81787" lon="121.14733">
        <ele>37.87041</ele>
        <time>2015-03-19T09:34:26.183000Z</time>
      </trkpt>
      <trkpt lat="38.81776" lon="121.14733">
        <ele>38.21858</ele>
        <time>2015-03-19T09:34:29.304000Z</time>
      </trkpt>
      <trkpt lat="38.81767" lon="121.14733">
        <ele>38.039806</ele>
        <time>2015-03-19T09:34:32.425000Z</time>
      </trkpt>
      <trkpt lat="38.817562" lon="121.14731">
        <ele>37.41201</ele>
        <time>2015-03-19T09:34:35.546000Z</time>
      </trkpt>
      <trkpt lat="38.817444" lon="121.147316">
        <ele>36.5967</ele>
        <time>2015-03-19T09:34:38.667000Z</time>
      </trkpt>
      <trkpt lat="38.817356" lon="121.14734">
        <ele>36.024307</ele>
        <time>2015-03-19T09:34:41.788000Z</time>
      </trkpt>
      <trkpt lat="38.817257" lon="121.14742">
        <ele>36.102543</ele>
        <time>2015-03-19T09:34:44.909000Z</time>
      </trkpt>
      <trkpt lat="38.81719" lon="121.14755">
        <ele>36.836437</ele>
        <time>2015-03-19T09:34:48.030000Z</time>
      </trkpt>
      <trkpt lat="38.817146" lon="121.14768">
        <ele>37.780544</ele>
        <time>2015-03-19T09:34:51.151000Z</time>
      </trkpt>
      <trkpt lat="38.81711" lon="121.14783">
        <ele>38.537365</ele>
        <time>2015-03-19T09:34:54.272000Z</time>
      </trkpt>
      <trkpt lat="38.817085" lon="121.14797">
        <ele>38.975647</ele>
        <time>2015-03-19T09:34:57.393000Z</time>
      </trkpt>
      <trkpt lat="38.817078" lon="121.14811">
        <ele>39.227764</ele>
        <time>2015-03-19T09:35:00.514000Z</time>
      </trkpt>
      <trkpt lat="38.817146" lon="121.14823">
        <ele>39.54846</ele>
        <time>2015-03-19T09:35:03.635000Z</time>
      </trkpt>
      <trkpt lat="38.81722" lon="121.14831">
        <ele>39.44142</ele>
        <time>2015-03-19T09:35:06.756000Z</time>
      </trkpt>
      <trkpt lat="38.817303" lon="121.14836">
        <ele>38.5016</ele>
        <time>2015-03-19T09:35:09.877000Z</time>
      </trkpt>
      <trkpt lat="38.8174" lon="121.14838">
        <ele>37.410843</ele>
        <time>2015-03-19T09:35:12.998000Z</time>
      </trkpt>
      <trkpt lat="38.817505" lon="121.14836">
        <ele>36.858414</ele>
        <time>2015-03-19T09:35:16.119000Z</time>
      </trkpt>
      <trkpt lat="38.817604" lon="121.14835">
        <ele>36.75378</ele>
        <time>2015-03-19T09:35:19.240000Z</time>
      </trkpt>
      <trkpt lat="38.8177" lon="121.148346">
        <ele>36.97068</ele>
        <time>2015-03-19T09:35:22.361000Z</time>
      </trkpt>
      <trkpt lat="38.817795" lon="121.148346">
        <ele>37.55776</ele>
        <time>2015-03-19T09:35:25.482000Z</time>
      </trkpt>
      <trkpt lat="38.81791" lon="121.148346">
        <ele>38.33159</ele>
        <time>2015-03-19T09:35:28.603000Z</time>
      </trkpt>
      <trkpt lat="38.818024" lon="121.148346">
        <ele>38.884388</ele>
        <time>2015-03-19T09:35:31.724000Z</time>
      </trkpt>
      <trkpt lat="38.81814" lon="121.14836">
        <ele>39.079594</ele>
        <time>2015-03-19T09:35:34.845000Z</time>
      </trkpt>
      <trkpt lat="38.818256" lon="121.14838">
        <ele>39.068874</ele>
        <time>2015-03-19T09:35:37.966000Z</time>
      </trkpt>
      <trkpt lat="38.818367" lon="121.148384">
        <ele>39.0052</ele>
        <time>2015-03-19T09:35:41.087000Z</time>
      </trkpt>
      <trkpt lat="38.81846" lon="121.14837">
        <ele>39.098545</ele>
        <time>2015-03-19T09:35:44.208000Z</time>
      </trkpt>
      <trkpt lat="38.818554" lon="121.14834">
        <ele>39.58105</ele>
        <time>2015-03-19T09:35:47.329000Z</time>
      </trkpt>
      <trkpt lat="38.81865" lon="121.14829">
        <ele>40.44962</ele>
        <time>2015-03-19T09:35:50.450000Z</time>
      </trkpt>
      <trkpt lat="38.81873" lon="121.14818">
        <ele>41.359447</ele>
        <time>2015-03-19T09:35:53.571000Z</time>
      </trkpt>
      <trkpt lat="38.818768" lon="121.148056">
        <ele>41.934307</ele>
        <time>2015-03-19T09:35:56.692000Z</time>
      </trkpt>
      <trkpt lat="38.818768" lon="121.14793">
        <ele>41.969177</ele>
        <time>2015-03-19T09:35:59.813000Z</time>
      </trkpt>
      <trkpt lat="38.81877" lon="121.147804">
        <ele>41.57562</ele>
        <time>2015-03-19T09:36:02.934000Z</time>
      </trkpt>
      <trkpt lat="38.818745" lon="121.14766">
        <ele>41.407917</ele>
        <time>2015-03-19T09:36:06.055000Z</time>
      </trkpt>
      <trkpt lat="38.81868" lon="121.14754">
        <ele>42.182278</ele>
        <time>2015-03-19T09:36:09.176000Z</time>
      </trkpt>
      <trkpt lat="38.818596" lon="121.147446">
        <ele>43.738857</ele>
        <time>2015-03-19T09:36:12.297000Z</time>
      </trkpt>
      <trkpt lat="38.818504" lon="121.14736">
        <ele>45.221066</ele>
        <time>2015-03-19T09:36:15.418000Z</time>
      </trkpt>
      <trkpt lat="38.818398" lon="121.147285">
        <ele>46.03031</ele>
        <time>2015-03-19T09:36:18.539000Z</time>
      </trkpt>
      <trkpt lat="38.818295" lon="121.14727">
        <ele>46.492874</ele>
        <time>2015-03-19T09:36:21.660000Z</time>
      </trkpt>
      <trkpt lat="38.818203" lon="121.147255">
        <ele>47.122112</ele>
        <time>2015-03-19T09:36:24.781000Z</time>
      </trkpt>
      <trkpt lat="38.81809" lon="121.14727">
        <ele>47.601658</ele>
        <time>2015-03-19T09:36:27.902000Z</time>
      </trkpt>
      <trkpt lat="38.81798" lon="121.14726">
        <ele>47.388813</ele>
        <time>2015-03-19T09:36:31.023000Z</time>
      </trkpt>
      <trkpt lat="38.817863" lon="121.14726">
        <ele>46.559784</ele>
        <time>2015-03-19T09:36:34.144000Z</time>
      </trkpt>
      <trkpt lat="38.817745" lon="121.14725">
        <ele>45.464684</ele>
        <time>2015-03-19T09:36:37.265000Z</time>
      </trkpt>
      <trkpt lat="38.817657" lon="121.147224">
        <ele>44.20689</ele>
        <time>2015-03-19T09:36:40.386000Z</time>
      </trkpt>
      <trkpt lat="38.817566" lon="121.1472">
        <ele>42.922943</ele>
        <time>2015-03-19T09:36:43.507000Z</time>
      </trkpt>
      <trkpt lat="38.817455" lon="121.1472">
        <ele>42.17765</ele>
        <time>2015-03-19T09:36:46.628000Z</time>
      </trkpt>
      <trkpt lat="38.817337" lon="121.147224">
        <ele>42.23903</ele>
        <time>2015-03-19T09:36:49.749000Z</time>
      </trkpt>
      <trkpt lat="38.817245" lon="121.14728">
        <ele>42.77389</ele>
        <time>2015-03-19T09:36:52.870000Z</time>
      </trkpt>
      <trkpt lat="38.817165" lon="121.14736">
        <ele>43.414585</ele>
        <time>2015-03-19T09:36:55.991000Z</time>
      </trkpt>
      <trkpt lat="38.817123" lon="121.147484">
        <ele>43.743977</ele>
        <time>2015-03-19T09:36:59.112000Z</time>
      </trkpt>
      <trkpt lat="38.81711" lon="121.14763">
        <ele>43.138596</ele>
        <time>2015-03-19T09:37:02.233000Z</time>
      </trkpt>
      <trkpt lat="38.81711" lon="121.14776">
        <ele>41.5452</ele>
        <time>2015-03-19T09:37:05.354000Z</time>
      </trkpt>
      <trkpt lat="38.817116" lon="121.147896">
        <ele>39.848988</ele>
        <time>2015-03-19T09:37:08.475000Z</time>
      </trkpt>
      <trkpt lat="38.81716" lon="121.148026">
        <ele>38.75113</ele>
        <time>2015-03-19T09:37:11.596000Z</time>
      </trkpt>
      <trkpt lat="38.81721" lon="121.14815">
        <ele>38.15288</ele>
        <time>2015-03-19T09:37:14.717000Z</time>
      </trkpt>
      <trkpt lat="38.81728" lon="121.14824">
        <ele>37.877644</ele>
        <time>2015-03-19T09:37:17.838000Z</time>
      </trkpt>
      <trkpt lat="38.817383" lon="121.148285">
        <ele>37.84113</ele>
        <time>2015-03-19T09:37:20.959000Z</time>
      </trkpt>
      <trkpt lat="38.81748" lon="121.14831">
        <ele>37.892094</ele>
        <time>2015-03-19T09:37:24.080000Z</time>
      </trkpt>
      <trkpt lat="38.817593" lon="121.14832">
        <ele>37.940823</ele>
        <time>2015-03-19T09:37:27.201000Z</time>
      </trkpt>
      <trkpt lat="38.817688" lon="121.14834">
        <ele>38.10112</ele>
        <time>2015-03-19T09:37:30.322000Z</time>
      </trkpt>
      <trkpt lat="38.817806" lon="121.14835">
        <ele>38.46376</ele>
        <time>2015-03-19T09:37:33.443000Z</time>
      </trkpt>
      <trkpt lat="38.817898" lon="121.14837">
        <ele>38.82896</ele>
        <time>2015-03-19T09:37:36.564000Z</time>
      </trkpt>
      <trkpt lat="38.81799" lon="121.14838">
        <ele>39.000256</ele>
        <time>2015-03-19T09:37:39.685000Z</time>
      </trkpt>
      <trkpt lat="38.818092" lon="121.148384">
        <ele>39.163185</ele>
        <time>2015-03-19T09:37:42.806000Z</time>
      </trkpt>
      <trkpt lat="38.818195" lon="121.14839">
        <ele>39.76924</ele>
        <time>2015-03-19T09:37:45.927000Z</time>
      </trkpt>
      <trkpt lat="38.8183" lon="121.14839">
        <ele>40.828705</ele>
        <time>2015-03-19T09:37:49.048000Z</time>
      </trkpt>
      <trkpt lat="38.818417" lon="121.14839">
        <ele>41.86724</ele>
        <time>2015-03-19T09:37:52.169000Z</time>
      </trkpt>
      <trkpt lat="38.81852" lon="121.14835">
        <ele>42.740486</ele>
        <time>2015-03-19T09:37:55.290000Z</time>
      </trkpt>
      <trkpt lat="38.818607" lon="121.14829">
        <ele>43.4954</ele>
        <time>2015-03-19T09:37:58.411000Z</time>
      </trkpt>
      <trkpt lat="38.818684" lon="121.14819">
        <ele>44.09062</ele>
        <time>2015-03-19T09:38:01.532000Z</time>
      </trkpt>
      <trkpt lat="38.81872" lon="121.14807">
        <ele>44.717274</ele>
        <time>2015-03-19T09:38:04.653000Z</time>
      </trkpt>
      <trkpt lat="38.81875" lon="121.14794">
        <ele>45.413074</ele>
        <time>2015-03-19T09:38:07.774000Z</time>
      </trkpt>
      <trkpt lat="38.818752" lon="121.14781">
        <ele>45.89592</ele>
        <time>2015-03-19T09:38:10.895000Z</time>
      </trkpt>
      <trkpt lat="38.81872" lon="121.14769">
        <ele>45.7844</ele>
        <time>2015-03-19T09:38:14.016000Z</time>
      </trkpt>
      <trkpt lat="38.81867" lon="121.14756">
        <ele>45.05099</ele>
        <time>2015-03-19T09:38:17.137000Z</time>
      </trkpt>
      <trkpt lat="38.8186" lon="121.14746">
        <ele>44.116734</ele>
        <time>2015-03-19T09:38:20.258000Z</time>
      </trkpt>
      <trkpt lat="38.818523" lon="121.14738">
        <ele>43.36718</ele>
        <time>2015-03-19T09:38:23.379000Z</time>
      </trkpt>
      <trkpt lat="38.818436" lon="121.14731">
        <ele>42.931557</ele>
        <time>2015-03-19T09:38:26.500000Z</time>
      </trkpt>
      <trkpt lat="38.81834" lon="121.14728">
        <ele>42.817543</ele>
        <time>2015-03-19T09:38:29.621000Z</time>
      </trkpt>
      <trkpt lat="38.81824" lon="121.14726">
        <ele>42.85593</ele>
        <time>2015-03-19T09:38:32.742000Z</time>
      </trkpt>
      <trkpt lat="38.81815" lon="121.14724">
        <ele>42.779102</ele>
        <time>2015-03-19T09:38:35.863000Z</time>
      </trkpt>
      <trkpt lat="38.818035" lon="121.14721">
        <ele>42.454407</ele>
        <time>2015-03-19T09:38:38.984000Z</time>
      </trkpt>
      <trkpt lat="38.817944" lon="121.147194">
        <ele>41.679424</ele>
        <time>2015-03-19T09:38:42.105000Z</time>
      </trkpt>
      <trkpt lat="38.817825" lon="121.147194">
        <ele>40.421215</ele>
        <time>2015-03-19T09:38:45.226000Z</time>
      </trkpt>
      <trkpt lat="38.817726" lon="121.147194">
        <ele>39.28136</ele>
        <time>2015-03-19T09:38:48.347000Z</time>
      </trkpt>
      <trkpt lat="38.81761" lon="121.147194">
        <ele>38.782722</ele>
        <time>2015-03-19T09:38:51.468000Z</time>
      </trkpt>
      <trkpt lat="38.81751" lon="121.1472">
        <ele>38.732533</ele>
        <time>2015-03-19T09:38:54.589000Z</time>
      </trkpt>
      <trkpt lat="38.817417" lon="121.147224">
        <ele>38.836864</ele>
        <time>2015-03-19T09:38:57.710000Z</time>
      </trkpt>
      <trkpt lat="38.81732" lon="121.14726">
        <ele>38.92962</ele>
        <time>2015-03-19T09:39:00.831000Z</time>
      </trkpt>
      <trkpt lat="38.817245" lon="121.14733">
        <ele>38.96964</ele>
        <time>2015-03-19T09:39:03.952000Z</time>
      </trkpt>
      <trkpt lat="38.817184" lon="121.147446">
        <ele>38.97331</ele>
        <time>2015-03-19T09:39:07.073000Z</time>
      </trkpt>
      <trkpt lat="38.817184" lon="121.147446">
        <ele>38.96466</ele>
        <time>2015-03-19T09:39:10.194000Z</time>
      </trkpt>
      <trkpt lat="38.817146" lon="121.14759">
        <ele>38.953426</ele>
        <time>2015-03-19T09:39:13.315000Z</time>
      </trkpt>
      <trkpt lat="38.81714" lon="121.14774">
        <ele>38.80612</ele>
        <time>2015-03-19T09:39:16.436000Z</time>
      </trkpt>
      <trkpt lat="38.817142" lon="121.1479">
        <ele>38.44571</ele>
        <time>2015-03-19T09:39:19.557000Z</time>
      </trkpt>
      <trkpt lat="38.81718" lon="121.14805">
        <ele>38.082172</ele>
        <time>2015-03-19T09:39:22.678000Z</time>
      </trkpt>
      <trkpt lat="38.81724" lon="121.14817">
        <ele>37.911495</ele>
        <time>2015-03-19T09:39:25.799000Z</time>
      </trkpt>
      <trkpt lat="38.817326" lon="121.14826">
        <ele>37.748554</ele>
        <time>2015-03-19T09:39:28.920000Z</time>
      </trkpt>
      <trkpt lat="38.817425" lon="121.14831">
        <ele>37.41867</ele>
        <time>2015-03-19T09:39:32.041000Z</time>
      </trkpt>
      <trkpt lat="38.817524" lon="121.14833">
        <ele>37.078857</ele>
        <time>2015-03-19T09:39:35.162000Z</time>
      </trkpt>
      <trkpt lat="38.81762" lon="121.148346">
        <ele>36.91732</ele>
        <time>2015-03-19T09:39:38.283000Z</time>
      </trkpt>
      <trkpt lat="38.817715" lon="121.14835">
        <ele>37.030846</ele>
        <time>2015-03-19T09:39:41.404000Z</time>
      </trkpt>
      <trkpt lat="38.817818" lon="121.14835">
        <ele>37.41823</ele>
        <time>2015-03-19T09:39:44.525000Z</time>
      </trkpt>
      <trkpt lat="38.817917" lon="121.14836">
        <ele>37.815357</ele>
        <time>2015-03-19T09:39:47.646000Z</time>
      </trkpt>
      <trkpt lat="38.81801" lon="121.14837">
        <ele>38.141792</ele>
        <time>2015-03-19T09:39:50.767000Z</time>
      </trkpt>
      <trkpt lat="38.818104" lon="121.14838">
        <ele>38.66827</ele>
        <time>2015-03-19T09:39:53.888000Z</time>
      </trkpt>
      <trkpt lat="38.818222" lon="121.1484">
        <ele>39.365322</ele>
        <time>2015-03-19T09:39:57.009000Z</time>
      </trkpt>
      <trkpt lat="38.81833" lon="121.14842">
        <ele>39.324944</ele>
        <time>2015-03-19T09:40:00.130000Z</time>
      </trkpt>
      <trkpt lat="38.818447" lon="121.14842">
        <ele>37.933846</ele>
        <time>2015-03-19T09:40:03.251000Z</time>
      </trkpt>
      <trkpt lat="38.81854" lon="121.14839">
        <ele>36.22877</ele>
        <time>2015-03-19T09:40:06.372000Z</time>
      </trkpt>
      <trkpt lat="38.81861" lon="121.148315">
        <ele>35.598957</ele>
        <time>2015-03-19T09:40:09.493000Z</time>
      </trkpt>
      <trkpt lat="38.818672" lon="121.148186">
        <ele>36.143513</ele>
        <time>2015-03-19T09:40:12.614000Z</time>
      </trkpt>
      <trkpt lat="38.81869" lon="121.14802">
        <ele>37.264793</ele>
        <time>2015-03-19T09:40:15.735000Z</time>
      </trkpt>
      <trkpt lat="38.818703" lon="121.147865">
        <ele>38.346966</ele>
        <time>2015-03-19T09:40:18.856000Z</time>
      </trkpt>
      <trkpt lat="38.818707" lon="121.14773">
        <ele>38.841248</ele>
        <time>2015-03-19T09:40:21.977000Z</time>
      </trkpt>
      <trkpt lat="38.818676" lon="121.14759">
        <ele>38.648605</ele>
        <time>2015-03-19T09:40:25.098000Z</time>
      </trkpt>
      <trkpt lat="38.818626" lon="121.14746">
        <ele>38.50109</ele>
        <time>2015-03-19T09:40:28.219000Z</time>
      </trkpt>
      <trkpt lat="38.81853" lon="121.14734">
        <ele>38.957027</ele>
        <time>2015-03-19T09:40:31.340000Z</time>
      </trkpt>
      <trkpt lat="38.81844" lon="121.14727">
        <ele>39.756443</ele>
        <time>2015-03-19T09:40:34.461000Z</time>
      </trkpt>
      <trkpt lat="38.818336" lon="121.147255">
        <ele>40.89819</ele>
        <time>2015-03-19T09:40:37.582000Z</time>
      </trkpt>
      <trkpt lat="38.818233" lon="121.14725">
        <ele>42.711468</ele>
        <time>2015-03-19T09:40:40.703000Z</time>
      </trkpt>
      <trkpt lat="38.818127" lon="121.147224">
        <ele>44.67619</ele>
        <time>2015-03-19T09:40:43.824000Z</time>
      </trkpt>
      <trkpt lat="38.818016" lon="121.1472">
        <ele>45.913307</ele>
        <time>2015-03-19T09:40:46.945000Z</time>
      </trkpt>
      <trkpt lat="38.817913" lon="121.14716">
        <ele>46.8365</ele>
        <time>2015-03-19T09:40:50.066000Z</time>
      </trkpt>
      <trkpt lat="38.817818" lon="121.14712">
        <ele>48.20217</ele>
        <time>2015-03-19T09:40:53.187000Z</time>
      </trkpt>
      <trkpt lat="38.817726" lon="121.147125">
        <ele>49.518784</ele>
        <time>2015-03-19T09:40:56.308000Z</time>
      </trkpt>
      <trkpt lat="38.81763" lon="121.14713">
        <ele>49.84337</ele>
        <time>2015-03-19T09:40:59.429000Z</time>
      </trkpt>
      <trkpt lat="38.81753" lon="121.147125">
        <ele>49.062157</ele>
        <time>2015-03-19T09:41:02.550000Z</time>
      </trkpt>
      <trkpt lat="38.81744" lon="121.14713">
        <ele>47.849888</ele>
        <time>2015-03-19T09:41:05.671000Z</time>
      </trkpt>
      <trkpt lat="38.817345" lon="121.14715">
        <ele>46.884533</ele>
        <time>2015-03-19T09:41:08.792000Z</time>
      </trkpt>
      <trkpt lat="38.81724" lon="121.14722">
        <ele>46.109856</ele>
        <time>2015-03-19T09:41:11.913000Z</time>
      </trkpt>
      <trkpt lat="38.817154" lon="121.14734">
        <ele>45.27003</ele>
        <time>2015-03-19T09:41:15.034000Z</time>
      </trkpt>
      <trkpt lat="38.8171" lon="121.14751">
        <ele>44.465073</ele>
        <time>2015-03-19T09:41:18.155000Z</time>
      </trkpt>
      <trkpt lat="38.817093" lon="121.14763">
        <ele>43.960876</ele>
        <time>2015-03-19T09:41:21.276000Z</time>
      </trkpt>
      <trkpt lat="38.817116" lon="121.14781">
        <ele>43.67291</ele>
        <time>2015-03-19T09:41:24.397000Z</time>
      </trkpt>
      <trkpt lat="38.817158" lon="121.14797">
        <ele>43.34404</ele>
        <time>2015-03-19T09:41:27.518000Z</time>
      </trkpt>
      <trkpt lat="38.8172" lon="121.14807">
        <ele>43.04061</ele>
        <time>2015-03-19T09:41:30.639000Z</time>
      </trkpt>
      <trkpt lat="38.817295" lon="121.148186">
        <ele>42.767967</ele>
        <time>2015-03-19T09:41:33.760000Z</time>
      </trkpt>
      <trkpt lat="38.81741" lon="121.14826">
        <ele>42.255234</ele>
        <time>2015-03-19T09:41:36.881000Z</time>
      </trkpt>
      <trkpt lat="38.81751" lon="121.14831">
        <ele>41.553196</ele>
        <time>2015-03-19T09:41:40.002000Z</time>
      </trkpt>
      <trkpt lat="38.8176" lon="121.14833">
        <ele>41.171375</ele>
        <time>2015-03-19T09:41:43.123000Z</time>
      </trkpt>
      <trkpt lat="38.817688" lon="121.14834">
        <ele>41.34027</ele>
        <time>2015-03-19T09:41:46.244000Z</time>
      </trkpt>
      <trkpt lat="38.817787" lon="121.148346">
        <ele>41.852425</ele>
        <time>2015-03-19T09:41:49.365000Z</time>
      </trkpt>
      <trkpt lat="38.817886" lon="121.148346">
        <ele>42.721764</ele>
        <time>2015-03-19T09:41:52.486000Z</time>
      </trkpt>
      <trkpt lat="38.81798" lon="121.14835">
        <ele>44.017883</ele>
        <time>2015-03-19T09:41:55.607000Z</time>
      </trkpt>
      <trkpt lat="38.81808" lon="121.14836">
        <ele>45.277172</ele>
        <time>2015-03-19T09:41:58.728000Z</time>
      </trkpt>
      <trkpt lat="38.818172" lon="121.14838">
        <ele>46.269356</ele>
        <time>2015-03-19T09:42:01.849000Z</time>
      </trkpt>
      <trkpt lat="38.818268" lon="121.148384">
        <ele>47.168617</ele>
        <time>2015-03-19T09:42:04.970000Z</time>
      </trkpt>
      <trkpt lat="38.81836" lon="121.14839">
        <ele>47.838493</ele>
        <time>2015-03-19T09:42:08.091000Z</time>
      </trkpt>
      <trkpt lat="38.81846" lon="121.1484">
        <ele>48.224174</ele>
        <time>2015-03-19T09:42:11.212000Z</time>
      </trkpt>
      <trkpt lat="38.81855" lon="121.14838">
        <ele>48.57932</ele>
        <time>2015-03-19T09:42:14.333000Z</time>
      </trkpt>
      <trkpt lat="38.81863" lon="121.148315">
        <ele>48.874664</ele>
        <time>2015-03-19T09:42:17.454000Z</time>
      </trkpt>
      <trkpt lat="38.81871" lon="121.14819">
        <ele>48.857388</ele>
        <time>2015-03-19T09:42:20.575000Z</time>
      </trkpt>
      <trkpt lat="38.81875" lon="121.14805">
        <ele>48.504257</ele>
        <time>2015-03-19T09:42:23.696000Z</time>
      </trkpt>
      <trkpt lat="38.81877" lon="121.1479">
        <ele>47.690926</ele>
        <time>2015-03-19T09:42:26.817000Z</time>
      </trkpt>
      <trkpt lat="38.818787" lon="121.14776">
        <ele>46.411983</ele>
        <time>2015-03-19T09:42:29.938000Z</time>
      </trkpt>
      <trkpt lat="38.818787" lon="121.14763">
        <ele>45.267464</ele>
        <time>2015-03-19T09:42:33.059000Z</time>
      </trkpt>
      <trkpt lat="38.818714" lon="121.14752">
        <ele>44.909397</ele>
        <time>2015-03-19T09:42:36.180000Z</time>
      </trkpt>
      <trkpt lat="38.8186" lon="121.14743">
        <ele>45.222233</ele>
        <time>2015-03-19T09:42:39.301000Z</time>
      </trkpt>
      <trkpt lat="38.81851" lon="121.14736">
        <ele>45.697674</ele>
        <time>2015-03-19T09:42:42.422000Z</time>
      </trkpt>
      <trkpt lat="38.81841" lon="121.14732">
        <ele>45.966057</ele>
        <time>2015-03-19T09:42:45.543000Z</time>
      </trkpt>
      <trkpt lat="38.81841" lon="121.14732">
        <ele>46.032406</ele>
        <time>2015-03-19T09:42:48.664000Z</time>
      </trkpt>
      <trkpt lat="38.818676" lon="121.14791">
        <ele>39.77414</ele>
        <time>2015-03-19T09:42:51.785000Z</time>
      </trkpt>
      <trkpt lat="38.818676" lon="121.147896">
        <ele>39.985523</ele>
        <time>2015-03-19T09:42:54.906000Z</time>
      </trkpt>
      <trkpt lat="38.81873" lon="121.14779">
        <ele>40.561283</ele>
        <time>2015-03-19T09:42:58.027000Z</time>
      </trkpt>
      <trkpt lat="38.81873" lon="121.14779">
        <ele>41.328167</ele>
        <time>2015-03-19T09:43:01.148000Z</time>
      </trkpt>
      <trkpt lat="38.818733" lon="121.14765">
        <ele>41.87897</ele>
        <time>2015-03-19T09:43:04.269000Z</time>
      </trkpt>
      <trkpt lat="38.818695" lon="121.147545">
        <ele>42.074657</ele>
        <time>2015-03-19T09:43:07.390000Z</time>
      </trkpt>
      <trkpt lat="38.81863" lon="121.14745">
        <ele>42.064865</ele>
        <time>2015-03-19T09:43:10.511000Z</time>
      </trkpt>
      <trkpt lat="38.81854" lon="121.147385">
        <ele>42.00175</ele>
        <time>2015-03-19T09:43:13.632000Z</time>
      </trkpt>
      <trkpt lat="38.818443" lon="121.14733">
        <ele>41.957077</ele>
        <time>2015-03-19T09:43:16.753000Z</time>
      </trkpt>
      <trkpt lat="38.818356" lon="121.14729">
        <ele>41.665115</ele>
        <time>2015-03-19T09:43:19.874000Z</time>
      </trkpt>
      <trkpt lat="38.818253" lon="121.14729">
        <ele>40.94632</ele>
        <time>2015-03-19T09:43:22.995000Z</time>
      </trkpt>
      <trkpt lat="38.81815" lon="121.147316">
        <ele>40.62718</ele>
        <time>2015-03-19T09:43:26.116000Z</time>
      </trkpt>
      <trkpt lat="38.818058" lon="121.14731">
        <ele>41.359955</ele>
        <time>2015-03-19T09:43:29.237000Z</time>
      </trkpt>
      <trkpt lat="38.817963" lon="121.1473">
        <ele>42.001907</ele>
        <time>2015-03-19T09:43:32.358000Z</time>
      </trkpt>
      <trkpt lat="38.817863" lon="121.1473">
        <ele>41.369713</ele>
        <time>2015-03-19T09:43:35.479000Z</time>
      </trkpt>
      <trkpt lat="38.81777" lon="121.14729">
        <ele>40.040894</ele>
        <time>2015-03-19T09:43:38.600000Z</time>
      </trkpt>
      <trkpt lat="38.81765" lon="121.14728">
        <ele>39.359974</ele>
        <time>2015-03-19T09:43:41.721000Z</time>
      </trkpt>
      <trkpt lat="38.817543" lon="121.14726">
        <ele>40.01488</ele>
        <time>2015-03-19T09:43:44.842000Z</time>
      </trkpt>
      <trkpt lat="38.817436" lon="121.14726">
        <ele>41.489693</ele>
        <time>2015-03-19T09:43:47.963000Z</time>
      </trkpt>
      <trkpt lat="38.81735" lon="121.14729">
        <ele>42.688457</ele>
        <time>2015-03-19T09:43:51.084000Z</time>
      </trkpt>
      <trkpt lat="38.817265" lon="121.14736">
        <ele>43.16968</ele>
        <time>2015-03-19T09:43:54.205000Z</time>
      </trkpt>
      <trkpt lat="38.817196" lon="121.14745">
        <ele>43.18999</ele>
        <time>2015-03-19T09:43:57.326000Z</time>
      </trkpt>
      <trkpt lat="38.817146" lon="121.147575">
        <ele>42.51544</ele>
        <time>2015-03-19T09:44:00.447000Z</time>
      </trkpt>
      <trkpt lat="38.81712" lon="121.14771">
        <ele>40.978466</ele>
        <time>2015-03-19T09:44:03.568000Z</time>
      </trkpt>
      <trkpt lat="38.81711" lon="121.14784">
        <ele>39.738552</ele>
        <time>2015-03-19T09:44:06.689000Z</time>
      </trkpt>
      <trkpt lat="38.817123" lon="121.147964">
        <ele>39.894245</ele>
        <time>2015-03-19T09:44:09.810000Z</time>
      </trkpt>
      <trkpt lat="38.81716" lon="121.148094">
        <ele>40.89695</ele>
        <time>2015-03-19T09:44:12.931000Z</time>
      </trkpt>
      <trkpt lat="38.817223" lon="121.1482">
        <ele>41.744762</ele>
        <time>2015-03-19T09:44:16.052000Z</time>
      </trkpt>
      <trkpt lat="38.8173" lon="121.14827">
        <ele>42.0966</ele>
        <time>2015-03-19T09:44:19.173000Z</time>
      </trkpt>
      <trkpt lat="38.817394" lon="121.148346">
        <ele>41.98143</ele>
        <time>2015-03-19T09:44:22.294000Z</time>
      </trkpt>
      <trkpt lat="38.81749" lon="121.14837">
        <ele>41.400414</ele>
        <time>2015-03-19T09:44:25.415000Z</time>
      </trkpt>
      <trkpt lat="38.817604" lon="121.148384">
        <ele>40.187626</ele>
        <time>2015-03-19T09:44:28.536000Z</time>
      </trkpt>
      <trkpt lat="38.8177" lon="121.148384">
        <ele>38.12052</ele>
        <time>2015-03-19T09:44:31.657000Z</time>
      </trkpt>
      <trkpt lat="38.81779" lon="121.1484">
        <ele>35.729183</ele>
        <time>2015-03-19T09:44:34.778000Z</time>
      </trkpt>
      <trkpt lat="38.81788" lon="121.14841">
        <ele>33.829052</ele>
        <time>2015-03-19T09:44:37.899000Z</time>
      </trkpt>
      <trkpt lat="38.81797" lon="121.14842">
        <ele>32.43141</ele>
        <time>2015-03-19T09:44:41.020000Z</time>
      </trkpt>
      <trkpt lat="38.818085" lon="121.14844">
        <ele>31.251303</ele>
        <time>2015-03-19T09:44:44.141000Z</time>
      </trkpt>
      <trkpt lat="38.81819" lon="121.14843">
        <ele>30.367954</ele>
        <time>2015-03-19T09:44:47.262000Z</time>
      </trkpt>
      <trkpt lat="38.818302" lon="121.14844">
        <ele>29.901768</ele>
        <time>2015-03-19T09:44:50.383000Z</time>
      </trkpt>
      <trkpt lat="38.818405" lon="121.14844">
        <ele>29.802896</ele>
        <time>2015-03-19T09:44:53.504000Z</time>
      </trkpt>
      <trkpt lat="38.818512" lon="121.14839">
        <ele>29.861376</ele>
        <time>2015-03-19T09:44:56.625000Z</time>
      </trkpt>
      <trkpt lat="38.8186" lon="121.14834">
        <ele>29.933521</ele>
        <time>2015-03-19T09:44:59.746000Z</time>
      </trkpt>
      <trkpt lat="38.81868" lon="121.148254">
        <ele>30.247467</ele>
        <time>2015-03-19T09:45:02.867000Z</time>
      </trkpt>
      <trkpt lat="38.818733" lon="121.14816">
        <ele>30.97496</ele>
        <time>2015-03-19T09:45:05.988000Z</time>
      </trkpt>
      <trkpt lat="38.818764" lon="121.14805">
        <ele>31.432562</ele>
        <time>2015-03-19T09:45:09.109000Z</time>
      </trkpt>
      <trkpt lat="38.818783" lon="121.1479">
        <ele>31.05741</ele>
        <time>2015-03-19T09:45:12.230000Z</time>
      </trkpt>
      <trkpt lat="38.818768" lon="121.14779">
        <ele>30.783104</ele>
        <time>2015-03-19T09:45:15.351000Z</time>
      </trkpt>
      <trkpt lat="38.818737" lon="121.14765">
        <ele>31.589863</ele>
        <time>2015-03-19T09:45:18.472000Z</time>
      </trkpt>
      <trkpt lat="38.81867" lon="121.14755">
        <ele>32.945198</ele>
        <time>2015-03-19T09:45:21.593000Z</time>
      </trkpt>
      <trkpt lat="38.818596" lon="121.14747">
        <ele>34.010853</ele>
        <time>2015-03-19T09:45:24.714000Z</time>
      </trkpt>
      <trkpt lat="38.818512" lon="121.14738">
        <ele>34.682014</ele>
        <time>2015-03-19T09:45:27.835000Z</time>
      </trkpt>
      <trkpt lat="38.818417" lon="121.147316">
        <ele>35.02125</ele>
        <time>2015-03-19T09:45:30.956000Z</time>
      </trkpt>
      <trkpt lat="38.818295" lon="121.14729">
        <ele>34.94694</ele>
        <time>2015-03-19T09:45:34.077000Z</time>
      </trkpt>
      <trkpt lat="38.818207" lon="121.14728">
        <ele>34.538418</ele>
        <time>2015-03-19T09:45:37.198000Z</time>
      </trkpt>
      <trkpt lat="38.818115" lon="121.14726">
        <ele>33.83786</ele>
        <time>2015-03-19T09:45:40.319000Z</time>
      </trkpt>
      <trkpt lat="38.818024" lon="121.147255">
        <ele>32.91549</ele>
        <time>2015-03-19T09:45:43.440000Z</time>
      </trkpt>
      <trkpt lat="38.81793" lon="121.14726">
        <ele>32.4215</ele>
        <time>2015-03-19T09:45:46.561000Z</time>
      </trkpt>
      <trkpt lat="38.817825" lon="121.14728">
        <ele>32.962994</ele>
        <time>2015-03-19T09:45:49.682000Z</time>
      </trkpt>
      <trkpt lat="38.81771" lon="121.147285">
        <ele>34.18145</ele>
        <time>2015-03-19T09:45:52.803000Z</time>
      </trkpt>
      <trkpt lat="38.81762" lon="121.147285">
        <ele>35.475746</ele>
        <time>2015-03-19T09:45:55.924000Z</time>
      </trkpt>
      <trkpt lat="38.817524" lon="121.147285">
        <ele>36.496014</ele>
        <time>2015-03-19T09:45:59.045000Z</time>
      </trkpt>
      <trkpt lat="38.817425" lon="121.14732">
        <ele>36.894447</ele>
        <time>2015-03-19T09:46:02.166000Z</time>
      </trkpt>
      <trkpt lat="38.817337" lon="121.14737">
        <ele>36.509193</ele>
        <time>2015-03-19T09:46:05.287000Z</time>
      </trkpt>
      <trkpt lat="38.81726" lon="121.14743">
        <ele>35.43545</ele>
        <time>2015-03-19T09:46:08.408000Z</time>
      </trkpt>
      <trkpt lat="38.817192" lon="121.14751">
        <ele>33.81129</ele>
        <time>2015-03-19T09:46:11.529000Z</time>
      </trkpt>
      <trkpt lat="38.81714" lon="121.14761">
        <ele>32.107582</ele>
        <time>2015-03-19T09:46:14.650000Z</time>
      </trkpt>
      <trkpt lat="38.817116" lon="121.14775">
        <ele>31.427387</ele>
        <time>2015-03-19T09:46:17.771000Z</time>
      </trkpt>
      <trkpt lat="38.81712" lon="121.1479">
        <ele>32.445644</ele>
        <time>2015-03-19T09:46:20.892000Z</time>
      </trkpt>
      <trkpt lat="38.817158" lon="121.14802">
        <ele>34.331654</ele>
        <time>2015-03-19T09:46:24.013000Z</time>
      </trkpt>
      <trkpt lat="38.817207" lon="121.148125">
        <ele>35.7361</ele>
        <time>2015-03-19T09:46:27.134000Z</time>
      </trkpt>
      <trkpt lat="38.817272" lon="121.14822">
        <ele>36.393005</ele>
        <time>2015-03-19T09:46:30.255000Z</time>
      </trkpt>
      <trkpt lat="38.817345" lon="121.14829">
        <ele>36.74281</ele>
        <time>2015-03-19T09:46:33.376000Z</time>
      </trkpt>
      <trkpt lat="38.81743" lon="121.14836">
        <ele>36.81868</ele>
        <time>2015-03-19T09:46:36.497000Z</time>
      </trkpt>
      <trkpt lat="38.817516" lon="121.1484">
        <ele>36.520077</ele>
        <time>2015-03-19T09:46:39.618000Z</time>
      </trkpt>
      <trkpt lat="38.81761" lon="121.1484">
        <ele>35.85939</ele>
        <time>2015-03-19T09:46:42.739000Z</time>
      </trkpt>
      <trkpt lat="38.817726" lon="121.14838">
        <ele>34.797497</ele>
        <time>2015-03-19T09:46:45.860000Z</time>
      </trkpt>
      <trkpt lat="38.817833" lon="121.14835">
        <ele>33.654896</ele>
        <time>2015-03-19T09:46:48.981000Z</time>
      </trkpt>
      <trkpt lat="38.817947" lon="121.14834">
        <ele>32.960075</ele>
        <time>2015-03-19T09:46:52.102000Z</time>
      </trkpt>
      <trkpt lat="38.81804" lon="121.14833">
        <ele>32.763145</ele>
        <time>2015-03-19T09:46:55.223000Z</time>
      </trkpt>
      <trkpt lat="38.81813" lon="121.148346">
        <ele>32.674854</ele>
        <time>2015-03-19T09:46:58.344000Z</time>
      </trkpt>
      <trkpt lat="38.818222" lon="121.14836">
        <ele>32.408585</ele>
        <time>2015-03-19T09:47:01.465000Z</time>
      </trkpt>
      <trkpt lat="38.818333" lon="121.14838">
        <ele>31.957159</ele>
        <time>2015-03-19T09:47:04.586000Z</time>
      </trkpt>
      <trkpt lat="38.81842" lon="121.14837">
        <ele>31.437582</ele>
        <time>2015-03-19T09:47:07.707000Z</time>
      </trkpt>
      <trkpt lat="38.818516" lon="121.14832">
        <ele>31.03732</ele>
        <time>2015-03-19T09:47:10.828000Z</time>
      </trkpt>
      <trkpt lat="38.818607" lon="121.14825">
        <ele>30.884377</ele>
        <time>2015-03-19T09:47:13.949000Z</time>
      </trkpt>
      <trkpt lat="38.81868" lon="121.148155">
        <ele>30.607056</ele>
        <time>2015-03-19T09:47:17.070000Z</time>
      </trkpt>
      <trkpt lat="38.818726" lon="121.14802">
        <ele>29.930122</ele>
        <time>2015-03-19T09:47:20.191000Z</time>
      </trkpt>
      <trkpt lat="38.818745" lon="121.1479">
        <ele>29.361929</ele>
        <time>2015-03-19T09:47:23.312000Z</time>
      </trkpt>
      <trkpt lat="38.818752" lon="121.14775">
        <ele>29.383526</ele>
        <time>2015-03-19T09:47:26.433000Z</time>
      </trkpt>
      <trkpt lat="38.818718" lon="121.14761">
        <ele>29.838015</ele>
        <time>2015-03-19T09:47:29.554000Z</time>
      </trkpt>
      <trkpt lat="38.81864" lon="121.147484">
        <ele>30.429607</ele>
        <time>2015-03-19T09:47:32.675000Z</time>
      </trkpt>
      <trkpt lat="38.818554" lon="121.147385">
        <ele>30.88315</ele>
        <time>2015-03-19T09:47:35.796000Z</time>
      </trkpt>
      <trkpt lat="38.818455" lon="121.14732">
        <ele>31.05564</ele>
        <time>2015-03-19T09:47:38.917000Z</time>
      </trkpt>
      <trkpt lat="38.818356" lon="121.14729">
        <ele>30.917944</ele>
        <time>2015-03-19T09:47:42.038000Z</time>
      </trkpt>
      <trkpt lat="38.818253" lon="121.14726">
        <ele>30.37109</ele>
        <time>2015-03-19T09:47:45.159000Z</time>
      </trkpt>
      <trkpt lat="38.818142" lon="121.147255">
        <ele>29.604942</ele>
        <time>2015-03-19T09:47:48.280000Z</time>
      </trkpt>
      <trkpt lat="38.818047" lon="121.147255">
        <ele>29.184635</ele>
        <time>2015-03-19T09:47:51.401000Z</time>
      </trkpt>
      <trkpt lat="38.817947" lon="121.14728">
        <ele>29.619215</ele>
        <time>2015-03-19T09:47:54.522000Z</time>
      </trkpt>
      <trkpt lat="38.817837" lon="121.14729">
        <ele>30.715912</ele>
        <time>2015-03-19T09:47:57.643000Z</time>
      </trkpt>
      <trkpt lat="38.817738" lon="121.14734">
        <ele>31.693125</ele>
        <time>2015-03-19T09:48:00.764000Z</time>
      </trkpt>
      <trkpt lat="38.81765" lon="121.14734">
        <ele>31.977304</ele>
        <time>2015-03-19T09:48:03.885000Z</time>
      </trkpt>
      <trkpt lat="38.81756" lon="121.14732">
        <ele>31.518404</ele>
        <time>2015-03-19T09:48:07.006000Z</time>
      </trkpt>
      <trkpt lat="38.817467" lon="121.14731">
        <ele>30.69819</ele>
        <time>2015-03-19T09:48:10.127000Z</time>
      </trkpt>
      <trkpt lat="38.817375" lon="121.14731">
        <ele>30.073992</ele>
        <time>2015-03-19T09:48:13.248000Z</time>
      </trkpt>
      <trkpt lat="38.81729" lon="121.14739">
        <ele>30.252846</ele>
        <time>2015-03-19T09:48:16.369000Z</time>
      </trkpt>
      <trkpt lat="38.817204" lon="121.147484">
        <ele>31.885859</ele>
        <time>2015-03-19T09:48:19.490000Z</time>
      </trkpt>
      <trkpt lat="38.817142" lon="121.14759">
        <ele>34.501354</ele>
        <time>2015-03-19T09:48:22.611000Z</time>
      </trkpt>
      <trkpt lat="38.81712" lon="121.147736">
        <ele>36.41737</ele>
        <time>2015-03-19T09:48:25.732000Z</time>
      </trkpt>
      <trkpt lat="38.817123" lon="121.14787">
        <ele>36.85695</ele>
        <time>2015-03-19T09:48:28.853000Z</time>
      </trkpt>
      <trkpt lat="38.817146" lon="121.14801">
        <ele>36.503403</ele>
        <time>2015-03-19T09:48:31.974000Z</time>
      </trkpt>
      <trkpt lat="38.817192" lon="121.148125">
        <ele>36.1123</ele>
        <time>2015-03-19T09:48:35.095000Z</time>
      </trkpt>
      <trkpt lat="38.81726" lon="121.14823">
        <ele>36.057117</ele>
        <time>2015-03-19T09:48:38.216000Z</time>
      </trkpt>
      <trkpt lat="38.817345" lon="121.14831">
        <ele>36.38304</ele>
        <time>2015-03-19T09:48:41.337000Z</time>
      </trkpt>
      <trkpt lat="38.817436" lon="121.14836">
        <ele>36.78203</ele>
        <time>2015-03-19T09:48:44.458000Z</time>
      </trkpt>
      <trkpt lat="38.81753" lon="121.14838">
        <ele>36.98919</ele>
        <time>2015-03-19T09:48:47.579000Z</time>
      </trkpt>
      <trkpt lat="38.817623" lon="121.14837">
        <ele>36.75493</ele>
        <time>2015-03-19T09:48:50.700000Z</time>
      </trkpt>
      <trkpt lat="38.817722" lon="121.148346">
        <ele>35.593243</ele>
        <time>2015-03-19T09:48:53.821000Z</time>
      </trkpt>
      <trkpt lat="38.81783" lon="121.14834">
        <ele>33.465767</ele>
        <time>2015-03-19T09:48:56.942000Z</time>
      </trkpt>
      <trkpt lat="38.81795" lon="121.14834">
        <ele>31.270456</ele>
        <time>2015-03-19T09:49:00.063000Z</time>
      </trkpt>
      <trkpt lat="38.818047" lon="121.148346">
        <ele>29.81129</ele>
        <time>2015-03-19T09:49:03.184000Z</time>
      </trkpt>
      <trkpt lat="38.818142" lon="121.14837">
        <ele>28.807198</ele>
        <time>2015-03-19T09:49:06.305000Z</time>
      </trkpt>
      <trkpt lat="38.81824" lon="121.148384">
        <ele>27.817749</ele>
        <time>2015-03-19T09:49:09.426000Z</time>
      </trkpt>
      <trkpt lat="38.81835" lon="121.14841">
        <ele>27.083452</ele>
        <time>2015-03-19T09:49:12.547000Z</time>
      </trkpt>
      <trkpt lat="38.818462" lon="121.148384">
        <ele>26.8132</ele>
        <time>2015-03-19T09:49:15.668000Z</time>
      </trkpt>
      <trkpt lat="38.818546" lon="121.14832">
        <ele>27.233732</ele>
        <time>2015-03-19T09:49:18.789000Z</time>
      </trkpt>
      <trkpt lat="38.818634" lon="121.148224">
        <ele>29.362165</ele>
        <time>2015-03-19T09:49:21.910000Z</time>
      </trkpt>
      <trkpt lat="38.818707" lon="121.14812">
        <ele>33.0493</ele>
        <time>2015-03-19T09:49:25.031000Z</time>
      </trkpt>
      <trkpt lat="38.818764" lon="121.14801">
        <ele>36.597244</ele>
        <time>2015-03-19T09:49:28.152000Z</time>
      </trkpt>
      <trkpt lat="38.8188" lon="121.1479">
        <ele>39.397125</ele>
        <time>2015-03-19T09:49:31.273000Z</time>
      </trkpt>
      <trkpt lat="38.818783" lon="121.14777">
        <ele>41.674145</ele>
        <time>2015-03-19T09:49:34.394000Z</time>
      </trkpt>
      <trkpt lat="38.818733" lon="121.14764">
        <ele>42.864998</ele>
        <time>2015-03-19T09:49:37.515000Z</time>
      </trkpt>
      <trkpt lat="38.818665" lon="121.14753">
        <ele>42.579357</ele>
        <time>2015-03-19T09:49:40.636000Z</time>
      </trkpt>
      <trkpt lat="38.81859" lon="121.14744">
        <ele>41.23694</ele>
        <time>2015-03-19T09:49:43.757000Z</time>
      </trkpt>
      <trkpt lat="38.81849" lon="121.14736">
        <ele>39.638344</ele>
        <time>2015-03-19T09:49:46.878000Z</time>
      </trkpt>
      <trkpt lat="38.81839" lon="121.14734">
        <ele>38.148224</ele>
        <time>2015-03-19T09:49:49.999000Z</time>
      </trkpt>
      <trkpt lat="38.818275" lon="121.14733">
        <ele>36.833023</ele>
        <time>2015-03-19T09:49:53.120000Z</time>
      </trkpt>
      <trkpt lat="38.81817" lon="121.14732">
        <ele>36.13043</ele>
        <time>2015-03-19T09:49:56.241000Z</time>
      </trkpt>
      <trkpt lat="38.818058" lon="121.14731">
        <ele>36.371</ele>
        <time>2015-03-19T09:49:59.362000Z</time>
      </trkpt>
      <trkpt lat="38.817944" lon="121.1473">
        <ele>37.284424</ele>
        <time>2015-03-19T09:50:02.483000Z</time>
      </trkpt>
      <trkpt lat="38.81784" lon="121.14729">
        <ele>38.296913</ele>
        <time>2015-03-19T09:50:05.604000Z</time>
      </trkpt>
      <trkpt lat="38.817726" lon="121.147285">
        <ele>38.798016</ele>
        <time>2015-03-19T09:50:08.725000Z</time>
      </trkpt>
      <trkpt lat="38.81763" lon="121.14728">
        <ele>38.63036</ele>
        <time>2015-03-19T09:50:11.846000Z</time>
      </trkpt>
      <trkpt lat="38.817543" lon="121.14727">
        <ele>38.085155</ele>
        <time>2015-03-19T09:50:14.967000Z</time>
      </trkpt>
      <trkpt lat="38.817448" lon="121.147285">
        <ele>37.46696</ele>
        <time>2015-03-19T09:50:18.088000Z</time>
      </trkpt>
      <trkpt lat="38.81736" lon="121.14734">
        <ele>36.88109</ele>
        <time>2015-03-19T09:50:21.209000Z</time>
      </trkpt>
      <trkpt lat="38.817276" lon="121.147415">
        <ele>36.36068</ele>
        <time>2015-03-19T09:50:24.330000Z</time>
      </trkpt>
      <trkpt lat="38.81721" lon="121.14754">
        <ele>36.274456</ele>
        <time>2015-03-19T09:50:27.451000Z</time>
      </trkpt>
      <trkpt lat="38.81716" lon="121.147675">
        <ele>37.00805</ele>
        <time>2015-03-19T09:50:30.572000Z</time>
      </trkpt>
      <trkpt lat="38.817135" lon="121.147804">
        <ele>38.116592</ele>
        <time>2015-03-19T09:50:33.693000Z</time>
      </trkpt>
      <trkpt lat="38.817135" lon="121.14794">
        <ele>39.01752</ele>
        <time>2015-03-19T09:50:36.814000Z</time>
      </trkpt>
      <trkpt lat="38.817158" lon="121.14808">
        <ele>39.49695</ele>
        <time>2015-03-19T09:50:39.935000Z</time>
      </trkpt>
      <trkpt lat="38.81722" lon="121.1482">
        <ele>39.48296</ele>
        <time>2015-03-19T09:50:43.056000Z</time>
      </trkpt>
      <trkpt lat="38.817307" lon="121.14829">
        <ele>39.059483</ele>
        <time>2015-03-19T09:50:46.177000Z</time>
      </trkpt>
      <trkpt lat="38.817398" lon="121.14837">
        <ele>38.48904</ele>
        <time>2015-03-19T09:50:49.298000Z</time>
      </trkpt>
      <trkpt lat="38.817497" lon="121.14841">
        <ele>37.904392</ele>
        <time>2015-03-19T09:50:52.419000Z</time>
      </trkpt>
      <trkpt lat="38.817604" lon="121.14841">
        <ele>37.23312</ele>
        <time>2015-03-19T09:50:55.540000Z</time>
      </trkpt>
      <trkpt lat="38.817703" lon="121.14839">
        <ele>35.94805</ele>
        <time>2015-03-19T09:50:58.661000Z</time>
      </trkpt>
      <trkpt lat="38.8178" lon="121.148384">
        <ele>33.872677</ele>
        <time>2015-03-19T09:51:01.782000Z</time>
      </trkpt>
      <trkpt lat="38.817913" lon="121.14839">
        <ele>31.869513</ele>
        <time>2015-03-19T09:51:04.903000Z</time>
      </trkpt>
      <trkpt lat="38.818035" lon="121.14841">
        <ele>31.230877</ele>
        <time>2015-03-19T09:51:08.024000Z</time>
      </trkpt>
      <trkpt lat="38.818157" lon="121.148415">
        <ele>32.08935</ele>
        <time>2015-03-19T09:51:11.145000Z</time>
      </trkpt>
      <trkpt lat="38.818256" lon="121.14841">
        <ele>33.46957</ele>
        <time>2015-03-19T09:51:14.266000Z</time>
      </trkpt>
      <trkpt lat="38.81836" lon="121.14841">
        <ele>34.518837</ele>
        <time>2015-03-19T09:51:17.387000Z</time>
      </trkpt>
      <trkpt lat="38.818474" lon="121.148384">
        <ele>34.776417</ele>
        <time>2015-03-19T09:51:20.508000Z</time>
      </trkpt>
      <trkpt lat="38.81859" lon="121.14833">
        <ele>34.159176</ele>
        <time>2015-03-19T09:51:23.629000Z</time>
      </trkpt>
      <trkpt lat="38.818672" lon="121.148254">
        <ele>34.727062</ele>
        <time>2015-03-19T09:51:26.750000Z</time>
      </trkpt>
      <trkpt lat="38.81872" lon="121.148125">
        <ele>37.88983</ele>
        <time>2015-03-19T09:51:29.871000Z</time>
      </trkpt>
      <trkpt lat="38.81875" lon="121.148">
        <ele>41.349922</ele>
        <time>2015-03-19T09:51:32.992000Z</time>
      </trkpt>
      <trkpt lat="38.81876" lon="121.14788">
        <ele>42.794666</ele>
        <time>2015-03-19T09:51:36.113000Z</time>
      </trkpt>
      <trkpt lat="38.818745" lon="121.147736">
        <ele>42.75703</ele>
        <time>2015-03-19T09:51:39.234000Z</time>
      </trkpt>
      <trkpt lat="38.818695" lon="121.14761">
        <ele>42.04073</ele>
        <time>2015-03-19T09:51:42.355000Z</time>
      </trkpt>
      <trkpt lat="38.818634" lon="121.14753">
        <ele>41.000847</ele>
        <time>2015-03-19T09:51:45.476000Z</time>
      </trkpt>
      <trkpt lat="38.81856" lon="121.14745">
        <ele>40.2848</ele>
        <time>2015-03-19T09:51:48.597000Z</time>
      </trkpt>
      <trkpt lat="38.818512" lon="121.147354">
        <ele>40.298634</ele>
        <time>2015-03-19T09:51:51.718000Z</time>
      </trkpt>
      <trkpt lat="38.818512" lon="121.147354">
        <ele>40.5631</ele>
        <time>2015-03-19T09:51:54.839000Z</time>
      </trkpt>
      <trkpt lat="38.818512" lon="121.147354">
        <ele>40.43527</ele>
        <time>2015-03-19T09:51:57.960000Z</time>
      </trkpt>
      <trkpt lat="38.818512" lon="121.147354">
        <ele>40.402096</ele>
        <time>2015-03-19T09:52:01.081000Z</time>
      </trkpt>
      <trkpt lat="38.818428" lon="121.147285">
        <ele>40.448902</ele>
        <time>2015-03-19T09:52:04.202000Z</time>
      </trkpt>
      <trkpt lat="38.818295" lon="121.14727">
        <ele>40.555134</ele>
        <time>2015-03-19T09:52:07.323000Z</time>
      </trkpt>
      <trkpt lat="38.818172" lon="121.14725">
        <ele>40.735767</ele>
        <time>2015-03-19T09:52:10.444000Z</time>
      </trkpt>
      <trkpt lat="38.81806" lon="121.14725">
        <ele>40.902916</ele>
        <time>2015-03-19T09:52:13.565000Z</time>
      </trkpt>
      <trkpt lat="38.817947" lon="121.147224">
        <ele>40.838963</ele>
        <time>2015-03-19T09:52:16.686000Z</time>
      </trkpt>
      <trkpt lat="38.817856" lon="121.14722">
        <ele>40.072723</ele>
        <time>2015-03-19T09:52:19.807000Z</time>
      </trkpt>
      <trkpt lat="38.81773" lon="121.147224">
        <ele>38.608624</ele>
        <time>2015-03-19T09:52:22.928000Z</time>
      </trkpt>
      <trkpt lat="38.817635" lon="121.14721">
        <ele>37.31145</ele>
        <time>2015-03-19T09:52:26.049000Z</time>
      </trkpt>
      <trkpt lat="38.81754" lon="121.1472">
        <ele>36.891357</ele>
        <time>2015-03-19T09:52:29.170000Z</time>
      </trkpt>
      <trkpt lat="38.817444" lon="121.1472">
        <ele>37.20104</ele>
        <time>2015-03-19T09:52:32.291000Z</time>
      </trkpt>
      <trkpt lat="38.817352" lon="121.14724">
        <ele>37.691784</ele>
        <time>2015-03-19T09:52:35.412000Z</time>
      </trkpt>
      <trkpt lat="38.817265" lon="121.14732">
        <ele>37.97257</ele>
        <time>2015-03-19T09:52:38.533000Z</time>
      </trkpt>
      <trkpt lat="38.817165" lon="121.14744">
        <ele>38.043888</ele>
        <time>2015-03-19T09:52:41.654000Z</time>
      </trkpt>
      <trkpt lat="38.81711" lon="121.14754">
        <ele>38.155693</ele>
        <time>2015-03-19T09:52:44.775000Z</time>
      </trkpt>
      <trkpt lat="38.81706" lon="121.147705">
        <ele>38.61361</ele>
        <time>2015-03-19T09:52:47.896000Z</time>
      </trkpt>
      <trkpt lat="38.81706" lon="121.14786">
        <ele>39.32026</ele>
        <time>2015-03-19T09:52:51.016000Z</time>
      </trkpt>
      <trkpt lat="38.81712" lon="121.14797">
        <ele>39.85934</ele>
        <time>2015-03-19T09:52:54.136000Z</time>
      </trkpt>
      <trkpt lat="38.81718" lon="121.148094">
        <ele>39.925198</ele>
        <time>2015-03-19T09:52:57.256000Z</time>
      </trkpt>
      <trkpt lat="38.81724" lon="121.1482">
        <ele>39.565132</ele>
        <time>2015-03-19T09:53:00.376000Z</time>
      </trkpt>
      <trkpt lat="38.817337" lon="121.14829">
        <ele>39.137436</ele>
        <time>2015-03-19T09:53:03.496000Z</time>
      </trkpt>
      <trkpt lat="38.81746" lon="121.14834">
        <ele>38.91841</ele>
        <time>2015-03-19T09:53:06.616000Z</time>
      </trkpt>
      <trkpt lat="38.817585" lon="121.14838">
        <ele>38.875572</ele>
        <time>2015-03-19T09:53:09.736000Z</time>
      </trkpt>
      <trkpt lat="38.817707" lon="121.1484">
        <ele>38.905766</ele>
        <time>2015-03-19T09:53:12.856000Z</time>
      </trkpt>
      <trkpt lat="38.817806" lon="121.14839">
        <ele>39.078854</ele>
        <time>2015-03-19T09:53:15.976000Z</time>
      </trkpt>
      <trkpt lat="38.817913" lon="121.14838">
        <ele>39.456394</ele>
        <time>2015-03-19T09:53:19.096000Z</time>
      </trkpt>
      <trkpt lat="38.81802" lon="121.1484">
        <ele>39.690975</ele>
        <time>2015-03-19T09:53:22.216000Z</time>
      </trkpt>
      <trkpt lat="38.81812" lon="121.14839">
        <ele>39.503815</ele>
        <time>2015-03-19T09:53:25.336000Z</time>
      </trkpt>
      <trkpt lat="38.818207" lon="121.14837">
        <ele>39.158062</ele>
        <time>2015-03-19T09:53:28.456000Z</time>
      </trkpt>
      <trkpt lat="38.818325" lon="121.14838">
        <ele>38.813213</ele>
        <time>2015-03-19T09:53:31.576000Z</time>
      </trkpt>
      <trkpt lat="38.818428" lon="121.14836">
        <ele>38.396427</ele>
        <time>2015-03-19T09:53:34.696000Z</time>
      </trkpt>
      <trkpt lat="38.81854" lon="121.14831">
        <ele>38.043095</ele>
        <time>2015-03-19T09:53:37.816000Z</time>
      </trkpt>
      <trkpt lat="38.81863" lon="121.14826">
        <ele>38.03433</ele>
        <time>2015-03-19T09:53:40.936000Z</time>
      </trkpt>
      <trkpt lat="38.818703" lon="121.14818">
        <ele>38.3844</ele>
        <time>2015-03-19T09:53:44.056000Z</time>
      </trkpt>
      <trkpt lat="38.818756" lon="121.148056">
        <ele>38.788315</ele>
        <time>2015-03-19T09:53:47.176000Z</time>
      </trkpt>
      <trkpt lat="38.818783" lon="121.14791">
        <ele>38.854122</ele>
        <time>2015-03-19T09:53:50.296000Z</time>
      </trkpt>
      <trkpt lat="38.81879" lon="121.14777">
        <ele>38.53254</ele>
        <time>2015-03-19T09:53:53.416000Z</time>
      </trkpt>
      <trkpt lat="38.81877" lon="121.14766">
        <ele>38.13379</ele>
        <time>2015-03-19T09:53:56.536000Z</time>
      </trkpt>
      <trkpt lat="38.8187" lon="121.147545">
        <ele>37.92557</ele>
        <time>2015-03-19T09:53:59.656000Z</time>
      </trkpt>
      <trkpt lat="38.81859" lon="121.14744">
        <ele>37.882607</ele>
        <time>2015-03-19T09:54:02.776000Z</time>
      </trkpt>
      <trkpt lat="38.818478" lon="121.14736">
        <ele>37.495094</ele>
        <time>2015-03-19T09:54:05.896000Z</time>
      </trkpt>
      <trkpt lat="38.818363" lon="121.14732">
        <ele>36.44798</ele>
        <time>2015-03-19T09:54:09.016000Z</time>
      </trkpt>
      <trkpt lat="38.818237" lon="121.14732">
        <ele>35.35646</ele>
        <time>2015-03-19T09:54:12.136000Z</time>
      </trkpt>
      <trkpt lat="38.818123" lon="121.147316">
        <ele>34.83402</ele>
        <time>2015-03-19T09:54:15.256000Z</time>
      </trkpt>
      <trkpt lat="38.81801" lon="121.14731">
        <ele>34.752163</ele>
        <time>2015-03-19T09:54:18.376000Z</time>
      </trkpt>
      <trkpt lat="38.8179" lon="121.147316">
        <ele>34.839462</ele>
        <time>2015-03-19T09:54:21.496000Z</time>
      </trkpt>
      <trkpt lat="38.817806" lon="121.14732">
        <ele>34.928432</ele>
        <time>2015-03-19T09:54:24.616000Z</time>
      </trkpt>
      <trkpt lat="38.817703" lon="121.14732">
        <ele>34.970463</ele>
        <time>2015-03-19T09:54:27.736000Z</time>
      </trkpt>
      <trkpt lat="38.817596" lon="121.147316">
        <ele>35.114895</ele>
        <time>2015-03-19T09:54:30.856000Z</time>
      </trkpt>
      <trkpt lat="38.817474" lon="121.14731">
        <ele>35.605694</ele>
        <time>2015-03-19T09:54:33.976000Z</time>
      </trkpt>
      <trkpt lat="38.81736" lon="121.14733">
        <ele>36.604126</ele>
        <time>2015-03-19T09:54:37.096000Z</time>
      </trkpt>
      <trkpt lat="38.81726" lon="121.147415">
        <ele>37.865227</ele>
        <time>2015-03-19T09:54:40.216000Z</time>
      </trkpt>
      <trkpt lat="38.817196" lon="121.14754">
        <ele>38.667233</ele>
        <time>2015-03-19T09:54:43.336000Z</time>
      </trkpt>
      <trkpt lat="38.81716" lon="121.14767">
        <ele>38.655014</ele>
        <time>2015-03-19T09:54:46.456000Z</time>
      </trkpt>
      <trkpt lat="38.81713" lon="121.14781">
        <ele>38.279133</ele>
        <time>2015-03-19T09:54:49.576000Z</time>
      </trkpt>
      <trkpt lat="38.81714" lon="121.147964">
        <ele>37.99997</ele>
        <time>2015-03-19T09:54:52.696000Z</time>
      </trkpt>
      <trkpt lat="38.817207" lon="121.148094">
        <ele>37.758965</ele>
        <time>2015-03-19T09:54:55.816000Z</time>
      </trkpt>
      <trkpt lat="38.81727" lon="121.1482">
        <ele>37.124935</ele>
        <time>2015-03-19T09:54:58.936000Z</time>
      </trkpt>
      <trkpt lat="38.817368" lon="121.148285">
        <ele>36.06668</ele>
        <time>2015-03-19T09:55:02.056000Z</time>
      </trkpt>
      <trkpt lat="38.817463" lon="121.14834">
        <ele>35.31338</ele>
        <time>2015-03-19T09:55:05.176000Z</time>
      </trkpt>
      <trkpt lat="38.817585" lon="121.14836">
        <ele>35.304432</ele>
        <time>2015-03-19T09:55:08.296000Z</time>
      </trkpt>
      <trkpt lat="38.817707" lon="121.14837">
        <ele>35.650513</ele>
        <time>2015-03-19T09:55:11.416000Z</time>
      </trkpt>
      <trkpt lat="38.817806" lon="121.1484">
        <ele>35.913303</ele>
        <time>2015-03-19T09:55:14.536000Z</time>
      </trkpt>
      <trkpt lat="38.817905" lon="121.14843">
        <ele>35.87413</ele>
        <time>2015-03-19T09:55:17.656000Z</time>
      </trkpt>
      <trkpt lat="38.818005" lon="121.14846">
        <ele>35.375633</ele>
        <time>2015-03-19T09:55:20.776000Z</time>
      </trkpt>
      <trkpt lat="38.81811" lon="121.14846">
        <ele>34.617775</ele>
        <time>2015-03-19T09:55:23.896000Z</time>
      </trkpt>
      <trkpt lat="38.81821" lon="121.14846">
        <ele>34.051746</ele>
        <time>2015-03-19T09:55:27.016000Z</time>
      </trkpt>
      <trkpt lat="38.818314" lon="121.14846">
        <ele>33.842045</ele>
        <time>2015-03-19T09:55:30.136000Z</time>
      </trkpt>
      <trkpt lat="38.81842" lon="121.14845">
        <ele>33.845627</ele>
        <time>2015-03-19T09:55:33.256000Z</time>
      </trkpt>
      <trkpt lat="38.818523" lon="121.14844">
        <ele>33.908073</ele>
        <time>2015-03-19T09:55:36.376000Z</time>
      </trkpt>
      <trkpt lat="38.818623" lon="121.14838">
        <ele>34.092186</ele>
        <time>2015-03-19T09:55:39.496000Z</time>
      </trkpt>
      <trkpt lat="38.818714" lon="121.148254">
        <ele>34.607006</ele>
        <time>2015-03-19T09:55:42.616000Z</time>
      </trkpt>
      <trkpt lat="38.81877" lon="121.148125">
        <ele>35.33584</ele>
        <time>2015-03-19T09:55:45.736000Z</time>
      </trkpt>
      <trkpt lat="38.818798" lon="121.14797">
        <ele>35.737217</ele>
        <time>2015-03-19T09:55:48.856000Z</time>
      </trkpt>
      <trkpt lat="38.81881" lon="121.147835">
        <ele>35.43721</ele>
        <time>2015-03-19T09:55:51.976000Z</time>
      </trkpt>
      <trkpt lat="38.8188" lon="121.14768">
        <ele>34.70309</ele>
        <time>2015-03-19T09:55:55.096000Z</time>
      </trkpt>
      <trkpt lat="38.818714" lon="121.14752">
        <ele>34.098354</ele>
        <time>2015-03-19T09:55:58.216000Z</time>
      </trkpt>
      <trkpt lat="38.81863" lon="121.14741">
        <ele>33.990963</ele>
        <time>2015-03-19T09:56:01.336000Z</time>
      </trkpt>
      <trkpt lat="38.81853" lon="121.14732">
        <ele>34.338493</ele>
        <time>2015-03-19T09:56:04.456000Z</time>
      </trkpt>
      <trkpt lat="38.818424" lon="121.147285">
        <ele>34.768604</ele>
        <time>2015-03-19T09:56:07.576000Z</time>
      </trkpt>
      <trkpt lat="38.81831" lon="121.14727">
        <ele>34.854836</ele>
        <time>2015-03-19T09:56:10.696000Z</time>
      </trkpt>
      <trkpt lat="38.818207" lon="121.14726">
        <ele>34.54114</ele>
        <time>2015-03-19T09:56:13.816000Z</time>
      </trkpt>
      <trkpt lat="38.818085" lon="121.147285">
        <ele>34.280685</ele>
        <time>2015-03-19T09:56:16.936000Z</time>
      </trkpt>
      <trkpt lat="38.817924" lon="121.1473">
        <ele>34.98291</ele>
        <time>2015-03-19T09:56:20.056000Z</time>
      </trkpt>
      <trkpt lat="38.81783" lon="121.147285">
        <ele>36.747295</ele>
        <time>2015-03-19T09:56:23.176000Z</time>
      </trkpt>
      <trkpt lat="38.817722" lon="121.14728">
        <ele>38.15033</ele>
        <time>2015-03-19T09:56:26.296000Z</time>
      </trkpt>
      <trkpt lat="38.817623" lon="121.14727">
        <ele>38.190678</ele>
        <time>2015-03-19T09:56:29.416000Z</time>
      </trkpt>
      <trkpt lat="38.81752" lon="121.147285">
        <ele>37.95944</ele>
        <time>2015-03-19T09:56:32.536000Z</time>
      </trkpt>
      <trkpt lat="38.817432" lon="121.14732">
        <ele>38.6802</ele>
        <time>2015-03-19T09:56:35.656000Z</time>
      </trkpt>
      <trkpt lat="38.817364" lon="121.147415">
        <ele>40.096767</ele>
        <time>2015-03-19T09:56:38.776000Z</time>
      </trkpt>
      <trkpt lat="38.8173" lon="121.14752">
        <ele>41.35079</ele>
        <time>2015-03-19T09:56:41.896000Z</time>
      </trkpt>
      <trkpt lat="38.817207" lon="121.14767">
        <ele>41.751976</ele>
        <time>2015-03-19T09:56:45.016000Z</time>
      </trkpt>
      <trkpt lat="38.81719" lon="121.14783">
        <ele>41.046207</ele>
        <time>2015-03-19T09:56:48.136000Z</time>
      </trkpt>
      <trkpt lat="38.8172" lon="121.14797">
        <ele>39.86884</ele>
        <time>2015-03-19T09:56:51.256000Z</time>
      </trkpt>
      <trkpt lat="38.817234" lon="121.1481">
        <ele>39.046413</ele>
        <time>2015-03-19T09:56:54.376000Z</time>
      </trkpt>
      <trkpt lat="38.817287" lon="121.14823">
        <ele>38.76343</ele>
        <time>2015-03-19T09:56:57.496000Z</time>
      </trkpt>
      <trkpt lat="38.81737" lon="121.14832">
        <ele>38.923145</ele>
        <time>2015-03-19T09:57:00.616000Z</time>
      </trkpt>
      <trkpt lat="38.81747" lon="121.14839">
        <ele>39.656216</ele>
        <time>2015-03-19T09:57:03.736000Z</time>
      </trkpt>
      <trkpt lat="38.817577" lon="121.14844">
        <ele>40.812107</ele>
        <time>2015-03-19T09:57:06.856000Z</time>
      </trkpt>
      <trkpt lat="38.81771" lon="121.148384">
        <ele>41.196075</ele>
        <time>2015-03-19T09:57:09.976000Z</time>
      </trkpt>
      <trkpt lat="38.817818" lon="121.1484">
        <ele>39.716984</ele>
        <time>2015-03-19T09:57:13.096000Z</time>
      </trkpt>
      <trkpt lat="38.817936" lon="121.14843">
        <ele>36.898327</ele>
        <time>2015-03-19T09:57:16.216000Z</time>
      </trkpt>
      <trkpt lat="38.81803" lon="121.14845">
        <ele>33.859177</ele>
        <time>2015-03-19T09:57:19.336000Z</time>
      </trkpt>
      <trkpt lat="38.818123" lon="121.14839">
        <ele>31.332617</ele>
        <time>2015-03-19T09:57:22.456000Z</time>
      </trkpt>
      <trkpt lat="38.818268" lon="121.14841">
        <ele>30.57501</ele>
        <time>2015-03-19T09:57:25.576000Z</time>
      </trkpt>
      <trkpt lat="38.818363" lon="121.14841">
        <ele>32.005123</ele>
        <time>2015-03-19T09:57:28.696000Z</time>
      </trkpt>
      <trkpt lat="38.81849" lon="121.14838">
        <ele>33.98727</ele>
        <time>2015-03-19T09:57:31.816000Z</time>
      </trkpt>
      <trkpt lat="38.81859" lon="121.14832">
        <ele>35.070305</ele>
        <time>2015-03-19T09:57:34.936000Z</time>
      </trkpt>
      <trkpt lat="38.818653" lon="121.14824">
        <ele>35.0436</ele>
        <time>2015-03-19T09:57:38.056000Z</time>
      </trkpt>
      <trkpt lat="38.818714" lon="121.14814">
        <ele>33.65025</ele>
        <time>2015-03-19T09:57:41.176000Z</time>
      </trkpt>
      <trkpt lat="38.81875" lon="121.14802">
        <ele>31.309801</ele>
        <time>2015-03-19T09:57:44.296000Z</time>
      </trkpt>
      <trkpt lat="38.818756" lon="121.14789">
        <ele>29.532326</ele>
        <time>2015-03-19T09:57:47.416000Z</time>
      </trkpt>
      <trkpt lat="38.81871" lon="121.14774">
        <ele>29.53309</ele>
        <time>2015-03-19T09:57:50.536000Z</time>
      </trkpt>
      <trkpt lat="38.818665" lon="121.1476">
        <ele>30.946249</ele>
        <time>2015-03-19T09:57:53.656000Z</time>
      </trkpt>
      <trkpt lat="38.818592" lon="121.14748">
        <ele>32.423214</ele>
        <time>2015-03-19T09:57:56.776000Z</time>
      </trkpt>
      <trkpt lat="38.818504" lon="121.1474">
        <ele>32.716663</ele>
        <time>2015-03-19T09:57:59.896000Z</time>
      </trkpt>
      <trkpt lat="38.81839" lon="121.14733">
        <ele>31.472195</ele>
        <time>2015-03-19T09:58:03.016000Z</time>
      </trkpt>
      <trkpt lat="38.818283" lon="121.14732">
        <ele>29.526274</ele>
        <time>2015-03-19T09:58:06.136000Z</time>
      </trkpt>
      <trkpt lat="38.81816" lon="121.14731">
        <ele>28.14123</ele>
        <time>2015-03-19T09:58:09.256000Z</time>
      </trkpt>
      <trkpt lat="38.81806" lon="121.147316">
        <ele>27.792337</ele>
        <time>2015-03-19T09:58:12.376000Z</time>
      </trkpt>
      <trkpt lat="38.817966" lon="121.147316">
        <ele>28.456955</ele>
        <time>2015-03-19T09:58:15.496000Z</time>
      </trkpt>
      <trkpt lat="38.81786" lon="121.147316">
        <ele>29.706285</ele>
        <time>2015-03-19T09:58:18.616000Z</time>
      </trkpt>
      <trkpt lat="38.817764" lon="121.147316">
        <ele>30.594553</ele>
        <time>2015-03-19T09:58:21.736000Z</time>
      </trkpt>
      <trkpt lat="38.817673" lon="121.14732">
        <ele>30.512373</ele>
        <time>2015-03-19T09:58:24.856000Z</time>
      </trkpt>
      <trkpt lat="38.817673" lon="121.14732">
        <ele>29.803324</ele>
        <time>2015-03-19T09:58:27.976000Z</time>
      </trkpt>
      <trkpt lat="38.81757" lon="121.147316">
        <ele>29.364355</ele>
        <time>2015-03-19T09:58:31.096000Z</time>
      </trkpt>
      <trkpt lat="38.817463" lon="121.14733">
        <ele>29.623438</ele>
        <time>2015-03-19T09:58:34.216000Z</time>
      </trkpt>
      <trkpt lat="38.81735" lon="121.147385">
        <ele>29.805155</ele>
        <time>2015-03-19T09:58:37.336000Z</time>
      </trkpt>
      <trkpt lat="38.817238" lon="121.14747">
        <ele>29.224846</ele>
        <time>2015-03-19T09:58:40.456000Z</time>
      </trkpt>
      <trkpt lat="38.817154" lon="121.147575">
        <ele>27.788588</ele>
        <time>2015-03-19T09:58:43.576000Z</time>
      </trkpt>
      <trkpt lat="38.817123" lon="121.147705">
        <ele>27.3187</ele>
        <time>2015-03-19T09:58:46.696000Z</time>
      </trkpt>
      <trkpt lat="38.817135" lon="121.14787">
        <ele>26.998407</ele>
        <time>2015-03-19T09:58:49.816000Z</time>
      </trkpt>
      <trkpt lat="38.81719" lon="121.14802">
        <ele>27.02962</ele>
        <time>2015-03-19T09:58:52.936000Z</time>
      </trkpt>
      <trkpt lat="38.81726" lon="121.14815">
        <ele>27.67669</ele>
        <time>2015-03-19T09:58:56.056000Z</time>
      </trkpt>
      <trkpt lat="38.81734" lon="121.14825">
        <ele>28.804523</ele>
        <time>2015-03-19T09:58:59.176000Z</time>
      </trkpt>
      <trkpt lat="38.817432" lon="121.14833">
        <ele>30.297321</ele>
        <time>2015-03-19T09:59:02.296000Z</time>
      </trkpt>
      <trkpt lat="38.817577" lon="121.14839">
        <ele>32.260635</ele>
        <time>2015-03-19T09:59:05.416000Z</time>
      </trkpt>
      <trkpt lat="38.817703" lon="121.1484">
        <ele>34.120346</ele>
        <time>2015-03-19T09:59:08.536000Z</time>
      </trkpt>
      <trkpt lat="38.817852" lon="121.148415">
        <ele>35.097576</ele>
        <time>2015-03-19T09:59:11.656000Z</time>
      </trkpt>
      <trkpt lat="38.817963" lon="121.14843">
        <ele>34.88801</ele>
        <time>2015-03-19T09:59:14.776000Z</time>
      </trkpt>
      <trkpt lat="38.81807" lon="121.14846">
        <ele>33.54585</ele>
        <time>2015-03-19T09:59:17.896000Z</time>
      </trkpt>
      <trkpt lat="38.818176" lon="121.14847">
        <ele>31.787601</ele>
        <time>2015-03-19T09:59:21.016000Z</time>
      </trkpt>
      <trkpt lat="38.818275" lon="121.14846">
        <ele>30.453705</ele>
        <time>2015-03-19T09:59:24.136000Z</time>
      </trkpt>
      <trkpt lat="38.81839" lon="121.14845">
        <ele>29.813444</ele>
        <time>2015-03-19T09:59:27.256000Z</time>
      </trkpt>
      <trkpt lat="38.818504" lon="121.14843">
        <ele>30.126583</ele>
        <time>2015-03-19T09:59:30.376000Z</time>
      </trkpt>
      <trkpt lat="38.818607" lon="121.14838">
        <ele>31.312437</ele>
        <time>2015-03-19T09:59:33.496000Z</time>
      </trkpt>
      <trkpt lat="38.818695" lon="121.148285">
        <ele>32.667652</ele>
        <time>2015-03-19T09:59:36.616000Z</time>
      </trkpt>
      <trkpt lat="38.818775" lon="121.148186">
        <ele>33.60484</ele>
        <time>2015-03-19T09:59:39.736000Z</time>
      </trkpt>
      <trkpt lat="38.818832" lon="121.14807">
        <ele>34.199795</ele>
        <time>2015-03-19T09:59:42.856000Z</time>
      </trkpt>
      <trkpt lat="38.818844" lon="121.14794">
        <ele>34.912502</ele>
        <time>2015-03-19T09:59:45.976000Z</time>
      </trkpt>
      <trkpt lat="38.81883" lon="121.14782">
        <ele>35.929066</ele>
        <time>2015-03-19T09:59:49.096000Z</time>
      </trkpt>
      <trkpt lat="38.81878" lon="121.14768">
        <ele>36.76678</ele>
        <time>2015-03-19T09:59:52.216000Z</time>
      </trkpt>
      <trkpt lat="38.818703" lon="121.147545">
        <ele>37.10707</ele>
        <time>2015-03-19T09:59:55.336000Z</time>
      </trkpt>
      <trkpt lat="38.818626" lon="121.14747">
        <ele>37.676987</ele>
        <time>2015-03-19T09:59:58.456000Z</time>
      </trkpt>
      <trkpt lat="38.818504" lon="121.14739">
        <ele>39.03253</ele>
        <time>2015-03-19T10:00:01.576000Z</time>
      </trkpt>
      <trkpt lat="38.818394" lon="121.14735">
        <ele>40.442192</ele>
        <time>2015-03-19T10:00:04.696000Z</time>
      </trkpt>
      <trkpt lat="38.81827" lon="121.14733">
        <ele>41.254158</ele>
        <time>2015-03-19T10:00:07.816000Z</time>
      </trkpt>
      <trkpt lat="38.818165" lon="121.14734">
        <ele>41.719074</ele>
        <time>2015-03-19T10:00:10.936000Z</time>
      </trkpt>
      <trkpt lat="38.81805" lon="121.14732">
        <ele>41.975502</ele>
        <time>2015-03-19T10:00:14.056000Z</time>
      </trkpt>
      <trkpt lat="38.81793" lon="121.1473">
        <ele>42.035866</ele>
        <time>2015-03-19T10:00:17.176000Z</time>
      </trkpt>
      <trkpt lat="38.8178" lon="121.1473">
        <ele>42.008194</ele>
        <time>2015-03-19T10:00:20.296000Z</time>
      </trkpt>
      <trkpt lat="38.81767" lon="121.1473">
        <ele>41.97019</ele>
        <time>2015-03-19T10:00:23.416000Z</time>
      </trkpt>
      <trkpt lat="38.81754" lon="121.1473">
        <ele>41.94949</ele>
        <time>2015-03-19T10:00:26.536000Z</time>
      </trkpt>
      <trkpt lat="38.817425" lon="121.14731">
        <ele>41.944756</ele>
        <time>2015-03-19T10:00:29.656000Z</time>
      </trkpt>
      <trkpt lat="38.81733" lon="121.14737">
        <ele>41.947094</ele>
        <time>2015-03-19T10:00:32.776000Z</time>
      </trkpt>
      <trkpt lat="38.81723" lon="121.147484">
        <ele>41.9502</ele>
        <time>2015-03-19T10:00:35.896000Z</time>
      </trkpt>
      <trkpt lat="38.817173" lon="121.147575">
        <ele>41.95187</ele>
        <time>2015-03-19T10:00:39.016000Z</time>
      </trkpt>
      <trkpt lat="38.81714" lon="121.14771">
        <ele>41.814064</ele>
        <time>2015-03-19T10:00:42.136000Z</time>
      </trkpt>
      <trkpt lat="38.817146" lon="121.14787">
        <ele>41.453976</ele>
        <time>2015-03-19T10:00:45.256000Z</time>
      </trkpt>
      <trkpt lat="38.817177" lon="121.148026">
        <ele>41.36064</ele>
        <time>2015-03-19T10:00:48.376000Z</time>
      </trkpt>
      <trkpt lat="38.817234" lon="121.14816">
        <ele>42.04321</ele>
        <time>2015-03-19T10:00:51.496000Z</time>
      </trkpt>
      <trkpt lat="38.817398" lon="121.14829">
        <ele>43.391766</ele>
        <time>2015-03-19T10:00:54.616000Z</time>
      </trkpt>
      <trkpt lat="38.817513" lon="121.14835">
        <ele>44.86151</ele>
        <time>2015-03-19T10:00:57.736000Z</time>
      </trkpt>
      <trkpt lat="38.81763" lon="121.148346">
        <ele>45.720654</ele>
        <time>2015-03-19T10:01:00.856000Z</time>
      </trkpt>
      <trkpt lat="38.81775" lon="121.14835">
        <ele>45.277412</ele>
        <time>2015-03-19T10:01:03.976000Z</time>
      </trkpt>
      <trkpt lat="38.817867" lon="121.14836">
        <ele>43.793186</ele>
        <time>2015-03-19T10:01:07.096000Z</time>
      </trkpt>
      <trkpt lat="38.817966" lon="121.14832">
        <ele>42.38885</ele>
        <time>2015-03-19T10:01:10.216000Z</time>
      </trkpt>
      <trkpt lat="38.81813" lon="121.14834">
        <ele>41.61755</ele>
        <time>2015-03-19T10:01:13.336000Z</time>
      </trkpt>
      <trkpt lat="38.81827" lon="121.148315">
        <ele>41.181698</ele>
        <time>2015-03-19T10:01:16.456000Z</time>
      </trkpt>
      <trkpt lat="38.818394" lon="121.148315">
        <ele>40.93553</ele>
        <time>2015-03-19T10:01:19.576000Z</time>
      </trkpt>
      <trkpt lat="38.81851" lon="121.14826">
        <ele>40.87461</ele>
        <time>2015-03-19T10:01:22.696000Z</time>
      </trkpt>
      <trkpt lat="38.818634" lon="121.14816">
        <ele>40.898937</ele>
        <time>2015-03-19T10:01:25.816000Z</time>
      </trkpt>
      <trkpt lat="38.818714" lon="121.148">
        <ele>40.79641</ele>
        <time>2015-03-19T10:01:28.936000Z</time>
      </trkpt>
      <trkpt lat="38.818775" lon="121.14786">
        <ele>40.456394</ele>
        <time>2015-03-19T10:01:32.056000Z</time>
      </trkpt>
      <trkpt lat="38.81874" lon="121.14769">
        <ele>39.677216</ele>
        <time>2015-03-19T10:01:35.176000Z</time>
      </trkpt>
      <trkpt lat="38.81865" lon="121.14752">
        <ele>38.420216</ele>
        <time>2015-03-19T10:01:38.296000Z</time>
      </trkpt>
      <trkpt lat="38.81859" lon="121.147415">
        <ele>37.282467</ele>
        <time>2015-03-19T10:01:41.416000Z</time>
      </trkpt>
      <trkpt lat="38.818516" lon="121.14732">
        <ele>36.92324</ele>
        <time>2015-03-19T10:01:44.536000Z</time>
      </trkpt>
      <trkpt lat="38.818436" lon="121.147255">
        <time>2015-03-19T10:01:47.656000Z</time>
      </trkpt>
    </trkseg>
  </trk>
</gpx>