<?xml version="1.0" encoding="UTF-8"?>
<gpx xmlns="http://www.topografix.com/GPX/1/1" xmlns:gpxtpx="http://www.garmin.com/xmlschemas/TrackPointExtension/v1" xmlns:xsi="http://www.w3.org/2001/XMLSchema-instance" xsi:schemaLocation="http://www.topografix.com/GPX/1/1 http://www.topografix.com/GPX/1/1/gpx.xsd" version="1.1" creator="gpx.py -- https://github.com/tkrajina/gpxpy">
  <trk>
    <trkseg>
      <trkpt lat="38.818512" lon="121.14827">
        <ele>38.976086</ele>
        <time>2015-03-24T22:34:43.503000Z</time>
      </trkpt>
      <trkpt lat="38.818596" lon="121.14821">
        <ele>38.9581</ele>
        <time>2015-03-24T22:34:46.882000Z</time>
      </trkpt>
      <trkpt lat="38.818665" lon="121.14812">
        <ele>38.122322</ele>
        <time>2015-03-24T22:34:50.261000Z</time>
      </trkpt>
      <trkpt lat="38.818665" lon="121.14812">
        <ele>35.963047</ele>
        <time>2015-03-24T22:34:53.640000Z</time>
      </trkpt>
      <trkpt lat="38.818676" lon="121.148">
        <ele>34.024765</ele>
        <time>2015-03-24T22:34:57.019000Z</time>
      </trkpt>
      <trkpt lat="38.818684" lon="121.14788">
        <ele>34.10898</ele>
        <time>2015-03-24T22:35:00.398000Z</time>
      </trkpt>
      <trkpt lat="38.818695" lon="121.14775">
        <ele>35.76888</ele>
        <time>2015-03-24T22:35:03.777000Z</time>
      </trkpt>
      <trkpt lat="38.818687" lon="121.14764">
        <ele>37.683964</ele>
        <time>2015-03-24T22:35:07.156000Z</time>
      </trkpt>
      <trkpt lat="38.81863" lon="121.14753">
        <ele>40.13032</ele>
        <time>2015-03-24T22:35:10.535000Z</time>
      </trkpt>
      <trkpt lat="38.818565" lon="121.14745">
        <ele>43.63069</ele>
        <time>2015-03-24T22:35:13.914000Z</time>
      </trkpt>
      <trkpt lat="38.818474" lon="121.14738">
        <ele>46.789062</ele>
        <time>2015-03-24T22:35:17.293000Z</time>
      </trkpt>
      <trkpt lat="38.81839" lon="121.14733">
        <ele>48.304897</ele>
        <time>2015-03-24T22:35:20.672000Z</time>
      </trkpt>
      <trkpt lat="38.818287" lon="121.147316">
        <ele>48.40668</ele>
        <time>2015-03-24T22:35:24.051000Z</time>
      </trkpt>
      <trkpt lat="38.818195" lon="121.14732">
        <ele>47.65716</ele>
        <time>2015-03-24T22:35:27.430000Z</time>
      </trkpt>
      <trkpt lat="38.818077" lon="121.14732">
        <ele>46.80856</ele>
        <time>2015-03-24T22:35:30.809000Z</time>
      </trkpt>
      <trkpt lat="38.81798" lon="121.147316">
        <ele>46.778156</ele>
        <time>2015-03-24T22:35:34.188000Z</time>
      </trkpt>
      <trkpt lat="38.81789" lon="121.14729">
        <ele>47.647236</ele>
        <time>2015-03-24T22:35:37.567000Z</time>
      </trkpt>
      <trkpt lat="38.8178" lon="121.14729">
        <ele>48.58577</ele>
        <time>2015-03-24T22:35:40.946000Z</time>
      </trkpt>
      <trkpt lat="38.817684" lon="121.14729">
        <ele>49.0439</ele>
        <time>2015-03-24T22:35:44.325000Z</time>
      </trkpt>
      <trkpt lat="38.81757" lon="121.14727">
        <ele>49.120987</ele>
        <time>2015-03-24T22:35:47.704000Z</time>
      </trkpt>
      <trkpt lat="38.817467" lon="121.14727">
        <ele>49.04842</ele>
        <time>2015-03-24T22:35:51.083000Z</time>
      </trkpt>
      <trkpt lat="38.817375" lon="121.14731">
        <ele>48.97189</ele>
        <time>2015-03-24T22:35:54.462000Z</time>
      </trkpt>
      <trkpt lat="38.817276" lon="121.14738">
        <ele>48.935017</ele>
        <time>2015-03-24T22:35:57.841000Z</time>
      </trkpt>
      <trkpt lat="38.81722" lon="121.14747">
        <ele>48.929096</ele>
        <time>2015-03-24T22:36:01.220000Z</time>
      </trkpt>
      <trkpt lat="38.81717" lon="121.147606">
        <ele>48.520615</ele>
        <time>2015-03-24T22:36:04.599000Z</time>
      </trkpt>
      <trkpt lat="38.817142" lon="121.14772">
        <ele>47.170822</ele>
        <time>2015-03-24T22:36:07.978000Z</time>
      </trkpt>
      <trkpt lat="38.817123" lon="121.147865">
        <ele>45.207523</ele>
        <time>2015-03-24T22:36:11.357000Z</time>
      </trkpt>
      <trkpt lat="38.817135" lon="121.14801">
        <ele>43.44525</ele>
        <time>2015-03-24T22:36:14.736000Z</time>
      </trkpt>
      <trkpt lat="38.81717" lon="121.148125">
        <ele>42.285305</ele>
        <time>2015-03-24T22:36:18.115000Z</time>
      </trkpt>
      <trkpt lat="38.817234" lon="121.148224">
        <ele>41.777</ele>
        <time>2015-03-24T22:36:21.494000Z</time>
      </trkpt>
      <trkpt lat="38.817314" lon="121.148285">
        <ele>41.725266</ele>
        <time>2015-03-24T22:36:24.873000Z</time>
      </trkpt>
      <trkpt lat="38.817417" lon="121.148315">
        <ele>41.969368</ele>
        <time>2015-03-24T22:36:28.252000Z</time>
      </trkpt>
      <trkpt lat="38.817524" lon="121.14832">
        <ele>42.561832</ele>
        <time>2015-03-24T22:36:31.631000Z</time>
      </trkpt>
      <trkpt lat="38.81763" lon="121.1483">
        <ele>43.608315</ele>
        <time>2015-03-24T22:36:35.010000Z</time>
      </trkpt>
      <trkpt lat="38.817738" lon="121.1483">
        <ele>44.87658</ele>
        <time>2015-03-24T22:36:38.389000Z</time>
      </trkpt>
      <trkpt lat="38.817844" lon="121.14832">
        <ele>45.94664</ele>
        <time>2015-03-24T22:36:41.768000Z</time>
      </trkpt>
      <trkpt lat="38.817932" lon="121.14835">
        <ele>46.64592</ele>
        <time>2015-03-24T22:36:45.147000Z</time>
      </trkpt>
      <trkpt lat="38.818043" lon="121.148346">
        <ele>46.86687</ele>
        <time>2015-03-24T22:36:48.526000Z</time>
      </trkpt>
      <trkpt lat="38.81815" lon="121.14833">
        <ele>46.57779</ele>
        <time>2015-03-24T22:36:51.905000Z</time>
      </trkpt>
      <trkpt lat="38.81824" lon="121.14833">
        <ele>46.0211</ele>
        <time>2015-03-24T22:36:55.284000Z</time>
      </trkpt>
      <trkpt lat="38.818344" lon="121.14834">
        <ele>45.567047</ele>
        <time>2015-03-24T22:36:58.663000Z</time>
      </trkpt>
      <trkpt lat="38.81845" lon="121.14832">
        <ele>45.77839</ele>
        <time>2015-03-24T22:37:02.042000Z</time>
      </trkpt>
      <trkpt lat="38.81854" lon="121.14828">
        <ele>46.855015</ele>
        <time>2015-03-24T22:37:05.421000Z</time>
      </trkpt>
      <trkpt lat="38.81862" lon="121.14822">
        <ele>48.136726</ele>
        <time>2015-03-24T22:37:08.800000Z</time>
      </trkpt>
      <trkpt lat="38.818684" lon="121.148125">
        <ele>48.931953</ele>
        <time>2015-03-24T22:37:12.179000Z</time>
      </trkpt>
      <trkpt lat="38.818737" lon="121.14801">
        <ele>48.888393</ele>
        <time>2015-03-24T22:37:15.558000Z</time>
      </trkpt>
      <trkpt lat="38.81875" lon="121.147896">
        <ele>47.84073</ele>
        <time>2015-03-24T22:37:18.937000Z</time>
      </trkpt>
      <trkpt lat="38.81878" lon="121.14775">
        <ele>45.86247</ele>
        <time>2015-03-24T22:37:22.316000Z</time>
      </trkpt>
      <trkpt lat="38.818768" lon="121.147606">
        <ele>43.62907</ele>
        <time>2015-03-24T22:37:25.695000Z</time>
      </trkpt>
      <trkpt lat="38.818714" lon="121.14751">
        <ele>42.098743</ele>
        <time>2015-03-24T22:37:29.074000Z</time>
      </trkpt>
      <trkpt lat="38.81864" lon="121.1474">
        <ele>41.722515</ele>
        <time>2015-03-24T22:37:32.453000Z</time>
      </trkpt>
      <trkpt lat="38.818558" lon="121.1473">
        <ele>41.99344</ele>
        <time>2015-03-24T22:37:35.832000Z</time>
      </trkpt>
      <trkpt lat="38.818462" lon="121.14724">
        <ele>41.772015</ele>
        <time>2015-03-24T22:37:39.211000Z</time>
      </trkpt>
      <trkpt lat="38.81835" lon="121.14726">
        <ele>40.484005</ele>
        <time>2015-03-24T22:37:42.590000Z</time>
      </trkpt>
      <trkpt lat="38.818245" lon="121.1473">
        <ele>39.046207</ele>
        <time>2015-03-24T22:37:45.969000Z</time>
      </trkpt>
      <trkpt lat="38.81812" lon="121.14725">
        <ele>38.31165</ele>
        <time>2015-03-24T22:37:49.348000Z</time>
      </trkpt>
      <trkpt lat="38.818027" lon="121.14725">
        <ele>38.32749</ele>
        <time>2015-03-24T22:37:52.727000Z</time>
      </trkpt>
      <trkpt lat="38.81793" lon="121.14722">
        <ele>38.922493</ele>
        <time>2015-03-24T22:37:56.106000Z</time>
      </trkpt>
      <trkpt lat="38.817818" lon="121.14723">
        <ele>39.641758</ele>
        <time>2015-03-24T22:37:59.485000Z</time>
      </trkpt>
      <trkpt lat="38.817703" lon="121.14722">
        <ele>40.013092</ele>
        <time>2015-03-24T22:38:02.864000Z</time>
      </trkpt>
      <trkpt lat="38.817596" lon="121.14723">
        <ele>40.50192</ele>
        <time>2015-03-24T22:38:06.243000Z</time>
      </trkpt>
      <trkpt lat="38.81751" lon="121.14723">
        <ele>41.531662</ele>
        <time>2015-03-24T22:38:09.622000Z</time>
      </trkpt>
      <trkpt lat="38.817406" lon="121.14727">
        <ele>42.58125</ele>
        <time>2015-03-24T22:38:13.001000Z</time>
      </trkpt>
      <trkpt lat="38.817295" lon="121.14738">
        <ele>43.077106</ele>
        <time>2015-03-24T22:38:16.380000Z</time>
      </trkpt>
      <trkpt lat="38.817226" lon="121.14745">
        <ele>43.42728</ele>
        <time>2015-03-24T22:38:19.759000Z</time>
      </trkpt>
      <trkpt lat="38.817184" lon="121.14757">
        <ele>44.19947</ele>
        <time>2015-03-24T22:38:23.138000Z</time>
      </trkpt>
      <trkpt lat="38.817177" lon="121.14772">
        <ele>45.2127</ele>
        <time>2015-03-24T22:38:26.517000Z</time>
      </trkpt>
      <trkpt lat="38.817173" lon="121.147835">
        <ele>45.89278</ele>
        <time>2015-03-24T22:38:29.896000Z</time>
      </trkpt>
      <trkpt lat="38.81718" lon="121.147964">
        <ele>46.39184</ele>
        <time>2015-03-24T22:38:33.275000Z</time>
      </trkpt>
      <trkpt lat="38.817204" lon="121.14808">
        <ele>47.085323</ele>
        <time>2015-03-24T22:38:36.654000Z</time>
      </trkpt>
      <trkpt lat="38.8173" lon="121.14818">
        <ele>47.74096</ele>
        <time>2015-03-24T22:38:40.033000Z</time>
      </trkpt>
      <trkpt lat="38.817375" lon="121.14824">
        <ele>48.312744</ele>
        <time>2015-03-24T22:38:43.412000Z</time>
      </trkpt>
      <trkpt lat="38.817463" lon="121.14829">
        <ele>49.067875</ele>
        <time>2015-03-24T22:38:46.791000Z</time>
      </trkpt>
      <trkpt lat="38.817577" lon="121.14833">
        <ele>50.025505</ele>
        <time>2015-03-24T22:38:50.170000Z</time>
      </trkpt>
      <trkpt lat="38.817677" lon="121.14832">
        <ele>51.318787</ele>
        <time>2015-03-24T22:38:53.549000Z</time>
      </trkpt>
      <trkpt lat="38.817776" lon="121.148285">
        <ele>52.80677</ele>
        <time>2015-03-24T22:38:56.928000Z</time>
      </trkpt>
      <trkpt lat="38.81787" lon="121.14826">
        <ele>53.833557</ele>
        <time>2015-03-24T22:39:00.307000Z</time>
      </trkpt>
      <trkpt lat="38.817966" lon="121.14827">
        <ele>54.1817</ele>
        <time>2015-03-24T22:39:03.686000Z</time>
      </trkpt>
      <trkpt lat="38.818058" lon="121.148285">
        <ele>54.012764</ele>
        <time>2015-03-24T22:39:07.065000Z</time>
      </trkpt>
      <trkpt lat="38.818153" lon="121.1483">
        <ele>53.53055</ele>
        <time>2015-03-24T22:39:10.444000Z</time>
      </trkpt>
      <trkpt lat="38.818253" lon="121.14831">
        <ele>53.216072</ele>
        <time>2015-03-24T22:39:13.823000Z</time>
      </trkpt>
      <trkpt lat="38.81836" lon="121.14832">
        <ele>53.37298</ele>
        <time>2015-03-24T22:39:17.202000Z</time>
      </trkpt>
      <trkpt lat="38.81845" lon="121.14832">
        <ele>53.718742</ele>
        <time>2015-03-24T22:39:20.581000Z</time>
      </trkpt>
      <trkpt lat="38.818554" lon="121.14828">
        <ele>53.795864</ele>
        <time>2015-03-24T22:39:23.960000Z</time>
      </trkpt>
      <trkpt lat="38.818638" lon="121.148186">
        <ele>53.223</ele>
        <time>2015-03-24T22:39:27.339000Z</time>
      </trkpt>
      <trkpt lat="38.81867" lon="121.14804">
        <ele>52.120094</ele>
        <time>2015-03-24T22:39:30.718000Z</time>
      </trkpt>
      <trkpt lat="38.81869" lon="121.14792">
        <ele>51.177616</ele>
        <time>2015-03-24T22:39:34.097000Z</time>
      </trkpt>
      <trkpt lat="38.818714" lon="121.147804">
        <ele>50.783146</ele>
        <time>2015-03-24T22:39:37.476000Z</time>
      </trkpt>
      <trkpt lat="38.818703" lon="121.147675">
        <ele>50.75505</ele>
        <time>2015-03-24T22:39:40.855000Z</time>
      </trkpt>
      <trkpt lat="38.818653" lon="121.147575">
        <ele>51.122673</ele>
        <time>2015-03-24T22:39:44.234000Z</time>
      </trkpt>
      <trkpt lat="38.818573" lon="121.14746">
        <ele>51.919094</ele>
        <time>2015-03-24T22:39:47.613000Z</time>
      </trkpt>
      <trkpt lat="38.818493" lon="121.14738">
        <ele>52.27505</ele>
        <time>2015-03-24T22:39:50.992000Z</time>
      </trkpt>
      <trkpt lat="38.818405" lon="121.14732">
        <ele>51.54784</ele>
        <time>2015-03-24T22:39:54.371000Z</time>
      </trkpt>
      <trkpt lat="38.81829" lon="121.14735">
        <ele>51.175938</ele>
        <time>2015-03-24T22:39:57.750000Z</time>
      </trkpt>
      <trkpt lat="38.818195" lon="121.14734">
        <ele>52.65977</ele>
        <time>2015-03-24T22:40:01.129000Z</time>
      </trkpt>
      <trkpt lat="38.818104" lon="121.14734">
        <ele>55.08439</ele>
        <time>2015-03-24T22:40:04.508000Z</time>
      </trkpt>
      <trkpt lat="38.81801" lon="121.14735">
        <ele>56.7612</ele>
        <time>2015-03-24T22:40:07.887000Z</time>
      </trkpt>
      <trkpt lat="38.81789" lon="121.14733">
        <ele>57.331276</ele>
        <time>2015-03-24T22:40:11.266000Z</time>
      </trkpt>
      <trkpt lat="38.817795" lon="121.14733">
        <ele>57.282196</ele>
        <time>2015-03-24T22:40:14.645000Z</time>
      </trkpt>
      <trkpt lat="38.8177" lon="121.14732">
        <ele>57.08286</ele>
        <time>2015-03-24T22:40:18.024000Z</time>
      </trkpt>
      <trkpt lat="38.817608" lon="121.147316">
        <ele>56.532413</ele>
        <time>2015-03-24T22:40:21.403000Z</time>
      </trkpt>
      <trkpt lat="38.817493" lon="121.14735">
        <ele>55.269157</ele>
        <time>2015-03-24T22:40:24.782000Z</time>
      </trkpt>
      <trkpt lat="38.8174" lon="121.14739">
        <ele>53.805542</ele>
        <time>2015-03-24T22:40:28.161000Z</time>
      </trkpt>
      <trkpt lat="38.817318" lon="121.14747">
        <ele>53.06488</ele>
        <time>2015-03-24T22:40:31.540000Z</time>
      </trkpt>
      <trkpt lat="38.817238" lon="121.147575">
        <ele>53.733646</ele>
        <time>2015-03-24T22:40:34.919000Z</time>
      </trkpt>
      <trkpt lat="38.81716" lon="121.14769">
        <ele>55.60969</ele>
        <time>2015-03-24T22:40:38.298000Z</time>
      </trkpt>
      <trkpt lat="38.81714" lon="121.14784">
        <ele>57.382584</ele>
        <time>2015-03-24T22:40:41.677000Z</time>
      </trkpt>
      <trkpt lat="38.817142" lon="121.14796">
        <ele>57.904854</ele>
        <time>2015-03-24T22:40:45.056000Z</time>
      </trkpt>
      <trkpt lat="38.81717" lon="121.14811">
        <ele>57.142292</ele>
        <time>2015-03-24T22:40:48.435000Z</time>
      </trkpt>
      <trkpt lat="38.817234" lon="121.148224">
        <ele>55.749546</ele>
        <time>2015-03-24T22:40:51.814000Z</time>
      </trkpt>
      <trkpt lat="38.81732" lon="121.1483">
        <ele>54.387177</ele>
        <time>2015-03-24T22:40:55.193000Z</time>
      </trkpt>
      <trkpt lat="38.817436" lon="121.14834">
        <ele>53.2272</ele>
        <time>2015-03-24T22:40:58.572000Z</time>
      </trkpt>
      <trkpt lat="38.81754" lon="121.14833">
        <ele>52.210766</ele>
        <time>2015-03-24T22:41:01.951000Z</time>
      </trkpt>
      <trkpt lat="38.817642" lon="121.14831">
        <ele>51.38278</ele>
        <time>2015-03-24T22:41:05.330000Z</time>
      </trkpt>
      <trkpt lat="38.817738" lon="121.14829">
        <ele>51.049763</ele>
        <time>2015-03-24T22:41:08.709000Z</time>
      </trkpt>
      <trkpt lat="38.81785" lon="121.14828">
        <ele>51.42943</ele>
        <time>2015-03-24T22:41:12.088000Z</time>
      </trkpt>
      <trkpt lat="38.817944" lon="121.14827">
        <ele>52.203968</ele>
        <time>2015-03-24T22:41:15.467000Z</time>
      </trkpt>
      <trkpt lat="38.81805" lon="121.14827">
        <ele>52.816402</ele>
        <time>2015-03-24T22:41:18.846000Z</time>
      </trkpt>
      <trkpt lat="38.81816" lon="121.148285">
        <ele>53.194424</ele>
        <time>2015-03-24T22:41:22.225000Z</time>
      </trkpt>
      <trkpt lat="38.818256" lon="121.148285">
        <ele>53.560177</ele>
        <time>2015-03-24T22:41:25.604000Z</time>
      </trkpt>
      <trkpt lat="38.81835" lon="121.14828">
        <ele>53.865677</ele>
        <time>2015-03-24T22:41:28.983000Z</time>
      </trkpt>
      <trkpt lat="38.818443" lon="121.14827">
        <ele>53.991196</ele>
        <time>2015-03-24T22:41:32.362000Z</time>
      </trkpt>
      <trkpt lat="38.818542" lon="121.148254">
        <ele>53.584003</ele>
        <time>2015-03-24T22:41:35.741000Z</time>
      </trkpt>
      <trkpt lat="38.818638" lon="121.148186">
        <ele>52.197727</ele>
        <time>2015-03-24T22:41:39.120000Z</time>
      </trkpt>
      <trkpt lat="38.818695" lon="121.14809">
        <ele>50.344803</ele>
        <time>2015-03-24T22:41:42.499000Z</time>
      </trkpt>
      <trkpt lat="38.818756" lon="121.14798">
        <ele>48.931915</ele>
        <time>2015-03-24T22:41:45.878000Z</time>
      </trkpt>
      <trkpt lat="38.818764" lon="121.14785">
        <ele>48.141426</ele>
        <time>2015-03-24T22:41:49.257000Z</time>
      </trkpt>
      <trkpt lat="38.818752" lon="121.147736">
        <ele>47.949566</ele>
        <time>2015-03-24T22:41:52.636000Z</time>
      </trkpt>
      <trkpt lat="38.81872" lon="121.14761">
        <ele>48.424686</ele>
        <time>2015-03-24T22:41:56.015000Z</time>
      </trkpt>
      <trkpt lat="38.818665" lon="121.147484">
        <ele>49.783504</ele>
        <time>2015-03-24T22:41:59.394000Z</time>
      </trkpt>
      <trkpt lat="38.818577" lon="121.1474">
        <ele>51.832043</ele>
        <time>2015-03-24T22:42:02.773000Z</time>
      </trkpt>
      <trkpt lat="38.818478" lon="121.14734">
        <ele>53.399853</ele>
        <time>2015-03-24T22:42:06.152000Z</time>
      </trkpt>
      <trkpt lat="38.81839" lon="121.14732">
        <ele>53.462772</ele>
        <time>2015-03-24T22:42:09.531000Z</time>
      </trkpt>
      <trkpt lat="38.818283" lon="121.14733">
        <ele>52.41323</ele>
        <time>2015-03-24T22:42:12.910000Z</time>
      </trkpt>
      <trkpt lat="38.81819" lon="121.14735">
        <ele>51.19155</ele>
        <time>2015-03-24T22:42:16.289000Z</time>
      </trkpt>
      <trkpt lat="38.818092" lon="121.14732">
        <ele>49.901405</ele>
        <time>2015-03-24T22:42:19.668000Z</time>
      </trkpt>
      <trkpt lat="38.81798" lon="121.14734">
        <ele>48.373203</ele>
        <time>2015-03-24T22:42:23.047000Z</time>
      </trkpt>
      <trkpt lat="38.817867" lon="121.14734">
        <ele>47.31528</ele>
        <time>2015-03-24T22:42:26.426000Z</time>
      </trkpt>
      <trkpt lat="38.817772" lon="121.14732">
        <ele>47.487522</ele>
        <time>2015-03-24T22:42:29.805000Z</time>
      </trkpt>
      <trkpt lat="38.817657" lon="121.14731">
        <ele>48.568623</ele>
        <time>2015-03-24T22:42:33.184000Z</time>
      </trkpt>
      <trkpt lat="38.81756" lon="121.14729">
        <ele>49.608852</ele>
        <time>2015-03-24T22:42:36.563000Z</time>
      </trkpt>
      <trkpt lat="38.817444" lon="121.14731">
        <ele>50.22122</ele>
        <time>2015-03-24T22:42:39.942000Z</time>
      </trkpt>
      <trkpt lat="38.81734" lon="121.147354">
        <ele>50.779476</ele>
        <time>2015-03-24T22:42:43.321000Z</time>
      </trkpt>
      <trkpt lat="38.81724" lon="121.14743">
        <ele>51.695312</ele>
        <time>2015-03-24T22:42:46.700000Z</time>
      </trkpt>
      <trkpt lat="38.817184" lon="121.14754">
        <ele>53.01326</ele>
        <time>2015-03-24T22:42:50.079000Z</time>
      </trkpt>
      <trkpt lat="38.817135" lon="121.14765">
        <ele>54.27571</ele>
        <time>2015-03-24T22:42:53.458000Z</time>
      </trkpt>
      <trkpt lat="38.81713" lon="121.1478">
        <ele>54.9877</ele>
        <time>2015-03-24T22:42:56.837000Z</time>
      </trkpt>
      <trkpt lat="38.817142" lon="121.14794">
        <ele>54.748856</ele>
        <time>2015-03-24T22:43:00.216000Z</time>
      </trkpt>
      <trkpt lat="38.817192" lon="121.14808">
        <ele>53.322075</ele>
        <time>2015-03-24T22:43:03.595000Z</time>
      </trkpt>
      <trkpt lat="38.81726" lon="121.14818">
        <ele>51.390724</ele>
        <time>2015-03-24T22:43:06.974000Z</time>
      </trkpt>
      <trkpt lat="38.817333" lon="121.14826">
        <ele>50.068584</ele>
        <time>2015-03-24T22:43:10.353000Z</time>
      </trkpt>
      <trkpt lat="38.817436" lon="121.14833">
        <ele>49.62466</ele>
        <time>2015-03-24T22:43:13.732000Z</time>
      </trkpt>
      <trkpt lat="38.817528" lon="121.14834">
        <ele>49.667553</ele>
        <time>2015-03-24T22:43:17.111000Z</time>
      </trkpt>
      <trkpt lat="38.81764" lon="121.148285">
        <ele>49.826294</ele>
        <time>2015-03-24T22:43:20.490000Z</time>
      </trkpt>
      <trkpt lat="38.81776" lon="121.1482">
        <ele>50.209793</ele>
        <time>2015-03-24T22:43:23.869000Z</time>
      </trkpt>
      <trkpt lat="38.817898" lon="121.148186">
        <ele>51.37945</ele>
        <time>2015-03-24T22:43:27.248000Z</time>
      </trkpt>
      <trkpt lat="38.818027" lon="121.148155">
        <ele>53.60858</ele>
        <time>2015-03-24T22:43:30.627000Z</time>
      </trkpt>
      <trkpt lat="38.81812" lon="121.1482">
        <ele>56.410397</ele>
        <time>2015-03-24T22:43:34.006000Z</time>
      </trkpt>
      <trkpt lat="38.818207" lon="121.14824">
        <ele>58.946827</ele>
        <time>2015-03-24T22:43:37.385000Z</time>
      </trkpt>
      <trkpt lat="38.818306" lon="121.148285">
        <ele>60.58818</ele>
        <time>2015-03-24T22:43:40.764000Z</time>
      </trkpt>
      <trkpt lat="38.81842" lon="121.14829">
        <ele>61.099735</ele>
        <time>2015-03-24T22:43:44.143000Z</time>
      </trkpt>
      <trkpt lat="38.81853" lon="121.14824">
        <ele>60.76076</ele>
        <time>2015-03-24T22:43:47.522000Z</time>
      </trkpt>
      <trkpt lat="38.818623" lon="121.148186">
        <ele>59.94558</ele>
        <time>2015-03-24T22:43:50.901000Z</time>
      </trkpt>
      <trkpt lat="38.818707" lon="121.1481">
        <ele>58.50266</ele>
        <time>2015-03-24T22:43:54.280000Z</time>
      </trkpt>
      <trkpt lat="38.818756" lon="121.147995">
        <ele>56.05287</ele>
        <time>2015-03-24T22:43:57.659000Z</time>
      </trkpt>
      <trkpt lat="38.818783" lon="121.14787">
        <ele>52.90699</ele>
        <time>2015-03-24T22:44:01.038000Z</time>
      </trkpt>
      <trkpt lat="38.818768" lon="121.14776">
        <ele>50.174713</ele>
        <time>2015-03-24T22:44:04.417000Z</time>
      </trkpt>
      <trkpt lat="38.81873" lon="121.147644">
        <ele>48.740105</ele>
        <time>2015-03-24T22:44:07.796000Z</time>
      </trkpt>
      <trkpt lat="38.81867" lon="121.14755">
        <ele>48.71617</ele>
        <time>2015-03-24T22:44:11.175000Z</time>
      </trkpt>
      <trkpt lat="38.818615" lon="121.14745">
        <ele>49.618904</ele>
        <time>2015-03-24T22:44:14.554000Z</time>
      </trkpt>
      <trkpt lat="38.818558" lon="121.14736">
        <ele>50.442722</ele>
        <time>2015-03-24T22:44:17.932000Z</time>
      </trkpt>
      <trkpt lat="38.818474" lon="121.1473">
        <ele>50.54901</ele>
        <time>2015-03-24T22:44:21.310000Z</time>
      </trkpt>
      <trkpt lat="38.81838" lon="121.14728">
        <ele>50.53239</ele>
        <time>2015-03-24T22:44:24.688000Z</time>
      </trkpt>
      <trkpt lat="38.818275" lon="121.147285">
        <ele>51.001583</ele>
        <time>2015-03-24T22:44:28.066000Z</time>
      </trkpt>
      <trkpt lat="38.818172" lon="121.14729">
        <ele>51.49731</ele>
        <time>2015-03-24T22:44:31.444000Z</time>
      </trkpt>
      <trkpt lat="38.818058" lon="121.14729">
        <ele>51.480415</ele>
        <time>2015-03-24T22:44:34.822000Z</time>
      </trkpt>
      <trkpt lat="38.817936" lon="121.14728">
        <ele>51.602818</ele>
        <time>2015-03-24T22:44:38.200000Z</time>
      </trkpt>
      <trkpt lat="38.817833" lon="121.14727">
        <ele>52.46764</ele>
        <time>2015-03-24T22:44:41.578000Z</time>
      </trkpt>
      <trkpt lat="38.81773" lon="121.147255">
        <ele>53.359432</ele>
        <time>2015-03-24T22:44:44.956000Z</time>
      </trkpt>
      <trkpt lat="38.817608" lon="121.14724">
        <ele>53.38946</ele>
        <time>2015-03-24T22:44:48.334000Z</time>
      </trkpt>
      <trkpt lat="38.817497" lon="121.147224">
        <ele>52.625607</ele>
        <time>2015-03-24T22:44:51.712000Z</time>
      </trkpt>
      <trkpt lat="38.817398" lon="121.14722">
        <ele>51.510315</ele>
        <time>2015-03-24T22:44:55.090000Z</time>
      </trkpt>
      <trkpt lat="38.81729" lon="121.147285">
        <ele>50.49513</ele>
        <time>2015-03-24T22:44:58.468000Z</time>
      </trkpt>
      <trkpt lat="38.817204" lon="121.14737">
        <ele>49.911335</ele>
        <time>2015-03-24T22:45:01.846000Z</time>
      </trkpt>
      <trkpt lat="38.817146" lon="121.14748">
        <ele>49.89977</ele>
        <time>2015-03-24T22:45:05.224000Z</time>
      </trkpt>
      <trkpt lat="38.81712" lon="121.14759">
        <ele>50.313396</ele>
        <time>2015-03-24T22:45:08.602000Z</time>
      </trkpt>
      <trkpt lat="38.817085" lon="121.14774">
        <ele>50.489548</ele>
        <time>2015-03-24T22:45:11.980000Z</time>
      </trkpt>
      <trkpt lat="38.81708" lon="121.147865">
        <ele>49.715824</ele>
        <time>2015-03-24T22:45:15.358000Z</time>
      </trkpt>
      <trkpt lat="38.817112" lon="121.14799">
        <ele>48.29549</ele>
        <time>2015-03-24T22:45:18.736000Z</time>
      </trkpt>
      <trkpt lat="38.817146" lon="121.148094">
        <ele>47.033367</ele>
        <time>2015-03-24T22:45:22.114000Z</time>
      </trkpt>
      <trkpt lat="38.81723" lon="121.14819">
        <ele>46.232986</ele>
        <time>2015-03-24T22:45:25.492000Z</time>
      </trkpt>
      <trkpt lat="38.817337" lon="121.14824">
        <ele>46.405273</ele>
        <time>2015-03-24T22:45:28.870000Z</time>
      </trkpt>
      <trkpt lat="38.817455" lon="121.14827">
        <ele>47.78682</ele>
        <time>2015-03-24T22:45:32.248000Z</time>
      </trkpt>
      <trkpt lat="38.817577" lon="121.14829">
        <ele>49.191143</ele>
        <time>2015-03-24T22:45:35.626000Z</time>
      </trkpt>
      <trkpt lat="38.817688" lon="121.14832">
        <ele>49.459347</ele>
        <time>2015-03-24T22:45:39.004000Z</time>
      </trkpt>
      <trkpt lat="38.81779" lon="121.148346">
        <ele>48.86674</ele>
        <time>2015-03-24T22:45:42.382000Z</time>
      </trkpt>
      <trkpt lat="38.817913" lon="121.14834">
        <ele>48.3447</ele>
        <time>2015-03-24T22:45:45.760000Z</time>
      </trkpt>
      <trkpt lat="38.818005" lon="121.148315">
        <ele>48.653336</ele>
        <time>2015-03-24T22:45:49.138000Z</time>
      </trkpt>
      <trkpt lat="38.818104" lon="121.148315">
        <ele>49.68431</ele>
        <time>2015-03-24T22:45:52.516000Z</time>
      </trkpt>
      <trkpt lat="38.81819" lon="121.14833">
        <ele>50.095276</ele>
        <time>2015-03-24T22:45:55.894000Z</time>
      </trkpt>
      <trkpt lat="38.81831" lon="121.14834">
        <ele>49.086613</ele>
        <time>2015-03-24T22:45:59.272000Z</time>
      </trkpt>
      <trkpt lat="38.818417" lon="121.148315">
        <ele>47.796505</ele>
        <time>2015-03-24T22:46:02.650000Z</time>
      </trkpt>
      <trkpt lat="38.818523" lon="121.14826">
        <ele>47.369762</ele>
        <time>2015-03-24T22:46:06.028000Z</time>
      </trkpt>
      <trkpt lat="38.818615" lon="121.148186">
        <ele>47.278275</ele>
        <time>2015-03-24T22:46:09.406000Z</time>
      </trkpt>
      <trkpt lat="38.818695" lon="121.148094">
        <ele>46.542732</ele>
        <time>2015-03-24T22:46:12.784000Z</time>
      </trkpt>
      <trkpt lat="38.818752" lon="121.147995">
        <ele>45.227367</ele>
        <time>2015-03-24T22:46:16.162000Z</time>
      </trkpt>
      <trkpt lat="38.818752" lon="121.14788">
        <ele>44.309654</ele>
        <time>2015-03-24T22:46:19.540000Z</time>
      </trkpt>
      <trkpt lat="38.818726" lon="121.147736">
        <ele>44.250328</ele>
        <time>2015-03-24T22:46:22.918000Z</time>
      </trkpt>
      <trkpt lat="38.81868" lon="121.14762">
        <ele>44.60537</ele>
        <time>2015-03-24T22:46:26.296000Z</time>
      </trkpt>
      <trkpt lat="38.818615" lon="121.14752">
        <ele>45.02743</ele>
        <time>2015-03-24T22:46:29.674000Z</time>
      </trkpt>
      <trkpt lat="38.81852" lon="121.14743">
        <ele>46.190525</ele>
        <time>2015-03-24T22:46:33.052000Z</time>
      </trkpt>
      <trkpt lat="38.818417" lon="121.14737">
        <ele>50.49429</ele>
        <time>2015-03-24T22:46:36.430000Z</time>
      </trkpt>
      <trkpt lat="38.818333" lon="121.14733">
        <ele>51.59578</ele>
        <time>2015-03-24T22:46:39.808000Z</time>
      </trkpt>
      <trkpt lat="38.818237" lon="121.14733">
        <ele>51.698997</ele>
        <time>2015-03-24T22:46:43.186000Z</time>
      </trkpt>
      <trkpt lat="38.818127" lon="121.14735">
        <ele>51.324596</ele>
        <time>2015-03-24T22:46:46.564000Z</time>
      </trkpt>
      <trkpt lat="38.818035" lon="121.147354">
        <ele>51.141502</ele>
        <time>2015-03-24T22:46:49.942000Z</time>
      </trkpt>
      <trkpt lat="38.81791" lon="121.14735">
        <ele>51.63566</ele>
        <time>2015-03-24T22:46:53.320000Z</time>
      </trkpt>
      <trkpt lat="38.817806" lon="121.14733">
        <ele>52.609264</ele>
        <time>2015-03-24T22:46:56.698000Z</time>
      </trkpt>
      <trkpt lat="38.817696" lon="121.147316">
        <ele>53.98892</ele>
        <time>2015-03-24T22:47:00.076000Z</time>
      </trkpt>
      <trkpt lat="38.817604" lon="121.14731">
        <ele>55.28131</ele>
        <time>2015-03-24T22:47:03.454000Z</time>
      </trkpt>
      <trkpt lat="38.817497" lon="121.14733">
        <ele>56.13641</ele>
        <time>2015-03-24T22:47:06.832000Z</time>
      </trkpt>
      <trkpt lat="38.817394" lon="121.14736">
        <ele>56.66717</ele>
        <time>2015-03-24T22:47:10.210000Z</time>
      </trkpt>
      <trkpt lat="38.817333" lon="121.14745">
        <ele>57.237183</ele>
        <time>2015-03-24T22:47:13.588000Z</time>
      </trkpt>
      <trkpt lat="38.81724" lon="121.14754">
        <ele>58.164738</ele>
        <time>2015-03-24T22:47:16.966000Z</time>
      </trkpt>
      <trkpt lat="38.817158" lon="121.14762">
        <ele>59.232162</ele>
        <time>2015-03-24T22:47:20.344000Z</time>
      </trkpt>
      <trkpt lat="38.817173" lon="121.14775">
        <ele>59.908726</ele>
        <time>2015-03-24T22:47:23.722000Z</time>
      </trkpt>
      <trkpt lat="38.817207" lon="121.1479">
        <ele>59.975166</ele>
        <time>2015-03-24T22:47:27.100000Z</time>
      </trkpt>
      <trkpt lat="38.817238" lon="121.148026">
        <ele>59.576374</ele>
        <time>2015-03-24T22:47:30.478000Z</time>
      </trkpt>
      <trkpt lat="38.817276" lon="121.14814">
        <ele>59.119385</ele>
        <time>2015-03-24T22:47:33.856000Z</time>
      </trkpt>
      <trkpt lat="38.817318" lon="121.14825">
        <ele>58.88937</ele>
        <time>2015-03-24T22:47:37.234000Z</time>
      </trkpt>
      <trkpt lat="38.81741" lon="121.14833">
        <ele>58.846615</ele>
        <time>2015-03-24T22:47:40.612000Z</time>
      </trkpt>
      <trkpt lat="38.81751" lon="121.14835">
        <ele>59.018177</ele>
        <time>2015-03-24T22:47:43.990000Z</time>
      </trkpt>
      <trkpt lat="38.817608" lon="121.14836">
        <ele>59.415356</ele>
        <time>2015-03-24T22:47:47.368000Z</time>
      </trkpt>
      <trkpt lat="38.817726" lon="121.14834">
        <ele>59.803318</ele>
        <time>2015-03-24T22:47:50.746000Z</time>
      </trkpt>
      <trkpt lat="38.817844" lon="121.14834">
        <ele>59.843708</ele>
        <time>2015-03-24T22:47:54.124000Z</time>
      </trkpt>
      <trkpt lat="38.817936" lon="121.14837">
        <ele>58.816666</ele>
        <time>2015-03-24T22:47:57.502000Z</time>
      </trkpt>
      <trkpt lat="38.818027" lon="121.14837">
        <ele>56.476562</ele>
        <time>2015-03-24T22:48:00.880000Z</time>
      </trkpt>
      <trkpt lat="38.818127" lon="121.14837">
        <ele>54.062637</ele>
        <time>2015-03-24T22:48:04.258000Z</time>
      </trkpt>
      <trkpt lat="38.818245" lon="121.14835">
        <ele>52.637836</ele>
        <time>2015-03-24T22:48:07.636000Z</time>
      </trkpt>
      <trkpt lat="38.818363" lon="121.14833">
        <ele>51.99823</ele>
        <time>2015-03-24T22:48:11.014000Z</time>
      </trkpt>
      <trkpt lat="38.818455" lon="121.14831">
        <ele>51.64687</ele>
        <time>2015-03-24T22:48:14.392000Z</time>
      </trkpt>
      <trkpt lat="38.818546" lon="121.148254">
        <ele>51.17073</ele>
        <time>2015-03-24T22:48:17.770000Z</time>
      </trkpt>
      <trkpt lat="38.818645" lon="121.14817">
        <ele>50.104103</ele>
        <time>2015-03-24T22:48:21.148000Z</time>
      </trkpt>
      <trkpt lat="38.818718" lon="121.14807">
        <ele>48.53156</ele>
        <time>2015-03-24T22:48:24.526000Z</time>
      </trkpt>
      <trkpt lat="38.818756" lon="121.147934">
        <ele>47.23843</ele>
        <time>2015-03-24T22:48:27.904000Z</time>
      </trkpt>
      <trkpt lat="38.818768" lon="121.14778">
        <ele>46.714092</ele>
        <time>2015-03-24T22:48:31.282000Z</time>
      </trkpt>
      <trkpt lat="38.818737" lon="121.14765">
        <ele>46.826427</ele>
        <time>2015-03-24T22:48:34.660000Z</time>
      </trkpt>
      <trkpt lat="38.81868" lon="121.14752">
        <ele>47.59264</ele>
        <time>2015-03-24T22:48:38.038000Z</time>
      </trkpt>
      <trkpt lat="38.818615" lon="121.147415">
        <ele>48.92513</ele>
        <time>2015-03-24T22:48:41.416000Z</time>
      </trkpt>
      <trkpt lat="38.81853" lon="121.14735">
        <ele>50.241146</ele>
        <time>2015-03-24T22:48:44.794000Z</time>
      </trkpt>
      <trkpt lat="38.81843" lon="121.14732">
        <ele>50.989273</ele>
        <time>2015-03-24T22:48:48.172000Z</time>
      </trkpt>
      <trkpt lat="38.818333" lon="121.147316">
        <ele>51.038692</ele>
        <time>2015-03-24T22:48:51.550000Z</time>
      </trkpt>
      <trkpt lat="38.81822" lon="121.147316">
        <ele>50.606712</ele>
        <time>2015-03-24T22:48:54.928000Z</time>
      </trkpt>
      <trkpt lat="38.818123" lon="121.14729">
        <ele>50.12962</ele>
        <time>2015-03-24T22:48:58.306000Z</time>
      </trkpt>
      <trkpt lat="38.818027" lon="121.14727">
        <ele>49.755764</ele>
        <time>2015-03-24T22:49:01.684000Z</time>
      </trkpt>
      <trkpt lat="38.81793" lon="121.14727">
        <ele>49.492764</ele>
        <time>2015-03-24T22:49:05.062000Z</time>
      </trkpt>
      <trkpt lat="38.81784" lon="121.14731">
        <ele>49.381145</ele>
        <time>2015-03-24T22:49:08.440000Z</time>
      </trkpt>
      <trkpt lat="38.817745" lon="121.14733">
        <ele>49.254337</ele>
        <time>2015-03-24T22:49:11.818000Z</time>
      </trkpt>
      <trkpt lat="38.81763" lon="121.14733">
        <ele>49.05261</ele>
        <time>2015-03-24T22:49:15.196000Z</time>
      </trkpt>
      <trkpt lat="38.81752" lon="121.14732">
        <ele>48.937046</ele>
        <time>2015-03-24T22:49:18.574000Z</time>
      </trkpt>
      <trkpt lat="38.8174" lon="121.14734">
        <ele>48.907623</ele>
        <time>2015-03-24T22:49:21.952000Z</time>
      </trkpt>
      <trkpt lat="38.817318" lon="121.14738">
        <ele>49.056602</ele>
        <time>2015-03-24T22:49:25.330000Z</time>
      </trkpt>
      <trkpt lat="38.817226" lon="121.147446">
        <ele>49.57118</ele>
        <time>2015-03-24T22:49:28.708000Z</time>
      </trkpt>
      <trkpt lat="38.817173" lon="121.147545">
        <ele>50.309837</ele>
        <time>2015-03-24T22:49:32.086000Z</time>
      </trkpt>
      <trkpt lat="38.81716" lon="121.14768">
        <ele>50.85685</ele>
        <time>2015-03-24T22:49:35.464000Z</time>
      </trkpt>
      <trkpt lat="38.81716" lon="121.147835">
        <ele>51.47226</ele>
        <time>2015-03-24T22:49:38.842000Z</time>
      </trkpt>
      <trkpt lat="38.817177" lon="121.14797">
        <ele>52.685307</ele>
        <time>2015-03-24T22:49:42.220000Z</time>
      </trkpt>
      <trkpt lat="38.817215" lon="121.14811">
        <ele>54.230835</ele>
        <time>2015-03-24T22:49:45.598000Z</time>
      </trkpt>
      <trkpt lat="38.81728" lon="121.14823">
        <ele>55.44156</ele>
        <time>2015-03-24T22:49:48.976000Z</time>
      </trkpt>
      <trkpt lat="38.817364" lon="121.14833">
        <ele>55.91163</ele>
        <time>2015-03-24T22:49:52.354000Z</time>
      </trkpt>
      <trkpt lat="38.81747" lon="121.14836">
        <ele>55.664154</ele>
        <time>2015-03-24T22:49:55.732000Z</time>
      </trkpt>
      <trkpt lat="38.817585" lon="121.14835">
        <ele>54.791416</ele>
        <time>2015-03-24T22:49:59.110000Z</time>
      </trkpt>
      <trkpt lat="38.817677" lon="121.14832">
        <ele>53.4377</ele>
        <time>2015-03-24T22:50:02.488000Z</time>
      </trkpt>
      <trkpt lat="38.817776" lon="121.1483">
        <ele>52.39205</ele>
        <time>2015-03-24T22:50:05.866000Z</time>
      </trkpt>
      <trkpt lat="38.81789" lon="121.14829">
        <ele>52.247456</ele>
        <time>2015-03-24T22:50:09.244000Z</time>
      </trkpt>
      <trkpt lat="38.817986" lon="121.14832">
        <ele>52.574825</ele>
        <time>2015-03-24T22:50:12.622000Z</time>
      </trkpt>
      <trkpt lat="38.818096" lon="121.14834">
        <ele>52.30949</ele>
        <time>2015-03-24T22:50:16Z</time>
      </trkpt>
      <trkpt lat="38.81821" lon="121.14835">
        <ele>50.85456</ele>
        <time>2015-03-24T22:50:19.378000Z</time>
      </trkpt>
      <trkpt lat="38.818302" lon="121.14837">
        <ele>49.027405</ele>
        <time>2015-03-24T22:50:22.756000Z</time>
      </trkpt>
      <trkpt lat="38.81842" lon="121.148384">
        <ele>47.92981</ele>
        <time>2015-03-24T22:50:26.134000Z</time>
      </trkpt>
      <trkpt lat="38.818527" lon="121.14833">
        <ele>47.625053</ele>
        <time>2015-03-24T22:50:29.512000Z</time>
      </trkpt>
      <trkpt lat="38.8186" lon="121.148254">
        <ele>47.57044</ele>
        <time>2015-03-24T22:50:32.890000Z</time>
      </trkpt>
      <trkpt lat="38.81868" lon="121.148155">
        <ele>47.360214</ele>
        <time>2015-03-24T22:50:36.268000Z</time>
      </trkpt>
      <trkpt lat="38.818745" lon="121.14806">
        <ele>47.355873</ele>
        <time>2015-03-24T22:50:39.646000Z</time>
      </trkpt>
      <trkpt lat="38.818768" lon="121.147934">
        <ele>47.92448</ele>
        <time>2015-03-24T22:50:43.024000Z</time>
      </trkpt>
      <trkpt lat="38.818752" lon="121.14777">
        <ele>48.491467</ele>
        <time>2015-03-24T22:50:46.402000Z</time>
      </trkpt>
      <trkpt lat="38.8187" lon="121.14767">
        <ele>48.49983</ele>
        <time>2015-03-24T22:50:49.780000Z</time>
      </trkpt>
      <trkpt lat="38.818653" lon="121.14755">
        <ele>48.206387</ele>
        <time>2015-03-24T22:50:53.158000Z</time>
      </trkpt>
      <trkpt lat="38.8186" lon="121.14744">
        <ele>48.259705</ele>
        <time>2015-03-24T22:50:56.536000Z</time>
      </trkpt>
      <trkpt lat="38.818516" lon="121.147354">
        <ele>48.89538</ele>
        <time>2015-03-24T22:50:59.914000Z</time>
      </trkpt>
      <trkpt lat="38.81842" lon="121.14735">
        <ele>49.496372</ele>
        <time>2015-03-24T22:51:03.292000Z</time>
      </trkpt>
      <trkpt lat="38.818317" lon="121.14736">
        <ele>49.511192</ele>
        <time>2015-03-24T22:51:06.670000Z</time>
      </trkpt>
      <trkpt lat="38.818214" lon="121.14737">
        <ele>49.48928</ele>
        <time>2015-03-24T22:51:10.048000Z</time>
      </trkpt>
      <trkpt lat="38.81811" lon="121.14735">
        <ele>50.25691</ele>
        <time>2015-03-24T22:51:13.426000Z</time>
      </trkpt>
      <trkpt lat="38.818012" lon="121.14734">
        <ele>51.76689</ele>
        <time>2015-03-24T22:51:16.804000Z</time>
      </trkpt>
      <trkpt lat="38.817917" lon="121.14733">
        <ele>53.492332</ele>
        <time>2015-03-24T22:51:20.182000Z</time>
      </trkpt>
      <trkpt lat="38.817818" lon="121.14733">
        <ele>55.009727</ele>
        <time>2015-03-24T22:51:23.560000Z</time>
      </trkpt>
      <trkpt lat="38.81771" lon="121.14732">
        <ele>56.073677</ele>
        <time>2015-03-24T22:51:26.938000Z</time>
      </trkpt>
      <trkpt lat="38.817623" lon="121.14732">
        <ele>56.697376</ele>
        <time>2015-03-24T22:51:30.316000Z</time>
      </trkpt>
      <trkpt lat="38.81753" lon="121.14732">
        <ele>57.001415</ele>
        <time>2015-03-24T22:51:33.694000Z</time>
      </trkpt>
      <trkpt lat="38.817432" lon="121.14731">
        <ele>57.19051</ele>
        <time>2015-03-24T22:51:37.072000Z</time>
      </trkpt>
      <trkpt lat="38.817337" lon="121.14731">
        <ele>57.502064</ele>
        <time>2015-03-24T22:51:40.450000Z</time>
      </trkpt>
      <trkpt lat="38.817253" lon="121.14736">
        <ele>57.54429</ele>
        <time>2015-03-24T22:51:43.828000Z</time>
      </trkpt>
      <trkpt lat="38.817184" lon="121.147446">
        <ele>56.975296</ele>
        <time>2015-03-24T22:51:47.206000Z</time>
      </trkpt>
      <trkpt lat="38.81714" lon="121.147545">
        <ele>56.259045</ele>
        <time>2015-03-24T22:51:50.584000Z</time>
      </trkpt>
      <trkpt lat="38.817123" lon="121.147675">
        <ele>55.88257</ele>
        <time>2015-03-24T22:51:53.962000Z</time>
      </trkpt>
      <trkpt lat="38.81711" lon="121.14781">
        <ele>55.665367</ele>
        <time>2015-03-24T22:51:57.340000Z</time>
      </trkpt>
      <trkpt lat="38.817127" lon="121.147934">
        <ele>55.35332</ele>
        <time>2015-03-24T22:52:00.718000Z</time>
      </trkpt>
      <trkpt lat="38.81716" lon="121.148056">
        <ele>54.9042</ele>
        <time>2015-03-24T22:52:04.096000Z</time>
      </trkpt>
      <trkpt lat="38.817223" lon="121.148155">
        <ele>54.261223</ele>
        <time>2015-03-24T22:52:07.474000Z</time>
      </trkpt>
      <trkpt lat="38.81728" lon="121.14827">
        <ele>53.373344</ele>
        <time>2015-03-24T22:52:10.852000Z</time>
      </trkpt>
      <trkpt lat="38.81737" lon="121.148346">
        <ele>52.080193</ele>
        <time>2015-03-24T22:52:14.230000Z</time>
      </trkpt>
      <trkpt lat="38.81746" lon="121.148384">
        <ele>50.178265</ele>
        <time>2015-03-24T22:52:17.608000Z</time>
      </trkpt>
      <trkpt lat="38.81758" lon="121.14835">
        <ele>48.05184</ele>
        <time>2015-03-24T22:52:20.986000Z</time>
      </trkpt>
      <trkpt lat="38.817696" lon="121.148346">
        <ele>46.462402</ele>
        <time>2015-03-24T22:52:24.364000Z</time>
      </trkpt>
      <trkpt lat="38.817806" lon="121.148346">
        <ele>45.734886</ele>
        <time>2015-03-24T22:52:27.742000Z</time>
      </trkpt>
      <trkpt lat="38.81791" lon="121.14834">
        <ele>45.778862</ele>
        <time>2015-03-24T22:52:31.120000Z</time>
      </trkpt>
      <trkpt lat="38.817997" lon="121.14838">
        <ele>46.275204</ele>
        <time>2015-03-24T22:52:34.498000Z</time>
      </trkpt>
      <trkpt lat="38.81811" lon="121.1484">
        <ele>45.80684</ele>
        <time>2015-03-24T22:52:37.876000Z</time>
      </trkpt>
      <trkpt lat="38.818214" lon="121.1484">
        <ele>43.521317</ele>
        <time>2015-03-24T22:52:41.254000Z</time>
      </trkpt>
      <trkpt lat="38.81832" lon="121.148384">
        <ele>40.968884</ele>
        <time>2015-03-24T22:52:44.632000Z</time>
      </trkpt>
      <trkpt lat="38.818413" lon="121.14835">
        <ele>39.838913</ele>
        <time>2015-03-24T22:52:48.010000Z</time>
      </trkpt>
      <trkpt lat="38.818512" lon="121.1483">
        <ele>40.110622</ele>
        <time>2015-03-24T22:52:51.388000Z</time>
      </trkpt>
      <trkpt lat="38.818615" lon="121.148224">
        <ele>41.031063</ele>
        <time>2015-03-24T22:52:54.766000Z</time>
      </trkpt>
      <trkpt lat="38.81869" lon="121.148125">
        <ele>41.92214</ele>
        <time>2015-03-24T22:52:58.144000Z</time>
      </trkpt>
      <trkpt lat="38.818737" lon="121.14802">
        <ele>42.72411</ele>
        <time>2015-03-24T22:53:01.522000Z</time>
      </trkpt>
      <trkpt lat="38.81874" lon="121.147865">
        <ele>43.467445</ele>
        <time>2015-03-24T22:53:04.900000Z</time>
      </trkpt>
      <trkpt lat="38.818718" lon="121.14773">
        <ele>43.936085</ele>
        <time>2015-03-24T22:53:08.278000Z</time>
      </trkpt>
      <trkpt lat="38.818684" lon="121.1476">
        <ele>44.491226</ele>
        <time>2015-03-24T22:53:11.656000Z</time>
      </trkpt>
      <trkpt lat="38.818634" lon="121.147484">
        <ele>45.819466</ele>
        <time>2015-03-24T22:53:15.034000Z</time>
      </trkpt>
      <trkpt lat="38.81857" lon="121.14739">
        <ele>47.72477</ele>
        <time>2015-03-24T22:53:18.412000Z</time>
      </trkpt>
      <trkpt lat="38.818466" lon="121.14733">
        <ele>49.311394</ele>
        <time>2015-03-24T22:53:21.790000Z</time>
      </trkpt>
      <trkpt lat="38.81838" lon="121.14734">
        <ele>49.54708</ele>
        <time>2015-03-24T22:53:25.168000Z</time>
      </trkpt>
      <trkpt lat="38.818268" lon="121.14733">
        <ele>48.2483</ele>
        <time>2015-03-24T22:53:28.546000Z</time>
      </trkpt>
      <trkpt lat="38.818146" lon="121.14731">
        <ele>46.78997</ele>
        <time>2015-03-24T22:53:31.924000Z</time>
      </trkpt>
      <trkpt lat="38.818047" lon="121.147316">
        <ele>46.457573</ele>
        <time>2015-03-24T22:53:35.302000Z</time>
      </trkpt>
      <trkpt lat="38.817944" lon="121.14733">
        <ele>47.293655</ele>
        <time>2015-03-24T22:53:38.680000Z</time>
      </trkpt>
      <trkpt lat="38.817833" lon="121.14732">
        <ele>48.943573</ele>
        <time>2015-03-24T22:53:42.058000Z</time>
      </trkpt>
      <trkpt lat="38.81774" lon="121.14731">
        <ele>50.872547</ele>
        <time>2015-03-24T22:53:45.436000Z</time>
      </trkpt>
      <trkpt lat="38.817646" lon="121.147316">
        <ele>52.385315</ele>
        <time>2015-03-24T22:53:48.814000Z</time>
      </trkpt>
      <trkpt lat="38.81755" lon="121.1473">
        <ele>53.111435</ele>
        <time>2015-03-24T22:53:52.192000Z</time>
      </trkpt>
      <trkpt lat="38.817455" lon="121.1473">
        <ele>52.67372</ele>
        <time>2015-03-24T22:53:55.570000Z</time>
      </trkpt>
      <trkpt lat="38.817364" lon="121.14731">
        <ele>51.113735</ele>
        <time>2015-03-24T22:53:58.948000Z</time>
      </trkpt>
      <trkpt lat="38.817265" lon="121.14739">
        <ele>49.512684</ele>
        <time>2015-03-24T22:54:02.326000Z</time>
      </trkpt>
      <trkpt lat="38.81721" lon="121.14753">
        <ele>49.30593</ele>
        <time>2015-03-24T22:54:05.704000Z</time>
      </trkpt>
      <trkpt lat="38.81717" lon="121.14765">
        <ele>50.768764</ele>
        <time>2015-03-24T22:54:09.082000Z</time>
      </trkpt>
      <trkpt lat="38.81715" lon="121.14778">
        <ele>52.736374</ele>
        <time>2015-03-24T22:54:12.460000Z</time>
      </trkpt>
      <trkpt lat="38.81714" lon="121.1479">
        <ele>54.213688</ele>
        <time>2015-03-24T22:54:15.838000Z</time>
      </trkpt>
      <trkpt lat="38.817154" lon="121.14803">
        <ele>55.275936</ele>
        <time>2015-03-24T22:54:19.216000Z</time>
      </trkpt>
      <trkpt lat="38.8172" lon="121.148155">
        <ele>55.791973</ele>
        <time>2015-03-24T22:54:22.594000Z</time>
      </trkpt>
      <trkpt lat="38.817265" lon="121.148254">
        <ele>55.48319</ele>
        <time>2015-03-24T22:54:25.972000Z</time>
      </trkpt>
      <trkpt lat="38.817345" lon="121.148315">
        <ele>54.709797</ele>
        <time>2015-03-24T22:54:29.350000Z</time>
      </trkpt>
      <trkpt lat="38.81744" lon="121.148346">
        <ele>54.078033</ele>
        <time>2015-03-24T22:54:32.728000Z</time>
      </trkpt>
      <trkpt lat="38.81754" lon="121.14835">
        <ele>53.68515</ele>
        <time>2015-03-24T22:54:36.106000Z</time>
      </trkpt>
      <trkpt lat="38.817657" lon="121.14832">
        <ele>53.31373</ele>
        <time>2015-03-24T22:54:39.484000Z</time>
      </trkpt>
      <trkpt lat="38.81777" lon="121.14831">
        <ele>53.008198</ele>
        <time>2015-03-24T22:54:42.862000Z</time>
      </trkpt>
      <trkpt lat="38.817863" lon="121.148315">
        <ele>52.884274</ele>
        <time>2015-03-24T22:54:46.240000Z</time>
      </trkpt>
      <trkpt lat="38.81798" lon="121.14833">
        <ele>52.601784</ele>
        <time>2015-03-24T22:54:49.618000Z</time>
      </trkpt>
      <trkpt lat="38.818085" lon="121.148346">
        <ele>51.63634</ele>
        <time>2015-03-24T22:54:52.996000Z</time>
      </trkpt>
      <trkpt lat="38.818203" lon="121.148346">
        <ele>49.787983</ele>
        <time>2015-03-24T22:54:56.374000Z</time>
      </trkpt>
      <trkpt lat="38.81831" lon="121.14836">
        <ele>47.62884</ele>
        <time>2015-03-24T22:54:59.752000Z</time>
      </trkpt>
      <trkpt lat="38.81841" lon="121.14836">
        <ele>45.840984</ele>
        <time>2015-03-24T22:55:03.130000Z</time>
      </trkpt>
      <trkpt lat="38.818512" lon="121.14834">
        <ele>44.599792</ele>
        <time>2015-03-24T22:55:06.508000Z</time>
      </trkpt>
      <trkpt lat="38.8186" lon="121.148254">
        <ele>43.761326</ele>
        <time>2015-03-24T22:55:09.886000Z</time>
      </trkpt>
      <trkpt lat="38.818672" lon="121.14818">
        <ele>43.22848</ele>
        <time>2015-03-24T22:55:13.264000Z</time>
      </trkpt>
      <trkpt lat="38.818737" lon="121.148056">
        <ele>42.928524</ele>
        <time>2015-03-24T22:55:16.642000Z</time>
      </trkpt>
      <trkpt lat="38.818752" lon="121.14791">
        <ele>42.716606</ele>
        <time>2015-03-24T22:55:20.020000Z</time>
      </trkpt>
      <trkpt lat="38.818737" lon="121.14778">
        <ele>42.524906</ele>
        <time>2015-03-24T22:55:23.398000Z</time>
      </trkpt>
      <trkpt lat="38.818714" lon="121.14767">
        <ele>42.558945</ele>
        <time>2015-03-24T22:55:26.776000Z</time>
      </trkpt>
      <trkpt lat="38.81867" lon="121.14752">
        <ele>42.777336</ele>
        <time>2015-03-24T22:55:30.154000Z</time>
      </trkpt>
      <trkpt lat="38.818592" lon="121.14741">
        <ele>43.07004</ele>
        <time>2015-03-24T22:55:33.532000Z</time>
      </trkpt>
      <trkpt lat="38.818485" lon="121.14734">
        <ele>43.483906</ele>
        <time>2015-03-24T22:55:36.910000Z</time>
      </trkpt>
      <trkpt lat="38.818363" lon="121.147316">
        <ele>43.71172</ele>
        <time>2015-03-24T22:55:40.288000Z</time>
      </trkpt>
      <trkpt lat="38.818253" lon="121.1473">
        <ele>43.370945</ele>
        <time>2015-03-24T22:55:43.666000Z</time>
      </trkpt>
      <trkpt lat="38.818134" lon="121.1473">
        <ele>42.241085</ele>
        <time>2015-03-24T22:55:47.044000Z</time>
      </trkpt>
      <trkpt lat="38.81803" lon="121.14732">
        <ele>40.582424</ele>
        <time>2015-03-24T22:55:50.422000Z</time>
      </trkpt>
      <trkpt lat="38.81791" lon="121.14731">
        <ele>39.242554</ele>
        <time>2015-03-24T22:55:53.800000Z</time>
      </trkpt>
      <trkpt lat="38.817795" lon="121.14732">
        <ele>38.707607</ele>
        <time>2015-03-24T22:55:57.178000Z</time>
      </trkpt>
      <trkpt lat="38.817688" lon="121.14735">
        <ele>38.825283</ele>
        <time>2015-03-24T22:56:00.556000Z</time>
      </trkpt>
      <trkpt lat="38.817562" lon="121.14736">
        <ele>39.73671</ele>
        <time>2015-03-24T22:56:03.934000Z</time>
      </trkpt>
      <trkpt lat="38.817455" lon="121.147385">
        <ele>41.57104</ele>
        <time>2015-03-24T22:56:07.312000Z</time>
      </trkpt>
      <trkpt lat="38.817368" lon="121.147415">
        <ele>43.89357</ele>
        <time>2015-03-24T22:56:10.690000Z</time>
      </trkpt>
      <trkpt lat="38.817272" lon="121.14748">
        <ele>46.043903</ele>
        <time>2015-03-24T22:56:14.068000Z</time>
      </trkpt>
      <trkpt lat="38.81719" lon="121.14756">
        <ele>47.531483</ele>
        <time>2015-03-24T22:56:17.446000Z</time>
      </trkpt>
      <trkpt lat="38.817177" lon="121.14768">
        <ele>48.17559</ele>
        <time>2015-03-24T22:56:20.824000Z</time>
      </trkpt>
      <trkpt lat="38.817158" lon="121.147804">
        <ele>48.236095</ele>
        <time>2015-03-24T22:56:24.202000Z</time>
      </trkpt>
      <trkpt lat="38.817142" lon="121.147934">
        <ele>48.098072</ele>
        <time>2015-03-24T22:56:27.580000Z</time>
      </trkpt>
      <trkpt lat="38.81716" lon="121.14806">
        <ele>47.977043</ele>
        <time>2015-03-24T22:56:30.958000Z</time>
      </trkpt>
      <trkpt lat="38.817207" lon="121.14819">
        <ele>47.925358</ele>
        <time>2015-03-24T22:56:34.336000Z</time>
      </trkpt>
      <trkpt lat="38.817303" lon="121.14829">
        <ele>47.92098</ele>
        <time>2015-03-24T22:56:37.714000Z</time>
      </trkpt>
      <trkpt lat="38.817417" lon="121.14835">
        <ele>48.070587</ele>
        <time>2015-03-24T22:56:41.092000Z</time>
      </trkpt>
      <trkpt lat="38.817543" lon="121.14838">
        <ele>48.440323</ele>
        <time>2015-03-24T22:56:44.470000Z</time>
      </trkpt>
      <trkpt lat="38.81766" lon="121.14837">
        <ele>48.813904</ele>
        <time>2015-03-24T22:56:47.848000Z</time>
      </trkpt>
      <trkpt lat="38.81779" lon="121.14836">
        <ele>48.98948</ele>
        <time>2015-03-24T22:56:51.226000Z</time>
      </trkpt>
      <trkpt lat="38.817894" lon="121.14835">
        <ele>49.015064</ele>
        <time>2015-03-24T22:56:54.604000Z</time>
      </trkpt>
      <trkpt lat="38.818005" lon="121.14837">
        <ele>49.26063</ele>
        <time>2015-03-24T22:56:57.982000Z</time>
      </trkpt>
      <trkpt lat="38.81811" lon="121.14837">
        <ele>49.949974</ele>
        <time>2015-03-24T22:57:01.360000Z</time>
      </trkpt>
      <trkpt lat="38.81823" lon="121.14838">
        <ele>50.53655</ele>
        <time>2015-03-24T22:57:04.738000Z</time>
      </trkpt>
      <trkpt lat="38.818344" lon="121.14838">
        <ele>50.248882</ele>
        <time>2015-03-24T22:57:08.116000Z</time>
      </trkpt>
      <trkpt lat="38.818466" lon="121.14836">
        <ele>49.215282</ele>
        <time>2015-03-24T22:57:11.494000Z</time>
      </trkpt>
      <trkpt lat="38.818577" lon="121.14831">
        <ele>48.520016</ele>
        <time>2015-03-24T22:57:14.872000Z</time>
      </trkpt>
      <trkpt lat="38.81867" lon="121.14821">
        <ele>48.803665</ele>
        <time>2015-03-24T22:57:18.250000Z</time>
      </trkpt>
      <trkpt lat="38.818745" lon="121.148094">
        <ele>49.491417</ele>
        <time>2015-03-24T22:57:21.628000Z</time>
      </trkpt>
      <trkpt lat="38.81876" lon="121.14794">
        <ele>50.20412</ele>
        <time>2015-03-24T22:57:25.006000Z</time>
      </trkpt>
      <trkpt lat="38.818752" lon="121.14783">
        <ele>51.194244</ele>
        <time>2015-03-24T22:57:28.384000Z</time>
      </trkpt>
      <trkpt lat="38.81872" lon="121.14767">
        <ele>52.40624</ele>
        <time>2015-03-24T22:57:31.762000Z</time>
      </trkpt>
      <trkpt lat="38.818657" lon="121.14753">
        <ele>53.567856</ele>
        <time>2015-03-24T22:57:35.140000Z</time>
      </trkpt>
      <trkpt lat="38.818584" lon="121.14745">
        <ele>54.49019</ele>
        <time>2015-03-24T22:57:38.518000Z</time>
      </trkpt>
      <trkpt lat="38.818478" lon="121.14738">
        <ele>55.26732</ele>
        <time>2015-03-24T22:57:41.896000Z</time>
      </trkpt>
      <trkpt lat="38.818344" lon="121.14739">
        <ele>56.100872</ele>
        <time>2015-03-24T22:57:45.274000Z</time>
      </trkpt>
      <trkpt lat="38.818253" lon="121.1474">
        <ele>56.78261</ele>
        <time>2015-03-24T22:57:48.652000Z</time>
      </trkpt>
      <trkpt lat="38.818142" lon="121.14742">
        <ele>57.05776</ele>
        <time>2015-03-24T22:57:52.030000Z</time>
      </trkpt>
      <trkpt lat="38.817993" lon="121.1474">
        <ele>57.070415</ele>
        <time>2015-03-24T22:57:55.408000Z</time>
      </trkpt>
      <trkpt lat="38.817863" lon="121.1474">
        <ele>57.00154</ele>
        <time>2015-03-24T22:57:58.786000Z</time>
      </trkpt>
      <trkpt lat="38.81776" lon="121.14741">
        <ele>57.084316</ele>
        <time>2015-03-24T22:58:02.164000Z</time>
      </trkpt>
      <trkpt lat="38.81764" lon="121.1474">
        <ele>57.422176</ele>
        <time>2015-03-24T22:58:05.542000Z</time>
      </trkpt>
      <trkpt lat="38.81751" lon="121.147415">
        <ele>57.790825</ele>
        <time>2015-03-24T22:58:08.920000Z</time>
      </trkpt>
      <trkpt lat="38.817387" lon="121.14746">
        <ele>57.69542</ele>
        <time>2015-03-24T22:58:12.298000Z</time>
      </trkpt>
      <trkpt lat="38.81727" lon="121.147575">
        <ele>57.006668</ele>
        <time>2015-03-24T22:58:15.676000Z</time>
      </trkpt>
      <trkpt lat="38.8172" lon="121.14768">
        <ele>56.51593</ele>
        <time>2015-03-24T22:58:19.054000Z</time>
      </trkpt>
      <trkpt lat="38.81718" lon="121.147804">
        <ele>56.85513</ele>
        <time>2015-03-24T22:58:22.432000Z</time>
      </trkpt>
      <trkpt lat="38.817173" lon="121.147964">
        <ele>57.66455</ele>
        <time>2015-03-24T22:58:25.810000Z</time>
      </trkpt>
      <trkpt lat="38.817223" lon="121.1481">
        <ele>58.43255</ele>
        <time>2015-03-24T22:58:29.188000Z</time>
      </trkpt>
      <trkpt lat="38.8173" lon="121.14821">
        <ele>58.917618</ele>
        <time>2015-03-24T22:58:32.566000Z</time>
      </trkpt>
      <trkpt lat="38.817375" lon="121.14828">
        <ele>58.92537</ele>
        <time>2015-03-24T22:58:35.944000Z</time>
      </trkpt>
      <trkpt lat="38.81747" lon="121.14835">
        <ele>57.984295</ele>
        <time>2015-03-24T22:58:39.322000Z</time>
      </trkpt>
      <trkpt lat="38.817596" lon="121.14838">
        <ele>55.97413</ele>
        <time>2015-03-24T22:58:42.700000Z</time>
      </trkpt>
      <trkpt lat="38.817715" lon="121.14837">
        <ele>53.92198</ele>
        <time>2015-03-24T22:58:46.078000Z</time>
      </trkpt>
      <trkpt lat="38.817852" lon="121.14831">
        <ele>52.8134</ele>
        <time>2015-03-24T22:58:49.456000Z</time>
      </trkpt>
      <trkpt lat="38.817986" lon="121.148285">
        <ele>52.702667</ele>
        <time>2015-03-24T22:58:52.834000Z</time>
      </trkpt>
      <trkpt lat="38.818108" lon="121.1483">
        <ele>53.191246</ele>
        <time>2015-03-24T22:58:56.212000Z</time>
      </trkpt>
      <trkpt lat="38.818203" lon="121.14833">
        <ele>53.728367</ele>
        <time>2015-03-24T22:58:59.590000Z</time>
      </trkpt>
      <trkpt lat="38.81832" lon="121.14833">
        <ele>53.99306</ele>
        <time>2015-03-24T22:59:02.968000Z</time>
      </trkpt>
      <trkpt lat="38.81846" lon="121.1483">
        <ele>53.900883</ele>
        <time>2015-03-24T22:59:06.346000Z</time>
      </trkpt>
      <trkpt lat="38.81858" lon="121.14823">
        <ele>53.500164</ele>
        <time>2015-03-24T22:59:09.724000Z</time>
      </trkpt>
      <trkpt lat="38.818684" lon="121.14813">
        <ele>53.086926</ele>
        <time>2015-03-24T22:59:13.102000Z</time>
      </trkpt>
      <trkpt lat="38.818756" lon="121.14801">
        <ele>53.02853</ele>
        <time>2015-03-24T22:59:16.480000Z</time>
      </trkpt>
      <trkpt lat="38.818745" lon="121.14781">
        <ele>53.358353</ele>
        <time>2015-03-24T22:59:19.858000Z</time>
      </trkpt>
      <trkpt lat="38.818714" lon="121.14766">
        <ele>53.76118</ele>
        <time>2015-03-24T22:59:23.236000Z</time>
      </trkpt>
      <trkpt lat="38.818638" lon="121.14753">
        <ele>53.97012</ele>
        <time>2015-03-24T22:59:26.614000Z</time>
      </trkpt>
      <trkpt lat="38.818546" lon="121.147446">
        <ele>54.012463</ele>
        <time>2015-03-24T22:59:29.992000Z</time>
      </trkpt>
      <trkpt lat="38.818443" lon="121.14738">
        <ele>54.122948</ele>
        <time>2015-03-24T22:59:33.370000Z</time>
      </trkpt>
      <trkpt lat="38.818356" lon="121.14733">
        <ele>54.44995</ele>
        <time>2015-03-24T22:59:36.748000Z</time>
      </trkpt>
      <trkpt lat="38.818253" lon="121.147354">
        <time>2015-03-24T22:59:40.126000Z</time>
      </trkpt>
    </trkseg>
  </trk>
</gpx>