<?xml version="1.0" encoding="UTF-8"?>
<gpx xmlns="http://www.topografix.com/GPX/1/1" xmlns:gpxtpx="http://www.garmin.com/xmlschemas/TrackPointExtension/v1" xmlns:xsi="http://www.w3.org/2001/XMLSchema-instance" xsi:schemaLocation="http://www.topografix.com/GPX/1/1 http://www.topografix.com/GPX/1/1/gpx.xsd" version="1.1" creator="gpx.py -- https://github.com/tkrajina/gpxpy">
  <trk>
    <trkseg>
      <trkpt lat="38.818573" lon="121.147255">
        <ele>33.97915</ele>
        <time>2015-03-31T09:52:31.447000Z</time>
      </trkpt>
      <trkpt lat="38.81848" lon="121.14724">
        <ele>33.96347</ele>
        <time>2015-03-31T09:52:34.744000Z</time>
      </trkpt>
      <trkpt lat="38.818375" lon="121.14725">
        <ele>33.957623</ele>
        <time>2015-03-31T09:52:38.041000Z</time>
      </trkpt>
      <trkpt lat="38.818268" lon="121.14724">
        <ele>33.95769</ele>
        <time>2015-03-31T09:52:41.338000Z</time>
      </trkpt>
      <trkpt lat="38.81817" lon="121.14722">
        <ele>33.959408</ele>
        <time>2015-03-31T09:52:44.635000Z</time>
      </trkpt>
      <trkpt lat="38.818066" lon="121.14723">
        <ele>33.822506</ele>
        <time>2015-03-31T09:52:47.932000Z</time>
      </trkpt>
      <trkpt lat="38.817944" lon="121.147224">
        <ele>33.463078</ele>
        <time>2015-03-31T09:52:51.229000Z</time>
      </trkpt>
      <trkpt lat="38.81785" lon="121.147224">
        <ele>33.23181</ele>
        <time>2015-03-31T09:52:54.526000Z</time>
      </trkpt>
      <trkpt lat="38.81774" lon="121.14721">
        <ele>33.692657</ele>
        <time>2015-03-31T09:52:57.823000Z</time>
      </trkpt>
      <trkpt lat="38.81764" lon="121.147194">
        <ele>34.89342</ele>
        <time>2015-03-31T09:53:01.120000Z</time>
      </trkpt>
      <trkpt lat="38.81754" lon="121.1472">
        <ele>36.19739</ele>
        <time>2015-03-31T09:53:04.417000Z</time>
      </trkpt>
      <trkpt lat="38.817448" lon="121.14721">
        <ele>36.83581</ele>
        <time>2015-03-31T09:53:07.714000Z</time>
      </trkpt>
      <trkpt lat="38.817356" lon="121.14721">
        <ele>36.688362</ele>
        <time>2015-03-31T09:53:11.011000Z</time>
      </trkpt>
      <trkpt lat="38.817245" lon="121.14723">
        <ele>36.25741</ele>
        <time>2015-03-31T09:53:14.308000Z</time>
      </trkpt>
      <trkpt lat="38.817146" lon="121.1473">
        <ele>36.113533</ele>
        <time>2015-03-31T09:53:17.605000Z</time>
      </trkpt>
      <trkpt lat="38.817074" lon="121.147415">
        <ele>36.522297</ele>
        <time>2015-03-31T09:53:20.902000Z</time>
      </trkpt>
      <trkpt lat="38.817047" lon="121.147545">
        <ele>37.264835</ele>
        <time>2015-03-31T09:53:24.199000Z</time>
      </trkpt>
      <trkpt lat="38.817055" lon="121.14767">
        <ele>37.983086</ele>
        <time>2015-03-31T09:53:27.496000Z</time>
      </trkpt>
      <trkpt lat="38.817078" lon="121.147804">
        <ele>38.429432</ele>
        <time>2015-03-31T09:53:30.793000Z</time>
      </trkpt>
      <trkpt lat="38.817112" lon="121.14792">
        <ele>38.44261</ele>
        <time>2015-03-31T09:53:34.090000Z</time>
      </trkpt>
      <trkpt lat="38.81714" lon="121.14806">
        <ele>38.187172</ele>
        <time>2015-03-31T09:53:37.387000Z</time>
      </trkpt>
      <trkpt lat="38.8172" lon="121.14817">
        <ele>38.129513</ele>
        <time>2015-03-31T09:53:40.684000Z</time>
      </trkpt>
      <trkpt lat="38.817287" lon="121.14825">
        <ele>38.691277</ele>
        <time>2015-03-31T09:53:43.981000Z</time>
      </trkpt>
      <trkpt lat="38.81739" lon="121.14826">
        <ele>40.05664</ele>
        <time>2015-03-31T09:53:47.278000Z</time>
      </trkpt>
      <trkpt lat="38.8175" lon="121.14829">
        <ele>41.71162</ele>
        <time>2015-03-31T09:53:50.575000Z</time>
      </trkpt>
      <trkpt lat="38.817604" lon="121.14831">
        <ele>42.84344</ele>
        <time>2015-03-31T09:53:53.872000Z</time>
      </trkpt>
      <trkpt lat="38.817707" lon="121.14831">
        <ele>43.222992</ele>
        <time>2015-03-31T09:53:57.169000Z</time>
      </trkpt>
      <trkpt lat="38.817806" lon="121.148315">
        <ele>43.18592</ele>
        <time>2015-03-31T09:54:00.466000Z</time>
      </trkpt>
      <trkpt lat="38.81792" lon="121.14835">
        <ele>43.0499</ele>
        <time>2015-03-31T09:54:03.763000Z</time>
      </trkpt>
      <trkpt lat="38.818012" lon="121.14838">
        <ele>42.958183</ele>
        <time>2015-03-31T09:54:07.060000Z</time>
      </trkpt>
      <trkpt lat="38.818123" lon="121.148384">
        <ele>42.927967</ele>
        <time>2015-03-31T09:54:10.357000Z</time>
      </trkpt>
      <trkpt lat="38.818226" lon="121.14839">
        <ele>42.93138</ele>
        <time>2015-03-31T09:54:13.654000Z</time>
      </trkpt>
      <trkpt lat="38.818333" lon="121.14841">
        <ele>43.08073</ele>
        <time>2015-03-31T09:54:16.951000Z</time>
      </trkpt>
      <trkpt lat="38.818428" lon="121.148415">
        <ele>43.448055</ele>
        <time>2015-03-31T09:54:20.248000Z</time>
      </trkpt>
      <trkpt lat="38.818523" lon="121.148415">
        <ele>43.681717</ele>
        <time>2015-03-31T09:54:23.545000Z</time>
      </trkpt>
      <trkpt lat="38.818626" lon="121.1484">
        <ele>43.496777</ele>
        <time>2015-03-31T09:54:26.842000Z</time>
      </trkpt>
      <trkpt lat="38.81872" lon="121.14834">
        <ele>43.29113</ele>
        <time>2015-03-31T09:54:30.139000Z</time>
      </trkpt>
      <trkpt lat="38.818794" lon="121.14822">
        <ele>43.445175</ele>
        <time>2015-03-31T09:54:33.436000Z</time>
      </trkpt>
      <trkpt lat="38.818817" lon="121.1481">
        <ele>43.619602</ele>
        <time>2015-03-31T09:54:36.733000Z</time>
      </trkpt>
      <trkpt lat="38.8188" lon="121.147964">
        <ele>43.45089</ele>
        <time>2015-03-31T09:54:40.030000Z</time>
      </trkpt>
      <trkpt lat="38.81877" lon="121.14783">
        <ele>43.412502</ele>
        <time>2015-03-31T09:54:43.327000Z</time>
      </trkpt>
      <trkpt lat="38.81876" lon="121.14767">
        <ele>43.94368</ele>
        <time>2015-03-31T09:54:46.624000Z</time>
      </trkpt>
      <trkpt lat="38.81876" lon="121.147545">
        <ele>44.6304</ele>
        <time>2015-03-31T09:54:49.921000Z</time>
      </trkpt>
      <trkpt lat="38.81876" lon="121.14742">
        <ele>44.85727</ele>
        <time>2015-03-31T09:54:53.218000Z</time>
      </trkpt>
      <trkpt lat="38.818733" lon="121.147285">
        <ele>44.714397</ele>
        <time>2015-03-31T09:54:56.515000Z</time>
      </trkpt>
      <trkpt lat="38.81865" lon="121.14721">
        <ele>44.66013</ele>
        <time>2015-03-31T09:54:59.812000Z</time>
      </trkpt>
      <trkpt lat="38.81853" lon="121.14722">
        <ele>44.798206</ele>
        <time>2015-03-31T09:55:03.109000Z</time>
      </trkpt>
      <trkpt lat="38.81843" lon="121.147224">
        <ele>44.641144</ele>
        <time>2015-03-31T09:55:06.406000Z</time>
      </trkpt>
      <trkpt lat="38.818336" lon="121.147224">
        <ele>43.833546</ele>
        <time>2015-03-31T09:55:09.703000Z</time>
      </trkpt>
      <trkpt lat="38.818226" lon="121.14724">
        <ele>42.600487</ele>
        <time>2015-03-31T09:55:13Z</time>
      </trkpt>
      <trkpt lat="38.81811" lon="121.14725">
        <ele>41.23285</ele>
        <time>2015-03-31T09:55:16.297000Z</time>
      </trkpt>
      <trkpt lat="38.818016" lon="121.14725">
        <ele>39.90561</ele>
        <time>2015-03-31T09:55:19.594000Z</time>
      </trkpt>
      <trkpt lat="38.817924" lon="121.14725">
        <ele>39.02088</ele>
        <time>2015-03-31T09:55:22.891000Z</time>
      </trkpt>
      <trkpt lat="38.81783" lon="121.14723">
        <ele>38.4574</ele>
        <time>2015-03-31T09:55:26.188000Z</time>
      </trkpt>
      <trkpt lat="38.817734" lon="121.147224">
        <ele>37.77379</ele>
        <time>2015-03-31T09:55:29.485000Z</time>
      </trkpt>
      <trkpt lat="38.81763" lon="121.14725">
        <ele>37.143925</ele>
        <time>2015-03-31T09:55:32.782000Z</time>
      </trkpt>
      <trkpt lat="38.817524" lon="121.14727">
        <ele>37.003246</ele>
        <time>2015-03-31T09:55:36.079000Z</time>
      </trkpt>
      <trkpt lat="38.81743" lon="121.147255">
        <ele>37.33291</ele>
        <time>2015-03-31T09:55:39.376000Z</time>
      </trkpt>
      <trkpt lat="38.81732" lon="121.14723">
        <ele>37.759064</ele>
        <time>2015-03-31T09:55:42.673000Z</time>
      </trkpt>
      <trkpt lat="38.81721" lon="121.14729">
        <ele>37.98559</ele>
        <time>2015-03-31T09:55:45.970000Z</time>
      </trkpt>
      <trkpt lat="38.817112" lon="121.14736">
        <ele>37.89633</ele>
        <time>2015-03-31T09:55:49.267000Z</time>
      </trkpt>
      <trkpt lat="38.817097" lon="121.147484">
        <ele>37.508682</ele>
        <time>2015-03-31T09:55:52.564000Z</time>
      </trkpt>
      <trkpt lat="38.817112" lon="121.1476">
        <ele>37.10444</ele>
        <time>2015-03-31T09:55:55.861000Z</time>
      </trkpt>
      <trkpt lat="38.817116" lon="121.14772">
        <ele>36.910908</ele>
        <time>2015-03-31T09:55:59.158000Z</time>
      </trkpt>
      <trkpt lat="38.81712" lon="121.147835">
        <ele>36.880558</ele>
        <time>2015-03-31T09:56:02.455000Z</time>
      </trkpt>
      <trkpt lat="38.817123" lon="121.14796">
        <ele>36.91288</ele>
        <time>2015-03-31T09:56:05.752000Z</time>
      </trkpt>
      <trkpt lat="38.817146" lon="121.14809">
        <ele>36.94583</ele>
        <time>2015-03-31T09:56:09.049000Z</time>
      </trkpt>
      <trkpt lat="38.817207" lon="121.14822">
        <ele>36.82322</ele>
        <time>2015-03-31T09:56:12.346000Z</time>
      </trkpt>
      <trkpt lat="38.81729" lon="121.148315">
        <ele>36.46565</ele>
        <time>2015-03-31T09:56:15.643000Z</time>
      </trkpt>
      <trkpt lat="38.81739" lon="121.14834">
        <ele>36.508053</ele>
        <time>2015-03-31T09:56:18.940000Z</time>
      </trkpt>
      <trkpt lat="38.817482" lon="121.148346">
        <ele>37.409786</ele>
        <time>2015-03-31T09:56:22.237000Z</time>
      </trkpt>
      <trkpt lat="38.817577" lon="121.148346">
        <ele>38.628487</ele>
        <time>2015-03-31T09:56:25.534000Z</time>
      </trkpt>
      <trkpt lat="38.81767" lon="121.14834">
        <ele>39.543972</ele>
        <time>2015-03-31T09:56:28.831000Z</time>
      </trkpt>
      <trkpt lat="38.817787" lon="121.148346">
        <ele>40.023327</ele>
        <time>2015-03-31T09:56:32.128000Z</time>
      </trkpt>
      <trkpt lat="38.81789" lon="121.148346">
        <ele>40.261124</ele>
        <time>2015-03-31T09:56:35.425000Z</time>
      </trkpt>
      <trkpt lat="38.817993" lon="121.14836">
        <ele>40.69752</ele>
        <time>2015-03-31T09:56:38.722000Z</time>
      </trkpt>
      <trkpt lat="38.81811" lon="121.14838">
        <ele>41.352093</ele>
        <time>2015-03-31T09:56:42.019000Z</time>
      </trkpt>
      <trkpt lat="38.818207" lon="121.1484">
        <ele>41.858143</ele>
        <time>2015-03-31T09:56:45.316000Z</time>
      </trkpt>
      <trkpt lat="38.818306" lon="121.1484">
        <ele>42.052177</ele>
        <time>2015-03-31T09:56:48.613000Z</time>
      </trkpt>
      <trkpt lat="38.818417" lon="121.148384">
        <ele>41.915718</ele>
        <time>2015-03-31T09:56:51.910000Z</time>
      </trkpt>
      <trkpt lat="38.818516" lon="121.148384">
        <ele>41.501835</ele>
        <time>2015-03-31T09:56:55.207000Z</time>
      </trkpt>
      <trkpt lat="38.81862" lon="121.14837">
        <ele>41.229492</ele>
        <time>2015-03-31T09:56:58.504000Z</time>
      </trkpt>
      <trkpt lat="38.81871" lon="121.14829">
        <ele>41.398605</ele>
        <time>2015-03-31T09:57:01.801000Z</time>
      </trkpt>
      <trkpt lat="38.818768" lon="121.14817">
        <ele>41.74155</ele>
        <time>2015-03-31T09:57:05.098000Z</time>
      </trkpt>
      <trkpt lat="38.818794" lon="121.14804">
        <ele>42.089428</ele>
        <time>2015-03-31T09:57:08.395000Z</time>
      </trkpt>
      <trkpt lat="38.818787" lon="121.14793">
        <ele>42.78565</ele>
        <time>2015-03-31T09:57:11.692000Z</time>
      </trkpt>
      <trkpt lat="38.81878" lon="121.147804">
        <ele>44.136574</ele>
        <time>2015-03-31T09:57:14.989000Z</time>
      </trkpt>
      <trkpt lat="38.818775" lon="121.147675">
        <ele>45.880566</ele>
        <time>2015-03-31T09:57:18.286000Z</time>
      </trkpt>
      <trkpt lat="38.818768" lon="121.147545">
        <ele>47.33942</ele>
        <time>2015-03-31T09:57:21.583000Z</time>
      </trkpt>
      <trkpt lat="38.818756" lon="121.14741">
        <ele>48.215885</ele>
        <time>2015-03-31T09:57:24.880000Z</time>
      </trkpt>
      <trkpt lat="38.818703" lon="121.147285">
        <ele>48.715282</ele>
        <time>2015-03-31T09:57:28.177000Z</time>
      </trkpt>
      <trkpt lat="38.818596" lon="121.14724">
        <ele>48.841087</ele>
        <time>2015-03-31T09:57:31.474000Z</time>
      </trkpt>
      <trkpt lat="38.818474" lon="121.14723">
        <ele>47.9847</ele>
        <time>2015-03-31T09:57:34.771000Z</time>
      </trkpt>
      <trkpt lat="38.818375" lon="121.14723">
        <ele>46.004578</ele>
        <time>2015-03-31T09:57:38.068000Z</time>
      </trkpt>
      <trkpt lat="38.818283" lon="121.14724">
        <ele>43.812717</ele>
        <time>2015-03-31T09:57:41.365000Z</time>
      </trkpt>
      <trkpt lat="38.81818" lon="121.14724">
        <ele>42.33453</ele>
        <time>2015-03-31T09:57:44.662000Z</time>
      </trkpt>
      <trkpt lat="38.818077" lon="121.14723">
        <ele>41.709316</ele>
        <time>2015-03-31T09:57:47.959000Z</time>
      </trkpt>
      <trkpt lat="38.81798" lon="121.147224">
        <ele>41.660343</ele>
        <time>2015-03-31T09:57:51.256000Z</time>
      </trkpt>
      <trkpt lat="38.817867" lon="121.1472">
        <ele>41.801655</ele>
        <time>2015-03-31T09:57:54.553000Z</time>
      </trkpt>
      <trkpt lat="38.81775" lon="121.1472">
        <ele>41.645515</ele>
        <time>2015-03-31T09:57:57.850000Z</time>
      </trkpt>
      <trkpt lat="38.817654" lon="121.147224">
        <ele>40.97587</ele>
        <time>2015-03-31T09:58:01.147000Z</time>
      </trkpt>
      <trkpt lat="38.817566" lon="121.14724">
        <ele>40.240444</ele>
        <time>2015-03-31T09:58:04.444000Z</time>
      </trkpt>
      <trkpt lat="38.817448" lon="121.14724">
        <ele>39.87823</ele>
        <time>2015-03-31T09:58:07.741000Z</time>
      </trkpt>
      <trkpt lat="38.817345" lon="121.14723">
        <ele>39.815395</ele>
        <time>2015-03-31T09:58:11.038000Z</time>
      </trkpt>
      <trkpt lat="38.817245" lon="121.14724">
        <ele>39.87135</ele>
        <time>2015-03-31T09:58:14.335000Z</time>
      </trkpt>
      <trkpt lat="38.817158" lon="121.14729">
        <ele>39.654972</ele>
        <time>2015-03-31T09:58:17.632000Z</time>
      </trkpt>
      <trkpt lat="38.817093" lon="121.147385">
        <ele>38.964348</ele>
        <time>2015-03-31T09:58:20.929000Z</time>
      </trkpt>
      <trkpt lat="38.817074" lon="121.14751">
        <ele>38.230316</ele>
        <time>2015-03-31T09:58:24.226000Z</time>
      </trkpt>
      <trkpt lat="38.8171" lon="121.14764">
        <ele>37.875122</ele>
        <time>2015-03-31T09:58:27.523000Z</time>
      </trkpt>
      <trkpt lat="38.817127" lon="121.147766">
        <ele>37.81717</ele>
        <time>2015-03-31T09:58:30.820000Z</time>
      </trkpt>
      <trkpt lat="38.81714" lon="121.14788">
        <ele>37.874798</ele>
        <time>2015-03-31T09:58:34.117000Z</time>
      </trkpt>
      <trkpt lat="38.81716" lon="121.147995">
        <ele>37.93464</ele>
        <time>2015-03-31T09:58:37.414000Z</time>
      </trkpt>
      <trkpt lat="38.817215" lon="121.14812">
        <ele>37.963223</ele>
        <time>2015-03-31T09:58:40.711000Z</time>
      </trkpt>
      <trkpt lat="38.817272" lon="121.148224">
        <ele>37.967663</ele>
        <time>2015-03-31T09:58:44.008000Z</time>
      </trkpt>
      <trkpt lat="38.817356" lon="121.14829">
        <ele>37.96286</ele>
        <time>2015-03-31T09:58:47.305000Z</time>
      </trkpt>
      <trkpt lat="38.817455" lon="121.14831">
        <ele>37.95798</ele>
        <time>2015-03-31T09:58:50.602000Z</time>
      </trkpt>
      <trkpt lat="38.817547" lon="121.14834">
        <ele>37.955685</ele>
        <time>2015-03-31T09:58:53.899000Z</time>
      </trkpt>
      <trkpt lat="38.81765" lon="121.14836">
        <ele>38.09352</ele>
        <time>2015-03-31T09:58:57.196000Z</time>
      </trkpt>
      <trkpt lat="38.817745" lon="121.14837">
        <ele>38.453815</ele>
        <time>2015-03-31T09:59:00.493000Z</time>
      </trkpt>
      <trkpt lat="38.81784" lon="121.148384">
        <ele>38.823647</ele>
        <time>2015-03-31T09:59:03.790000Z</time>
      </trkpt>
      <trkpt lat="38.817932" lon="121.1484">
        <ele>38.999092</ele>
        <time>2015-03-31T09:59:07.087000Z</time>
      </trkpt>
      <trkpt lat="38.818027" lon="121.14839">
        <ele>39.02565</ele>
        <time>2015-03-31T09:59:10.384000Z</time>
      </trkpt>
      <trkpt lat="38.81812" lon="121.14839">
        <ele>39.13381</ele>
        <time>2015-03-31T09:59:13.681000Z</time>
      </trkpt>
      <trkpt lat="38.81822" lon="121.14839">
        <ele>39.46356</ele>
        <time>2015-03-31T09:59:16.978000Z</time>
      </trkpt>
      <trkpt lat="38.818317" lon="121.1484">
        <ele>39.95706</ele>
        <time>2015-03-31T09:59:20.275000Z</time>
      </trkpt>
      <trkpt lat="38.818424" lon="121.1484">
        <ele>40.76655</ele>
        <time>2015-03-31T09:59:23.572000Z</time>
      </trkpt>
      <trkpt lat="38.818523" lon="121.148384">
        <ele>41.884796</ele>
        <time>2015-03-31T09:59:26.869000Z</time>
      </trkpt>
      <trkpt lat="38.81862" lon="121.14836">
        <ele>42.771397</ele>
        <time>2015-03-31T09:59:30.166000Z</time>
      </trkpt>
      <trkpt lat="38.818703" lon="121.14831">
        <ele>43.119476</ele>
        <time>2015-03-31T09:59:33.463000Z</time>
      </trkpt>
      <trkpt lat="38.81877" lon="121.14823">
        <ele>42.99043</ele>
        <time>2015-03-31T09:59:36.760000Z</time>
      </trkpt>
      <trkpt lat="38.8188" lon="121.14812">
        <ele>42.40005</ele>
        <time>2015-03-31T09:59:40.057000Z</time>
      </trkpt>
      <trkpt lat="38.818794" lon="121.14797">
        <ele>41.46053</ele>
        <time>2015-03-31T09:59:43.354000Z</time>
      </trkpt>
      <trkpt lat="38.81877" lon="121.147835">
        <ele>40.528088</ele>
        <time>2015-03-31T09:59:46.651000Z</time>
      </trkpt>
      <trkpt lat="38.81877" lon="121.14771">
        <ele>39.81826</ele>
        <time>2015-03-31T09:59:49.948000Z</time>
      </trkpt>
      <trkpt lat="38.818764" lon="121.14756">
        <ele>39.294178</ele>
        <time>2015-03-31T09:59:53.245000Z</time>
      </trkpt>
      <trkpt lat="38.818737" lon="121.147446">
        <ele>39.37869</ele>
        <time>2015-03-31T09:59:56.542000Z</time>
      </trkpt>
      <trkpt lat="38.818684" lon="121.14732">
        <ele>40.4977</ele>
        <time>2015-03-31T09:59:59.839000Z</time>
      </trkpt>
      <trkpt lat="38.818604" lon="121.14726">
        <ele>41.9856</ele>
        <time>2015-03-31T10:00:03.136000Z</time>
      </trkpt>
      <trkpt lat="38.81851" lon="121.14724">
        <ele>42.923798</ele>
        <time>2015-03-31T10:00:06.433000Z</time>
      </trkpt>
      <trkpt lat="38.81841" lon="121.147224">
        <ele>43.205357</ele>
        <time>2015-03-31T10:00:09.730000Z</time>
      </trkpt>
      <trkpt lat="38.81831" lon="121.147224">
        <ele>42.73523</ele>
        <time>2015-03-31T10:00:13.027000Z</time>
      </trkpt>
      <trkpt lat="38.818207" lon="121.14724">
        <ele>41.25717</ele>
        <time>2015-03-31T10:00:16.324000Z</time>
      </trkpt>
      <trkpt lat="38.818108" lon="121.14724">
        <ele>39.35316</ele>
        <time>2015-03-31T10:00:19.621000Z</time>
      </trkpt>
      <trkpt lat="38.817997" lon="121.14725">
        <ele>37.92801</ele>
        <time>2015-03-31T10:00:22.918000Z</time>
      </trkpt>
      <trkpt lat="38.81788" lon="121.14726">
        <ele>37.142853</ele>
        <time>2015-03-31T10:00:26.215000Z</time>
      </trkpt>
      <trkpt lat="38.81778" lon="121.147255">
        <ele>36.82032</ele>
        <time>2015-03-31T10:00:29.512000Z</time>
      </trkpt>
      <trkpt lat="38.81768" lon="121.14725">
        <ele>36.93967</ele>
        <time>2015-03-31T10:00:32.809000Z</time>
      </trkpt>
      <trkpt lat="38.817574" lon="121.14725">
        <ele>37.515484</ele>
        <time>2015-03-31T10:00:36.106000Z</time>
      </trkpt>
      <trkpt lat="38.81748" lon="121.147255">
        <ele>38.44681</ele>
        <time>2015-03-31T10:00:39.403000Z</time>
      </trkpt>
      <trkpt lat="38.81739" lon="121.14726">
        <ele>39.377243</ele>
        <time>2015-03-31T10:00:42.700000Z</time>
      </trkpt>
      <trkpt lat="38.817272" lon="121.14726">
        <ele>39.949715</ele>
        <time>2015-03-31T10:00:45.997000Z</time>
      </trkpt>
      <trkpt lat="38.817177" lon="121.1473">
        <ele>40.115097</ele>
        <time>2015-03-31T10:00:49.294000Z</time>
      </trkpt>
      <trkpt lat="38.81711" lon="121.14742">
        <ele>40.076347</ele>
        <time>2015-03-31T10:00:52.591000Z</time>
      </trkpt>
      <trkpt lat="38.817097" lon="121.147545">
        <ele>40.138264</ele>
        <time>2015-03-31T10:00:55.888000Z</time>
      </trkpt>
      <trkpt lat="38.8171" lon="121.14767">
        <ele>40.451855</ele>
        <time>2015-03-31T10:00:59.185000Z</time>
      </trkpt>
      <trkpt lat="38.817112" lon="121.14778">
        <ele>40.67002</ele>
        <time>2015-03-31T10:01:02.482000Z</time>
      </trkpt>
      <trkpt lat="38.817146" lon="121.14791">
        <ele>40.48874</ele>
        <time>2015-03-31T10:01:05.779000Z</time>
      </trkpt>
      <trkpt lat="38.81719" lon="121.14804">
        <ele>40.15208</ele>
        <time>2015-03-31T10:01:09.076000Z</time>
      </trkpt>
      <trkpt lat="38.817245" lon="121.14815">
        <ele>40.226933</ele>
        <time>2015-03-31T10:01:12.373000Z</time>
      </trkpt>
      <trkpt lat="38.817314" lon="121.14823">
        <ele>41.167473</ele>
        <time>2015-03-31T10:01:15.670000Z</time>
      </trkpt>
      <trkpt lat="38.817417" lon="121.14829">
        <ele>42.918083</ele>
        <time>2015-03-31T10:01:18.967000Z</time>
      </trkpt>
      <trkpt lat="38.81751" lon="121.1483">
        <ele>44.754833</ele>
        <time>2015-03-31T10:01:22.264000Z</time>
      </trkpt>
      <trkpt lat="38.81763" lon="121.1483">
        <ele>45.913578</ele>
        <time>2015-03-31T10:01:25.561000Z</time>
      </trkpt>
      <trkpt lat="38.817726" lon="121.1483">
        <ele>46.1234</ele>
        <time>2015-03-31T10:01:28.858000Z</time>
      </trkpt>
      <trkpt lat="38.817825" lon="121.14831">
        <ele>45.695045</ele>
        <time>2015-03-31T10:01:32.155000Z</time>
      </trkpt>
      <trkpt lat="38.81792" lon="121.148315">
        <ele>45.174973</ele>
        <time>2015-03-31T10:01:35.452000Z</time>
      </trkpt>
      <trkpt lat="38.81804" lon="121.14833">
        <ele>44.905945</ele>
        <time>2015-03-31T10:01:38.749000Z</time>
      </trkpt>
      <trkpt lat="38.818153" lon="121.14834">
        <ele>44.85182</ele>
        <time>2015-03-31T10:01:42.046000Z</time>
      </trkpt>
      <trkpt lat="38.818245" lon="121.14835">
        <ele>44.749603</ele>
        <time>2015-03-31T10:01:45.343000Z</time>
      </trkpt>
      <trkpt lat="38.818363" lon="121.14835">
        <ele>44.432167</ele>
        <time>2015-03-31T10:01:48.640000Z</time>
      </trkpt>
      <trkpt lat="38.818455" lon="121.14836">
        <ele>44.084415</ele>
        <time>2015-03-31T10:01:51.937000Z</time>
      </trkpt>
      <trkpt lat="38.818554" lon="121.14837">
        <ele>44.051537</ele>
        <time>2015-03-31T10:01:55.234000Z</time>
      </trkpt>
      <trkpt lat="38.818653" lon="121.14836">
        <ele>44.24371</ele>
        <time>2015-03-31T10:01:58.531000Z</time>
      </trkpt>
      <trkpt lat="38.81873" lon="121.148285">
        <ele>44.27977</ele>
        <time>2015-03-31T10:02:01.828000Z</time>
      </trkpt>
      <trkpt lat="38.818783" lon="121.148186">
        <ele>43.699425</ele>
        <time>2015-03-31T10:02:05.125000Z</time>
      </trkpt>
      <trkpt lat="38.818806" lon="121.14807">
        <ele>42.484787</ele>
        <time>2015-03-31T10:02:08.422000Z</time>
      </trkpt>
      <trkpt lat="38.818783" lon="121.147934">
        <ele>41.87495</ele>
        <time>2015-03-31T10:02:11.719000Z</time>
      </trkpt>
      <trkpt lat="38.81876" lon="121.14779">
        <ele>42.92458</ele>
        <time>2015-03-31T10:02:15.016000Z</time>
      </trkpt>
      <trkpt lat="38.818745" lon="121.147644">
        <ele>44.8345</ele>
        <time>2015-03-31T10:02:18.313000Z</time>
      </trkpt>
      <trkpt lat="38.81874" lon="121.14751">
        <ele>46.365795</ele>
        <time>2015-03-31T10:02:21.610000Z</time>
      </trkpt>
      <trkpt lat="38.818718" lon="121.14739">
        <ele>47.11128</ele>
        <time>2015-03-31T10:02:24.907000Z</time>
      </trkpt>
      <trkpt lat="38.81864" lon="121.1473">
        <ele>47.235554</ele>
        <time>2015-03-31T10:02:28.204000Z</time>
      </trkpt>
      <trkpt lat="38.818542" lon="121.14725">
        <ele>46.978424</ele>
        <time>2015-03-31T10:02:31.501000Z</time>
      </trkpt>
      <trkpt lat="38.81843" lon="121.14723">
        <ele>46.07914</ele>
        <time>2015-03-31T10:02:34.798000Z</time>
      </trkpt>
      <trkpt lat="38.818333" lon="121.14723">
        <ele>44.431854</ele>
        <time>2015-03-31T10:02:38.095000Z</time>
      </trkpt>
      <trkpt lat="38.81823" lon="121.14724">
        <ele>42.64068</ele>
        <time>2015-03-31T10:02:41.392000Z</time>
      </trkpt>
      <trkpt lat="38.818123" lon="121.147255">
        <ele>41.0926</ele>
        <time>2015-03-31T10:02:44.689000Z</time>
      </trkpt>
      <trkpt lat="38.818005" lon="121.147255">
        <ele>39.788692</ele>
        <time>2015-03-31T10:02:47.986000Z</time>
      </trkpt>
      <trkpt lat="38.817886" lon="121.14725">
        <ele>39.111103</ele>
        <time>2015-03-31T10:02:51.283000Z</time>
      </trkpt>
      <trkpt lat="38.817772" lon="121.14724">
        <ele>39.229076</ele>
        <time>2015-03-31T10:02:54.580000Z</time>
      </trkpt>
      <trkpt lat="38.81765" lon="121.14723">
        <ele>39.64903</ele>
        <time>2015-03-31T10:02:57.877000Z</time>
      </trkpt>
      <trkpt lat="38.817535" lon="121.14721">
        <ele>40.20756</ele>
        <time>2015-03-31T10:03:01.174000Z</time>
      </trkpt>
      <trkpt lat="38.817432" lon="121.1472">
        <ele>41.15806</ele>
        <time>2015-03-31T10:03:04.471000Z</time>
      </trkpt>
      <trkpt lat="38.817337" lon="121.147224">
        <ele>42.246002</ele>
        <time>2015-03-31T10:03:07.768000Z</time>
      </trkpt>
      <trkpt lat="38.817234" lon="121.14725">
        <ele>42.655106</ele>
        <time>2015-03-31T10:03:11.065000Z</time>
      </trkpt>
      <trkpt lat="38.817146" lon="121.14734">
        <ele>42.002605</ele>
        <time>2015-03-31T10:03:14.362000Z</time>
      </trkpt>
      <trkpt lat="38.817112" lon="121.14749">
        <ele>40.86304</ele>
        <time>2015-03-31T10:03:17.659000Z</time>
      </trkpt>
      <trkpt lat="38.81711" lon="121.14761">
        <ele>40.468395</ele>
        <time>2015-03-31T10:03:20.956000Z</time>
      </trkpt>
      <trkpt lat="38.817112" lon="121.14774">
        <ele>41.264282</ele>
        <time>2015-03-31T10:03:24.253000Z</time>
      </trkpt>
      <trkpt lat="38.817112" lon="121.14787">
        <ele>42.38974</ele>
        <time>2015-03-31T10:03:27.550000Z</time>
      </trkpt>
      <trkpt lat="38.817116" lon="121.14801">
        <ele>43.14746</ele>
        <time>2015-03-31T10:03:30.847000Z</time>
      </trkpt>
      <trkpt lat="38.81717" lon="121.14815">
        <ele>43.790737</ele>
        <time>2015-03-31T10:03:34.144000Z</time>
      </trkpt>
      <trkpt lat="38.817226" lon="121.14824">
        <ele>44.452732</ele>
        <time>2015-03-31T10:03:37.441000Z</time>
      </trkpt>
      <trkpt lat="38.817307" lon="121.14833">
        <ele>44.767246</ele>
        <time>2015-03-31T10:03:40.738000Z</time>
      </trkpt>
      <trkpt lat="38.81742" lon="121.148346">
        <ele>44.559147</ele>
        <time>2015-03-31T10:03:44.035000Z</time>
      </trkpt>
      <trkpt lat="38.817524" lon="121.14833">
        <ele>44.17487</ele>
        <time>2015-03-31T10:03:47.332000Z</time>
      </trkpt>
      <trkpt lat="38.817627" lon="121.14832">
        <ele>44.083378</ele>
        <time>2015-03-31T10:03:50.629000Z</time>
      </trkpt>
      <trkpt lat="38.817726" lon="121.14832">
        <ele>44.380054</ele>
        <time>2015-03-31T10:03:53.926000Z</time>
      </trkpt>
      <trkpt lat="38.81783" lon="121.14835">
        <ele>44.767395</ele>
        <time>2015-03-31T10:03:57.223000Z</time>
      </trkpt>
      <trkpt lat="38.817936" lon="121.14836">
        <ele>44.97413</ele>
        <time>2015-03-31T10:04:00.520000Z</time>
      </trkpt>
      <trkpt lat="38.81804" lon="121.148346">
        <ele>45.019226</ele>
        <time>2015-03-31T10:04:03.817000Z</time>
      </trkpt>
      <trkpt lat="38.818134" lon="121.14835">
        <ele>44.994232</ele>
        <time>2015-03-31T10:04:07.114000Z</time>
      </trkpt>
      <trkpt lat="38.81823" lon="121.148384">
        <ele>44.96259</ele>
        <time>2015-03-31T10:04:10.411000Z</time>
      </trkpt>
      <trkpt lat="38.81833" lon="121.1484">
        <ele>44.945915</ele>
        <time>2015-03-31T10:04:13.708000Z</time>
      </trkpt>
      <trkpt lat="38.818428" lon="121.1484">
        <ele>44.942394</ele>
        <time>2015-03-31T10:04:17.005000Z</time>
      </trkpt>
      <trkpt lat="38.81852" lon="121.148415">
        <ele>44.944496</ele>
        <time>2015-03-31T10:04:20.302000Z</time>
      </trkpt>
      <trkpt lat="38.81863" lon="121.14839">
        <ele>45.08526</ele>
        <time>2015-03-31T10:04:23.599000Z</time>
      </trkpt>
      <trkpt lat="38.8187" lon="121.148315">
        <ele>45.30832</ele>
        <time>2015-03-31T10:04:26.896000Z</time>
      </trkpt>
      <trkpt lat="38.818756" lon="121.14821">
        <ele>45.318134</ele>
        <time>2015-03-31T10:04:30.193000Z</time>
      </trkpt>
      <trkpt lat="38.818787" lon="121.14809">
        <ele>44.985607</ele>
        <time>2015-03-31T10:04:33.490000Z</time>
      </trkpt>
      <trkpt lat="38.818794" lon="121.14796">
        <ele>44.476772</ele>
        <time>2015-03-31T10:04:36.787000Z</time>
      </trkpt>
      <trkpt lat="38.818783" lon="121.14782">
        <ele>44.050713</ele>
        <time>2015-03-31T10:04:40.084000Z</time>
      </trkpt>
      <trkpt lat="38.81878" lon="121.14768">
        <ele>44.013485</ele>
        <time>2015-03-31T10:04:43.381000Z</time>
      </trkpt>
      <trkpt lat="38.81877" lon="121.14755">
        <ele>44.77741</ele>
        <time>2015-03-31T10:04:46.678000Z</time>
      </trkpt>
      <trkpt lat="38.818737" lon="121.14743">
        <ele>46.406776</ele>
        <time>2015-03-31T10:04:49.975000Z</time>
      </trkpt>
      <trkpt lat="38.818672" lon="121.14729">
        <ele>48.08487</ele>
        <time>2015-03-31T10:04:53.272000Z</time>
      </trkpt>
      <trkpt lat="38.818584" lon="121.14722">
        <ele>49.02067</ele>
        <time>2015-03-31T10:04:56.569000Z</time>
      </trkpt>
      <trkpt lat="38.818493" lon="121.14721">
        <ele>49.10806</ele>
        <time>2015-03-31T10:04:59.866000Z</time>
      </trkpt>
      <trkpt lat="38.818382" lon="121.14723">
        <ele>48.651154</ele>
        <time>2015-03-31T10:05:03.163000Z</time>
      </trkpt>
      <trkpt lat="38.818275" lon="121.14725">
        <ele>48.1445</ele>
        <time>2015-03-31T10:05:06.460000Z</time>
      </trkpt>
      <trkpt lat="38.81815" lon="121.147255">
        <ele>47.61734</ele>
        <time>2015-03-31T10:05:09.757000Z</time>
      </trkpt>
      <trkpt lat="38.81803" lon="121.14728">
        <ele>46.853313</ele>
        <time>2015-03-31T10:05:13.054000Z</time>
      </trkpt>
      <trkpt lat="38.81793" lon="121.147285">
        <ele>46.152637</ele>
        <time>2015-03-31T10:05:16.351000Z</time>
      </trkpt>
      <trkpt lat="38.817825" lon="121.14727">
        <ele>45.84344</ele>
        <time>2015-03-31T10:05:19.648000Z</time>
      </trkpt>
      <trkpt lat="38.817715" lon="121.14726">
        <ele>45.810574</ele>
        <time>2015-03-31T10:05:22.945000Z</time>
      </trkpt>
      <trkpt lat="38.81761" lon="121.14727">
        <ele>45.873955</ele>
        <time>2015-03-31T10:05:26.242000Z</time>
      </trkpt>
      <trkpt lat="38.817516" lon="121.147255">
        <ele>46.06916</ele>
        <time>2015-03-31T10:05:29.539000Z</time>
      </trkpt>
      <trkpt lat="38.817406" lon="121.14724">
        <ele>46.453876</ele>
        <time>2015-03-31T10:05:32.836000Z</time>
      </trkpt>
      <trkpt lat="38.817307" lon="121.147224">
        <ele>46.82573</ele>
        <time>2015-03-31T10:05:36.133000Z</time>
      </trkpt>
      <trkpt lat="38.817207" lon="121.147255">
        <ele>46.995735</ele>
        <time>2015-03-31T10:05:39.430000Z</time>
      </trkpt>
      <trkpt lat="38.817116" lon="121.14731">
        <ele>46.879448</ele>
        <time>2015-03-31T10:05:42.727000Z</time>
      </trkpt>
      <trkpt lat="38.81707" lon="121.14745">
        <ele>46.3494</ele>
        <time>2015-03-31T10:05:46.024000Z</time>
      </trkpt>
      <trkpt lat="38.817078" lon="121.14759">
        <ele>45.31343</ele>
        <time>2015-03-31T10:05:49.321000Z</time>
      </trkpt>
      <trkpt lat="38.817085" lon="121.14773">
        <ele>44.03529</ele>
        <time>2015-03-31T10:05:52.618000Z</time>
      </trkpt>
      <trkpt lat="38.817097" lon="121.147865">
        <ele>43.092987</ele>
        <time>2015-03-31T10:05:55.915000Z</time>
      </trkpt>
      <trkpt lat="38.817104" lon="121.147995">
        <ele>42.748573</ele>
        <time>2015-03-31T10:05:59.212000Z</time>
      </trkpt>
      <trkpt lat="38.81714" lon="121.14812">
        <ele>42.758076</ele>
        <time>2015-03-31T10:06:02.509000Z</time>
      </trkpt>
      <trkpt lat="38.817207" lon="121.14821">
        <ele>42.863346</ele>
        <time>2015-03-31T10:06:05.806000Z</time>
      </trkpt>
      <trkpt lat="38.817295" lon="121.14828">
        <ele>42.939804</ele>
        <time>2015-03-31T10:06:09.103000Z</time>
      </trkpt>
      <trkpt lat="38.81738" lon="121.14833">
        <ele>42.9673</ele>
        <time>2015-03-31T10:06:12.400000Z</time>
      </trkpt>
      <trkpt lat="38.81748" lon="121.14833">
        <ele>43.10437</ele>
        <time>2015-03-31T10:06:15.697000Z</time>
      </trkpt>
      <trkpt lat="38.817585" lon="121.148315">
        <ele>43.593773</ele>
        <time>2015-03-31T10:06:18.994000Z</time>
      </trkpt>
      <trkpt lat="38.81769" lon="121.14832">
        <ele>44.45508</ele>
        <time>2015-03-31T10:06:22.291000Z</time>
      </trkpt>
      <trkpt lat="38.817795" lon="121.14833">
        <ele>45.35747</ele>
        <time>2015-03-31T10:06:25.588000Z</time>
      </trkpt>
      <trkpt lat="38.817894" lon="121.14833">
        <ele>45.928814</ele>
        <time>2015-03-31T10:06:28.885000Z</time>
      </trkpt>
      <trkpt lat="38.818005" lon="121.148346">
        <ele>46.101334</ele>
        <time>2015-03-31T10:06:32.182000Z</time>
      </trkpt>
      <trkpt lat="38.818115" lon="121.148346">
        <ele>46.06827</ele>
        <time>2015-03-31T10:06:35.479000Z</time>
      </trkpt>
      <trkpt lat="38.818207" lon="121.14835">
        <ele>45.85608</ele>
        <time>2015-03-31T10:06:38.776000Z</time>
      </trkpt>
      <trkpt lat="38.818295" lon="121.14838">
        <ele>45.44995</ele>
        <time>2015-03-31T10:06:42.073000Z</time>
      </trkpt>
      <trkpt lat="38.818394" lon="121.14838">
        <ele>45.066837</ele>
        <time>2015-03-31T10:06:45.370000Z</time>
      </trkpt>
      <trkpt lat="38.818485" lon="121.14837">
        <ele>45.03264</ele>
        <time>2015-03-31T10:06:48.667000Z</time>
      </trkpt>
      <trkpt lat="38.818577" lon="121.14834">
        <ele>45.37207</ele>
        <time>2015-03-31T10:06:51.964000Z</time>
      </trkpt>
      <trkpt lat="38.81868" lon="121.148315">
        <ele>45.637054</ele>
        <time>2015-03-31T10:06:55.261000Z</time>
      </trkpt>
      <trkpt lat="38.818752" lon="121.14824">
        <ele>45.483616</ele>
        <time>2015-03-31T10:06:58.558000Z</time>
      </trkpt>
      <trkpt lat="38.818798" lon="121.14813">
        <ele>45.292732</ele>
        <time>2015-03-31T10:07:01.855000Z</time>
      </trkpt>
      <trkpt lat="38.818806" lon="121.14798">
        <ele>45.725258</ele>
        <time>2015-03-31T10:07:05.152000Z</time>
      </trkpt>
      <trkpt lat="38.818787" lon="121.14785">
        <ele>46.89322</ele>
        <time>2015-03-31T10:07:08.449000Z</time>
      </trkpt>
      <trkpt lat="38.81877" lon="121.1477">
        <ele>48.31877</ele>
        <time>2015-03-31T10:07:11.746000Z</time>
      </trkpt>
      <trkpt lat="38.818783" lon="121.14755">
        <ele>49.5903</ele>
        <time>2015-03-31T10:07:15.043000Z</time>
      </trkpt>
      <trkpt lat="38.818775" lon="121.14743">
        <ele>50.534447</ele>
        <time>2015-03-31T10:07:18.340000Z</time>
      </trkpt>
      <trkpt lat="38.818775" lon="121.14743">
        <ele>50.955967</ele>
        <time>2015-03-31T10:07:21.637000Z</time>
      </trkpt>
      <trkpt lat="38.818726" lon="121.14732">
        <ele>50.81091</ele>
        <time>2015-03-31T10:07:24.934000Z</time>
      </trkpt>
      <trkpt lat="38.81863" lon="121.14727">
        <ele>50.24241</ele>
        <time>2015-03-31T10:07:28.231000Z</time>
      </trkpt>
      <trkpt lat="38.817368" lon="121.14658">
        <ele>33.4307</ele>
        <time>2015-03-31T10:07:31.528000Z</time>
      </trkpt>
      <trkpt lat="38.817368" lon="121.14658">
        <ele>33.60245</ele>
        <time>2015-03-31T10:07:34.825000Z</time>
      </trkpt>
      <trkpt lat="38.817368" lon="121.14658">
        <ele>33.63397</ele>
        <time>2015-03-31T10:07:38.122000Z</time>
      </trkpt>
      <trkpt lat="38.81727" lon="121.14663">
        <ele>33.522728</ele>
        <time>2015-03-31T10:07:41.419000Z</time>
      </trkpt>
      <trkpt lat="38.817177" lon="121.146675">
        <ele>35.57282</ele>
        <time>2015-03-31T10:07:44.716000Z</time>
      </trkpt>
      <trkpt lat="38.81713" lon="121.14681">
        <ele>46.878925</ele>
        <time>2015-03-31T10:07:48.013000Z</time>
      </trkpt>
      <trkpt lat="38.8171" lon="121.14693">
        <ele>49.616848</ele>
        <time>2015-03-31T10:07:51.310000Z</time>
      </trkpt>
      <trkpt lat="38.81704" lon="121.14703">
        <ele>50.038143</ele>
        <time>2015-03-31T10:07:54.607000Z</time>
      </trkpt>
      <trkpt lat="38.816948" lon="121.147095">
        <ele>49.574844</ele>
        <time>2015-03-31T10:07:57.904000Z</time>
      </trkpt>
      <trkpt lat="38.81688" lon="121.14718">
        <ele>48.968246</ele>
        <time>2015-03-31T10:08:01.201000Z</time>
      </trkpt>
      <trkpt lat="38.816944" lon="121.14726">
        <ele>48.111767</ele>
        <time>2015-03-31T10:08:04.498000Z</time>
      </trkpt>
      <trkpt lat="38.817047" lon="121.14733">
        <ele>46.990406</ele>
        <time>2015-03-31T10:08:07.795000Z</time>
      </trkpt>
      <trkpt lat="38.8171" lon="121.14743">
        <ele>46.114853</ele>
        <time>2015-03-31T10:08:11.092000Z</time>
      </trkpt>
      <trkpt lat="38.817074" lon="121.14756">
        <ele>45.49961</ele>
        <time>2015-03-31T10:08:14.389000Z</time>
      </trkpt>
      <trkpt lat="38.81706" lon="121.1477">
        <ele>44.083572</ele>
        <time>2015-03-31T10:08:17.686000Z</time>
      </trkpt>
      <trkpt lat="38.81705" lon="121.14783">
        <ele>41.637764</ele>
        <time>2015-03-31T10:08:20.983000Z</time>
      </trkpt>
      <trkpt lat="38.817055" lon="121.14795">
        <ele>39.649345</ele>
        <time>2015-03-31T10:08:24.280000Z</time>
      </trkpt>
      <trkpt lat="38.81706" lon="121.14807">
        <ele>39.52151</ele>
        <time>2015-03-31T10:08:27.577000Z</time>
      </trkpt>
      <trkpt lat="38.817085" lon="121.14818">
        <ele>40.898067</ele>
        <time>2015-03-31T10:08:30.874000Z</time>
      </trkpt>
      <trkpt lat="38.81715" lon="121.14828">
        <ele>42.522327</ele>
        <time>2015-03-31T10:08:34.171000Z</time>
      </trkpt>
      <trkpt lat="38.817234" lon="121.14835">
        <ele>43.60749</ele>
        <time>2015-03-31T10:08:37.468000Z</time>
      </trkpt>
      <trkpt lat="38.81735" lon="121.148384">
        <ele>44.098885</ele>
        <time>2015-03-31T10:08:40.765000Z</time>
      </trkpt>
      <trkpt lat="38.817463" lon="121.148415">
        <ele>43.6065</ele>
        <time>2015-03-31T10:08:44.062000Z</time>
      </trkpt>
      <trkpt lat="38.817577" lon="121.14843">
        <ele>41.65775</ele>
        <time>2015-03-31T10:08:47.359000Z</time>
      </trkpt>
      <trkpt lat="38.817688" lon="121.14843">
        <ele>39.011974</ele>
        <time>2015-03-31T10:08:50.656000Z</time>
      </trkpt>
      <trkpt lat="38.81778" lon="121.14842">
        <ele>37.02497</ele>
        <time>2015-03-31T10:08:53.953000Z</time>
      </trkpt>
      <trkpt lat="38.817894" lon="121.14842">
        <ele>36.028664</ele>
        <time>2015-03-31T10:08:57.250000Z</time>
      </trkpt>
      <trkpt lat="38.818012" lon="121.148476">
        <ele>35.016552</ele>
        <time>2015-03-31T10:09:00.547000Z</time>
      </trkpt>
      <trkpt lat="38.818127" lon="121.14848">
        <ele>33.25941</ele>
        <time>2015-03-31T10:09:03.844000Z</time>
      </trkpt>
      <trkpt lat="38.818226" lon="121.14843">
        <ele>31.535583</ele>
        <time>2015-03-31T10:09:07.141000Z</time>
      </trkpt>
      <trkpt lat="38.818317" lon="121.1484">
        <ele>30.739973</ele>
        <time>2015-03-31T10:09:10.438000Z</time>
      </trkpt>
      <trkpt lat="38.818417" lon="121.14837">
        <ele>30.632858</ele>
        <time>2015-03-31T10:09:13.735000Z</time>
      </trkpt>
      <trkpt lat="38.818527" lon="121.14836">
        <ele>30.779</ele>
        <time>2015-03-31T10:09:17.032000Z</time>
      </trkpt>
      <trkpt lat="38.818634" lon="121.14837">
        <ele>30.91941</ele>
        <time>2015-03-31T10:09:20.329000Z</time>
      </trkpt>
      <trkpt lat="38.81873" lon="121.14833">
        <ele>31.121536</ele>
        <time>2015-03-31T10:09:23.626000Z</time>
      </trkpt>
      <trkpt lat="38.818806" lon="121.14825">
        <ele>31.489508</ele>
        <time>2015-03-31T10:09:26.923000Z</time>
      </trkpt>
      <trkpt lat="38.81883" lon="121.148094">
        <ele>31.846798</ele>
        <time>2015-03-31T10:09:30.220000Z</time>
      </trkpt>
      <trkpt lat="38.818825" lon="121.147934">
        <ele>32.010624</ele>
        <time>2015-03-31T10:09:33.517000Z</time>
      </trkpt>
      <trkpt lat="38.818825" lon="121.14778">
        <ele>32.032017</ele>
        <time>2015-03-31T10:09:36.814000Z</time>
      </trkpt>
      <trkpt lat="38.818825" lon="121.14763">
        <ele>32.001423</ele>
        <time>2015-03-31T10:09:40.111000Z</time>
      </trkpt>
      <trkpt lat="38.818817" lon="121.147484">
        <ele>31.972326</ele>
        <time>2015-03-31T10:09:43.408000Z</time>
      </trkpt>
      <trkpt lat="38.81881" lon="121.147354">
        <ele>32.09734</ele>
        <time>2015-03-31T10:09:46.705000Z</time>
      </trkpt>
      <trkpt lat="38.818768" lon="121.14724">
        <ele>32.731976</ele>
        <time>2015-03-31T10:09:50.002000Z</time>
      </trkpt>
      <trkpt lat="38.81868" lon="121.14717">
        <ele>34.100094</ele>
        <time>2015-03-31T10:09:53.299000Z</time>
      </trkpt>
      <trkpt lat="38.818558" lon="121.14715">
        <ele>35.874557</ele>
        <time>2015-03-31T10:09:56.596000Z</time>
      </trkpt>
      <trkpt lat="38.818436" lon="121.14715">
        <ele>37.489605</ele>
        <time>2015-03-31T10:09:59.893000Z</time>
      </trkpt>
      <trkpt lat="38.81832" lon="121.14716">
        <ele>38.59265</ele>
        <time>2015-03-31T10:10:03.190000Z</time>
      </trkpt>
      <trkpt lat="38.8182" lon="121.14718">
        <ele>39.100117</ele>
        <time>2015-03-31T10:10:06.487000Z</time>
      </trkpt>
      <trkpt lat="38.818085" lon="121.147194">
        <ele>39.16743</ele>
        <time>2015-03-31T10:10:09.784000Z</time>
      </trkpt>
      <trkpt lat="38.817978" lon="121.14722">
        <ele>39.21164</ele>
        <time>2015-03-31T10:10:13.081000Z</time>
      </trkpt>
      <trkpt lat="38.81786" lon="121.14719">
        <ele>39.48169</ele>
        <time>2015-03-31T10:10:16.378000Z</time>
      </trkpt>
      <trkpt lat="38.817753" lon="121.14715">
        <ele>39.81034</ele>
        <time>2015-03-31T10:10:19.675000Z</time>
      </trkpt>
      <trkpt lat="38.817646" lon="121.14714">
        <ele>39.98053</ele>
        <time>2015-03-31T10:10:22.972000Z</time>
      </trkpt>
      <trkpt lat="38.817524" lon="121.14715">
        <ele>40.01487</ele>
        <time>2015-03-31T10:10:26.269000Z</time>
      </trkpt>
      <trkpt lat="38.817406" lon="121.14716">
        <ele>39.9922</ele>
        <time>2015-03-31T10:10:29.566000Z</time>
      </trkpt>
      <trkpt lat="38.817287" lon="121.1472">
        <ele>40.103546</ele>
        <time>2015-03-31T10:10:32.863000Z</time>
      </trkpt>
      <trkpt lat="38.81718" lon="121.14724">
        <ele>40.449722</ele>
        <time>2015-03-31T10:10:36.160000Z</time>
      </trkpt>
      <trkpt lat="38.81708" lon="121.1474">
        <ele>40.816486</ele>
        <time>2015-03-31T10:10:39.457000Z</time>
      </trkpt>
      <trkpt lat="38.817062" lon="121.14755">
        <ele>40.302757</ele>
        <time>2015-03-31T10:10:42.754000Z</time>
      </trkpt>
      <trkpt lat="38.81704" lon="121.14768">
        <ele>38.532017</ele>
        <time>2015-03-31T10:10:46.051000Z</time>
      </trkpt>
      <trkpt lat="38.817047" lon="121.14784">
        <ele>36.93232</ele>
        <time>2015-03-31T10:10:49.348000Z</time>
      </trkpt>
      <trkpt lat="38.81703" lon="121.14797">
        <ele>36.884075</ele>
        <time>2015-03-31T10:10:52.645000Z</time>
      </trkpt>
      <trkpt lat="38.81704" lon="121.14809">
        <ele>37.974106</ele>
        <time>2015-03-31T10:10:55.942000Z</time>
      </trkpt>
      <trkpt lat="38.817078" lon="121.14821">
        <ele>39.201687</ele>
        <time>2015-03-31T10:10:59.239000Z</time>
      </trkpt>
      <trkpt lat="38.817158" lon="121.148315">
        <ele>40.09057</ele>
        <time>2015-03-31T10:11:02.536000Z</time>
      </trkpt>
      <trkpt lat="38.817238" lon="121.148384">
        <ele>40.665195</ele>
        <time>2015-03-31T10:11:05.833000Z</time>
      </trkpt>
      <trkpt lat="38.817337" lon="121.14841">
        <ele>40.982216</ele>
        <time>2015-03-31T10:11:09.130000Z</time>
      </trkpt>
      <trkpt lat="38.817436" lon="121.1484">
        <ele>40.78052</ele>
        <time>2015-03-31T10:11:12.427000Z</time>
      </trkpt>
      <trkpt lat="38.817554" lon="121.14839">
        <ele>40.026554</ele>
        <time>2015-03-31T10:11:15.724000Z</time>
      </trkpt>
      <trkpt lat="38.81767" lon="121.14837">
        <ele>39.102528</ele>
        <time>2015-03-31T10:11:19.021000Z</time>
      </trkpt>
      <trkpt lat="38.817776" lon="121.148346">
        <ele>38.366528</ele>
        <time>2015-03-31T10:11:22.318000Z</time>
      </trkpt>
      <trkpt lat="38.817875" lon="121.148315">
        <ele>37.661823</ele>
        <time>2015-03-31T10:11:25.615000Z</time>
      </trkpt>
      <trkpt lat="38.81799" lon="121.1483">
        <ele>36.829636</ele>
        <time>2015-03-31T10:11:28.912000Z</time>
      </trkpt>
      <trkpt lat="38.818096" lon="121.14829">
        <ele>35.990112</ele>
        <time>2015-03-31T10:11:32.209000Z</time>
      </trkpt>
      <trkpt lat="38.818203" lon="121.14829">
        <ele>35.201763</ele>
        <time>2015-03-31T10:11:35.506000Z</time>
      </trkpt>
      <trkpt lat="38.818306" lon="121.1483">
        <ele>34.453987</ele>
        <time>2015-03-31T10:11:38.803000Z</time>
      </trkpt>
      <trkpt lat="38.818413" lon="121.14829">
        <ele>33.978123</ele>
        <time>2015-03-31T10:11:42.100000Z</time>
      </trkpt>
      <trkpt lat="38.818523" lon="121.1483">
        <ele>33.55699</ele>
        <time>2015-03-31T10:11:45.397000Z</time>
      </trkpt>
      <trkpt lat="38.818626" lon="121.14831">
        <ele>32.72575</ele>
        <time>2015-03-31T10:11:48.694000Z</time>
      </trkpt>
      <trkpt lat="38.818714" lon="121.14826">
        <ele>31.688328</ele>
        <time>2015-03-31T10:11:51.991000Z</time>
      </trkpt>
      <trkpt lat="38.818787" lon="121.14815">
        <ele>31.559595</ele>
        <time>2015-03-31T10:11:55.288000Z</time>
      </trkpt>
      <trkpt lat="38.818817" lon="121.148026">
        <ele>33.05868</ele>
        <time>2015-03-31T10:11:58.585000Z</time>
      </trkpt>
      <trkpt lat="38.818813" lon="121.147896">
        <ele>35.28731</ele>
        <time>2015-03-31T10:12:01.882000Z</time>
      </trkpt>
      <trkpt lat="38.818817" lon="121.14776">
        <ele>36.53604</ele>
        <time>2015-03-31T10:12:05.179000Z</time>
      </trkpt>
      <trkpt lat="38.81883" lon="121.14761">
        <ele>36.189903</ele>
        <time>2015-03-31T10:12:08.476000Z</time>
      </trkpt>
      <trkpt lat="38.818825" lon="121.147484">
        <ele>34.90331</ele>
        <time>2015-03-31T10:12:11.773000Z</time>
      </trkpt>
      <trkpt lat="38.818775" lon="121.147354">
        <ele>33.77847</ele>
        <time>2015-03-31T10:12:15.070000Z</time>
      </trkpt>
      <trkpt lat="38.818695" lon="121.14725">
        <ele>33.417015</ele>
        <time>2015-03-31T10:12:18.367000Z</time>
      </trkpt>
      <trkpt lat="38.818565" lon="121.14722">
        <ele>33.60388</ele>
        <time>2015-03-31T10:12:21.664000Z</time>
      </trkpt>
      <trkpt lat="38.81844" lon="121.14721">
        <ele>33.84739</ele>
        <time>2015-03-31T10:12:24.961000Z</time>
      </trkpt>
      <trkpt lat="38.818314" lon="121.14721">
        <ele>33.977253</ele>
        <time>2015-03-31T10:12:28.258000Z</time>
      </trkpt>
      <trkpt lat="38.818226" lon="121.147224">
        <ele>34.005527</ele>
        <time>2015-03-31T10:12:31.555000Z</time>
      </trkpt>
      <trkpt lat="38.818104" lon="121.14724">
        <ele>34.127964</ele>
        <time>2015-03-31T10:12:34.852000Z</time>
      </trkpt>
      <trkpt lat="38.81798" lon="121.14725">
        <ele>34.606144</ele>
        <time>2015-03-31T10:12:38.149000Z</time>
      </trkpt>
      <trkpt lat="38.81784" lon="121.14727">
        <ele>35.324997</ele>
        <time>2015-03-31T10:12:41.446000Z</time>
      </trkpt>
      <trkpt lat="38.817734" lon="121.14724">
        <ele>35.867485</ele>
        <time>2015-03-31T10:12:44.743000Z</time>
      </trkpt>
      <trkpt lat="38.817642" lon="121.147224">
        <ele>36.070602</ele>
        <time>2015-03-31T10:12:48.040000Z</time>
      </trkpt>
      <trkpt lat="38.817535" lon="121.14721">
        <ele>36.068768</ele>
        <time>2015-03-31T10:12:51.337000Z</time>
      </trkpt>
      <trkpt lat="38.81742" lon="121.1472">
        <ele>36.147697</ele>
        <time>2015-03-31T10:12:54.634000Z</time>
      </trkpt>
      <trkpt lat="38.81731" lon="121.147194">
        <ele>36.46356</ele>
        <time>2015-03-31T10:12:57.931000Z</time>
      </trkpt>
      <trkpt lat="38.817204" lon="121.1472">
        <ele>36.95494</ele>
        <time>2015-03-31T10:13:01.228000Z</time>
      </trkpt>
      <trkpt lat="38.817116" lon="121.14728">
        <ele>37.766792</ele>
        <time>2015-03-31T10:13:04.525000Z</time>
      </trkpt>
      <trkpt lat="38.817062" lon="121.1474">
        <ele>39.16378</ele>
        <time>2015-03-31T10:13:07.822000Z</time>
      </trkpt>
      <trkpt lat="38.817055" lon="121.14757">
        <ele>41.047638</ele>
        <time>2015-03-31T10:13:11.119000Z</time>
      </trkpt>
      <trkpt lat="38.81707" lon="121.147736">
        <ele>43.269066</ele>
        <time>2015-03-31T10:13:14.416000Z</time>
      </trkpt>
      <trkpt lat="38.817078" lon="121.14789">
        <ele>45.585247</ele>
        <time>2015-03-31T10:13:17.713000Z</time>
      </trkpt>
      <trkpt lat="38.817078" lon="121.14804">
        <ele>47.226345</ele>
        <time>2015-03-31T10:13:21.010000Z</time>
      </trkpt>
      <trkpt lat="38.817085" lon="121.148186">
        <ele>47.682655</ele>
        <time>2015-03-31T10:13:24.307000Z</time>
      </trkpt>
      <trkpt lat="38.817116" lon="121.14831">
        <ele>47.281845</ele>
        <time>2015-03-31T10:13:27.604000Z</time>
      </trkpt>
      <trkpt lat="38.817196" lon="121.14841">
        <ele>46.594444</ele>
        <time>2015-03-31T10:13:30.901000Z</time>
      </trkpt>
      <trkpt lat="38.81732" lon="121.148445">
        <ele>46.05357</ele>
        <time>2015-03-31T10:13:34.198000Z</time>
      </trkpt>
      <trkpt lat="38.81744" lon="121.14841">
        <ele>45.704525</ele>
        <time>2015-03-31T10:13:37.495000Z</time>
      </trkpt>
      <trkpt lat="38.817566" lon="121.148346">
        <ele>45.201996</ele>
        <time>2015-03-31T10:13:40.792000Z</time>
      </trkpt>
      <trkpt lat="38.817688" lon="121.148315">
        <ele>44.253044</ele>
        <time>2015-03-31T10:13:44.088000Z</time>
      </trkpt>
      <trkpt lat="38.817795" lon="121.148285">
        <ele>42.756138</ele>
        <time>2015-03-31T10:13:47.384000Z</time>
      </trkpt>
      <trkpt lat="38.817894" lon="121.14826">
        <ele>40.97438</ele>
        <time>2015-03-31T10:13:50.680000Z</time>
      </trkpt>
      <trkpt lat="38.817993" lon="121.148254">
        <ele>39.52872</ele>
        <time>2015-03-31T10:13:53.976000Z</time>
      </trkpt>
      <trkpt lat="38.81809" lon="121.148254">
        <ele>38.81112</ele>
        <time>2015-03-31T10:13:57.272000Z</time>
      </trkpt>
      <trkpt lat="38.818195" lon="121.148254">
        <ele>38.821583</ele>
        <time>2015-03-31T10:14:00.568000Z</time>
      </trkpt>
      <trkpt lat="38.81831" lon="121.14826">
        <ele>39.2899</ele>
        <time>2015-03-31T10:14:03.864000Z</time>
      </trkpt>
      <trkpt lat="38.818424" lon="121.14826">
        <ele>39.63908</ele>
        <time>2015-03-31T10:14:07.160000Z</time>
      </trkpt>
      <trkpt lat="38.818535" lon="121.14827">
        <ele>39.51223</ele>
        <time>2015-03-31T10:14:10.456000Z</time>
      </trkpt>
      <trkpt lat="38.818638" lon="121.148285">
        <ele>39.040997</ele>
        <time>2015-03-31T10:14:13.752000Z</time>
      </trkpt>
      <trkpt lat="38.818714" lon="121.148224">
        <ele>38.60498</ele>
        <time>2015-03-31T10:14:17.048000Z</time>
      </trkpt>
      <trkpt lat="38.81878" lon="121.1481">
        <ele>38.80554</ele>
        <time>2015-03-31T10:14:20.344000Z</time>
      </trkpt>
      <trkpt lat="38.8188" lon="121.147964">
        <ele>39.730736</ele>
        <time>2015-03-31T10:14:23.640000Z</time>
      </trkpt>
      <trkpt lat="38.818813" lon="121.14782">
        <ele>40.783844</ele>
        <time>2015-03-31T10:14:26.936000Z</time>
      </trkpt>
      <trkpt lat="38.818813" lon="121.147675">
        <ele>41.568123</ele>
        <time>2015-03-31T10:14:30.232000Z</time>
      </trkpt>
      <trkpt lat="38.818817" lon="121.14753">
        <ele>41.996</ele>
        <time>2015-03-31T10:14:33.528000Z</time>
      </trkpt>
      <trkpt lat="38.81882" lon="121.14741">
        <ele>41.81793</ele>
        <time>2015-03-31T10:14:36.824000Z</time>
      </trkpt>
      <trkpt lat="38.81877" lon="121.14728">
        <ele>40.77379</ele>
        <time>2015-03-31T10:14:40.120000Z</time>
      </trkpt>
      <trkpt lat="38.81868" lon="121.147194">
        <ele>39.251034</ele>
        <time>2015-03-31T10:14:43.416000Z</time>
      </trkpt>
      <trkpt lat="38.818573" lon="121.14715">
        <ele>38.127117</ele>
        <time>2015-03-31T10:14:46.712000Z</time>
      </trkpt>
      <trkpt lat="38.818436" lon="121.147156">
        <ele>37.715836</ele>
        <time>2015-03-31T10:14:50.008000Z</time>
      </trkpt>
      <trkpt lat="38.818306" lon="121.14717">
        <ele>37.864975</ele>
        <time>2015-03-31T10:14:53.304000Z</time>
      </trkpt>
      <trkpt lat="38.818188" lon="121.1472">
        <ele>38.350292</ele>
        <time>2015-03-31T10:14:56.600000Z</time>
      </trkpt>
      <trkpt lat="38.81807" lon="121.14721">
        <ele>38.67274</ele>
        <time>2015-03-31T10:14:59.896000Z</time>
      </trkpt>
      <trkpt lat="38.817966" lon="121.14721">
        <ele>38.520947</ele>
        <time>2015-03-31T10:15:03.192000Z</time>
      </trkpt>
      <trkpt lat="38.817875" lon="121.14723">
        <ele>38.31493</ele>
        <time>2015-03-31T10:15:06.488000Z</time>
      </trkpt>
      <trkpt lat="38.81778" lon="121.14723">
        <ele>38.597427</ele>
        <time>2015-03-31T10:15:09.784000Z</time>
      </trkpt>
      <trkpt lat="38.81767" lon="121.14723">
        <ele>39.400898</ele>
        <time>2015-03-31T10:15:13.080000Z</time>
      </trkpt>
      <trkpt lat="38.81756" lon="121.14724">
        <ele>40.318756</ele>
        <time>2015-03-31T10:15:16.376000Z</time>
      </trkpt>
      <trkpt lat="38.817448" lon="121.14724">
        <ele>40.918205</ele>
        <time>2015-03-31T10:15:19.672000Z</time>
      </trkpt>
      <trkpt lat="38.817337" lon="121.14723">
        <ele>40.831097</ele>
        <time>2015-03-31T10:15:22.968000Z</time>
      </trkpt>
      <trkpt lat="38.817234" lon="121.14724">
        <ele>40.082825</ele>
        <time>2015-03-31T10:15:26.264000Z</time>
      </trkpt>
      <trkpt lat="38.817135" lon="121.147285">
        <ele>39.544964</ele>
        <time>2015-03-31T10:15:29.560000Z</time>
      </trkpt>
      <trkpt lat="38.81708" lon="121.14742">
        <ele>39.86569</ele>
        <time>2015-03-31T10:15:32.856000Z</time>
      </trkpt>
      <trkpt lat="38.817055" lon="121.147575">
        <ele>40.536465</ele>
        <time>2015-03-31T10:15:36.152000Z</time>
      </trkpt>
      <trkpt lat="38.817062" lon="121.14774">
        <ele>40.81131</ele>
        <time>2015-03-31T10:15:39.448000Z</time>
      </trkpt>
      <trkpt lat="38.817062" lon="121.147896">
        <ele>40.570873</ele>
        <time>2015-03-31T10:15:42.744000Z</time>
      </trkpt>
      <trkpt lat="38.817062" lon="121.14805">
        <ele>40.173588</ele>
        <time>2015-03-31T10:15:46.040000Z</time>
      </trkpt>
      <trkpt lat="38.817062" lon="121.14819">
        <ele>40.219704</ele>
        <time>2015-03-31T10:15:49.336000Z</time>
      </trkpt>
      <trkpt lat="38.817093" lon="121.14833">
        <ele>40.87955</ele>
        <time>2015-03-31T10:15:52.632000Z</time>
      </trkpt>
      <trkpt lat="38.817184" lon="121.14843">
        <ele>41.63895</ele>
        <time>2015-03-31T10:15:55.928000Z</time>
      </trkpt>
      <trkpt lat="38.817295" lon="121.14844">
        <ele>41.883812</ele>
        <time>2015-03-31T10:15:59.224000Z</time>
      </trkpt>
      <trkpt lat="38.817425" lon="121.14846">
        <ele>41.59558</ele>
        <time>2015-03-31T10:16:02.520000Z</time>
      </trkpt>
      <trkpt lat="38.817535" lon="121.14841">
        <ele>41.170895</ele>
        <time>2015-03-31T10:16:05.816000Z</time>
      </trkpt>
      <trkpt lat="38.817642" lon="121.148346">
        <ele>40.93367</ele>
        <time>2015-03-31T10:16:09.112000Z</time>
      </trkpt>
      <trkpt lat="38.81775" lon="121.148315">
        <ele>40.87629</ele>
        <time>2015-03-31T10:16:12.408000Z</time>
      </trkpt>
      <trkpt lat="38.81786" lon="121.14834">
        <ele>40.76255</ele>
        <time>2015-03-31T10:16:15.704000Z</time>
      </trkpt>
      <trkpt lat="38.817966" lon="121.14838">
        <ele>40.022854</ele>
        <time>2015-03-31T10:16:19Z</time>
      </trkpt>
      <trkpt lat="38.818077" lon="121.148384">
        <ele>38.454716</ele>
        <time>2015-03-31T10:16:22.296000Z</time>
      </trkpt>
      <trkpt lat="38.81819" lon="121.14839">
        <ele>36.677586</ele>
        <time>2015-03-31T10:16:25.592000Z</time>
      </trkpt>
      <trkpt lat="38.818306" lon="121.14839">
        <ele>35.393875</ele>
        <time>2015-03-31T10:16:28.888000Z</time>
      </trkpt>
      <trkpt lat="38.818417" lon="121.1484">
        <ele>34.796734</ele>
        <time>2015-03-31T10:16:32.184000Z</time>
      </trkpt>
      <trkpt lat="38.81853" lon="121.148384">
        <ele>34.575287</ele>
        <time>2015-03-31T10:16:35.480000Z</time>
      </trkpt>
      <trkpt lat="38.818634" lon="121.14838">
        <ele>34.322918</ele>
        <time>2015-03-31T10:16:38.776000Z</time>
      </trkpt>
      <trkpt lat="38.81874" lon="121.14832">
        <ele>34.05806</ele>
        <time>2015-03-31T10:16:42.072000Z</time>
      </trkpt>
      <trkpt lat="38.81879" lon="121.14817">
        <ele>34.06898</ele>
        <time>2015-03-31T10:16:45.368000Z</time>
      </trkpt>
      <trkpt lat="38.81881" lon="121.14802">
        <ele>34.961357</ele>
        <time>2015-03-31T10:16:48.664000Z</time>
      </trkpt>
      <trkpt lat="38.818817" lon="121.14787">
        <ele>36.791405</ele>
        <time>2015-03-31T10:16:51.960000Z</time>
      </trkpt>
      <trkpt lat="38.818817" lon="121.14773">
        <ele>38.465996</ele>
        <time>2015-03-31T10:16:55.256000Z</time>
      </trkpt>
      <trkpt lat="38.8188" lon="121.14757">
        <ele>40.03288</ele>
        <time>2015-03-31T10:16:58.552000Z</time>
      </trkpt>
      <trkpt lat="38.818794" lon="121.14743">
        <ele>42.54627</ele>
        <time>2015-03-31T10:17:01.848000Z</time>
      </trkpt>
      <trkpt lat="38.81875" lon="121.147316">
        <ele>45.330856</ele>
        <time>2015-03-31T10:17:05.144000Z</time>
      </trkpt>
      <trkpt lat="38.81884" lon="121.147285">
        <ele>46.294117</ele>
        <time>2015-03-31T10:17:08.440000Z</time>
      </trkpt>
      <trkpt lat="38.818954" lon="121.14728">
        <ele>44.94513</ele>
        <time>2015-03-31T10:17:11.736000Z</time>
      </trkpt>
      <trkpt lat="38.81909" lon="121.14727">
        <ele>42.965393</ele>
        <time>2015-03-31T10:17:15.032000Z</time>
      </trkpt>
      <trkpt lat="38.819233" lon="121.14728">
        <ele>41.861053</ele>
        <time>2015-03-31T10:17:18.328000Z</time>
      </trkpt>
      <trkpt lat="38.819363" lon="121.14729">
        <ele>41.594696</ele>
        <time>2015-03-31T10:17:21.624000Z</time>
      </trkpt>
      <trkpt lat="38.819473" lon="121.14733">
        <ele>41.847237</ele>
        <time>2015-03-31T10:17:24.920000Z</time>
      </trkpt>
      <trkpt lat="38.819546" lon="121.14744">
        <ele>42.369015</ele>
        <time>2015-03-31T10:17:28.216000Z</time>
      </trkpt>
      <trkpt lat="38.819527" lon="121.14763">
        <ele>42.827602</ele>
        <time>2015-03-31T10:17:31.512000Z</time>
      </trkpt>
      <trkpt lat="38.819515" lon="121.147804">
        <ele>42.885597</ele>
        <time>2015-03-31T10:17:34.808000Z</time>
      </trkpt>
      <trkpt lat="38.819515" lon="121.147964">
        <ele>42.128025</ele>
        <time>2015-03-31T10:17:38.104000Z</time>
      </trkpt>
      <trkpt lat="38.81951" lon="121.148094">
        <ele>40.497517</ele>
        <time>2015-03-31T10:17:41.400000Z</time>
      </trkpt>
      <trkpt lat="38.81951" lon="121.148224">
        <ele>38.40222</ele>
        <time>2015-03-31T10:17:44.696000Z</time>
      </trkpt>
      <trkpt lat="38.819515" lon="121.14834">
        <ele>36.38506</ele>
        <time>2015-03-31T10:17:47.992000Z</time>
      </trkpt>
      <trkpt lat="38.819504" lon="121.148476">
        <ele>35.18886</ele>
        <time>2015-03-31T10:17:51.288000Z</time>
      </trkpt>
      <trkpt lat="38.819534" lon="121.148605">
        <ele>35.120087</ele>
        <time>2015-03-31T10:17:54.584000Z</time>
      </trkpt>
      <trkpt lat="38.81959" lon="121.14872">
        <ele>35.547367</ele>
        <time>2015-03-31T10:17:57.880000Z</time>
      </trkpt>
      <trkpt lat="38.819687" lon="121.14872">
        <ele>35.888268</ele>
        <time>2015-03-31T10:18:01.176000Z</time>
      </trkpt>
      <trkpt lat="38.819786" lon="121.14868">
        <ele>35.608337</ele>
        <time>2015-03-31T10:18:04.472000Z</time>
      </trkpt>
      <trkpt lat="38.819893" lon="121.148705">
        <ele>34.532745</ele>
        <time>2015-03-31T10:18:07.768000Z</time>
      </trkpt>
      <trkpt lat="38.819984" lon="121.1488">
        <ele>33.66552</ele>
        <time>2015-03-31T10:18:11.064000Z</time>
      </trkpt>
      <trkpt lat="38.82002" lon="121.14893">
        <ele>34.10818</ele>
        <time>2015-03-31T10:18:14.360000Z</time>
      </trkpt>
      <trkpt lat="38.820023" lon="121.14906">
        <ele>35.75283</ele>
        <time>2015-03-31T10:18:17.656000Z</time>
      </trkpt>
      <trkpt lat="38.82002" lon="121.1492">
        <ele>37.651752</ele>
        <time>2015-03-31T10:18:20.952000Z</time>
      </trkpt>
      <trkpt lat="38.820007" lon="121.149345">
        <ele>39.02562</ele>
        <time>2015-03-31T10:18:24.248000Z</time>
      </trkpt>
      <trkpt lat="38.820004" lon="121.14949">
        <ele>40.050014</ele>
        <time>2015-03-31T10:18:27.544000Z</time>
      </trkpt>
      <trkpt lat="38.820004" lon="121.14962">
        <ele>41.49357</ele>
        <time>2015-03-31T10:18:30.840000Z</time>
      </trkpt>
      <trkpt lat="38.82" lon="121.14974">
        <ele>43.60787</ele>
        <time>2015-03-31T10:18:34.136000Z</time>
      </trkpt>
      <trkpt lat="38.820007" lon="121.149864">
        <ele>45.85114</ele>
        <time>2015-03-31T10:18:37.432000Z</time>
      </trkpt>
      <trkpt lat="38.820015" lon="121.149994">
        <ele>47.467934</ele>
        <time>2015-03-31T10:18:40.728000Z</time>
      </trkpt>
      <trkpt lat="38.820034" lon="121.150116">
        <ele>48.044548</ele>
        <time>2015-03-31T10:18:44.024000Z</time>
      </trkpt>
      <trkpt lat="38.820023" lon="121.15025">
        <ele>47.761497</ele>
        <time>2015-03-31T10:18:47.320000Z</time>
      </trkpt>
      <trkpt lat="38.82001" lon="121.150406">
        <ele>46.969826</ele>
        <time>2015-03-31T10:18:50.616000Z</time>
      </trkpt>
      <trkpt lat="38.819996" lon="121.15056">
        <ele>45.666836</ele>
        <time>2015-03-31T10:18:53.912000Z</time>
      </trkpt>
      <trkpt lat="38.819996" lon="121.15072">
        <ele>43.70973</ele>
        <time>2015-03-31T10:18:57.208000Z</time>
      </trkpt>
      <trkpt lat="38.819996" lon="121.150856">
        <ele>41.564987</ele>
        <time>2015-03-31T10:19:00.504000Z</time>
      </trkpt>
      <trkpt lat="38.81999" lon="121.15099">
        <ele>40.23348</ele>
        <time>2015-03-31T10:19:03.800000Z</time>
      </trkpt>
      <trkpt lat="38.819984" lon="121.151146">
        <ele>40.099304</ele>
        <time>2015-03-31T10:19:07.096000Z</time>
      </trkpt>
      <trkpt lat="38.819996" lon="121.15129">
        <ele>40.515965</ele>
        <time>2015-03-31T10:19:10.392000Z</time>
      </trkpt>
      <trkpt lat="38.81999" lon="121.15142">
        <ele>41.143864</ele>
        <time>2015-03-31T10:19:13.688000Z</time>
      </trkpt>
      <trkpt lat="38.81999" lon="121.151566">
        <ele>42.00928</ele>
        <time>2015-03-31T10:19:16.984000Z</time>
      </trkpt>
      <trkpt lat="38.81998" lon="121.15172">
        <ele>42.06661</ele>
        <time>2015-03-31T10:19:20.280000Z</time>
      </trkpt>
      <trkpt lat="38.819965" lon="121.15187">
        <ele>40.583206</ele>
        <time>2015-03-31T10:19:23.576000Z</time>
      </trkpt>
      <trkpt lat="38.819942" lon="121.15201">
        <ele>38.622334</ele>
        <time>2015-03-31T10:19:26.872000Z</time>
      </trkpt>
      <trkpt lat="38.819923" lon="121.15215">
        <ele>37.31449</ele>
        <time>2015-03-31T10:19:30.168000Z</time>
      </trkpt>
      <trkpt lat="38.819904" lon="121.15227">
        <ele>36.337025</ele>
        <time>2015-03-31T10:19:33.464000Z</time>
      </trkpt>
      <trkpt lat="38.819897" lon="121.1524">
        <ele>35.206673</ele>
        <time>2015-03-31T10:19:36.760000Z</time>
      </trkpt>
      <trkpt lat="38.819897" lon="121.15253">
        <ele>34.082478</ele>
        <time>2015-03-31T10:19:40.056000Z</time>
      </trkpt>
      <trkpt lat="38.819897" lon="121.15266">
        <ele>33.303196</ele>
        <time>2015-03-31T10:19:43.352000Z</time>
      </trkpt>
      <trkpt lat="38.819897" lon="121.15279">
        <ele>32.484802</ele>
        <time>2015-03-31T10:19:46.648000Z</time>
      </trkpt>
      <trkpt lat="38.819897" lon="121.15291">
        <ele>31.323467</ele>
        <time>2015-03-31T10:19:49.944000Z</time>
      </trkpt>
      <trkpt lat="38.81989" lon="121.15305">
        <ele>30.130651</ele>
        <time>2015-03-31T10:19:53.240000Z</time>
      </trkpt>
      <trkpt lat="38.819878" lon="121.1532">
        <ele>29.17042</ele>
        <time>2015-03-31T10:19:56.536000Z</time>
      </trkpt>
      <trkpt lat="38.81987" lon="121.15334">
        <ele>28.394053</ele>
        <time>2015-03-31T10:19:59.832000Z</time>
      </trkpt>
      <trkpt lat="38.81986" lon="121.153496">
        <ele>27.807487</ele>
        <time>2015-03-31T10:20:03.128000Z</time>
      </trkpt>
      <trkpt lat="38.81985" lon="121.153625">
        <ele>27.331627</ele>
        <time>2015-03-31T10:20:06.424000Z</time>
      </trkpt>
      <trkpt lat="38.81986" lon="121.15374">
        <ele>27.002743</ele>
        <time>2015-03-31T10:20:09.720000Z</time>
      </trkpt>
      <trkpt lat="38.81987" lon="121.153854">
        <ele>26.614662</ele>
        <time>2015-03-31T10:20:13.016000Z</time>
      </trkpt>
      <trkpt lat="38.81979" lon="121.153915">
        <ele>24.937325</ele>
        <time>2015-03-31T10:20:16.312000Z</time>
      </trkpt>
      <trkpt lat="38.819675" lon="121.15391">
        <ele>21.580153</ele>
        <time>2015-03-31T10:20:19.608000Z</time>
      </trkpt>
      <trkpt lat="38.819557" lon="121.15389">
        <ele>18.172173</ele>
        <time>2015-03-31T10:20:22.904000Z</time>
      </trkpt>
      <trkpt lat="38.819447" lon="121.15389">
        <ele>16.171854</ele>
        <time>2015-03-31T10:20:26.200000Z</time>
      </trkpt>
      <trkpt lat="38.819344" lon="121.153885">
        <ele>15.500516</ele>
        <time>2015-03-31T10:20:29.496000Z</time>
      </trkpt>
      <trkpt lat="38.819237" lon="121.15387">
        <ele>15.427449</ele>
        <time>2015-03-31T10:20:32.792000Z</time>
      </trkpt>
      <trkpt lat="38.819138" lon="121.15386">
        <ele>15.031443</ele>
        <time>2015-03-31T10:20:36.088000Z</time>
      </trkpt>
      <trkpt lat="38.819023" lon="121.15385">
        <ele>13.689792</ele>
        <time>2015-03-31T10:20:39.384000Z</time>
      </trkpt>
      <trkpt lat="38.8189" lon="121.153854">
        <ele>11.749429</ele>
        <time>2015-03-31T10:20:42.680000Z</time>
      </trkpt>
      <trkpt lat="38.818787" lon="121.15387">
        <ele>10.672608</ele>
        <time>2015-03-31T10:20:45.976000Z</time>
      </trkpt>
      <trkpt lat="38.818676" lon="121.15387">
        <ele>11.183689</ele>
        <time>2015-03-31T10:20:49.272000Z</time>
      </trkpt>
      <trkpt lat="38.81856" lon="121.153854">
        <ele>12.28935</ele>
        <time>2015-03-31T10:20:52.568000Z</time>
      </trkpt>
      <trkpt lat="38.81844" lon="121.15386">
        <ele>13.389685</ele>
        <time>2015-03-31T10:20:55.864000Z</time>
      </trkpt>
      <trkpt lat="38.818317" lon="121.153885">
        <ele>15.084567</ele>
        <time>2015-03-31T10:20:59.160000Z</time>
      </trkpt>
      <trkpt lat="38.818207" lon="121.153885">
        <ele>17.228046</ele>
        <time>2015-03-31T10:21:02.456000Z</time>
      </trkpt>
      <trkpt lat="38.81811" lon="121.1539">
        <ele>18.771494</ele>
        <time>2015-03-31T10:21:05.752000Z</time>
      </trkpt>
      <trkpt lat="38.81799" lon="121.15386">
        <ele>19.32139</ele>
        <time>2015-03-31T10:21:09.048000Z</time>
      </trkpt>
      <trkpt lat="38.817886" lon="121.15382">
        <ele>19.29513</ele>
        <time>2015-03-31T10:21:12.344000Z</time>
      </trkpt>
      <trkpt lat="38.817787" lon="121.15379">
        <ele>19.118706</ele>
        <time>2015-03-31T10:21:15.640000Z</time>
      </trkpt>
      <trkpt lat="38.817688" lon="121.15376">
        <ele>18.44081</ele>
        <time>2015-03-31T10:21:18.936000Z</time>
      </trkpt>
      <trkpt lat="38.817593" lon="121.15375">
        <ele>16.542841</ele>
        <time>2015-03-31T10:21:22.232000Z</time>
      </trkpt>
      <trkpt lat="38.817493" lon="121.15373">
        <ele>13.988107</ele>
        <time>2015-03-31T10:21:25.528000Z</time>
      </trkpt>
      <trkpt lat="38.817394" lon="121.153725">
        <ele>12.055094</ele>
        <time>2015-03-31T10:21:28.824000Z</time>
      </trkpt>
      <trkpt lat="38.817303" lon="121.15371">
        <ele>11.073448</ele>
        <time>2015-03-31T10:21:32.120000Z</time>
      </trkpt>
      <trkpt lat="38.817215" lon="121.15368">
        <ele>11.02422</ele>
        <time>2015-03-31T10:21:35.416000Z</time>
      </trkpt>
      <trkpt lat="38.817112" lon="121.15366">
        <ele>12.055226</ele>
        <time>2015-03-31T10:21:38.712000Z</time>
      </trkpt>
      <trkpt lat="38.816998" lon="121.15366">
        <ele>13.90922</ele>
        <time>2015-03-31T10:21:42.008000Z</time>
      </trkpt>
      <trkpt lat="38.816895" lon="121.15368">
        <ele>15.797935</ele>
        <time>2015-03-31T10:21:45.304000Z</time>
      </trkpt>
      <trkpt lat="38.81678" lon="121.1537">
        <ele>16.828117</ele>
        <time>2015-03-31T10:21:48.600000Z</time>
      </trkpt>
      <trkpt lat="38.816658" lon="121.15372">
        <ele>16.808657</ele>
        <time>2015-03-31T10:21:51.896000Z</time>
      </trkpt>
      <trkpt lat="38.816563" lon="121.15372">
        <ele>16.362322</ele>
        <time>2015-03-31T10:21:55.192000Z</time>
      </trkpt>
      <trkpt lat="38.81647" lon="121.15363">
        <ele>15.894059</ele>
        <time>2015-03-31T10:21:58.488000Z</time>
      </trkpt>
      <trkpt lat="38.816437" lon="121.15348">
        <ele>15.413126</ele>
        <time>2015-03-31T10:22:01.784000Z</time>
      </trkpt>
      <trkpt lat="38.816425" lon="121.15333">
        <ele>15.323076</ele>
        <time>2015-03-31T10:22:05.080000Z</time>
      </trkpt>
      <trkpt lat="38.81642" lon="121.15317">
        <ele>16.042543</ele>
        <time>2015-03-31T10:22:08.376000Z</time>
      </trkpt>
      <trkpt lat="38.816425" lon="121.153015">
        <ele>17.832447</ele>
        <time>2015-03-31T10:22:11.672000Z</time>
      </trkpt>
      <trkpt lat="38.816414" lon="121.15288">
        <ele>20.391518</ele>
        <time>2015-03-31T10:22:14.968000Z</time>
      </trkpt>
      <trkpt lat="38.816383" lon="121.15273">
        <ele>22.35858</ele>
        <time>2015-03-31T10:22:18.264000Z</time>
      </trkpt>
      <trkpt lat="38.816357" lon="121.15261">
        <ele>22.85262</ele>
        <time>2015-03-31T10:22:21.560000Z</time>
      </trkpt>
      <trkpt lat="38.81638" lon="121.15248">
        <ele>22.525484</ele>
        <time>2015-03-31T10:22:24.856000Z</time>
      </trkpt>
      <trkpt lat="38.816418" lon="121.15237">
        <time>2015-03-31T10:22:28.152000Z</time>
      </trkpt>
    </trkseg>
  </trk>
</gpx>