<?xml version="1.0" encoding="UTF-8"?>
<gpx xmlns="http://www.topografix.com/GPX/1/1" xmlns:gpxtpx="http://www.garmin.com/xmlschemas/TrackPointExtension/v1" xmlns:xsi="http://www.w3.org/2001/XMLSchema-instance" xsi:schemaLocation="http://www.topografix.com/GPX/1/1 http://www.topografix.com/GPX/1/1/gpx.xsd" version="1.1" creator="gpx.py -- https://github.com/tkrajina/gpxpy">
  <trk>
    <trkseg>
      <trkpt lat="38.81844" lon="121.14729">
        <ele>66.958916</ele>
        <time>2015-04-11T10:15:07.699000Z</time>
      </trkpt>
      <trkpt lat="38.81835" lon="121.14728">
        <ele>66.92802</ele>
        <time>2015-04-11T10:15:11.414000Z</time>
      </trkpt>
      <trkpt lat="38.818245" lon="121.14727">
        <ele>66.64014</ele>
        <time>2015-04-11T10:15:15.129000Z</time>
      </trkpt>
      <trkpt lat="38.818245" lon="121.14727">
        <ele>65.92049</ele>
        <time>2015-04-11T10:15:18.844000Z</time>
      </trkpt>
      <trkpt lat="38.81813" lon="121.147285">
        <ele>65.04682</ele>
        <time>2015-04-11T10:15:22.559000Z</time>
      </trkpt>
      <trkpt lat="38.818012" lon="121.147285">
        <ele>64.4771</ele>
        <time>2015-04-11T10:15:26.274000Z</time>
      </trkpt>
      <trkpt lat="38.817917" lon="121.14727">
        <ele>64.41541</ele>
        <time>2015-04-11T10:15:29.989000Z</time>
      </trkpt>
      <trkpt lat="38.81782" lon="121.14726">
        <ele>64.66954</ele>
        <time>2015-04-11T10:15:33.703000Z</time>
      </trkpt>
      <trkpt lat="38.817726" lon="121.14727">
        <ele>64.878204</ele>
        <time>2015-04-11T10:15:37.417000Z</time>
      </trkpt>
      <trkpt lat="38.817627" lon="121.14728">
        <ele>64.82453</ele>
        <time>2015-04-11T10:15:41.131000Z</time>
      </trkpt>
      <trkpt lat="38.817516" lon="121.14728">
        <ele>64.468735</ele>
        <time>2015-04-11T10:15:44.845000Z</time>
      </trkpt>
      <trkpt lat="38.8174" lon="121.147285">
        <ele>63.940117</ele>
        <time>2015-04-11T10:15:48.559000Z</time>
      </trkpt>
      <trkpt lat="38.81729" lon="121.1473">
        <time>2015-04-11T10:15:52.273000Z</time>
      </trkpt>
    </trkseg>
  </trk>
</gpx>