<?xml version="1.0" encoding="UTF-8"?>
<gpx xmlns="http://www.topografix.com/GPX/1/1" xmlns:gpxtpx="http://www.garmin.com/xmlschemas/TrackPointExtension/v1" xmlns:xsi="http://www.w3.org/2001/XMLSchema-instance" xsi:schemaLocation="http://www.topografix.com/GPX/1/1 http://www.topografix.com/GPX/1/1/gpx.xsd" version="1.1" creator="gpx.py -- https://github.com/tkrajina/gpxpy">
  <trk>
    <trkseg>
      <trkpt lat="41.78324" lon="123.39743">
        <ele>43.97302</ele>
        <time>2015-06-22T10:33:23.025000Z</time>
      </trkpt>
      <trkpt lat="41.783253" lon="123.39729">
        <ele>40.26082</ele>
        <time>2015-06-22T10:33:26.432000Z</time>
      </trkpt>
      <trkpt lat="41.783005" lon="123.39738">
        <ele>31.214518</ele>
        <time>2015-06-22T10:33:29.839000Z</time>
      </trkpt>
      <trkpt lat="41.783012" lon="123.39718">
        <ele>25.960081</ele>
        <time>2015-06-22T10:33:33.246000Z</time>
      </trkpt>
      <trkpt lat="41.782906" lon="123.39769">
        <ele>11.31616</ele>
        <time>2015-06-22T10:33:36.653000Z</time>
      </trkpt>
      <trkpt lat="41.782814" lon="123.39776">
        <ele>2.9861403</ele>
        <time>2015-06-22T10:33:40.060000Z</time>
      </trkpt>
      <trkpt lat="41.782784" lon="123.39788">
        <ele>6.386379</ele>
        <time>2015-06-22T10:33:43.467000Z</time>
      </trkpt>
      <trkpt lat="41.782803" lon="123.39802">
        <ele>10.176393</ele>
        <time>2015-06-22T10:33:46.874000Z</time>
      </trkpt>
      <trkpt lat="41.782787" lon="123.397766">
        <ele>17.670332</ele>
        <time>2015-06-22T10:33:50.281000Z</time>
      </trkpt>
      <trkpt lat="41.782722" lon="123.397964">
        <ele>18.982573</ele>
        <time>2015-06-22T10:33:53.688000Z</time>
      </trkpt>
      <trkpt lat="41.782574" lon="123.39805">
        <ele>13.815419</ele>
        <time>2015-06-22T10:33:57.095000Z</time>
      </trkpt>
      <trkpt lat="41.782604" lon="123.398415">
        <ele>6.30084</ele>
        <time>2015-06-22T10:34:00.502000Z</time>
      </trkpt>
      <trkpt lat="41.782475" lon="123.39811">
        <ele>0.42789757</ele>
        <time>2015-06-22T10:34:03.909000Z</time>
      </trkpt>
      <trkpt lat="41.78225" lon="123.398506">
        <ele>0</ele>
        <time>2015-06-22T10:34:07.316000Z</time>
      </trkpt>
      <trkpt lat="41.782246" lon="123.39823">
        <ele>5.188277</ele>
        <time>2015-06-22T10:34:10.722000Z</time>
      </trkpt>
      <trkpt lat="41.782143" lon="123.398506">
        <ele>11.001946</ele>
        <time>2015-06-22T10:34:14.128000Z</time>
      </trkpt>
      <trkpt lat="41.782143" lon="123.398506">
        <ele>11.001946</ele>
        <time>2015-06-22T10:34:17.534000Z</time>
      </trkpt>
      <trkpt lat="41.782433" lon="123.39879">
        <ele>19.987736</ele>
        <time>2015-06-22T10:34:20.940000Z</time>
      </trkpt>
      <trkpt lat="41.782387" lon="123.39897">
        <ele>17.659782</ele>
        <time>2015-06-22T10:34:24.346000Z</time>
      </trkpt>
      <trkpt lat="41.78232" lon="123.39916">
        <ele>14.983308</ele>
        <time>2015-06-22T10:34:27.752000Z</time>
      </trkpt>
      <trkpt lat="41.78243" lon="123.39915">
        <ele>13.169204</ele>
        <time>2015-06-22T10:34:31.158000Z</time>
      </trkpt>
      <trkpt lat="41.782524" lon="123.39902">
        <ele>6.577643</ele>
        <time>2015-06-22T10:34:34.564000Z</time>
      </trkpt>
      <trkpt lat="41.78262" lon="123.39906">
        <ele>2.8113592</ele>
        <time>2015-06-22T10:34:37.970000Z</time>
      </trkpt>
      <trkpt lat="41.782734" lon="123.39925">
        <ele>4.31239</ele>
        <time>2015-06-22T10:34:41.376000Z</time>
      </trkpt>
      <trkpt lat="41.78258" lon="123.39924">
        <ele>5.6286545</ele>
        <time>2015-06-22T10:34:44.782000Z</time>
      </trkpt>
      <trkpt lat="41.782856" lon="123.39925">
        <ele>7.9870896</ele>
        <time>2015-06-22T10:34:48.188000Z</time>
      </trkpt>
      <trkpt lat="41.783043" lon="123.39906">
        <ele>9.943163</ele>
        <time>2015-06-22T10:34:51.594000Z</time>
      </trkpt>
      <trkpt lat="41.782894" lon="123.399216">
        <ele>11.545738</ele>
        <time>2015-06-22T10:34:55Z</time>
      </trkpt>
      <trkpt lat="41.782986" lon="123.39918">
        <ele>25.22279</ele>
        <time>2015-06-22T10:34:58.406000Z</time>
      </trkpt>
      <trkpt lat="41.783092" lon="123.39916">
        <ele>45.207497</ele>
        <time>2015-06-22T10:35:01.812000Z</time>
      </trkpt>
      <trkpt lat="41.783195" lon="123.3991">
        <ele>59.792873</ele>
        <time>2015-06-22T10:35:05.218000Z</time>
      </trkpt>
      <trkpt lat="41.783302" lon="123.39909">
        <ele>63.76619</ele>
        <time>2015-06-22T10:35:08.624000Z</time>
      </trkpt>
      <trkpt lat="41.7834" lon="123.39904">
        <ele>60.792355</ele>
        <time>2015-06-22T10:35:12.030000Z</time>
      </trkpt>
      <trkpt lat="41.783493" lon="123.39898">
        <ele>57.94825</ele>
        <time>2015-06-22T10:35:15.436000Z</time>
      </trkpt>
      <trkpt lat="41.783585" lon="123.39889">
        <ele>56.031578</ele>
        <time>2015-06-22T10:35:18.842000Z</time>
      </trkpt>
      <trkpt lat="41.783672" lon="123.398796">
        <ele>55.966644</ele>
        <time>2015-06-22T10:35:22.248000Z</time>
      </trkpt>
      <trkpt lat="41.783768" lon="123.39872">
        <ele>56.62668</ele>
        <time>2015-06-22T10:35:25.654000Z</time>
      </trkpt>
      <trkpt lat="41.783855" lon="123.39865">
        <ele>57.20427</ele>
        <time>2015-06-22T10:35:29.060000Z</time>
      </trkpt>
      <trkpt lat="41.78394" lon="123.39857">
        <ele>57.791138</ele>
        <time>2015-06-22T10:35:32.466000Z</time>
      </trkpt>
      <trkpt lat="41.784008" lon="123.39847">
        <ele>58.36564</ele>
        <time>2015-06-22T10:35:35.872000Z</time>
      </trkpt>
      <trkpt lat="41.784077" lon="123.39837">
        <ele>58.9623</ele>
        <time>2015-06-22T10:35:39.278000Z</time>
      </trkpt>
      <trkpt lat="41.78414" lon="123.39825">
        <ele>59.598114</ele>
        <time>2015-06-22T10:35:42.684000Z</time>
      </trkpt>
      <trkpt lat="41.784195" lon="123.39811">
        <ele>60.262268</ele>
        <time>2015-06-22T10:35:46.090000Z</time>
      </trkpt>
      <trkpt lat="41.78425" lon="123.397964">
        <ele>60.93982</ele>
        <time>2015-06-22T10:35:49.496000Z</time>
      </trkpt>
      <trkpt lat="41.784286" lon="123.39783">
        <ele>61.570484</ele>
        <time>2015-06-22T10:35:52.902000Z</time>
      </trkpt>
      <trkpt lat="41.78432" lon="123.39769">
        <ele>62.96702</ele>
        <time>2015-06-22T10:35:56.308000Z</time>
      </trkpt>
      <trkpt lat="41.784317" lon="123.397545">
        <ele>64.27038</ele>
        <time>2015-06-22T10:35:59.714000Z</time>
      </trkpt>
      <trkpt lat="41.78429" lon="123.39741">
        <ele>64.99073</ele>
        <time>2015-06-22T10:36:03.120000Z</time>
      </trkpt>
      <trkpt lat="41.784184" lon="123.397316">
        <ele>65.16106</ele>
        <time>2015-06-22T10:36:06.526000Z</time>
      </trkpt>
      <trkpt lat="41.784077" lon="123.39725">
        <ele>65.22479</ele>
        <time>2015-06-22T10:36:09.932000Z</time>
      </trkpt>
      <trkpt lat="41.783966" lon="123.39725">
        <ele>65.28616</ele>
        <time>2015-06-22T10:36:13.338000Z</time>
      </trkpt>
      <trkpt lat="41.78386" lon="123.39726">
        <ele>65.34563</ele>
        <time>2015-06-22T10:36:16.744000Z</time>
      </trkpt>
      <trkpt lat="41.783752" lon="123.39727">
        <ele>65.40391</ele>
        <time>2015-06-22T10:36:20.150000Z</time>
      </trkpt>
      <trkpt lat="41.78365" lon="123.39728">
        <ele>65.77986</ele>
        <time>2015-06-22T10:36:23.556000Z</time>
      </trkpt>
      <trkpt lat="41.783558" lon="123.397285">
        <ele>65.96383</ele>
        <time>2015-06-22T10:36:26.962000Z</time>
      </trkpt>
      <trkpt lat="41.783443" lon="123.397316">
        <ele>66.133224</ele>
        <time>2015-06-22T10:36:30.368000Z</time>
      </trkpt>
      <trkpt lat="41.78336" lon="123.397354">
        <ele>66.46418</ele>
        <time>2015-06-22T10:36:33.774000Z</time>
      </trkpt>
      <trkpt lat="41.78326" lon="123.39743">
        <ele>66.66478</ele>
        <time>2015-06-22T10:36:37.180000Z</time>
      </trkpt>
      <trkpt lat="41.783173" lon="123.39749">
        <ele>65.829</ele>
        <time>2015-06-22T10:36:40.586000Z</time>
      </trkpt>
      <trkpt lat="41.78308" lon="123.39757">
        <ele>64.90256</ele>
        <time>2015-06-22T10:36:43.992000Z</time>
      </trkpt>
      <trkpt lat="41.782993" lon="123.397675">
        <ele>63.912113</ele>
        <time>2015-06-22T10:36:47.398000Z</time>
      </trkpt>
      <trkpt lat="41.782932" lon="123.39778">
        <ele>63.077095</ele>
        <time>2015-06-22T10:36:50.804000Z</time>
      </trkpt>
      <trkpt lat="41.782867" lon="123.397865">
        <ele>62.28703</ele>
        <time>2015-06-22T10:36:54.210000Z</time>
      </trkpt>
      <trkpt lat="41.782803" lon="123.39798">
        <ele>61.39563</ele>
        <time>2015-06-22T10:36:57.616000Z</time>
      </trkpt>
      <trkpt lat="41.78273" lon="123.39807">
        <ele>60.54627</ele>
        <time>2015-06-22T10:37:01.022000Z</time>
      </trkpt>
      <trkpt lat="41.782677" lon="123.39818">
        <ele>59.976334</ele>
        <time>2015-06-22T10:37:04.428000Z</time>
      </trkpt>
      <trkpt lat="41.7826" lon="123.398285">
        <ele>59.3956</ele>
        <time>2015-06-22T10:37:07.834000Z</time>
      </trkpt>
      <trkpt lat="41.782513" lon="123.39837">
        <ele>58.84494</ele>
        <time>2015-06-22T10:37:11.240000Z</time>
      </trkpt>
      <trkpt lat="41.78242" lon="123.39842">
        <ele>58.34034</ele>
        <time>2015-06-22T10:37:14.646000Z</time>
      </trkpt>
      <trkpt lat="41.782326" lon="123.398476">
        <ele>58.25597</ele>
        <time>2015-06-22T10:37:18.052000Z</time>
      </trkpt>
      <trkpt lat="41.78224" lon="123.39854">
        <ele>58.479168</ele>
        <time>2015-06-22T10:37:21.458000Z</time>
      </trkpt>
      <trkpt lat="41.782154" lon="123.39863">
        <ele>58.732407</ele>
        <time>2015-06-22T10:37:24.864000Z</time>
      </trkpt>
      <trkpt lat="41.782146" lon="123.39877">
        <ele>58.97855</ele>
        <time>2015-06-22T10:37:28.270000Z</time>
      </trkpt>
      <trkpt lat="41.782177" lon="123.398895">
        <ele>59.210514</ele>
        <time>2015-06-22T10:37:31.676000Z</time>
      </trkpt>
      <trkpt lat="41.78224" lon="123.39899">
        <ele>59.42996</ele>
        <time>2015-06-22T10:37:35.082000Z</time>
      </trkpt>
      <trkpt lat="41.782314" lon="123.39907">
        <ele>59.647736</ele>
        <time>2015-06-22T10:37:38.488000Z</time>
      </trkpt>
      <trkpt lat="41.78242" lon="123.39911">
        <ele>59.904102</ele>
        <time>2015-06-22T10:37:41.894000Z</time>
      </trkpt>
      <trkpt lat="41.78252" lon="123.399124">
        <ele>60.141068</ele>
        <time>2015-06-22T10:37:45.300000Z</time>
      </trkpt>
      <trkpt lat="41.782627" lon="123.39915">
        <ele>60.390553</ele>
        <time>2015-06-22T10:37:48.706000Z</time>
      </trkpt>
      <trkpt lat="41.782734" lon="123.3992">
        <ele>60.65693</ele>
        <time>2015-06-22T10:37:52.112000Z</time>
      </trkpt>
      <trkpt lat="41.782833" lon="123.39927">
        <ele>60.907455</ele>
        <time>2015-06-22T10:37:55.518000Z</time>
      </trkpt>
      <trkpt lat="41.78293" lon="123.39928">
        <ele>61.136497</ele>
        <time>2015-06-22T10:37:58.924000Z</time>
      </trkpt>
      <trkpt lat="41.783028" lon="123.39926">
        <ele>61.36491</ele>
        <time>2015-06-22T10:38:02.330000Z</time>
      </trkpt>
      <trkpt lat="41.783127" lon="123.39924">
        <ele>61.594994</ele>
        <time>2015-06-22T10:38:05.736000Z</time>
      </trkpt>
      <trkpt lat="41.78322" lon="123.39922">
        <ele>61.812355</ele>
        <time>2015-06-22T10:38:09.142000Z</time>
      </trkpt>
      <trkpt lat="41.78333" lon="123.39918">
        <ele>62.077065</ele>
        <time>2015-06-22T10:38:12.548000Z</time>
      </trkpt>
      <trkpt lat="41.783413" lon="123.3991">
        <ele>62.32133</ele>
        <time>2015-06-22T10:38:15.954000Z</time>
      </trkpt>
      <trkpt lat="41.78349" lon="123.399025">
        <ele>62.536816</ele>
        <time>2015-06-22T10:38:19.360000Z</time>
      </trkpt>
      <trkpt lat="41.78356" lon="123.398926">
        <ele>62.771694</ele>
        <time>2015-06-22T10:38:22.766000Z</time>
      </trkpt>
      <trkpt lat="41.783623" lon="123.398834">
        <ele>62.984882</ele>
        <time>2015-06-22T10:38:26.172000Z</time>
      </trkpt>
      <trkpt lat="41.783707" lon="123.39875">
        <ele>63.233532</ele>
        <time>2015-06-22T10:38:29.578000Z</time>
      </trkpt>
      <trkpt lat="41.783787" lon="123.39868">
        <ele>63.456524</ele>
        <time>2015-06-22T10:38:32.984000Z</time>
      </trkpt>
      <trkpt lat="41.78388" lon="123.39862">
        <ele>63.690987</ele>
        <time>2015-06-22T10:38:36.390000Z</time>
      </trkpt>
      <trkpt lat="41.783978" lon="123.39855">
        <ele>63.291153</ele>
        <time>2015-06-22T10:38:39.796000Z</time>
      </trkpt>
      <trkpt lat="41.7841" lon="123.39847">
        <ele>62.80157</ele>
        <time>2015-06-22T10:38:43.202000Z</time>
      </trkpt>
      <trkpt lat="41.7842" lon="123.398384">
        <ele>62.3729</ele>
        <time>2015-06-22T10:38:46.608000Z</time>
      </trkpt>
      <trkpt lat="41.784218" lon="123.39825">
        <ele>62.004818</ele>
        <time>2015-06-22T10:38:50.014000Z</time>
      </trkpt>
      <trkpt lat="41.784245" lon="123.3981">
        <ele>61.589756</ele>
        <time>2015-06-22T10:38:53.420000Z</time>
      </trkpt>
      <trkpt lat="41.784283" lon="123.39794">
        <ele>61.141</ele>
        <time>2015-06-22T10:38:56.826000Z</time>
      </trkpt>
      <trkpt lat="41.784298" lon="123.39779">
        <ele>60.728207</ele>
        <time>2015-06-22T10:39:00.232000Z</time>
      </trkpt>
      <trkpt lat="41.784256" lon="123.39764">
        <ele>60.29176</ele>
        <time>2015-06-22T10:39:03.638000Z</time>
      </trkpt>
      <trkpt lat="41.784187" lon="123.3975">
        <ele>59.865356</ele>
        <time>2015-06-22T10:39:07.044000Z</time>
      </trkpt>
      <trkpt lat="41.784107" lon="123.3974">
        <ele>59.4571</ele>
        <time>2015-06-22T10:39:10.450000Z</time>
      </trkpt>
      <trkpt lat="41.783997" lon="123.39731">
        <ele>58.997</ele>
        <time>2015-06-22T10:39:13.856000Z</time>
      </trkpt>
      <trkpt lat="41.7839" lon="123.39725">
        <ele>58.60559</ele>
        <time>2015-06-22T10:39:17.262000Z</time>
      </trkpt>
      <trkpt lat="41.783794" lon="123.39721">
        <ele>57.37634</ele>
        <time>2015-06-22T10:39:20.668000Z</time>
      </trkpt>
      <trkpt lat="41.783695" lon="123.39722">
        <ele>56.25823</ele>
        <time>2015-06-22T10:39:24.074000Z</time>
      </trkpt>
      <trkpt lat="41.783607" lon="123.397224">
        <ele>55.62951</ele>
        <time>2015-06-22T10:39:27.480000Z</time>
      </trkpt>
      <trkpt lat="41.783485" lon="123.39725">
        <ele>55.219322</ele>
        <time>2015-06-22T10:39:30.886000Z</time>
      </trkpt>
      <trkpt lat="41.783398" lon="123.39727">
        <ele>54.95183</ele>
        <time>2015-06-22T10:39:34.292000Z</time>
      </trkpt>
      <trkpt lat="41.783287" lon="123.397316">
        <ele>54.729385</ele>
        <time>2015-06-22T10:39:37.698000Z</time>
      </trkpt>
      <trkpt lat="41.783184" lon="123.39739">
        <ele>54.382336</ele>
        <time>2015-06-22T10:39:41.104000Z</time>
      </trkpt>
      <trkpt lat="41.783077" lon="123.39747">
        <ele>53.908394</ele>
        <time>2015-06-22T10:39:44.510000Z</time>
      </trkpt>
      <trkpt lat="41.782993" lon="123.39757">
        <ele>53.25672</ele>
        <time>2015-06-22T10:39:47.916000Z</time>
      </trkpt>
      <trkpt lat="41.78292" lon="123.39768">
        <ele>52.36938</ele>
        <time>2015-06-22T10:39:51.322000Z</time>
      </trkpt>
      <trkpt lat="41.782864" lon="123.3978">
        <ele>51.35546</ele>
        <time>2015-06-22T10:39:54.728000Z</time>
      </trkpt>
      <trkpt lat="41.782803" lon="123.39791">
        <ele>50.451687</ele>
        <time>2015-06-22T10:39:58.134000Z</time>
      </trkpt>
      <trkpt lat="41.78275" lon="123.39802">
        <ele>50.06097</ele>
        <time>2015-06-22T10:40:01.540000Z</time>
      </trkpt>
      <trkpt lat="41.78268" lon="123.39812">
        <ele>50.75937</ele>
        <time>2015-06-22T10:40:04.946000Z</time>
      </trkpt>
      <trkpt lat="41.782604" lon="123.39823">
        <ele>51.52038</ele>
        <time>2015-06-22T10:40:08.352000Z</time>
      </trkpt>
      <trkpt lat="41.782528" lon="123.39832">
        <ele>52.226074</ele>
        <time>2015-06-22T10:40:11.758000Z</time>
      </trkpt>
      <trkpt lat="41.782436" lon="123.398415">
        <ele>52.99681</ele>
        <time>2015-06-22T10:40:15.164000Z</time>
      </trkpt>
      <trkpt lat="41.78235" lon="123.39847">
        <ele>53.65631</ele>
        <time>2015-06-22T10:40:18.570000Z</time>
      </trkpt>
      <trkpt lat="41.78227" lon="123.39854">
        <ele>54.3073</ele>
        <time>2015-06-22T10:40:21.976000Z</time>
      </trkpt>
      <trkpt lat="41.7822" lon="123.39862">
        <ele>54.926075</ele>
        <time>2015-06-22T10:40:25.382000Z</time>
      </trkpt>
      <trkpt lat="41.782158" lon="123.39873">
        <ele>55.55336</ele>
        <time>2015-06-22T10:40:28.788000Z</time>
      </trkpt>
      <trkpt lat="41.782166" lon="123.398865">
        <ele>55.945354</ele>
        <time>2015-06-22T10:40:32.194000Z</time>
      </trkpt>
      <trkpt lat="41.782238" lon="123.39898">
        <ele>55.989624</ele>
        <time>2015-06-22T10:40:35.600000Z</time>
      </trkpt>
      <trkpt lat="41.782326" lon="123.39907">
        <ele>56.032734</ele>
        <time>2015-06-22T10:40:39.006000Z</time>
      </trkpt>
      <trkpt lat="41.782425" lon="123.399124">
        <ele>56.073563</ele>
        <time>2015-06-22T10:40:42.412000Z</time>
      </trkpt>
      <trkpt lat="41.78253" lon="123.399155">
        <ele>56.11769</ele>
        <time>2015-06-22T10:40:45.818000Z</time>
      </trkpt>
      <trkpt lat="41.782623" lon="123.39917">
        <ele>56.15371</ele>
        <time>2015-06-22T10:40:49.224000Z</time>
      </trkpt>
      <trkpt lat="41.782715" lon="123.399185">
        <ele>56.18938</ele>
        <time>2015-06-22T10:40:52.630000Z</time>
      </trkpt>
      <trkpt lat="41.782818" lon="123.3992">
        <ele>56.229893</ele>
        <time>2015-06-22T10:40:56.036000Z</time>
      </trkpt>
      <trkpt lat="41.782936" lon="123.39919">
        <ele>56.276375</ele>
        <time>2015-06-22T10:40:59.442000Z</time>
      </trkpt>
      <trkpt lat="41.783043" lon="123.39919">
        <ele>56.31692</ele>
        <time>2015-06-22T10:41:02.848000Z</time>
      </trkpt>
      <trkpt lat="41.783146" lon="123.399185">
        <ele>56.357964</ele>
        <time>2015-06-22T10:41:06.254000Z</time>
      </trkpt>
      <trkpt lat="41.78325" lon="123.399155">
        <ele>56.399036</ele>
        <time>2015-06-22T10:41:09.660000Z</time>
      </trkpt>
      <trkpt lat="41.783337" lon="123.399124">
        <ele>56.43425</ele>
        <time>2015-06-22T10:41:13.066000Z</time>
      </trkpt>
      <trkpt lat="41.78344" lon="123.39905">
        <ele>56.4808</ele>
        <time>2015-06-22T10:41:16.472000Z</time>
      </trkpt>
      <trkpt lat="41.783516" lon="123.39898">
        <ele>56.51626</ele>
        <time>2015-06-22T10:41:19.878000Z</time>
      </trkpt>
      <trkpt lat="41.783607" lon="123.39888">
        <ele>56.561653</ele>
        <time>2015-06-22T10:41:23.284000Z</time>
      </trkpt>
      <trkpt lat="41.783684" lon="123.3988">
        <ele>56.599358</ele>
        <time>2015-06-22T10:41:26.690000Z</time>
      </trkpt>
      <trkpt lat="41.78376" lon="123.398735">
        <ele>57.569298</ele>
        <time>2015-06-22T10:41:30.096000Z</time>
      </trkpt>
      <trkpt lat="41.783855" lon="123.39864">
        <ele>58.4338</ele>
        <time>2015-06-22T10:41:33.502000Z</time>
      </trkpt>
      <trkpt lat="41.783943" lon="123.39856">
        <ele>59.083874</ele>
        <time>2015-06-22T10:41:36.908000Z</time>
      </trkpt>
      <trkpt lat="41.784023" lon="123.39845">
        <ele>59.58238</ele>
        <time>2015-06-22T10:41:40.314000Z</time>
      </trkpt>
      <trkpt lat="41.78407" lon="123.39833">
        <ele>60.04837</ele>
        <time>2015-06-22T10:41:43.720000Z</time>
      </trkpt>
      <trkpt lat="41.784107" lon="123.3982">
        <ele>60.512733</ele>
        <time>2015-06-22T10:41:47.126000Z</time>
      </trkpt>
      <trkpt lat="41.78415" lon="123.39805">
        <ele>60.867325</ele>
        <time>2015-06-22T10:41:50.532000Z</time>
      </trkpt>
      <trkpt lat="41.784187" lon="123.3979">
        <ele>61.13984</ele>
        <time>2015-06-22T10:41:53.938000Z</time>
      </trkpt>
      <trkpt lat="41.784225" lon="123.39778">
        <ele>61.499714</ele>
        <time>2015-06-22T10:41:57.344000Z</time>
      </trkpt>
      <trkpt lat="41.78421" lon="123.397644">
        <ele>62.107216</ele>
        <time>2015-06-22T10:42:00.750000Z</time>
      </trkpt>
      <trkpt lat="41.784184" lon="123.3975">
        <ele>62.973476</ele>
        <time>2015-06-22T10:42:04.156000Z</time>
      </trkpt>
      <trkpt lat="41.784115" lon="123.3974">
        <ele>63.728138</ele>
        <time>2015-06-22T10:42:07.562000Z</time>
      </trkpt>
      <trkpt lat="41.78401" lon="123.397316">
        <ele>63.772446</ele>
        <time>2015-06-22T10:42:10.968000Z</time>
      </trkpt>
      <trkpt lat="41.783905" lon="123.39728">
        <ele>63.860207</ele>
        <time>2015-06-22T10:42:14.374000Z</time>
      </trkpt>
      <trkpt lat="41.78396" lon="123.397156">
        <ele>63.943684</ele>
        <time>2015-06-22T10:42:17.780000Z</time>
      </trkpt>
      <trkpt lat="41.784027" lon="123.39704">
        <ele>64.029755</ele>
        <time>2015-06-22T10:42:21.186000Z</time>
      </trkpt>
      <trkpt lat="41.784027" lon="123.39704">
        <ele>64.029755</ele>
        <time>2015-06-22T10:42:24.592000Z</time>
      </trkpt>
      <trkpt lat="41.784027" lon="123.39704">
        <ele>64.029755</ele>
        <time>2015-06-22T10:42:27.998000Z</time>
      </trkpt>
      <trkpt lat="41.783978" lon="123.39714">
        <ele>64.1008</ele>
        <time>2015-06-22T10:42:31.404000Z</time>
      </trkpt>
      <trkpt lat="41.783913" lon="123.39723">
        <ele>64.17219</ele>
        <time>2015-06-22T10:42:34.810000Z</time>
      </trkpt>
      <trkpt lat="41.783813" lon="123.39724">
        <ele>64.25109</ele>
        <time>2015-06-22T10:42:38.216000Z</time>
      </trkpt>
      <trkpt lat="41.783703" lon="123.397224">
        <ele>65.32399</ele>
        <time>2015-06-22T10:42:41.622000Z</time>
      </trkpt>
      <trkpt lat="41.783607" lon="123.39719">
        <ele>65.41715</ele>
        <time>2015-06-22T10:42:45.028000Z</time>
      </trkpt>
      <trkpt lat="41.783485" lon="123.39719">
        <ele>64.232956</ele>
        <time>2015-06-22T10:42:48.434000Z</time>
      </trkpt>
      <trkpt lat="41.783382" lon="123.39723">
        <ele>63.15956</ele>
        <time>2015-06-22T10:42:51.840000Z</time>
      </trkpt>
      <trkpt lat="41.783295" lon="123.39729">
        <ele>62.169483</ele>
        <time>2015-06-22T10:42:55.246000Z</time>
      </trkpt>
      <trkpt lat="41.783207" lon="123.397385">
        <ele>61.090767</ele>
        <time>2015-06-22T10:42:58.652000Z</time>
      </trkpt>
      <trkpt lat="41.783108" lon="123.39748">
        <ele>59.90037</ele>
        <time>2015-06-22T10:43:02.058000Z</time>
      </trkpt>
      <trkpt lat="41.783035" lon="123.39755">
        <ele>58.9945</ele>
        <time>2015-06-22T10:43:05.464000Z</time>
      </trkpt>
      <trkpt lat="41.782963" lon="123.39766">
        <ele>56.649803</ele>
        <time>2015-06-22T10:43:08.870000Z</time>
      </trkpt>
      <trkpt lat="41.78289" lon="123.39775">
        <ele>54.280415</ele>
        <time>2015-06-22T10:43:12.276000Z</time>
      </trkpt>
      <trkpt lat="41.7828" lon="123.39784">
        <ele>52.49625</ele>
        <time>2015-06-22T10:43:15.682000Z</time>
      </trkpt>
      <trkpt lat="41.78272" lon="123.397934">
        <ele>51.553356</ele>
        <time>2015-06-22T10:43:19.088000Z</time>
      </trkpt>
      <trkpt lat="41.782646" lon="123.398056">
        <ele>51.23487</ele>
        <time>2015-06-22T10:43:22.494000Z</time>
      </trkpt>
      <trkpt lat="41.78257" lon="123.39818">
        <ele>51.228897</ele>
        <time>2015-06-22T10:43:25.900000Z</time>
      </trkpt>
      <trkpt lat="41.782486" lon="123.39827">
        <ele>51.22321</ele>
        <time>2015-06-22T10:43:29.306000Z</time>
      </trkpt>
      <trkpt lat="41.7824" lon="123.398346">
        <ele>51.067146</ele>
        <time>2015-06-22T10:43:32.712000Z</time>
      </trkpt>
      <trkpt lat="41.7823" lon="123.39841">
        <ele>51.300755</ele>
        <time>2015-06-22T10:43:36.118000Z</time>
      </trkpt>
      <trkpt lat="41.782223" lon="123.398476">
        <ele>51.50793</ele>
        <time>2015-06-22T10:43:39.524000Z</time>
      </trkpt>
      <trkpt lat="41.782173" lon="123.39861">
        <ele>51.75329</ele>
        <time>2015-06-22T10:43:42.930000Z</time>
      </trkpt>
      <trkpt lat="41.782173" lon="123.398766">
        <ele>52.004128</ele>
        <time>2015-06-22T10:43:46.336000Z</time>
      </trkpt>
      <trkpt lat="41.782227" lon="123.3989">
        <ele>52.26124</ele>
        <time>2015-06-22T10:43:49.742000Z</time>
      </trkpt>
      <trkpt lat="41.782295" lon="123.399">
        <ele>52.47311</ele>
        <time>2015-06-22T10:43:53.148000Z</time>
      </trkpt>
      <trkpt lat="41.782364" lon="123.39908">
        <ele>52.67167</ele>
        <time>2015-06-22T10:43:56.554000Z</time>
      </trkpt>
      <trkpt lat="41.782467" lon="123.39914">
        <ele>52.918007</ele>
        <time>2015-06-22T10:43:59.960000Z</time>
      </trkpt>
      <trkpt lat="41.78256" lon="123.39915">
        <ele>53.11441</ele>
        <time>2015-06-22T10:44:03.366000Z</time>
      </trkpt>
      <trkpt lat="41.782654" lon="123.39916">
        <ele>53.324326</ele>
        <time>2015-06-22T10:44:06.772000Z</time>
      </trkpt>
      <trkpt lat="41.78275" lon="123.399185">
        <ele>53.53581</ele>
        <time>2015-06-22T10:44:10.178000Z</time>
      </trkpt>
      <trkpt lat="41.78285" lon="123.3992">
        <ele>53.750618</ele>
        <time>2015-06-22T10:44:13.584000Z</time>
      </trkpt>
      <trkpt lat="41.78296" lon="123.3992">
        <ele>53.996956</ele>
        <time>2015-06-22T10:44:16.990000Z</time>
      </trkpt>
      <trkpt lat="41.783062" lon="123.399185">
        <ele>54.21882</ele>
        <time>2015-06-22T10:44:20.396000Z</time>
      </trkpt>
      <trkpt lat="41.783154" lon="123.39921">
        <ele>54.42266</ele>
        <time>2015-06-22T10:44:23.802000Z</time>
      </trkpt>
      <trkpt lat="41.783253" lon="123.39917">
        <ele>54.645893</ele>
        <time>2015-06-22T10:44:27.208000Z</time>
      </trkpt>
      <trkpt lat="41.783363" lon="123.39911">
        <ele>54.899868</ele>
        <time>2015-06-22T10:44:30.614000Z</time>
      </trkpt>
      <trkpt lat="41.783474" lon="123.39905">
        <ele>55.165005</ele>
        <time>2015-06-22T10:44:34.020000Z</time>
      </trkpt>
      <trkpt lat="41.78357" lon="123.39899">
        <ele>55.39274</ele>
        <time>2015-06-22T10:44:37.426000Z</time>
      </trkpt>
      <trkpt lat="41.783657" lon="123.398895">
        <ele>55.635746</ele>
        <time>2015-06-22T10:44:40.832000Z</time>
      </trkpt>
      <trkpt lat="41.783745" lon="123.39881">
        <ele>55.874058</ele>
        <time>2015-06-22T10:44:44.238000Z</time>
      </trkpt>
      <trkpt lat="41.783844" lon="123.39874">
        <ele>56.120197</ele>
        <time>2015-06-22T10:44:47.644000Z</time>
      </trkpt>
      <trkpt lat="41.783924" lon="123.398674">
        <ele>56.3215</ele>
        <time>2015-06-22T10:44:51.050000Z</time>
      </trkpt>
      <trkpt lat="41.784" lon="123.398605">
        <ele>56.521034</ele>
        <time>2015-06-22T10:44:54.456000Z</time>
      </trkpt>
      <trkpt lat="41.784065" lon="123.39852">
        <ele>56.71783</ele>
        <time>2015-06-22T10:44:57.862000Z</time>
      </trkpt>
      <trkpt lat="41.7841" lon="123.398384">
        <ele>56.96084</ele>
        <time>2015-06-22T10:45:01.268000Z</time>
      </trkpt>
      <trkpt lat="41.78413" lon="123.39823">
        <ele>57.218925</ele>
        <time>2015-06-22T10:45:04.674000Z</time>
      </trkpt>
      <trkpt lat="41.784157" lon="123.3981">
        <ele>59.807247</ele>
        <time>2015-06-22T10:45:08.080000Z</time>
      </trkpt>
      <trkpt lat="41.78419" lon="123.39797">
        <ele>61.53716</ele>
        <time>2015-06-22T10:45:11.486000Z</time>
      </trkpt>
      <trkpt lat="41.78422" lon="123.39783">
        <ele>61.706364</ele>
        <time>2015-06-22T10:45:14.892000Z</time>
      </trkpt>
      <trkpt lat="41.78422" lon="123.39769">
        <ele>60.434273</ele>
        <time>2015-06-22T10:45:18.298000Z</time>
      </trkpt>
      <trkpt lat="41.784176" lon="123.39756">
        <ele>59.05579</ele>
        <time>2015-06-22T10:45:21.704000Z</time>
      </trkpt>
      <trkpt lat="41.78414" lon="123.39742">
        <ele>57.686558</ele>
        <time>2015-06-22T10:45:25.110000Z</time>
      </trkpt>
      <trkpt lat="41.7841" lon="123.39729">
        <ele>56.326576</ele>
        <time>2015-06-22T10:45:28.516000Z</time>
      </trkpt>
      <trkpt lat="41.783997" lon="123.3972">
        <ele>53.871407</ele>
        <time>2015-06-22T10:45:31.922000Z</time>
      </trkpt>
      <trkpt lat="41.783894" lon="123.39718">
        <ele>51.74844</ele>
        <time>2015-06-22T10:45:35.328000Z</time>
      </trkpt>
      <trkpt lat="41.783783" lon="123.39716">
        <ele>50.989754</ele>
        <time>2015-06-22T10:45:38.734000Z</time>
      </trkpt>
      <trkpt lat="41.783684" lon="123.397156">
        <ele>50.490826</ele>
        <time>2015-06-22T10:45:42.140000Z</time>
      </trkpt>
      <trkpt lat="41.783592" lon="123.39713">
        <ele>50.03126</ele>
        <time>2015-06-22T10:45:45.546000Z</time>
      </trkpt>
      <trkpt lat="41.78348" lon="123.39717">
        <ele>49.4766</ele>
        <time>2015-06-22T10:45:48.952000Z</time>
      </trkpt>
      <trkpt lat="41.783398" lon="123.39723">
        <ele>47.303276</ele>
        <time>2015-06-22T10:45:52.358000Z</time>
      </trkpt>
      <trkpt lat="41.783314" lon="123.39734">
        <ele>46.749577</ele>
        <time>2015-06-22T10:45:55.764000Z</time>
      </trkpt>
      <trkpt lat="41.783222" lon="123.39743">
        <ele>46.73063</ele>
        <time>2015-06-22T10:45:59.170000Z</time>
      </trkpt>
      <trkpt lat="41.78312" lon="123.39749">
        <ele>46.7118</ele>
        <time>2015-06-22T10:46:02.576000Z</time>
      </trkpt>
      <trkpt lat="41.78303" lon="123.39756">
        <ele>46.69532</ele>
        <time>2015-06-22T10:46:05.982000Z</time>
      </trkpt>
      <trkpt lat="41.782955" lon="123.397675">
        <ele>46.67709</ele>
        <time>2015-06-22T10:46:09.388000Z</time>
      </trkpt>
      <trkpt lat="41.78289" lon="123.39779">
        <ele>46.09238</ele>
        <time>2015-06-22T10:46:12.794000Z</time>
      </trkpt>
      <trkpt lat="41.78283" lon="123.39793">
        <ele>45.71016</ele>
        <time>2015-06-22T10:46:16.200000Z</time>
      </trkpt>
      <trkpt lat="41.782764" lon="123.398026">
        <ele>45.333355</ele>
        <time>2015-06-22T10:46:19.606000Z</time>
      </trkpt>
      <trkpt lat="41.782677" lon="123.39811">
        <ele>45.297092</ele>
        <time>2015-06-22T10:46:23.012000Z</time>
      </trkpt>
      <trkpt lat="41.782597" lon="123.3982">
        <ele>46.672604</ele>
        <time>2015-06-22T10:46:26.418000Z</time>
      </trkpt>
      <trkpt lat="41.782528" lon="123.398285">
        <ele>47.925346</ele>
        <time>2015-06-22T10:46:29.824000Z</time>
      </trkpt>
      <trkpt lat="41.78241" lon="123.39833">
        <ele>49.514217</ele>
        <time>2015-06-22T10:46:33.230000Z</time>
      </trkpt>
      <trkpt lat="41.782303" lon="123.39838">
        <ele>51.03038</ele>
        <time>2015-06-22T10:46:36.636000Z</time>
      </trkpt>
      <trkpt lat="41.782215" lon="123.39846">
        <ele>51.94783</ele>
        <time>2015-06-22T10:46:40.042000Z</time>
      </trkpt>
      <trkpt lat="41.782177" lon="123.398575">
        <ele>52.205147</ele>
        <time>2015-06-22T10:46:43.448000Z</time>
      </trkpt>
      <trkpt lat="41.782223" lon="123.3987">
        <ele>52.674778</ele>
        <time>2015-06-22T10:46:46.854000Z</time>
      </trkpt>
      <trkpt lat="41.782246" lon="123.39881">
        <ele>53.093853</ele>
        <time>2015-06-22T10:46:50.260000Z</time>
      </trkpt>
      <trkpt lat="41.78227" lon="123.39894">
        <ele>53.54217</ele>
        <time>2015-06-22T10:46:53.666000Z</time>
      </trkpt>
      <trkpt lat="41.782352" lon="123.39904">
        <ele>56.7704</ele>
        <time>2015-06-22T10:46:57.072000Z</time>
      </trkpt>
      <trkpt lat="41.782417" lon="123.399155">
        <ele>60.59787</ele>
        <time>2015-06-22T10:47:00.478000Z</time>
      </trkpt>
      <trkpt lat="41.78249" lon="123.39924">
        <ele>63.974316</ele>
        <time>2015-06-22T10:47:03.884000Z</time>
      </trkpt>
      <trkpt lat="41.7826" lon="123.399284">
        <ele>66.64599</ele>
        <time>2015-06-22T10:47:07.290000Z</time>
      </trkpt>
      <trkpt lat="41.7827" lon="123.3993">
        <ele>68.343124</ele>
        <time>2015-06-22T10:47:10.696000Z</time>
      </trkpt>
      <trkpt lat="41.78282" lon="123.3993">
        <ele>69.27263</ele>
        <time>2015-06-22T10:47:14.102000Z</time>
      </trkpt>
      <trkpt lat="41.782917" lon="123.39927">
        <ele>69.60584</ele>
        <time>2015-06-22T10:47:17.508000Z</time>
      </trkpt>
      <trkpt lat="41.783028" lon="123.39923">
        <ele>68.507706</ele>
        <time>2015-06-22T10:47:20.914000Z</time>
      </trkpt>
      <trkpt lat="41.783134" lon="123.39919">
        <ele>67.44818</ele>
        <time>2015-06-22T10:47:24.320000Z</time>
      </trkpt>
      <trkpt lat="41.783245" lon="123.399155">
        <ele>66.38866</ele>
        <time>2015-06-22T10:47:27.726000Z</time>
      </trkpt>
      <trkpt lat="41.78334" lon="123.399124">
        <ele>65.44324</ele>
        <time>2015-06-22T10:47:31.132000Z</time>
      </trkpt>
      <trkpt lat="41.783432" lon="123.39908">
        <ele>64.48837</ele>
        <time>2015-06-22T10:47:34.538000Z</time>
      </trkpt>
      <trkpt lat="41.783543" lon="123.39901">
        <ele>63.332764</ele>
        <time>2015-06-22T10:47:37.944000Z</time>
      </trkpt>
      <trkpt lat="41.783623" lon="123.39892">
        <ele>60.44843</ele>
        <time>2015-06-22T10:47:41.350000Z</time>
      </trkpt>
      <trkpt lat="41.783695" lon="123.398834">
        <ele>57.497814</ele>
        <time>2015-06-22T10:47:44.756000Z</time>
      </trkpt>
      <trkpt lat="41.78377" lon="123.398766">
        <ele>55.68633</ele>
        <time>2015-06-22T10:47:48.162000Z</time>
      </trkpt>
      <trkpt lat="41.783848" lon="123.39869">
        <ele>54.770683</ele>
        <time>2015-06-22T10:47:51.568000Z</time>
      </trkpt>
      <trkpt lat="41.783928" lon="123.39861">
        <ele>54.204117</ele>
        <time>2015-06-22T10:47:54.974000Z</time>
      </trkpt>
      <trkpt lat="41.784" lon="123.39852">
        <ele>53.90079</ele>
        <time>2015-06-22T10:47:58.380000Z</time>
      </trkpt>
      <trkpt lat="41.784096" lon="123.39841">
        <ele>54.558517</ele>
        <time>2015-06-22T10:48:01.786000Z</time>
      </trkpt>
      <trkpt lat="41.78415" lon="123.39829">
        <ele>55.098133</ele>
        <time>2015-06-22T10:48:05.192000Z</time>
      </trkpt>
      <trkpt lat="41.78417" lon="123.39817">
        <ele>55.584404</ele>
        <time>2015-06-22T10:48:08.598000Z</time>
      </trkpt>
      <trkpt lat="41.784195" lon="123.39805">
        <ele>56.088295</ele>
        <time>2015-06-22T10:48:12.004000Z</time>
      </trkpt>
      <trkpt lat="41.784225" lon="123.397934">
        <ele>56.565994</ele>
        <time>2015-06-22T10:48:15.410000Z</time>
      </trkpt>
      <trkpt lat="41.784233" lon="123.39779">
        <ele>57.167046</ele>
        <time>2015-06-22T10:48:18.816000Z</time>
      </trkpt>
      <trkpt lat="41.78421" lon="123.39767">
        <ele>57.66808</ele>
        <time>2015-06-22T10:48:22.222000Z</time>
      </trkpt>
      <trkpt lat="41.78417" lon="123.39755">
        <ele>58.153877</ele>
        <time>2015-06-22T10:48:25.628000Z</time>
      </trkpt>
      <trkpt lat="41.78412" lon="123.39742">
        <ele>58.727303</ele>
        <time>2015-06-22T10:48:29.034000Z</time>
      </trkpt>
      <trkpt lat="41.78404" lon="123.39732">
        <ele>59.318832</ele>
        <time>2015-06-22T10:48:32.440000Z</time>
      </trkpt>
      <trkpt lat="41.783947" lon="123.39724">
        <ele>59.91036</ele>
        <time>2015-06-22T10:48:35.846000Z</time>
      </trkpt>
      <trkpt lat="41.78384" lon="123.397194">
        <ele>61.995075</ele>
        <time>2015-06-22T10:48:39.252000Z</time>
      </trkpt>
      <trkpt lat="41.783745" lon="123.39717">
        <ele>62.55366</ele>
        <time>2015-06-22T10:48:42.658000Z</time>
      </trkpt>
      <trkpt lat="41.783638" lon="123.39722">
        <ele>60.55608</ele>
        <time>2015-06-22T10:48:46.064000Z</time>
      </trkpt>
      <trkpt lat="41.783546" lon="123.397224">
        <ele>58.969437</ele>
        <time>2015-06-22T10:48:49.470000Z</time>
      </trkpt>
      <trkpt lat="41.783432" lon="123.397194">
        <ele>56.909977</ele>
        <time>2015-06-22T10:48:52.876000Z</time>
      </trkpt>
      <trkpt lat="41.783344" lon="123.39723">
        <ele>55.75796</ele>
        <time>2015-06-22T10:48:56.282000Z</time>
      </trkpt>
      <trkpt lat="41.783268" lon="123.3973">
        <ele>55.52438</ele>
        <time>2015-06-22T10:48:59.688000Z</time>
      </trkpt>
      <trkpt lat="41.783207" lon="123.39741">
        <ele>55.485382</ele>
        <time>2015-06-22T10:49:03.094000Z</time>
      </trkpt>
      <trkpt lat="41.783134" lon="123.397514">
        <ele>55.443733</ele>
        <time>2015-06-22T10:49:06.500000Z</time>
      </trkpt>
      <trkpt lat="41.78305" lon="123.3976">
        <ele>54.31873</ele>
        <time>2015-06-22T10:49:09.906000Z</time>
      </trkpt>
      <trkpt lat="41.782986" lon="123.39768">
        <ele>52.454166</ele>
        <time>2015-06-22T10:49:13.312000Z</time>
      </trkpt>
      <trkpt lat="41.782932" lon="123.39778">
        <ele>50.466476</ele>
        <time>2015-06-22T10:49:16.718000Z</time>
      </trkpt>
      <trkpt lat="41.78285" lon="123.3979">
        <ele>49.08852</ele>
        <time>2015-06-22T10:49:20.124000Z</time>
      </trkpt>
      <trkpt lat="41.78276" lon="123.39802">
        <ele>48.618683</ele>
        <time>2015-06-22T10:49:23.530000Z</time>
      </trkpt>
      <trkpt lat="41.78268" lon="123.39813">
        <ele>48.381638</ele>
        <time>2015-06-22T10:49:26.936000Z</time>
      </trkpt>
      <trkpt lat="41.7826" lon="123.39823">
        <ele>47.6871</ele>
        <time>2015-06-22T10:49:30.342000Z</time>
      </trkpt>
      <trkpt lat="41.782513" lon="123.398285">
        <ele>46.70003</ele>
        <time>2015-06-22T10:49:33.748000Z</time>
      </trkpt>
      <trkpt lat="41.782413" lon="123.39833">
        <ele>46.155674</ele>
        <time>2015-06-22T10:49:37.154000Z</time>
      </trkpt>
      <trkpt lat="41.782326" lon="123.39839">
        <ele>46.02035</ele>
        <time>2015-06-22T10:49:40.560000Z</time>
      </trkpt>
      <trkpt lat="41.782238" lon="123.398476">
        <ele>45.870384</ele>
        <time>2015-06-22T10:49:43.966000Z</time>
      </trkpt>
      <trkpt lat="41.782192" lon="123.39859">
        <ele>45.73256</ele>
        <time>2015-06-22T10:49:47.372000Z</time>
      </trkpt>
      <trkpt lat="41.78218" lon="123.39872">
        <ele>45.60224</ele>
        <time>2015-06-22T10:49:50.778000Z</time>
      </trkpt>
      <trkpt lat="41.782215" lon="123.39884">
        <ele>45.466545</ele>
        <time>2015-06-22T10:49:54.184000Z</time>
      </trkpt>
      <trkpt lat="41.782307" lon="123.398926">
        <ele>45.293335</ele>
        <time>2015-06-22T10:49:57.590000Z</time>
      </trkpt>
      <trkpt lat="41.782394" lon="123.39897">
        <ele>46.501476</ele>
        <time>2015-06-22T10:50:00.996000Z</time>
      </trkpt>
      <trkpt lat="41.782475" lon="123.39905">
        <ele>47.73465</ele>
        <time>2015-06-22T10:50:04.402000Z</time>
      </trkpt>
      <trkpt lat="41.782566" lon="123.39916">
        <ele>49.269287</ele>
        <time>2015-06-22T10:50:07.808000Z</time>
      </trkpt>
      <trkpt lat="41.782658" lon="123.399216">
        <ele>50.57868</ele>
        <time>2015-06-22T10:50:11.214000Z</time>
      </trkpt>
      <trkpt lat="41.78275" lon="123.399254">
        <ele>52.990795</ele>
        <time>2015-06-22T10:50:14.620000Z</time>
      </trkpt>
      <trkpt lat="41.782845" lon="123.39926">
        <ele>55.385674</ele>
        <time>2015-06-22T10:50:18.026000Z</time>
      </trkpt>
      <trkpt lat="41.78294" lon="123.39926">
        <ele>57.42578</ele>
        <time>2015-06-22T10:50:21.432000Z</time>
      </trkpt>
      <trkpt lat="41.783035" lon="123.39923">
        <ele>59.065853</ele>
        <time>2015-06-22T10:50:24.838000Z</time>
      </trkpt>
      <trkpt lat="41.783154" lon="123.399185">
        <ele>60.13239</ele>
        <time>2015-06-22T10:50:28.244000Z</time>
      </trkpt>
      <trkpt lat="41.78328" lon="123.399155">
        <ele>60.723083</ele>
        <time>2015-06-22T10:50:31.650000Z</time>
      </trkpt>
      <trkpt lat="41.783375" lon="123.399124">
        <ele>60.748432</ele>
        <time>2015-06-22T10:50:35.056000Z</time>
      </trkpt>
      <trkpt lat="41.78347" lon="123.39909">
        <ele>60.774815</ele>
        <time>2015-06-22T10:50:38.462000Z</time>
      </trkpt>
      <trkpt lat="41.78356" lon="123.39901">
        <ele>60.802746</ele>
        <time>2015-06-22T10:50:41.868000Z</time>
      </trkpt>
      <trkpt lat="41.783638" lon="123.39892">
        <ele>60.83068</ele>
        <time>2015-06-22T10:50:45.274000Z</time>
      </trkpt>
      <trkpt lat="41.783726" lon="123.39882">
        <ele>60.859837</ele>
        <time>2015-06-22T10:50:48.680000Z</time>
      </trkpt>
      <trkpt lat="41.78382" lon="123.39874">
        <ele>60.88916</ele>
        <time>2015-06-22T10:50:52.086000Z</time>
      </trkpt>
      <trkpt lat="41.783916" lon="123.39865">
        <ele>60.91954</ele>
        <time>2015-06-22T10:50:55.492000Z</time>
      </trkpt>
      <trkpt lat="41.783997" lon="123.39858">
        <ele>60.943993</ele>
        <time>2015-06-22T10:50:58.898000Z</time>
      </trkpt>
      <trkpt lat="41.784077" lon="123.398476">
        <ele>60.974255</ele>
        <time>2015-06-22T10:51:02.304000Z</time>
      </trkpt>
      <trkpt lat="41.78412" lon="123.39836">
        <ele>60.999393</ele>
        <time>2015-06-22T10:51:05.710000Z</time>
      </trkpt>
      <trkpt lat="41.784153" lon="123.39824">
        <ele>61.024223</ele>
        <time>2015-06-22T10:51:09.116000Z</time>
      </trkpt>
      <trkpt lat="41.784195" lon="123.3981">
        <ele>61.053215</ele>
        <time>2015-06-22T10:51:12.522000Z</time>
      </trkpt>
      <trkpt lat="41.784203" lon="123.39794">
        <ele>62.062668</ele>
        <time>2015-06-22T10:51:15.928000Z</time>
      </trkpt>
      <trkpt lat="41.78419" lon="123.39781">
        <ele>62.949387</ele>
        <time>2015-06-22T10:51:19.334000Z</time>
      </trkpt>
      <trkpt lat="41.784157" lon="123.39769">
        <ele>63.584538</ele>
        <time>2015-06-22T10:51:22.740000Z</time>
      </trkpt>
      <trkpt lat="41.784107" lon="123.397575">
        <ele>63.947685</ele>
        <time>2015-06-22T10:51:26.146000Z</time>
      </trkpt>
      <trkpt lat="41.784058" lon="123.39748">
        <ele>64.163506</ele>
        <time>2015-06-22T10:51:29.552000Z</time>
      </trkpt>
      <trkpt lat="41.783985" lon="123.397385">
        <ele>64.38742</ele>
        <time>2015-06-22T10:51:32.958000Z</time>
      </trkpt>
      <trkpt lat="41.78391" lon="123.3973">
        <ele>64.61758</ele>
        <time>2015-06-22T10:51:36.364000Z</time>
      </trkpt>
      <trkpt lat="41.78382" lon="123.39725">
        <ele>64.83962</ele>
        <time>2015-06-22T10:51:39.770000Z</time>
      </trkpt>
      <trkpt lat="41.7837" lon="123.39724">
        <ele>65.121704</ele>
        <time>2015-06-22T10:51:43.176000Z</time>
      </trkpt>
      <trkpt lat="41.78359" lon="123.39724">
        <ele>65.38052</ele>
        <time>2015-06-22T10:51:46.582000Z</time>
      </trkpt>
      <trkpt lat="41.783497" lon="123.39726">
        <ele>67.058334</ele>
        <time>2015-06-22T10:51:49.988000Z</time>
      </trkpt>
      <trkpt lat="41.78339" lon="123.39731">
        <ele>67.582016</ele>
        <time>2015-06-22T10:51:53.394000Z</time>
      </trkpt>
      <trkpt lat="41.783268" lon="123.397354">
        <ele>64.12871</ele>
        <time>2015-06-22T10:51:56.800000Z</time>
      </trkpt>
      <trkpt lat="41.783173" lon="123.3974">
        <ele>61.441723</ele>
        <time>2015-06-22T10:52:00.206000Z</time>
      </trkpt>
      <trkpt lat="41.783077" lon="123.39747">
        <ele>58.461308</ele>
        <time>2015-06-22T10:52:03.612000Z</time>
      </trkpt>
      <trkpt lat="41.783012" lon="123.39756">
        <ele>52.996796</ele>
        <time>2015-06-22T10:52:07.018000Z</time>
      </trkpt>
      <trkpt lat="41.782963" lon="123.39769">
        <ele>49.812008</ele>
        <time>2015-06-22T10:52:10.424000Z</time>
      </trkpt>
      <trkpt lat="41.7829" lon="123.39779">
        <ele>48.97412</ele>
        <time>2015-06-22T10:52:13.830000Z</time>
      </trkpt>
      <trkpt lat="41.78283" lon="123.39787">
        <ele>48.83694</ele>
        <time>2015-06-22T10:52:17.236000Z</time>
      </trkpt>
      <trkpt lat="41.782764" lon="123.39796">
        <ele>48.204556</ele>
        <time>2015-06-22T10:52:20.642000Z</time>
      </trkpt>
      <trkpt lat="41.782703" lon="123.39806">
        <ele>47.629936</ele>
        <time>2015-06-22T10:52:24.048000Z</time>
      </trkpt>
      <trkpt lat="41.782642" lon="123.39816">
        <ele>47.533466</ele>
        <time>2015-06-22T10:52:27.454000Z</time>
      </trkpt>
      <trkpt lat="41.782593" lon="123.39827">
        <ele>47.436455</ele>
        <time>2015-06-22T10:52:30.860000Z</time>
      </trkpt>
      <trkpt lat="41.7825" lon="123.39833">
        <ele>47.335484</ele>
        <time>2015-06-22T10:52:34.266000Z</time>
      </trkpt>
      <trkpt lat="41.7824" lon="123.39836">
        <ele>47.229015</ele>
        <time>2015-06-22T10:52:37.672000Z</time>
      </trkpt>
      <trkpt lat="41.78229" lon="123.3984">
        <ele>47.118946</ele>
        <time>2015-06-22T10:52:41.078000Z</time>
      </trkpt>
      <trkpt lat="41.782223" lon="123.39854">
        <ele>47.003193</ele>
        <time>2015-06-22T10:52:44.484000Z</time>
      </trkpt>
      <trkpt lat="41.7822" lon="123.398674">
        <ele>47.902534</ele>
        <time>2015-06-22T10:52:47.890000Z</time>
      </trkpt>
      <trkpt lat="41.78224" lon="123.39881">
        <ele>48.842896</ele>
        <time>2015-06-22T10:52:51.296000Z</time>
      </trkpt>
      <trkpt lat="41.78232" lon="123.398926">
        <ele>49.85524</ele>
        <time>2015-06-22T10:52:54.702000Z</time>
      </trkpt>
      <trkpt lat="41.782383" lon="123.399025">
        <ele>50.667896</ele>
        <time>2015-06-22T10:52:58.108000Z</time>
      </trkpt>
      <trkpt lat="41.782475" lon="123.39911">
        <ele>51.653923</ele>
        <time>2015-06-22T10:53:01.514000Z</time>
      </trkpt>
      <trkpt lat="41.782566" lon="123.399185">
        <ele>52.566425</ele>
        <time>2015-06-22T10:53:04.920000Z</time>
      </trkpt>
      <trkpt lat="41.782673" lon="123.39924">
        <ele>53.54626</ele>
        <time>2015-06-22T10:53:08.326000Z</time>
      </trkpt>
      <trkpt lat="41.782784" lon="123.39925">
        <ele>55.43584</ele>
        <time>2015-06-22T10:53:11.732000Z</time>
      </trkpt>
      <trkpt lat="41.78289" lon="123.39922">
        <ele>57.699406</ele>
        <time>2015-06-22T10:53:15.138000Z</time>
      </trkpt>
      <trkpt lat="41.782986" lon="123.39917">
        <ele>59.789658</ele>
        <time>2015-06-22T10:53:18.544000Z</time>
      </trkpt>
      <trkpt lat="41.783096" lon="123.39913">
        <ele>60.99287</ele>
        <time>2015-06-22T10:53:21.950000Z</time>
      </trkpt>
      <trkpt lat="41.7832" lon="123.39912">
        <ele>61.02573</ele>
        <time>2015-06-22T10:53:25.356000Z</time>
      </trkpt>
      <trkpt lat="41.78332" lon="123.39911">
        <ele>60.02723</ele>
        <time>2015-06-22T10:53:28.762000Z</time>
      </trkpt>
      <trkpt lat="41.783436" lon="123.39906">
        <ele>58.99177</ele>
        <time>2015-06-22T10:53:32.168000Z</time>
      </trkpt>
      <trkpt lat="41.783524" lon="123.398994">
        <ele>58.15164</ele>
        <time>2015-06-22T10:53:35.574000Z</time>
      </trkpt>
      <trkpt lat="41.783596" lon="123.398895">
        <ele>57.289642</ele>
        <time>2015-06-22T10:53:38.980000Z</time>
      </trkpt>
      <trkpt lat="41.78368" lon="123.3988">
        <ele>56.40125</ele>
        <time>2015-06-22T10:53:42.386000Z</time>
      </trkpt>
      <trkpt lat="41.78376" lon="123.398735">
        <ele>55.586006</ele>
        <time>2015-06-22T10:53:45.792000Z</time>
      </trkpt>
      <trkpt lat="41.783836" lon="123.39867">
        <ele>54.8228</ele>
        <time>2015-06-22T10:53:49.198000Z</time>
      </trkpt>
      <trkpt lat="41.783928" lon="123.3986">
        <ele>52.9118</ele>
        <time>2015-06-22T10:53:52.604000Z</time>
      </trkpt>
      <trkpt lat="41.784023" lon="123.39853">
        <ele>51.711296</ele>
        <time>2015-06-22T10:53:56.010000Z</time>
      </trkpt>
      <trkpt lat="41.784103" lon="123.39847">
        <ele>51.097057</ele>
        <time>2015-06-22T10:53:59.416000Z</time>
      </trkpt>
      <trkpt lat="41.784172" lon="123.39835">
        <ele>50.839046</ele>
        <time>2015-06-22T10:54:02.822000Z</time>
      </trkpt>
      <trkpt lat="41.784225" lon="123.39823">
        <ele>50.820038</ele>
        <time>2015-06-22T10:54:06.228000Z</time>
      </trkpt>
      <trkpt lat="41.78426" lon="123.39811">
        <ele>49.912014</ele>
        <time>2015-06-22T10:54:09.634000Z</time>
      </trkpt>
      <trkpt lat="41.784275" lon="123.39799">
        <ele>47.442715</ele>
        <time>2015-06-22T10:54:13.040000Z</time>
      </trkpt>
      <trkpt lat="41.78428" lon="123.39783">
        <ele>45.015537</ele>
        <time>2015-06-22T10:54:16.446000Z</time>
      </trkpt>
      <trkpt lat="41.784245" lon="123.3977">
        <ele>44.2881</ele>
        <time>2015-06-22T10:54:19.852000Z</time>
      </trkpt>
      <trkpt lat="41.7842" lon="123.397575">
        <ele>44.036285</ele>
        <time>2015-06-22T10:54:23.258000Z</time>
      </trkpt>
      <trkpt lat="41.78415" lon="123.39747">
        <ele>43.786537</ele>
        <time>2015-06-22T10:54:26.664000Z</time>
      </trkpt>
      <trkpt lat="41.78408" lon="123.39735">
        <ele>43.497894</ele>
        <time>2015-06-22T10:54:30.070000Z</time>
      </trkpt>
      <trkpt lat="41.783993" lon="123.397285">
        <ele>41.745846</ele>
        <time>2015-06-22T10:54:33.476000Z</time>
      </trkpt>
      <trkpt lat="41.783882" lon="123.39725">
        <ele>40.824</ele>
        <time>2015-06-22T10:54:36.882000Z</time>
      </trkpt>
      <trkpt lat="41.78377" lon="123.39723">
        <ele>42.3972</ele>
        <time>2015-06-22T10:54:40.288000Z</time>
      </trkpt>
      <trkpt lat="41.783653" lon="123.39724">
        <ele>44.035</ele>
        <time>2015-06-22T10:54:43.694000Z</time>
      </trkpt>
      <trkpt lat="41.783558" lon="123.39725">
        <ele>45.3916</ele>
        <time>2015-06-22T10:54:47.100000Z</time>
      </trkpt>
      <trkpt lat="41.783466" lon="123.39726">
        <ele>46.695</ele>
        <time>2015-06-22T10:54:50.506000Z</time>
      </trkpt>
      <trkpt lat="41.783356" lon="123.39729">
        <ele>46.900963</ele>
        <time>2015-06-22T10:54:53.912000Z</time>
      </trkpt>
      <trkpt lat="41.783253" lon="123.39735">
        <ele>46.19414</ele>
        <time>2015-06-22T10:54:57.318000Z</time>
      </trkpt>
      <trkpt lat="41.783176" lon="123.397415">
        <ele>45.613644</ele>
        <time>2015-06-22T10:55:00.724000Z</time>
      </trkpt>
      <trkpt lat="41.783077" lon="123.397484">
        <ele>44.891895</ele>
        <time>2015-06-22T10:55:04.130000Z</time>
      </trkpt>
      <trkpt lat="41.782993" lon="123.39757">
        <ele>44.2201</ele>
        <time>2015-06-22T10:55:07.536000Z</time>
      </trkpt>
      <trkpt lat="41.782932" lon="123.39766">
        <ele>43.632137</ele>
        <time>2015-06-22T10:55:10.942000Z</time>
      </trkpt>
      <trkpt lat="41.78286" lon="123.39776">
        <ele>42.983883</ele>
        <time>2015-06-22T10:55:14.348000Z</time>
      </trkpt>
      <trkpt lat="41.782776" lon="123.397865">
        <ele>42.239166</ele>
        <time>2015-06-22T10:55:17.754000Z</time>
      </trkpt>
      <trkpt lat="41.782726" lon="123.398">
        <ele>41.497322</ele>
        <time>2015-06-22T10:55:21.160000Z</time>
      </trkpt>
      <trkpt lat="41.782665" lon="123.39812">
        <ele>40.87763</ele>
        <time>2015-06-22T10:55:24.566000Z</time>
      </trkpt>
      <trkpt lat="41.78257" lon="123.3982">
        <ele>40.74114</ele>
        <time>2015-06-22T10:55:27.972000Z</time>
      </trkpt>
      <trkpt lat="41.782467" lon="123.39826">
        <ele>40.53871</ele>
        <time>2015-06-22T10:55:31.378000Z</time>
      </trkpt>
      <trkpt lat="41.782387" lon="123.39832">
        <ele>39.91341</ele>
        <time>2015-06-22T10:55:34.784000Z</time>
      </trkpt>
      <trkpt lat="41.782284" lon="123.39838">
        <ele>39.224525</ele>
        <time>2015-06-22T10:55:38.190000Z</time>
      </trkpt>
      <trkpt lat="41.78223" lon="123.398476">
        <ele>38.884666</ele>
        <time>2015-06-22T10:55:41.596000Z</time>
      </trkpt>
      <trkpt lat="41.7822" lon="123.39862">
        <ele>38.825386</ele>
        <time>2015-06-22T10:55:45.002000Z</time>
      </trkpt>
      <trkpt lat="41.782204" lon="123.39875">
        <ele>39.733963</ele>
        <time>2015-06-22T10:55:48.408000Z</time>
      </trkpt>
      <trkpt lat="41.782246" lon="123.398865">
        <ele>40.69841</ele>
        <time>2015-06-22T10:55:51.814000Z</time>
      </trkpt>
      <trkpt lat="41.782307" lon="123.39899">
        <ele>41.708416</ele>
        <time>2015-06-22T10:55:55.220000Z</time>
      </trkpt>
      <trkpt lat="41.78239" lon="123.399086">
        <ele>42.782894</ele>
        <time>2015-06-22T10:55:58.626000Z</time>
      </trkpt>
      <trkpt lat="41.782475" lon="123.39919">
        <ele>43.88917</ele>
        <time>2015-06-22T10:56:02.032000Z</time>
      </trkpt>
      <trkpt lat="41.78256" lon="123.39928">
        <ele>44.88027</ele>
        <time>2015-06-22T10:56:05.438000Z</time>
      </trkpt>
      <trkpt lat="41.782646" lon="123.3993">
        <ele>47.838722</ele>
        <time>2015-06-22T10:56:08.844000Z</time>
      </trkpt>
      <trkpt lat="41.782738" lon="123.39937">
        <ele>51.005722</ele>
        <time>2015-06-22T10:56:12.250000Z</time>
      </trkpt>
      <trkpt lat="41.782845" lon="123.39932">
        <ele>55.36453</ele>
        <time>2015-06-22T10:56:15.656000Z</time>
      </trkpt>
      <trkpt lat="41.78294" lon="123.39926">
        <ele>60.990616</ele>
        <time>2015-06-22T10:56:19.062000Z</time>
      </trkpt>
      <trkpt lat="41.783054" lon="123.39921">
        <ele>65.61709</ele>
        <time>2015-06-22T10:56:22.468000Z</time>
      </trkpt>
      <trkpt lat="41.78317" lon="123.39917">
        <ele>67.631226</ele>
        <time>2015-06-22T10:56:25.874000Z</time>
      </trkpt>
      <trkpt lat="41.78328" lon="123.39914">
        <ele>67.965775</ele>
        <time>2015-06-22T10:56:29.280000Z</time>
      </trkpt>
      <trkpt lat="41.783382" lon="123.39909">
        <ele>68.037636</ele>
        <time>2015-06-22T10:56:32.686000Z</time>
      </trkpt>
      <trkpt lat="41.78347" lon="123.39898">
        <ele>68.39052</ele>
        <time>2015-06-22T10:56:36.092000Z</time>
      </trkpt>
      <trkpt lat="41.783573" lon="123.39886">
        <ele>68.6354</ele>
        <time>2015-06-22T10:56:39.498000Z</time>
      </trkpt>
      <trkpt lat="41.78367" lon="123.39877">
        <ele>66.44107</ele>
        <time>2015-06-22T10:56:42.904000Z</time>
      </trkpt>
      <trkpt lat="41.78377" lon="123.39872">
        <ele>64.29125</ele>
        <time>2015-06-22T10:56:46.310000Z</time>
      </trkpt>
      <trkpt lat="41.783882" lon="123.39867">
        <ele>62.04386</ele>
        <time>2015-06-22T10:56:49.716000Z</time>
      </trkpt>
      <trkpt lat="41.783966" lon="123.398575">
        <ele>58.589455</ele>
        <time>2015-06-22T10:56:53.122000Z</time>
      </trkpt>
      <trkpt lat="41.78405" lon="123.39846">
        <ele>56.328987</ele>
        <time>2015-06-22T10:56:56.528000Z</time>
      </trkpt>
      <trkpt lat="41.784096" lon="123.398346">
        <ele>55.47525</ele>
        <time>2015-06-22T10:56:59.934000Z</time>
      </trkpt>
      <trkpt lat="41.784126" lon="123.3982">
        <ele>55.40065</ele>
        <time>2015-06-22T10:57:03.340000Z</time>
      </trkpt>
      <trkpt lat="41.784145" lon="123.398056">
        <ele>55.33261</ele>
        <time>2015-06-22T10:57:06.746000Z</time>
      </trkpt>
      <trkpt lat="41.78416" lon="123.39793">
        <ele>55.26939</ele>
        <time>2015-06-22T10:57:10.152000Z</time>
      </trkpt>
      <trkpt lat="41.784172" lon="123.397766">
        <ele>54.608295</ele>
        <time>2015-06-22T10:57:13.558000Z</time>
      </trkpt>
      <trkpt lat="41.784172" lon="123.39761">
        <ele>54.062626</ele>
        <time>2015-06-22T10:57:16.964000Z</time>
      </trkpt>
      <trkpt lat="41.784138" lon="123.3975">
        <ele>53.70248</ele>
        <time>2015-06-22T10:57:20.370000Z</time>
      </trkpt>
      <trkpt lat="41.78407" lon="123.39737">
        <ele>53.192974</ele>
        <time>2015-06-22T10:57:23.776000Z</time>
      </trkpt>
      <trkpt lat="41.783997" lon="123.39727">
        <ele>52.241936</ele>
        <time>2015-06-22T10:57:27.182000Z</time>
      </trkpt>
      <trkpt lat="41.783897" lon="123.397224">
        <ele>51.021805</ele>
        <time>2015-06-22T10:57:30.588000Z</time>
      </trkpt>
      <trkpt lat="41.783787" lon="123.397224">
        <ele>50.2371</ele>
        <time>2015-06-22T10:57:33.994000Z</time>
      </trkpt>
      <trkpt lat="41.783688" lon="123.39722">
        <ele>50.219555</ele>
        <time>2015-06-22T10:57:37.400000Z</time>
      </trkpt>
      <trkpt lat="41.78359" lon="123.3972">
        <ele>50.201927</ele>
        <time>2015-06-22T10:57:40.806000Z</time>
      </trkpt>
      <trkpt lat="41.783497" lon="123.39719">
        <ele>50.184975</ele>
        <time>2015-06-22T10:57:44.212000Z</time>
      </trkpt>
      <trkpt lat="41.78338" lon="123.39725">
        <ele>50.163013</ele>
        <time>2015-06-22T10:57:47.618000Z</time>
      </trkpt>
      <trkpt lat="41.783295" lon="123.397316">
        <ele>50.145084</ele>
        <time>2015-06-22T10:57:51.024000Z</time>
      </trkpt>
      <trkpt lat="41.783207" lon="123.39738">
        <ele>50.12757</ele>
        <time>2015-06-22T10:57:54.430000Z</time>
      </trkpt>
      <trkpt lat="41.78311" lon="123.39742">
        <ele>50.109947</ele>
        <time>2015-06-22T10:57:57.836000Z</time>
      </trkpt>
      <trkpt lat="41.783016" lon="123.39752">
        <ele>50.088257</ele>
        <time>2015-06-22T10:58:01.242000Z</time>
      </trkpt>
      <trkpt lat="41.782944" lon="123.39765">
        <ele>50.0666</ele>
        <time>2015-06-22T10:58:04.648000Z</time>
      </trkpt>
      <trkpt lat="41.78288" lon="123.397766">
        <ele>50.047264</ele>
        <time>2015-06-22T10:58:08.054000Z</time>
      </trkpt>
      <trkpt lat="41.782803" lon="123.39788">
        <ele>50.02711</ele>
        <time>2015-06-22T10:58:11.460000Z</time>
      </trkpt>
      <trkpt lat="41.78274" lon="123.39798">
        <ele>50.01027</ele>
        <time>2015-06-22T10:58:14.866000Z</time>
      </trkpt>
      <trkpt lat="41.782658" lon="123.398094">
        <ele>49.988647</ele>
        <time>2015-06-22T10:58:18.272000Z</time>
      </trkpt>
      <trkpt lat="41.78258" lon="123.39819">
        <ele>49.969963</ele>
        <time>2015-06-22T10:58:21.678000Z</time>
      </trkpt>
      <trkpt lat="41.78249" lon="123.39827">
        <ele>49.950962</ele>
        <time>2015-06-22T10:58:25.084000Z</time>
      </trkpt>
      <trkpt lat="41.782387" lon="123.39832">
        <ele>49.93099</ele>
        <time>2015-06-22T10:58:28.490000Z</time>
      </trkpt>
      <trkpt lat="41.78228" lon="123.39837">
        <ele>48.70845</ele>
        <time>2015-06-22T10:58:31.896000Z</time>
      </trkpt>
      <trkpt lat="41.782215" lon="123.39847">
        <ele>49.206085</ele>
        <time>2015-06-22T10:58:35.302000Z</time>
      </trkpt>
      <trkpt lat="41.782234" lon="123.3986">
        <ele>49.683712</ele>
        <time>2015-06-22T10:58:38.708000Z</time>
      </trkpt>
      <trkpt lat="41.782207" lon="123.39871">
        <ele>50.14088</ele>
        <time>2015-06-22T10:58:42.114000Z</time>
      </trkpt>
      <trkpt lat="41.782227" lon="123.39889">
        <ele>50.793278</ele>
        <time>2015-06-22T10:58:45.520000Z</time>
      </trkpt>
      <trkpt lat="41.782272" lon="123.399025">
        <ele>51.34072</ele>
        <time>2015-06-22T10:58:48.926000Z</time>
      </trkpt>
      <trkpt lat="41.782356" lon="123.39911">
        <ele>51.849033</ele>
        <time>2015-06-22T10:58:52.332000Z</time>
      </trkpt>
      <trkpt lat="41.782448" lon="123.39915">
        <ele>52.326656</ele>
        <time>2015-06-22T10:58:55.738000Z</time>
      </trkpt>
      <trkpt lat="41.782543" lon="123.39918">
        <ele>52.80339</ele>
        <time>2015-06-22T10:58:59.144000Z</time>
      </trkpt>
      <trkpt lat="41.78263" lon="123.399216">
        <ele>53.269897</ele>
        <time>2015-06-22T10:59:02.550000Z</time>
      </trkpt>
      <trkpt lat="41.782726" lon="123.39926">
        <ele>53.76709</ele>
        <time>2015-06-22T10:59:05.956000Z</time>
      </trkpt>
      <trkpt lat="41.782833" lon="123.399254">
        <ele>55.556015</ele>
        <time>2015-06-22T10:59:09.362000Z</time>
      </trkpt>
      <trkpt lat="41.782936" lon="123.39924">
        <ele>58.535553</ele>
        <time>2015-06-22T10:59:12.768000Z</time>
      </trkpt>
      <trkpt lat="41.783043" lon="123.399216">
        <ele>62.375362</ele>
        <time>2015-06-22T10:59:16.174000Z</time>
      </trkpt>
      <trkpt lat="41.783157" lon="123.39917">
        <ele>65.754875</ele>
        <time>2015-06-22T10:59:19.580000Z</time>
      </trkpt>
      <trkpt lat="41.78326" lon="123.399124">
        <ele>67.87263</ele>
        <time>2015-06-22T10:59:22.986000Z</time>
      </trkpt>
      <trkpt lat="41.78334" lon="123.39907">
        <ele>68.89637</ele>
        <time>2015-06-22T10:59:26.392000Z</time>
      </trkpt>
      <trkpt lat="41.783447" lon="123.398994">
        <ele>69.20097</ele>
        <time>2015-06-22T10:59:29.798000Z</time>
      </trkpt>
      <trkpt lat="41.78354" lon="123.398926">
        <ele>67.39918</ele>
        <time>2015-06-22T10:59:33.204000Z</time>
      </trkpt>
      <trkpt lat="41.783634" lon="123.39884">
        <ele>65.406395</ele>
        <time>2015-06-22T10:59:36.610000Z</time>
      </trkpt>
      <trkpt lat="41.78372" lon="123.398796">
        <ele>63.809666</ele>
        <time>2015-06-22T10:59:40.016000Z</time>
      </trkpt>
      <trkpt lat="41.783802" lon="123.39874">
        <ele>61.82</ele>
        <time>2015-06-22T10:59:43.422000Z</time>
      </trkpt>
      <trkpt lat="41.783886" lon="123.398674">
        <ele>60.364136</ele>
        <time>2015-06-22T10:59:46.828000Z</time>
      </trkpt>
      <trkpt lat="41.783966" lon="123.39858">
        <ele>58.930134</ele>
        <time>2015-06-22T10:59:50.234000Z</time>
      </trkpt>
      <trkpt lat="41.78404" lon="123.39848">
        <ele>57.5961</ele>
        <time>2015-06-22T10:59:53.640000Z</time>
      </trkpt>
      <trkpt lat="41.784092" lon="123.398346">
        <ele>56.863354</ele>
        <time>2015-06-22T10:59:57.046000Z</time>
      </trkpt>
      <trkpt lat="41.784145" lon="123.39823">
        <ele>56.55427</ele>
        <time>2015-06-22T11:00:00.452000Z</time>
      </trkpt>
      <trkpt lat="41.784187" lon="123.39809">
        <ele>56.274643</ele>
        <time>2015-06-22T11:00:03.858000Z</time>
      </trkpt>
      <trkpt lat="41.78419" lon="123.397964">
        <ele>56.197243</ele>
        <time>2015-06-22T11:00:07.264000Z</time>
      </trkpt>
      <trkpt lat="41.784206" lon="123.39782">
        <ele>56.106262</ele>
        <time>2015-06-22T11:00:10.670000Z</time>
      </trkpt>
      <trkpt lat="41.784206" lon="123.39767">
        <ele>56.012146</ele>
        <time>2015-06-22T11:00:14.076000Z</time>
      </trkpt>
      <trkpt lat="41.784157" lon="123.397514">
        <ele>55.90529</ele>
        <time>2015-06-22T11:00:17.482000Z</time>
      </trkpt>
      <trkpt lat="41.784054" lon="123.397415">
        <ele>55.795986</ele>
        <time>2015-06-22T11:00:20.888000Z</time>
      </trkpt>
      <trkpt lat="41.78395" lon="123.39731">
        <ele>55.68577</ele>
        <time>2015-06-22T11:00:24.294000Z</time>
      </trkpt>
      <trkpt lat="41.78386" lon="123.39722">
        <ele>55.586845</ele>
        <time>2015-06-22T11:00:27.700000Z</time>
      </trkpt>
      <trkpt lat="41.783764" lon="123.39721">
        <ele>54.200523</ele>
        <time>2015-06-22T11:00:31.106000Z</time>
      </trkpt>
      <trkpt lat="41.783665" lon="123.39724">
        <ele>52.877213</ele>
        <time>2015-06-22T11:00:34.512000Z</time>
      </trkpt>
      <trkpt lat="41.783554" lon="123.397255">
        <ele>52.000767</ele>
        <time>2015-06-22T11:00:37.918000Z</time>
      </trkpt>
      <trkpt lat="41.783447" lon="123.39724">
        <ele>51.71875</ele>
        <time>2015-06-22T11:00:41.324000Z</time>
      </trkpt>
      <trkpt lat="41.78336" lon="123.397316">
        <ele>52.580894</ele>
        <time>2015-06-22T11:00:44.730000Z</time>
      </trkpt>
      <trkpt lat="41.783287" lon="123.397385">
        <ele>53.336212</ele>
        <time>2015-06-22T11:00:48.136000Z</time>
      </trkpt>
      <trkpt lat="41.783195" lon="123.39747">
        <ele>54.275093</ele>
        <time>2015-06-22T11:00:51.542000Z</time>
      </trkpt>
      <trkpt lat="41.783092" lon="123.397514">
        <ele>55.18313</ele>
        <time>2015-06-22T11:00:54.948000Z</time>
      </trkpt>
      <trkpt lat="41.782997" lon="123.3976">
        <ele>56.122757</ele>
        <time>2015-06-22T11:00:58.354000Z</time>
      </trkpt>
      <trkpt lat="41.782925" lon="123.397675">
        <ele>56.900646</ele>
        <time>2015-06-22T11:01:01.760000Z</time>
      </trkpt>
      <trkpt lat="41.782867" lon="123.39777">
        <ele>57.67477</ele>
        <time>2015-06-22T11:01:05.166000Z</time>
      </trkpt>
      <trkpt lat="41.7828" lon="123.39788">
        <ele>56.97477</ele>
        <time>2015-06-22T11:01:08.572000Z</time>
      </trkpt>
      <trkpt lat="41.782722" lon="123.39799">
        <ele>56.270073</ele>
        <time>2015-06-22T11:01:11.978000Z</time>
      </trkpt>
      <trkpt lat="41.78264" lon="123.39809">
        <ele>55.537773</ele>
        <time>2015-06-22T11:01:15.384000Z</time>
      </trkpt>
      <trkpt lat="41.782574" lon="123.39818">
        <ele>54.905308</ele>
        <time>2015-06-22T11:01:18.790000Z</time>
      </trkpt>
      <trkpt lat="41.78252" lon="123.3983">
        <ele>54.216465</ele>
        <time>2015-06-22T11:01:22.196000Z</time>
      </trkpt>
      <trkpt lat="41.782444" lon="123.39838">
        <ele>53.60338</ele>
        <time>2015-06-22T11:01:25.602000Z</time>
      </trkpt>
      <trkpt lat="41.78236" lon="123.39845">
        <ele>52.933918</ele>
        <time>2015-06-22T11:01:29.008000Z</time>
      </trkpt>
      <trkpt lat="41.782257" lon="123.39852">
        <ele>52.205143</ele>
        <time>2015-06-22T11:01:32.414000Z</time>
      </trkpt>
      <trkpt lat="41.782207" lon="123.39863">
        <ele>51.04382</ele>
        <time>2015-06-22T11:01:35.820000Z</time>
      </trkpt>
      <trkpt lat="41.782185" lon="123.39876">
        <ele>48.825657</ele>
        <time>2015-06-22T11:01:39.226000Z</time>
      </trkpt>
      <trkpt lat="41.78221" lon="123.39891">
        <ele>46.79767</ele>
        <time>2015-06-22T11:01:42.632000Z</time>
      </trkpt>
      <trkpt lat="41.782257" lon="123.399025">
        <ele>46.713394</ele>
        <time>2015-06-22T11:01:46.038000Z</time>
      </trkpt>
      <trkpt lat="41.78234" lon="123.39909">
        <ele>49.025833</ele>
        <time>2015-06-22T11:01:49.444000Z</time>
      </trkpt>
      <trkpt lat="41.782455" lon="123.39914">
        <ele>51.72163</ele>
        <time>2015-06-22T11:01:52.850000Z</time>
      </trkpt>
      <trkpt lat="41.782562" lon="123.39917">
        <ele>53.733944</ele>
        <time>2015-06-22T11:01:56.256000Z</time>
      </trkpt>
      <trkpt lat="41.782665" lon="123.39921">
        <ele>54.554157</ele>
        <time>2015-06-22T11:01:59.662000Z</time>
      </trkpt>
      <trkpt lat="41.782757" lon="123.39926">
        <ele>55.12992</ele>
        <time>2015-06-22T11:02:03.068000Z</time>
      </trkpt>
      <trkpt lat="41.782864" lon="123.399284">
        <ele>56.255684</ele>
        <time>2015-06-22T11:02:06.474000Z</time>
      </trkpt>
      <trkpt lat="41.782967" lon="123.39926">
        <ele>58.141037</ele>
        <time>2015-06-22T11:02:09.880000Z</time>
      </trkpt>
      <trkpt lat="41.783066" lon="123.39924">
        <ele>60.558678</ele>
        <time>2015-06-22T11:02:13.286000Z</time>
      </trkpt>
      <trkpt lat="41.783146" lon="123.39918">
        <ele>62.765987</ele>
        <time>2015-06-22T11:02:16.692000Z</time>
      </trkpt>
      <trkpt lat="41.78324" lon="123.39914">
        <ele>63.875153</ele>
        <time>2015-06-22T11:02:20.098000Z</time>
      </trkpt>
      <trkpt lat="41.783337" lon="123.39906">
        <ele>63.037777</ele>
        <time>2015-06-22T11:02:23.504000Z</time>
      </trkpt>
      <trkpt lat="41.783424" lon="123.39902">
        <ele>62.324028</ele>
        <time>2015-06-22T11:02:26.910000Z</time>
      </trkpt>
      <trkpt lat="41.783535" lon="123.39897">
        <ele>61.448406</ele>
        <time>2015-06-22T11:02:30.316000Z</time>
      </trkpt>
      <trkpt lat="41.783623" lon="123.39889">
        <ele>60.63835</ele>
        <time>2015-06-22T11:02:33.722000Z</time>
      </trkpt>
      <trkpt lat="41.7837" lon="123.39879">
        <ele>59.80439</ele>
        <time>2015-06-22T11:02:37.128000Z</time>
      </trkpt>
      <trkpt lat="41.78379" lon="123.39873">
        <ele>59.040783</ele>
        <time>2015-06-22T11:02:40.534000Z</time>
      </trkpt>
      <trkpt lat="41.78387" lon="123.39867">
        <ele>58.334545</ele>
        <time>2015-06-22T11:02:43.940000Z</time>
      </trkpt>
      <trkpt lat="41.783962" lon="123.39858">
        <ele>55.116974</ele>
        <time>2015-06-22T11:02:47.346000Z</time>
      </trkpt>
      <trkpt lat="41.784058" lon="123.3985">
        <ele>52.645294</ele>
        <time>2015-06-22T11:02:50.752000Z</time>
      </trkpt>
      <trkpt lat="41.78414" lon="123.39843">
        <ele>51.427074</ele>
        <time>2015-06-22T11:02:54.158000Z</time>
      </trkpt>
      <trkpt lat="41.784203" lon="123.39832">
        <ele>50.959267</ele>
        <time>2015-06-22T11:02:57.564000Z</time>
      </trkpt>
      <trkpt lat="41.784206" lon="123.39818">
        <ele>50.776257</ele>
        <time>2015-06-22T11:03:00.970000Z</time>
      </trkpt>
      <trkpt lat="41.784225" lon="123.398056">
        <ele>50.628212</ele>
        <time>2015-06-22T11:03:04.376000Z</time>
      </trkpt>
      <trkpt lat="41.784237" lon="123.39792">
        <ele>50.46422</ele>
        <time>2015-06-22T11:03:07.782000Z</time>
      </trkpt>
      <trkpt lat="41.784214" lon="123.39773">
        <ele>50.2322</ele>
        <time>2015-06-22T11:03:11.188000Z</time>
      </trkpt>
      <trkpt lat="41.784157" lon="123.397575">
        <ele>50.019203</ele>
        <time>2015-06-22T11:03:14.594000Z</time>
      </trkpt>
      <trkpt lat="41.784103" lon="123.39745">
        <ele>49.85199</ele>
        <time>2015-06-22T11:03:18Z</time>
      </trkpt>
      <trkpt lat="41.78402" lon="123.397354">
        <ele>49.668247</ele>
        <time>2015-06-22T11:03:21.406000Z</time>
      </trkpt>
      <trkpt lat="41.78392" lon="123.397285">
        <ele>49.485386</ele>
        <time>2015-06-22T11:03:24.812000Z</time>
      </trkpt>
      <trkpt lat="41.783806" lon="123.39723">
        <ele>49.28672</ele>
        <time>2015-06-22T11:03:28.218000Z</time>
      </trkpt>
      <trkpt lat="41.78371" lon="123.39721">
        <ele>49.128582</ele>
        <time>2015-06-22T11:03:31.624000Z</time>
      </trkpt>
      <trkpt lat="41.78362" lon="123.39719">
        <ele>48.97951</ele>
        <time>2015-06-22T11:03:35.030000Z</time>
      </trkpt>
      <trkpt lat="41.783527" lon="123.39717">
        <ele>48.826637</ele>
        <time>2015-06-22T11:03:38.436000Z</time>
      </trkpt>
      <trkpt lat="41.783417" lon="123.39716">
        <ele>48.650063</ele>
        <time>2015-06-22T11:03:41.842000Z</time>
      </trkpt>
      <trkpt lat="41.78331" lon="123.3972">
        <ele>48.471004</ele>
        <time>2015-06-22T11:03:45.248000Z</time>
      </trkpt>
      <trkpt lat="41.783222" lon="123.39725">
        <ele>45.987347</ele>
        <time>2015-06-22T11:03:48.654000Z</time>
      </trkpt>
      <trkpt lat="41.783134" lon="123.39735">
        <ele>44.469902</ele>
        <time>2015-06-22T11:03:52.060000Z</time>
      </trkpt>
      <trkpt lat="41.78306" lon="123.39749">
        <ele>43.760128</ele>
        <time>2015-06-22T11:03:55.466000Z</time>
      </trkpt>
      <trkpt lat="41.78301" lon="123.397606">
        <ele>44.505447</ele>
        <time>2015-06-22T11:03:58.872000Z</time>
      </trkpt>
      <trkpt lat="41.782936" lon="123.39772">
        <ele>45.383377</ele>
        <time>2015-06-22T11:04:02.278000Z</time>
      </trkpt>
      <trkpt lat="41.782864" lon="123.397835">
        <ele>46.21302</ele>
        <time>2015-06-22T11:04:05.684000Z</time>
      </trkpt>
      <trkpt lat="41.782787" lon="123.397964">
        <ele>47.152153</ele>
        <time>2015-06-22T11:04:09.090000Z</time>
      </trkpt>
      <trkpt lat="41.782726" lon="123.39806">
        <ele>47.875713</ele>
        <time>2015-06-22T11:04:12.496000Z</time>
      </trkpt>
      <trkpt lat="41.78267" lon="123.398155">
        <ele>48.55779</ele>
        <time>2015-06-22T11:04:15.902000Z</time>
      </trkpt>
      <trkpt lat="41.782585" lon="123.39827">
        <ele>49.44864</ele>
        <time>2015-06-22T11:04:19.308000Z</time>
      </trkpt>
      <trkpt lat="41.782513" lon="123.39835">
        <ele>49.9571</ele>
        <time>2015-06-22T11:04:22.714000Z</time>
      </trkpt>
      <trkpt lat="41.782417" lon="123.398445">
        <ele>50.232353</ele>
        <time>2015-06-22T11:04:26.120000Z</time>
      </trkpt>
      <trkpt lat="41.782333" lon="123.3985">
        <ele>50.550446</ele>
        <time>2015-06-22T11:04:29.526000Z</time>
      </trkpt>
      <trkpt lat="41.782246" lon="123.39856">
        <ele>50.849396</ele>
        <time>2015-06-22T11:04:32.932000Z</time>
      </trkpt>
      <trkpt lat="41.782166" lon="123.39864">
        <ele>51.121742</ele>
        <time>2015-06-22T11:04:36.338000Z</time>
      </trkpt>
      <trkpt lat="41.782116" lon="123.398796">
        <ele>51.7737</ele>
        <time>2015-06-22T11:04:39.744000Z</time>
      </trkpt>
      <trkpt lat="41.78211" lon="123.39895">
        <ele>53.38922</ele>
        <time>2015-06-22T11:04:43.150000Z</time>
      </trkpt>
      <trkpt lat="41.782166" lon="123.399055">
        <ele>55.856762</ele>
        <time>2015-06-22T11:04:46.556000Z</time>
      </trkpt>
      <trkpt lat="41.782253" lon="123.39912">
        <ele>58.198845</ele>
        <time>2015-06-22T11:04:49.962000Z</time>
      </trkpt>
      <trkpt lat="41.782417" lon="123.3991">
        <ele>59.789303</ele>
        <time>2015-06-22T11:04:53.368000Z</time>
      </trkpt>
      <trkpt lat="41.782524" lon="123.3991">
        <ele>60.8503</ele>
        <time>2015-06-22T11:04:56.774000Z</time>
      </trkpt>
      <trkpt lat="41.78262" lon="123.39915">
        <ele>61.589146</ele>
        <time>2015-06-22T11:05:00.180000Z</time>
      </trkpt>
      <trkpt lat="41.78262" lon="123.39915">
        <ele>61.923836</ele>
        <time>2015-06-22T11:05:03.586000Z</time>
      </trkpt>
      <trkpt lat="41.78271" lon="123.3992">
        <ele>61.97651</ele>
        <time>2015-06-22T11:05:06.992000Z</time>
      </trkpt>
      <trkpt lat="41.782803" lon="123.39924">
        <ele>62.026157</ele>
        <time>2015-06-22T11:05:10.398000Z</time>
      </trkpt>
      <trkpt lat="41.782913" lon="123.39926">
        <ele>62.084187</ele>
        <time>2015-06-22T11:05:13.804000Z</time>
      </trkpt>
      <trkpt lat="41.78302" lon="123.39926">
        <ele>62.975163</ele>
        <time>2015-06-22T11:05:17.210000Z</time>
      </trkpt>
      <trkpt lat="41.783134" lon="123.39924">
        <ele>63.991955</ele>
        <time>2015-06-22T11:05:20.616000Z</time>
      </trkpt>
      <trkpt lat="41.783222" lon="123.39919">
        <ele>64.779045</ele>
        <time>2015-06-22T11:05:24.022000Z</time>
      </trkpt>
      <trkpt lat="41.78332" lon="123.399155">
        <ele>65.08121</ele>
        <time>2015-06-22T11:05:27.428000Z</time>
      </trkpt>
      <trkpt lat="41.783413" lon="123.39912">
        <ele>65.08416</ele>
        <time>2015-06-22T11:05:30.834000Z</time>
      </trkpt>
      <trkpt lat="41.7835" lon="123.399055">
        <ele>65.138466</ele>
        <time>2015-06-22T11:05:34.240000Z</time>
      </trkpt>
      <trkpt lat="41.78358" lon="123.39899">
        <ele>65.43445</ele>
        <time>2015-06-22T11:05:37.646000Z</time>
      </trkpt>
      <trkpt lat="41.783665" lon="123.398895">
        <ele>65.779724</ele>
        <time>2015-06-22T11:05:41.052000Z</time>
      </trkpt>
      <trkpt lat="41.783745" lon="123.39878">
        <ele>65.81684</ele>
        <time>2015-06-22T11:05:44.458000Z</time>
      </trkpt>
      <trkpt lat="41.783825" lon="123.3987">
        <ele>65.970146</ele>
        <time>2015-06-22T11:05:47.864000Z</time>
      </trkpt>
      <trkpt lat="41.783936" lon="123.39859">
        <ele>66.17378</ele>
        <time>2015-06-22T11:05:51.270000Z</time>
      </trkpt>
      <trkpt lat="41.784016" lon="123.39849">
        <ele>66.34025</ele>
        <time>2015-06-22T11:05:54.676000Z</time>
      </trkpt>
      <trkpt lat="41.78408" lon="123.3984">
        <ele>66.48446</ele>
        <time>2015-06-22T11:05:58.082000Z</time>
      </trkpt>
      <trkpt lat="41.784103" lon="123.398254">
        <ele>67.98006</ele>
        <time>2015-06-22T11:06:01.488000Z</time>
      </trkpt>
      <trkpt lat="41.78413" lon="123.39812">
        <ele>69.32199</ele>
        <time>2015-06-22T11:06:04.894000Z</time>
      </trkpt>
      <trkpt lat="41.78413" lon="123.39812">
        <ele>70.67291</ele>
        <time>2015-06-22T11:06:08.300000Z</time>
      </trkpt>
      <trkpt lat="41.78417" lon="123.39801">
        <ele>71.35091</ele>
        <time>2015-06-22T11:06:11.706000Z</time>
      </trkpt>
      <trkpt lat="41.78419" lon="123.39789">
        <ele>68.85214</ele>
        <time>2015-06-22T11:06:15.112000Z</time>
      </trkpt>
      <trkpt lat="41.784206" lon="123.39773">
        <ele>65.475365</ele>
        <time>2015-06-22T11:06:18.518000Z</time>
      </trkpt>
      <trkpt lat="41.784206" lon="123.39773">
        <ele>65.475365</ele>
        <time>2015-06-22T11:06:21.924000Z</time>
      </trkpt>
      <trkpt lat="41.784176" lon="123.39756">
        <ele>64.42356</ele>
        <time>2015-06-22T11:06:25.330000Z</time>
      </trkpt>
      <trkpt lat="41.784126" lon="123.39744">
        <ele>63.99707</ele>
        <time>2015-06-22T11:06:28.736000Z</time>
      </trkpt>
      <trkpt lat="41.784023" lon="123.397354">
        <ele>63.837868</ele>
        <time>2015-06-22T11:06:32.142000Z</time>
      </trkpt>
      <trkpt lat="41.78389" lon="123.3973">
        <ele>63.832882</ele>
        <time>2015-06-22T11:06:35.548000Z</time>
      </trkpt>
      <trkpt lat="41.783787" lon="123.3973">
        <ele>63.82932</ele>
        <time>2015-06-22T11:06:38.954000Z</time>
      </trkpt>
      <trkpt lat="41.783676" lon="123.39731">
        <ele>63.825325</ele>
        <time>2015-06-22T11:06:42.360000Z</time>
      </trkpt>
      <trkpt lat="41.783566" lon="123.397316">
        <ele>63.821507</ele>
        <time>2015-06-22T11:06:45.766000Z</time>
      </trkpt>
      <trkpt lat="41.783443" lon="123.39731">
        <ele>63.817192</ele>
        <time>2015-06-22T11:06:49.172000Z</time>
      </trkpt>
      <trkpt lat="41.783325" lon="123.39734">
        <ele>63.812897</ele>
        <time>2015-06-22T11:06:52.578000Z</time>
      </trkpt>
      <trkpt lat="41.783215" lon="123.39741">
        <ele>63.80859</ele>
        <time>2015-06-22T11:06:55.984000Z</time>
      </trkpt>
      <trkpt lat="41.78311" lon="123.3975">
        <ele>63.804295</ele>
        <time>2015-06-22T11:06:59.390000Z</time>
      </trkpt>
      <trkpt lat="41.78301" lon="123.39757">
        <ele>63.80015</ele>
        <time>2015-06-22T11:07:02.796000Z</time>
      </trkpt>
      <trkpt lat="41.7829" lon="123.39765">
        <ele>63.79575</ele>
        <time>2015-06-22T11:07:06.202000Z</time>
      </trkpt>
      <trkpt lat="41.782833" lon="123.397766">
        <ele>63.791935</ele>
        <time>2015-06-22T11:07:09.608000Z</time>
      </trkpt>
      <trkpt lat="41.782772" lon="123.39788">
        <ele>63.78823</ele>
        <time>2015-06-22T11:07:13.014000Z</time>
      </trkpt>
      <trkpt lat="41.782684" lon="123.39797">
        <ele>63.428337</ele>
        <time>2015-06-22T11:07:16.420000Z</time>
      </trkpt>
      <trkpt lat="41.782593" lon="123.39809">
        <ele>62.920696</ele>
        <time>2015-06-22T11:07:19.826000Z</time>
      </trkpt>
      <trkpt lat="41.782497" lon="123.398186">
        <ele>62.385525</ele>
        <time>2015-06-22T11:07:23.232000Z</time>
      </trkpt>
      <trkpt lat="41.7824" lon="123.398285">
        <ele>61.989555</ele>
        <time>2015-06-22T11:07:26.638000Z</time>
      </trkpt>
      <trkpt lat="41.782295" lon="123.39837">
        <ele>61.84428</ele>
        <time>2015-06-22T11:07:30.044000Z</time>
      </trkpt>
      <trkpt lat="41.78219" lon="123.39849">
        <ele>61.803883</ele>
        <time>2015-06-22T11:07:33.450000Z</time>
      </trkpt>
      <trkpt lat="41.782127" lon="123.398605">
        <ele>61.772545</ele>
        <time>2015-06-22T11:07:36.856000Z</time>
      </trkpt>
      <trkpt lat="41.782124" lon="123.39874">
        <ele>61.743183</ele>
        <time>2015-06-22T11:07:40.262000Z</time>
      </trkpt>
      <trkpt lat="41.78217" lon="123.39887">
        <ele>61.71124</ele>
        <time>2015-06-22T11:07:43.668000Z</time>
      </trkpt>
      <trkpt lat="41.782246" lon="123.39899">
        <ele>61.6774</ele>
        <time>2015-06-22T11:07:47.074000Z</time>
      </trkpt>
      <trkpt lat="41.78234" lon="123.399086">
        <ele>61.6424</ele>
        <time>2015-06-22T11:07:50.480000Z</time>
      </trkpt>
      <trkpt lat="41.78246" lon="123.39916">
        <ele>61.604267</ele>
        <time>2015-06-22T11:07:53.886000Z</time>
      </trkpt>
      <trkpt lat="41.782574" lon="123.399216">
        <ele>61.568745</ele>
        <time>2015-06-22T11:07:57.292000Z</time>
      </trkpt>
      <trkpt lat="41.78269" lon="123.39924">
        <ele>61.534534</ele>
        <time>2015-06-22T11:08:00.698000Z</time>
      </trkpt>
      <trkpt lat="41.782787" lon="123.39928">
        <ele>61.505356</ele>
        <time>2015-06-22T11:08:04.104000Z</time>
      </trkpt>
      <trkpt lat="41.782894" lon="123.399254">
        <ele>61.473175</ele>
        <time>2015-06-22T11:08:07.510000Z</time>
      </trkpt>
      <trkpt lat="41.783012" lon="123.39923">
        <ele>59.598423</ele>
        <time>2015-06-22T11:08:10.916000Z</time>
      </trkpt>
      <trkpt lat="41.783142" lon="123.3992">
        <ele>58.847324</ele>
        <time>2015-06-22T11:08:14.322000Z</time>
      </trkpt>
      <trkpt lat="41.783234" lon="123.39917">
        <ele>59.295864</ele>
        <time>2015-06-22T11:08:17.728000Z</time>
      </trkpt>
      <trkpt lat="41.783348" lon="123.39912">
        <ele>59.88009</ele>
        <time>2015-06-22T11:08:21.134000Z</time>
      </trkpt>
      <trkpt lat="41.783478" lon="123.399055">
        <ele>60.54339</ele>
        <time>2015-06-22T11:08:24.540000Z</time>
      </trkpt>
      <trkpt lat="41.783596" lon="123.398994">
        <ele>61.142735</ele>
        <time>2015-06-22T11:08:27.946000Z</time>
      </trkpt>
      <trkpt lat="41.7837" lon="123.39892">
        <ele>61.71097</ele>
        <time>2015-06-22T11:08:31.352000Z</time>
      </trkpt>
      <trkpt lat="41.783794" lon="123.39884">
        <ele>62.259327</ele>
        <time>2015-06-22T11:08:34.758000Z</time>
      </trkpt>
      <trkpt lat="41.783886" lon="123.39874">
        <ele>62.820217</ele>
        <time>2015-06-22T11:08:38.164000Z</time>
      </trkpt>
      <trkpt lat="41.78397" lon="123.398636">
        <ele>63.36771</ele>
        <time>2015-06-22T11:08:41.570000Z</time>
      </trkpt>
      <trkpt lat="41.78403" lon="123.39851">
        <ele>63.911316</ele>
        <time>2015-06-22T11:08:44.976000Z</time>
      </trkpt>
      <trkpt lat="41.784065" lon="123.39837">
        <ele>64.46054</ele>
        <time>2015-06-22T11:08:48.382000Z</time>
      </trkpt>
      <trkpt lat="41.784107" lon="123.398224">
        <ele>65.34212</ele>
        <time>2015-06-22T11:08:51.788000Z</time>
      </trkpt>
      <trkpt lat="41.78415" lon="123.398056">
        <ele>66.041626</ele>
        <time>2015-06-22T11:08:55.194000Z</time>
      </trkpt>
      <trkpt lat="41.78418" lon="123.397896">
        <ele>66.57244</ele>
        <time>2015-06-22T11:08:58.600000Z</time>
      </trkpt>
      <trkpt lat="41.784184" lon="123.39773">
        <ele>66.63411</ele>
        <time>2015-06-22T11:09:02.006000Z</time>
      </trkpt>
      <trkpt lat="41.78416" lon="123.39758">
        <ele>64.23721</ele>
        <time>2015-06-22T11:09:05.412000Z</time>
      </trkpt>
      <trkpt lat="41.78411" lon="123.39745">
        <ele>62.02139</ele>
        <time>2015-06-22T11:09:08.818000Z</time>
      </trkpt>
      <trkpt lat="41.784058" lon="123.397354">
        <ele>60.122913</ele>
        <time>2015-06-22T11:09:12.224000Z</time>
      </trkpt>
      <trkpt lat="41.783966" lon="123.397285">
        <ele>57.882797</ele>
        <time>2015-06-22T11:09:15.630000Z</time>
      </trkpt>
      <trkpt lat="41.78387" lon="123.397255">
        <ele>56.73909</ele>
        <time>2015-06-22T11:09:19.036000Z</time>
      </trkpt>
      <trkpt lat="41.78373" lon="123.39724">
        <ele>56.6555</ele>
        <time>2015-06-22T11:09:22.442000Z</time>
      </trkpt>
      <trkpt lat="41.783604" lon="123.397255">
        <ele>57.210915</ele>
        <time>2015-06-22T11:09:25.848000Z</time>
      </trkpt>
      <trkpt lat="41.78347" lon="123.39727">
        <ele>57.7893</ele>
        <time>2015-06-22T11:09:29.254000Z</time>
      </trkpt>
      <trkpt lat="41.783356" lon="123.397285">
        <ele>58.293728</ele>
        <time>2015-06-22T11:09:32.660000Z</time>
      </trkpt>
      <trkpt lat="41.783264" lon="123.39735">
        <ele>58.73277</ele>
        <time>2015-06-22T11:09:36.066000Z</time>
      </trkpt>
      <trkpt lat="41.78316" lon="123.39741">
        <ele>59.222015</ele>
        <time>2015-06-22T11:09:39.472000Z</time>
      </trkpt>
      <trkpt lat="41.78305" lon="123.397484">
        <ele>59.75525</ele>
        <time>2015-06-22T11:09:42.878000Z</time>
      </trkpt>
      <trkpt lat="41.782967" lon="123.3976">
        <ele>60.280308</ele>
        <time>2015-06-22T11:09:46.284000Z</time>
      </trkpt>
      <trkpt lat="41.78289" lon="123.397736">
        <ele>60.83339</ele>
        <time>2015-06-22T11:09:49.690000Z</time>
      </trkpt>
      <trkpt lat="41.78282" lon="123.39787">
        <ele>61.36234</ele>
        <time>2015-06-22T11:09:53.096000Z</time>
      </trkpt>
      <trkpt lat="41.782757" lon="123.397995">
        <ele>61.84108</ele>
        <time>2015-06-22T11:09:56.502000Z</time>
      </trkpt>
      <trkpt lat="41.782696" lon="123.39811">
        <ele>61.854954</ele>
        <time>2015-06-22T11:09:59.908000Z</time>
      </trkpt>
      <trkpt lat="41.782616" lon="123.3982">
        <ele>61.868885</ele>
        <time>2015-06-22T11:10:03.314000Z</time>
      </trkpt>
      <trkpt lat="41.782528" lon="123.39829">
        <ele>61.883167</ele>
        <time>2015-06-22T11:10:06.720000Z</time>
      </trkpt>
      <trkpt lat="41.782444" lon="123.39837">
        <ele>61.89628</ele>
        <time>2015-06-22T11:10:10.126000Z</time>
      </trkpt>
      <trkpt lat="41.782352" lon="123.39844">
        <ele>61.90972</ele>
        <time>2015-06-22T11:10:13.532000Z</time>
      </trkpt>
      <trkpt lat="41.78223" lon="123.39851">
        <ele>61.92715</ele>
        <time>2015-06-22T11:10:16.938000Z</time>
      </trkpt>
      <trkpt lat="41.782127" lon="123.39866">
        <ele>62.12434</ele>
        <time>2015-06-22T11:10:20.344000Z</time>
      </trkpt>
      <trkpt lat="41.782085" lon="123.39878">
        <ele>62.4704</ele>
        <time>2015-06-22T11:10:23.750000Z</time>
      </trkpt>
      <trkpt lat="41.782093" lon="123.39894">
        <ele>62.812622</ele>
        <time>2015-06-22T11:10:27.156000Z</time>
      </trkpt>
      <trkpt lat="41.782158" lon="123.39904">
        <ele>62.97136</ele>
        <time>2015-06-22T11:10:30.562000Z</time>
      </trkpt>
      <trkpt lat="41.78225" lon="123.39912">
        <ele>62.993217</ele>
        <time>2015-06-22T11:10:33.968000Z</time>
      </trkpt>
      <trkpt lat="41.782383" lon="123.39917">
        <ele>62.993217</ele>
        <time>2015-06-22T11:10:37.374000Z</time>
      </trkpt>
      <trkpt lat="41.782475" lon="123.3992">
        <ele>62.993217</ele>
        <time>2015-06-22T11:10:40.780000Z</time>
      </trkpt>
      <trkpt lat="41.782642" lon="123.3992">
        <time>2015-06-22T11:10:44.186000Z</time>
      </trkpt>
    </trkseg>
  </trk>
</gpx>