<?xml version="1.0" encoding="UTF-8"?>
<gpx xmlns="http://www.topografix.com/GPX/1/1" xmlns:gpxtpx="http://www.garmin.com/xmlschemas/TrackPointExtension/v1" xmlns:xsi="http://www.w3.org/2001/XMLSchema-instance" xsi:schemaLocation="http://www.topografix.com/GPX/1/1 http://www.topografix.com/GPX/1/1/gpx.xsd" version="1.1" creator="gpx.py -- https://github.com/tkrajina/gpxpy">
  <trk>
    <trkseg>
      <trkpt lat="41.785133" lon="123.39831">
        <ele>56.153343</ele>
        <time>2015-07-21T11:03:14.540000Z</time>
      </trkpt>
      <trkpt lat="41.785137" lon="123.398285">
        <ele>59.538834</ele>
        <time>2015-07-21T11:03:17.851000Z</time>
      </trkpt>
      <trkpt lat="41.785168" lon="123.39814">
        <ele>63.097786</ele>
        <time>2015-07-21T11:03:21.162000Z</time>
      </trkpt>
      <trkpt lat="41.785137" lon="123.39802">
        <ele>63.72434</ele>
        <time>2015-07-21T11:03:24.473000Z</time>
      </trkpt>
      <trkpt lat="41.785137" lon="123.39802">
        <ele>61.25137</ele>
        <time>2015-07-21T11:03:27.784000Z</time>
      </trkpt>
      <trkpt lat="41.785072" lon="123.39792">
        <ele>57.831486</ele>
        <time>2015-07-21T11:03:31.095000Z</time>
      </trkpt>
      <trkpt lat="41.785053" lon="123.397766">
        <ele>55.196487</ele>
        <time>2015-07-21T11:03:34.406000Z</time>
      </trkpt>
      <trkpt lat="41.785" lon="123.39767">
        <ele>53.63675</ele>
        <time>2015-07-21T11:03:37.717000Z</time>
      </trkpt>
      <trkpt lat="41.784912" lon="123.39759">
        <ele>52.95866</ele>
        <time>2015-07-21T11:03:41.028000Z</time>
      </trkpt>
      <trkpt lat="41.78482" lon="123.397545">
        <ele>52.75499</ele>
        <time>2015-07-21T11:03:44.339000Z</time>
      </trkpt>
      <trkpt lat="41.784714" lon="123.39749">
        <ele>52.795036</ele>
        <time>2015-07-21T11:03:47.650000Z</time>
      </trkpt>
      <trkpt lat="41.78461" lon="123.39743">
        <ele>52.606827</ele>
        <time>2015-07-21T11:03:50.961000Z</time>
      </trkpt>
      <trkpt lat="41.784523" lon="123.397354">
        <ele>51.52738</ele>
        <time>2015-07-21T11:03:54.272000Z</time>
      </trkpt>
      <trkpt lat="41.78443" lon="123.39726">
        <ele>49.72498</ele>
        <time>2015-07-21T11:03:57.583000Z</time>
      </trkpt>
      <trkpt lat="41.78432" lon="123.39721">
        <ele>47.84813</ele>
        <time>2015-07-21T11:04:00.894000Z</time>
      </trkpt>
      <trkpt lat="41.784225" lon="123.397194">
        <ele>46.044205</ele>
        <time>2015-07-21T11:04:04.205000Z</time>
      </trkpt>
      <trkpt lat="41.78413" lon="123.397194">
        <ele>43.446526</ele>
        <time>2015-07-21T11:04:07.516000Z</time>
      </trkpt>
      <trkpt lat="41.78404" lon="123.397224">
        <ele>39.821064</ele>
        <time>2015-07-21T11:04:10.827000Z</time>
      </trkpt>
      <trkpt lat="41.78394" lon="123.397255">
        <ele>36.72955</ele>
        <time>2015-07-21T11:04:14.138000Z</time>
      </trkpt>
      <trkpt lat="41.78384" lon="123.39724">
        <ele>35.575993</ele>
        <time>2015-07-21T11:04:17.449000Z</time>
      </trkpt>
      <trkpt lat="41.783726" lon="123.39724">
        <ele>36.259914</ele>
        <time>2015-07-21T11:04:20.760000Z</time>
      </trkpt>
      <trkpt lat="41.78362" lon="123.397255">
        <ele>38.009018</ele>
        <time>2015-07-21T11:04:24.071000Z</time>
      </trkpt>
      <trkpt lat="41.783504" lon="123.397255">
        <ele>39.682133</ele>
        <time>2015-07-21T11:04:27.382000Z</time>
      </trkpt>
      <trkpt lat="41.783405" lon="123.397224">
        <ele>40.836063</ele>
        <time>2015-07-21T11:04:30.693000Z</time>
      </trkpt>
      <trkpt lat="41.783314" lon="123.39729">
        <ele>41.48306</ele>
        <time>2015-07-21T11:04:34.004000Z</time>
      </trkpt>
      <trkpt lat="41.78322" lon="123.39734">
        <ele>41.52299</ele>
        <time>2015-07-21T11:04:37.315000Z</time>
      </trkpt>
      <trkpt lat="41.783127" lon="123.397415">
        <ele>41.092316</ele>
        <time>2015-07-21T11:04:40.626000Z</time>
      </trkpt>
      <trkpt lat="41.783043" lon="123.39753">
        <ele>40.362923</ele>
        <time>2015-07-21T11:04:43.937000Z</time>
      </trkpt>
      <trkpt lat="41.78298" lon="123.39763">
        <ele>39.404808</ele>
        <time>2015-07-21T11:04:47.248000Z</time>
      </trkpt>
      <trkpt lat="41.782925" lon="123.39773">
        <ele>38.359814</ele>
        <time>2015-07-21T11:04:50.559000Z</time>
      </trkpt>
      <trkpt lat="41.782867" lon="123.39783">
        <ele>37.45284</ele>
        <time>2015-07-21T11:04:53.870000Z</time>
      </trkpt>
      <trkpt lat="41.7828" lon="123.39792">
        <ele>37.068565</ele>
        <time>2015-07-21T11:04:57.181000Z</time>
      </trkpt>
      <trkpt lat="41.78274" lon="123.39805">
        <ele>37.29401</ele>
        <time>2015-07-21T11:05:00.492000Z</time>
      </trkpt>
      <trkpt lat="41.782677" lon="123.39815">
        <ele>37.711205</ele>
        <time>2015-07-21T11:05:03.803000Z</time>
      </trkpt>
      <trkpt lat="41.782616" lon="123.39825">
        <ele>38.09886</ele>
        <time>2015-07-21T11:05:07.114000Z</time>
      </trkpt>
      <trkpt lat="41.782524" lon="123.39833">
        <ele>38.665665</ele>
        <time>2015-07-21T11:05:10.425000Z</time>
      </trkpt>
      <trkpt lat="41.782425" lon="123.39837">
        <ele>39.375595</ele>
        <time>2015-07-21T11:05:13.736000Z</time>
      </trkpt>
      <trkpt lat="41.782322" lon="123.398384">
        <ele>39.88612</ele>
        <time>2015-07-21T11:05:17.047000Z</time>
      </trkpt>
      <trkpt lat="41.78222" lon="123.398415">
        <ele>40.067745</ele>
        <time>2015-07-21T11:05:20.358000Z</time>
      </trkpt>
      <trkpt lat="41.782097" lon="123.39842">
        <ele>40.05886</ele>
        <time>2015-07-21T11:05:23.669000Z</time>
      </trkpt>
      <trkpt lat="41.782" lon="123.39845">
        <ele>40.000427</ele>
        <time>2015-07-21T11:05:26.980000Z</time>
      </trkpt>
      <trkpt lat="41.781906" lon="123.3985">
        <ele>39.959023</ele>
        <time>2015-07-21T11:05:30.291000Z</time>
      </trkpt>
      <trkpt lat="41.781826" lon="123.39858">
        <ele>40.082714</ele>
        <time>2015-07-21T11:05:33.602000Z</time>
      </trkpt>
      <trkpt lat="41.781765" lon="123.39871">
        <ele>40.44351</ele>
        <time>2015-07-21T11:05:36.913000Z</time>
      </trkpt>
      <trkpt lat="41.781723" lon="123.39885">
        <ele>40.95593</ele>
        <time>2015-07-21T11:05:40.224000Z</time>
      </trkpt>
      <trkpt lat="41.781677" lon="123.398994">
        <ele>41.632618</ele>
        <time>2015-07-21T11:05:43.535000Z</time>
      </trkpt>
      <trkpt lat="41.781628" lon="123.39912">
        <ele>42.38963</ele>
        <time>2015-07-21T11:05:46.846000Z</time>
      </trkpt>
      <trkpt lat="41.781586" lon="123.39924">
        <ele>42.90425</ele>
        <time>2015-07-21T11:05:50.157000Z</time>
      </trkpt>
      <trkpt lat="41.781548" lon="123.39938">
        <ele>43.07554</ele>
        <time>2015-07-21T11:05:53.468000Z</time>
      </trkpt>
      <trkpt lat="41.781517" lon="123.399506">
        <ele>42.919537</ele>
        <time>2015-07-21T11:05:56.779000Z</time>
      </trkpt>
      <trkpt lat="41.78146" lon="123.399635">
        <ele>42.497437</ele>
        <time>2015-07-21T11:06:00.090000Z</time>
      </trkpt>
      <trkpt lat="41.781403" lon="123.39974">
        <ele>42.086304</ele>
        <time>2015-07-21T11:06:03.401000Z</time>
      </trkpt>
      <trkpt lat="41.78134" lon="123.39985">
        <ele>41.89741</ele>
        <time>2015-07-21T11:06:06.712000Z</time>
      </trkpt>
      <trkpt lat="41.78126" lon="123.39996">
        <ele>42.01069</ele>
        <time>2015-07-21T11:06:10.023000Z</time>
      </trkpt>
      <trkpt lat="41.781178" lon="123.400055">
        <ele>42.543854</ele>
        <time>2015-07-21T11:06:13.334000Z</time>
      </trkpt>
      <trkpt lat="41.781097" lon="123.40014">
        <ele>43.444843</ele>
        <time>2015-07-21T11:06:16.645000Z</time>
      </trkpt>
      <trkpt lat="41.781013" lon="123.400215">
        <ele>44.364613</ele>
        <time>2015-07-21T11:06:19.956000Z</time>
      </trkpt>
      <trkpt lat="41.780922" lon="123.4003">
        <ele>44.937714</ele>
        <time>2015-07-21T11:06:23.267000Z</time>
      </trkpt>
      <trkpt lat="41.780846" lon="123.4004">
        <ele>45.24478</ele>
        <time>2015-07-21T11:06:26.578000Z</time>
      </trkpt>
      <trkpt lat="41.78078" lon="123.4005">
        <ele>45.568382</ele>
        <time>2015-07-21T11:06:29.889000Z</time>
      </trkpt>
      <trkpt lat="41.780724" lon="123.4006">
        <ele>46.138763</ele>
        <time>2015-07-21T11:06:33.200000Z</time>
      </trkpt>
      <trkpt lat="41.780674" lon="123.40075">
        <ele>46.987446</ele>
        <time>2015-07-21T11:06:36.511000Z</time>
      </trkpt>
      <trkpt lat="41.78066" lon="123.40088">
        <ele>47.739464</ele>
        <time>2015-07-21T11:06:39.822000Z</time>
      </trkpt>
      <trkpt lat="41.78071" lon="123.401024">
        <ele>47.786797</ele>
        <time>2015-07-21T11:06:43.133000Z</time>
      </trkpt>
      <trkpt lat="41.780773" lon="123.401146">
        <ele>46.543434</ele>
        <time>2015-07-21T11:06:46.444000Z</time>
      </trkpt>
      <trkpt lat="41.78085" lon="123.401245">
        <ele>44.294678</ele>
        <time>2015-07-21T11:06:49.755000Z</time>
      </trkpt>
      <trkpt lat="41.780926" lon="123.401344">
        <ele>42.405235</ele>
        <time>2015-07-21T11:06:53.066000Z</time>
      </trkpt>
      <trkpt lat="41.780983" lon="123.401436">
        <ele>41.76334</ele>
        <time>2015-07-21T11:06:56.377000Z</time>
      </trkpt>
      <trkpt lat="41.781048" lon="123.40153">
        <ele>42.48952</ele>
        <time>2015-07-21T11:06:59.688000Z</time>
      </trkpt>
      <trkpt lat="41.781136" lon="123.401596">
        <ele>44.262794</ele>
        <time>2015-07-21T11:07:02.999000Z</time>
      </trkpt>
      <trkpt lat="41.78122" lon="123.40169">
        <ele>46.19803</ele>
        <time>2015-07-21T11:07:06.310000Z</time>
      </trkpt>
      <trkpt lat="41.78132" lon="123.401764">
        <ele>47.818535</ele>
        <time>2015-07-21T11:07:09.621000Z</time>
      </trkpt>
      <trkpt lat="41.781414" lon="123.40184">
        <ele>49.412216</ele>
        <time>2015-07-21T11:07:12.932000Z</time>
      </trkpt>
      <trkpt lat="41.781517" lon="123.401886">
        <ele>51.0754</ele>
        <time>2015-07-21T11:07:16.243000Z</time>
      </trkpt>
      <trkpt lat="41.781605" lon="123.40195">
        <ele>52.404327</ele>
        <time>2015-07-21T11:07:19.554000Z</time>
      </trkpt>
      <trkpt lat="41.78168" lon="123.402054">
        <ele>53.206112</ele>
        <time>2015-07-21T11:07:22.865000Z</time>
      </trkpt>
      <trkpt lat="41.78174" lon="123.402176">
        <ele>53.686375</ele>
        <time>2015-07-21T11:07:26.176000Z</time>
      </trkpt>
      <trkpt lat="41.781815" lon="123.402245">
        <ele>53.81907</ele>
        <time>2015-07-21T11:07:29.487000Z</time>
      </trkpt>
      <trkpt lat="41.78192" lon="123.402306">
        <ele>53.24967</ele>
        <time>2015-07-21T11:07:32.798000Z</time>
      </trkpt>
      <trkpt lat="41.78202" lon="123.402336">
        <ele>52.13354</ele>
        <time>2015-07-21T11:07:36.109000Z</time>
      </trkpt>
      <trkpt lat="41.782124" lon="123.40236">
        <ele>51.180126</ele>
        <time>2015-07-21T11:07:39.420000Z</time>
      </trkpt>
      <trkpt lat="41.782227" lon="123.40237">
        <ele>50.91938</ele>
        <time>2015-07-21T11:07:42.731000Z</time>
      </trkpt>
      <trkpt lat="41.782326" lon="123.40232">
        <ele>51.389122</ele>
        <time>2015-07-21T11:07:46.042000Z</time>
      </trkpt>
      <trkpt lat="41.782417" lon="123.402275">
        <ele>52.21081</ele>
        <time>2015-07-21T11:07:49.353000Z</time>
      </trkpt>
      <trkpt lat="41.782505" lon="123.40222">
        <ele>52.83303</ele>
        <time>2015-07-21T11:07:52.664000Z</time>
      </trkpt>
      <trkpt lat="41.782597" lon="123.40216">
        <ele>52.928623</ele>
        <time>2015-07-21T11:07:55.975000Z</time>
      </trkpt>
      <trkpt lat="41.7827" lon="123.40208">
        <ele>52.429054</ele>
        <time>2015-07-21T11:07:59.286000Z</time>
      </trkpt>
      <trkpt lat="41.782784" lon="123.40201">
        <ele>51.49382</ele>
        <time>2015-07-21T11:08:02.597000Z</time>
      </trkpt>
      <trkpt lat="41.782864" lon="123.40194">
        <ele>50.538723</ele>
        <time>2015-07-21T11:08:05.908000Z</time>
      </trkpt>
      <trkpt lat="41.782955" lon="123.40189">
        <ele>49.81064</ele>
        <time>2015-07-21T11:08:09.219000Z</time>
      </trkpt>
      <trkpt lat="41.78304" lon="123.40184">
        <ele>49.14111</ele>
        <time>2015-07-21T11:08:12.530000Z</time>
      </trkpt>
      <trkpt lat="41.783134" lon="123.40177">
        <ele>48.312748</ele>
        <time>2015-07-21T11:08:15.841000Z</time>
      </trkpt>
      <trkpt lat="41.78323" lon="123.401726">
        <ele>47.21009</ele>
        <time>2015-07-21T11:08:19.152000Z</time>
      </trkpt>
      <trkpt lat="41.783318" lon="123.40167">
        <ele>45.966797</ele>
        <time>2015-07-21T11:08:22.463000Z</time>
      </trkpt>
      <trkpt lat="41.78342" lon="123.40162">
        <ele>44.931522</ele>
        <time>2015-07-21T11:08:25.774000Z</time>
      </trkpt>
      <trkpt lat="41.783512" lon="123.401566">
        <ele>44.25128</ele>
        <time>2015-07-21T11:08:29.085000Z</time>
      </trkpt>
      <trkpt lat="41.783607" lon="123.40151">
        <ele>44.03474</ele>
        <time>2015-07-21T11:08:32.396000Z</time>
      </trkpt>
      <trkpt lat="41.783714" lon="123.401474">
        <ele>44.32171</ele>
        <time>2015-07-21T11:08:35.707000Z</time>
      </trkpt>
      <trkpt lat="41.78382" lon="123.40142">
        <ele>44.737377</ele>
        <time>2015-07-21T11:08:39.018000Z</time>
      </trkpt>
      <trkpt lat="41.78391" lon="123.40134">
        <ele>44.96818</ele>
        <time>2015-07-21T11:08:42.329000Z</time>
      </trkpt>
      <trkpt lat="41.78399" lon="123.40123">
        <ele>45.023304</ele>
        <time>2015-07-21T11:08:45.640000Z</time>
      </trkpt>
      <trkpt lat="41.78408" lon="123.401146">
        <ele>45.137173</ele>
        <time>2015-07-21T11:08:48.951000Z</time>
      </trkpt>
      <trkpt lat="41.78416" lon="123.40106">
        <ele>45.463078</ele>
        <time>2015-07-21T11:08:52.262000Z</time>
      </trkpt>
      <trkpt lat="41.78425" lon="123.40098">
        <ele>45.813885</ele>
        <time>2015-07-21T11:08:55.573000Z</time>
      </trkpt>
      <trkpt lat="41.784336" lon="123.40091">
        <ele>45.984818</ele>
        <time>2015-07-21T11:08:58.884000Z</time>
      </trkpt>
      <trkpt lat="41.784416" lon="123.40085">
        <ele>46.15158</ele>
        <time>2015-07-21T11:09:02.195000Z</time>
      </trkpt>
      <trkpt lat="41.7845" lon="123.40075">
        <ele>46.48427</ele>
        <time>2015-07-21T11:09:05.506000Z</time>
      </trkpt>
      <trkpt lat="41.78457" lon="123.40062">
        <ele>46.825096</ele>
        <time>2015-07-21T11:09:08.817000Z</time>
      </trkpt>
      <trkpt lat="41.78464" lon="123.4005">
        <ele>46.710247</ele>
        <time>2015-07-21T11:09:12.128000Z</time>
      </trkpt>
      <trkpt lat="41.784714" lon="123.40039">
        <ele>45.876617</ele>
        <time>2015-07-21T11:09:15.439000Z</time>
      </trkpt>
      <trkpt lat="41.784744" lon="123.40027">
        <ele>44.750137</ele>
        <time>2015-07-21T11:09:18.750000Z</time>
      </trkpt>
      <trkpt lat="41.784775" lon="123.400154">
        <ele>43.864227</ele>
        <time>2015-07-21T11:09:22.061000Z</time>
      </trkpt>
      <trkpt lat="41.784798" lon="123.400024">
        <ele>43.124847</ele>
        <time>2015-07-21T11:09:25.372000Z</time>
      </trkpt>
      <trkpt lat="41.784813" lon="123.39989">
        <ele>42.28893</ele>
        <time>2015-07-21T11:09:28.683000Z</time>
      </trkpt>
      <trkpt lat="41.784874" lon="123.39976">
        <ele>41.476852</ele>
        <time>2015-07-21T11:09:31.994000Z</time>
      </trkpt>
      <trkpt lat="41.78491" lon="123.399635">
        <ele>41.657078</ele>
        <time>2015-07-21T11:09:35.305000Z</time>
      </trkpt>
      <trkpt lat="41.78495" lon="123.39951">
        <ele>43.580273</ele>
        <time>2015-07-21T11:09:38.616000Z</time>
      </trkpt>
      <trkpt lat="41.785" lon="123.39941">
        <ele>46.177963</ele>
        <time>2015-07-21T11:09:41.927000Z</time>
      </trkpt>
      <trkpt lat="41.785053" lon="123.399284">
        <ele>47.721558</ele>
        <time>2015-07-21T11:09:45.238000Z</time>
      </trkpt>
      <trkpt lat="41.785122" lon="123.39918">
        <ele>47.609806</ele>
        <time>2015-07-21T11:09:48.549000Z</time>
      </trkpt>
      <trkpt lat="41.785202" lon="123.39906">
        <ele>46.435814</ele>
        <time>2015-07-21T11:09:51.860000Z</time>
      </trkpt>
      <trkpt lat="41.785275" lon="123.39896">
        <ele>45.308495</ele>
        <time>2015-07-21T11:09:55.171000Z</time>
      </trkpt>
      <trkpt lat="41.785316" lon="123.3988">
        <ele>44.795288</ele>
        <time>2015-07-21T11:09:58.482000Z</time>
      </trkpt>
      <trkpt lat="41.78533" lon="123.39864">
        <ele>45.006924</ele>
        <time>2015-07-21T11:10:01.793000Z</time>
      </trkpt>
      <trkpt lat="41.785305" lon="123.3985">
        <ele>45.82427</ele>
        <time>2015-07-21T11:10:05.104000Z</time>
      </trkpt>
      <trkpt lat="41.785255" lon="123.39834">
        <ele>46.793118</ele>
        <time>2015-07-21T11:10:08.415000Z</time>
      </trkpt>
      <trkpt lat="41.78519" lon="123.39818">
        <ele>47.682945</ele>
        <time>2015-07-21T11:10:11.726000Z</time>
      </trkpt>
      <trkpt lat="41.78513" lon="123.398056">
        <ele>48.60836</ele>
        <time>2015-07-21T11:10:15.037000Z</time>
      </trkpt>
      <trkpt lat="41.78507" lon="123.39793">
        <ele>49.444878</ele>
        <time>2015-07-21T11:10:18.348000Z</time>
      </trkpt>
      <trkpt lat="41.78499" lon="123.39777">
        <ele>49.67206</ele>
        <time>2015-07-21T11:10:21.659000Z</time>
      </trkpt>
      <trkpt lat="41.784912" lon="123.39766">
        <ele>48.67804</ele>
        <time>2015-07-21T11:10:24.970000Z</time>
      </trkpt>
      <trkpt lat="41.784813" lon="123.397575">
        <ele>46.821526</ele>
        <time>2015-07-21T11:10:28.281000Z</time>
      </trkpt>
      <trkpt lat="41.784706" lon="123.39751">
        <ele>45.294174</ele>
        <time>2015-07-21T11:10:31.592000Z</time>
      </trkpt>
      <trkpt lat="41.784622" lon="123.39743">
        <ele>44.950974</ele>
        <time>2015-07-21T11:10:34.903000Z</time>
      </trkpt>
      <trkpt lat="41.784557" lon="123.39732">
        <ele>45.640053</ele>
        <time>2015-07-21T11:10:38.214000Z</time>
      </trkpt>
      <trkpt lat="41.784473" lon="123.39724">
        <ele>46.39418</ele>
        <time>2015-07-21T11:10:41.525000Z</time>
      </trkpt>
      <trkpt lat="41.78438" lon="123.39716">
        <ele>46.508934</ele>
        <time>2015-07-21T11:10:44.836000Z</time>
      </trkpt>
      <trkpt lat="41.78431" lon="123.39709">
        <ele>46.242184</ele>
        <time>2015-07-21T11:10:48.147000Z</time>
      </trkpt>
      <trkpt lat="41.784164" lon="123.39712">
        <ele>46.008896</ele>
        <time>2015-07-21T11:10:51.458000Z</time>
      </trkpt>
      <trkpt lat="41.784058" lon="123.39721">
        <ele>45.909477</ele>
        <time>2015-07-21T11:10:54.769000Z</time>
      </trkpt>
      <trkpt lat="41.78395" lon="123.39723">
        <ele>45.76301</ele>
        <time>2015-07-21T11:10:58.080000Z</time>
      </trkpt>
      <trkpt lat="41.783844" lon="123.397224">
        <ele>45.42521</ele>
        <time>2015-07-21T11:11:01.391000Z</time>
      </trkpt>
      <trkpt lat="41.783733" lon="123.39722">
        <ele>45.07475</ele>
        <time>2015-07-21T11:11:04.702000Z</time>
      </trkpt>
      <trkpt lat="41.783627" lon="123.397224">
        <ele>44.90746</ele>
        <time>2015-07-21T11:11:08.013000Z</time>
      </trkpt>
      <trkpt lat="41.783524" lon="123.39724">
        <ele>44.88152</ele>
        <time>2015-07-21T11:11:11.324000Z</time>
      </trkpt>
      <trkpt lat="41.783432" lon="123.39725">
        <ele>44.90968</ele>
        <time>2015-07-21T11:11:14.635000Z</time>
      </trkpt>
      <trkpt lat="41.783314" lon="123.39731">
        <ele>44.938244</ele>
        <time>2015-07-21T11:11:17.946000Z</time>
      </trkpt>
      <trkpt lat="41.783203" lon="123.3974">
        <ele>44.9517</ele>
        <time>2015-07-21T11:11:21.257000Z</time>
      </trkpt>
      <trkpt lat="41.78308" lon="123.39747">
        <ele>44.815502</ele>
        <time>2015-07-21T11:11:24.568000Z</time>
      </trkpt>
      <trkpt lat="41.782974" lon="123.39757">
        <ele>44.315086</ele>
        <time>2015-07-21T11:11:27.879000Z</time>
      </trkpt>
      <trkpt lat="41.782887" lon="123.397675">
        <ele>43.58343</ele>
        <time>2015-07-21T11:11:31.190000Z</time>
      </trkpt>
      <trkpt lat="41.78281" lon="123.397804">
        <ele>43.037655</ele>
        <time>2015-07-21T11:11:34.501000Z</time>
      </trkpt>
      <trkpt lat="41.78273" lon="123.39791">
        <ele>42.835712</ele>
        <time>2015-07-21T11:11:37.812000Z</time>
      </trkpt>
      <trkpt lat="41.782654" lon="123.39802">
        <ele>42.839363</ele>
        <time>2015-07-21T11:11:41.123000Z</time>
      </trkpt>
      <trkpt lat="41.78257" lon="123.39811">
        <ele>42.899647</ele>
        <time>2015-07-21T11:11:44.434000Z</time>
      </trkpt>
      <trkpt lat="41.782494" lon="123.39818">
        <ele>42.80576</ele>
        <time>2015-07-21T11:11:47.745000Z</time>
      </trkpt>
      <trkpt lat="41.7824" lon="123.39825">
        <ele>42.461998</ele>
        <time>2015-07-21T11:11:51.056000Z</time>
      </trkpt>
      <trkpt lat="41.78228" lon="123.3983">
        <ele>42.09207</ele>
        <time>2015-07-21T11:11:54.367000Z</time>
      </trkpt>
      <trkpt lat="41.78218" lon="123.398346">
        <ele>41.911846</ele>
        <time>2015-07-21T11:11:57.678000Z</time>
      </trkpt>
      <trkpt lat="41.782032" lon="123.3984">
        <ele>41.88172</ele>
        <time>2015-07-21T11:12:00.989000Z</time>
      </trkpt>
      <trkpt lat="41.781944" lon="123.39844">
        <ele>41.91042</ele>
        <time>2015-07-21T11:12:04.300000Z</time>
      </trkpt>
      <trkpt lat="41.781826" lon="123.39852">
        <ele>42.078762</ele>
        <time>2015-07-21T11:12:07.611000Z</time>
      </trkpt>
      <trkpt lat="41.78175" lon="123.39863">
        <ele>42.45316</ele>
        <time>2015-07-21T11:12:10.922000Z</time>
      </trkpt>
      <trkpt lat="41.7817" lon="123.39877">
        <ele>42.963085</ele>
        <time>2015-07-21T11:12:14.233000Z</time>
      </trkpt>
      <trkpt lat="41.781673" lon="123.39892">
        <ele>43.495846</ele>
        <time>2015-07-21T11:12:17.544000Z</time>
      </trkpt>
      <trkpt lat="41.781654" lon="123.39905">
        <ele>44.027527</ele>
        <time>2015-07-21T11:12:20.855000Z</time>
      </trkpt>
      <trkpt lat="41.781624" lon="123.39916">
        <ele>44.53153</ele>
        <time>2015-07-21T11:12:24.166000Z</time>
      </trkpt>
      <trkpt lat="41.781586" lon="123.399284">
        <ele>44.89721</ele>
        <time>2015-07-21T11:12:27.477000Z</time>
      </trkpt>
      <trkpt lat="41.781548" lon="123.39942">
        <ele>45.166763</ele>
        <time>2015-07-21T11:12:30.788000Z</time>
      </trkpt>
      <trkpt lat="41.781506" lon="123.39954">
        <ele>45.659435</ele>
        <time>2015-07-21T11:12:34.099000Z</time>
      </trkpt>
      <trkpt lat="41.781445" lon="123.39965">
        <ele>46.48545</ele>
        <time>2015-07-21T11:12:37.410000Z</time>
      </trkpt>
      <trkpt lat="41.78137" lon="123.39975">
        <ele>47.63673</ele>
        <time>2015-07-21T11:12:40.721000Z</time>
      </trkpt>
      <trkpt lat="41.78129" lon="123.39987">
        <ele>48.91726</ele>
        <time>2015-07-21T11:12:44.032000Z</time>
      </trkpt>
      <trkpt lat="41.781223" lon="123.4">
        <ele>49.828503</ele>
        <time>2015-07-21T11:12:47.343000Z</time>
      </trkpt>
      <trkpt lat="41.78114" lon="123.400116">
        <ele>50.148876</ele>
        <time>2015-07-21T11:12:50.654000Z</time>
      </trkpt>
      <trkpt lat="41.78104" lon="123.40021">
        <ele>50.13015</ele>
        <time>2015-07-21T11:12:53.965000Z</time>
      </trkpt>
      <trkpt lat="41.78094" lon="123.40029">
        <ele>50.162968</ele>
        <time>2015-07-21T11:12:57.276000Z</time>
      </trkpt>
      <trkpt lat="41.780857" lon="123.40038">
        <ele>50.448967</ele>
        <time>2015-07-21T11:13:00.587000Z</time>
      </trkpt>
      <trkpt lat="41.78078" lon="123.40047">
        <ele>50.792854</ele>
        <time>2015-07-21T11:13:03.898000Z</time>
      </trkpt>
      <trkpt lat="41.780704" lon="123.400566">
        <ele>50.969963</ele>
        <time>2015-07-21T11:13:07.209000Z</time>
      </trkpt>
      <trkpt lat="41.78067" lon="123.40071">
        <ele>51.005157</ele>
        <time>2015-07-21T11:13:10.520000Z</time>
      </trkpt>
      <trkpt lat="41.78071" lon="123.40091">
        <ele>50.981163</ele>
        <time>2015-07-21T11:13:13.831000Z</time>
      </trkpt>
      <trkpt lat="41.7808" lon="123.40111">
        <ele>50.95309</ele>
        <time>2015-07-21T11:13:17.142000Z</time>
      </trkpt>
      <trkpt lat="41.78089" lon="123.40125">
        <ele>50.938816</ele>
        <time>2015-07-21T11:13:20.453000Z</time>
      </trkpt>
      <trkpt lat="41.78097" lon="123.40136">
        <ele>50.936085</ele>
        <time>2015-07-21T11:13:23.764000Z</time>
      </trkpt>
      <trkpt lat="41.781055" lon="123.40147">
        <ele>50.938095</ele>
        <time>2015-07-21T11:13:27.075000Z</time>
      </trkpt>
      <trkpt lat="41.78113" lon="123.40154">
        <ele>51.21674</ele>
        <time>2015-07-21T11:13:30.386000Z</time>
      </trkpt>
      <trkpt lat="41.781216" lon="123.401634">
        <ele>52.21403</ele>
        <time>2015-07-21T11:13:33.697000Z</time>
      </trkpt>
      <trkpt lat="41.781322" lon="123.40172">
        <ele>53.949253</ele>
        <time>2015-07-21T11:13:37.008000Z</time>
      </trkpt>
      <trkpt lat="41.78143" lon="123.401794">
        <ele>56.03462</ele>
        <time>2015-07-21T11:13:40.319000Z</time>
      </trkpt>
      <trkpt lat="41.78153" lon="123.40185">
        <ele>58.034843</ele>
        <time>2015-07-21T11:13:43.630000Z</time>
      </trkpt>
      <trkpt lat="41.781612" lon="123.40189">
        <ele>59.89166</ele>
        <time>2015-07-21T11:13:46.941000Z</time>
      </trkpt>
      <trkpt lat="41.7817" lon="123.40196">
        <ele>61.762325</ele>
        <time>2015-07-21T11:13:50.252000Z</time>
      </trkpt>
      <trkpt lat="41.781788" lon="123.402054">
        <ele>63.586834</ele>
        <time>2015-07-21T11:13:53.563000Z</time>
      </trkpt>
      <trkpt lat="41.781864" lon="123.40213">
        <ele>65.21414</ele>
        <time>2015-07-21T11:13:56.874000Z</time>
      </trkpt>
      <trkpt lat="41.78196" lon="123.40222">
        <ele>66.45032</ele>
        <time>2015-07-21T11:14:00.185000Z</time>
      </trkpt>
      <trkpt lat="41.782055" lon="123.402306">
        <ele>66.778046</ele>
        <time>2015-07-21T11:14:03.496000Z</time>
      </trkpt>
      <trkpt lat="41.782143" lon="123.40235">
        <ele>66.1603</ele>
        <time>2015-07-21T11:14:06.807000Z</time>
      </trkpt>
      <trkpt lat="41.78223" lon="123.40236">
        <ele>65.32604</ele>
        <time>2015-07-21T11:14:10.118000Z</time>
      </trkpt>
      <trkpt lat="41.782326" lon="123.40234">
        <ele>64.87472</ele>
        <time>2015-07-21T11:14:13.429000Z</time>
      </trkpt>
      <trkpt lat="41.782417" lon="123.4023">
        <ele>64.77303</ele>
        <time>2015-07-21T11:14:16.740000Z</time>
      </trkpt>
      <trkpt lat="41.78251" lon="123.402245">
        <ele>64.825165</ele>
        <time>2015-07-21T11:14:20.051000Z</time>
      </trkpt>
      <trkpt lat="41.7826" lon="123.4022">
        <ele>64.89334</ele>
        <time>2015-07-21T11:14:23.362000Z</time>
      </trkpt>
      <trkpt lat="41.782703" lon="123.40208">
        <ele>63.9625</ele>
        <time>2015-07-21T11:14:26.673000Z</time>
      </trkpt>
      <trkpt lat="41.782803" lon="123.40197">
        <ele>61.451214</ele>
        <time>2015-07-21T11:14:29.984000Z</time>
      </trkpt>
      <trkpt lat="41.78288" lon="123.4019">
        <ele>58.58442</ele>
        <time>2015-07-21T11:14:33.295000Z</time>
      </trkpt>
      <trkpt lat="41.782974" lon="123.401825">
        <ele>56.49406</ele>
        <time>2015-07-21T11:14:36.606000Z</time>
      </trkpt>
      <trkpt lat="41.78307" lon="123.40175">
        <ele>55.068474</ele>
        <time>2015-07-21T11:14:39.917000Z</time>
      </trkpt>
      <trkpt lat="41.783146" lon="123.40167">
        <ele>53.921547</ele>
        <time>2015-07-21T11:14:43.228000Z</time>
      </trkpt>
      <trkpt lat="41.783237" lon="123.40161">
        <ele>52.538773</ele>
        <time>2015-07-21T11:14:46.539000Z</time>
      </trkpt>
      <trkpt lat="41.783344" lon="123.40156">
        <ele>51.03743</ele>
        <time>2015-07-21T11:14:49.850000Z</time>
      </trkpt>
      <trkpt lat="41.783436" lon="123.401505">
        <ele>50.026096</ele>
        <time>2015-07-21T11:14:53.161000Z</time>
      </trkpt>
      <trkpt lat="41.78353" lon="123.40145">
        <ele>49.693375</ele>
        <time>2015-07-21T11:14:56.472000Z</time>
      </trkpt>
      <trkpt lat="41.783627" lon="123.4014">
        <ele>49.869507</ele>
        <time>2015-07-21T11:14:59.783000Z</time>
      </trkpt>
      <trkpt lat="41.783707" lon="123.40134">
        <ele>50.35274</ele>
        <time>2015-07-21T11:15:03.094000Z</time>
      </trkpt>
      <trkpt lat="41.78382" lon="123.401276">
        <ele>50.80411</ele>
        <time>2015-07-21T11:15:06.405000Z</time>
      </trkpt>
      <trkpt lat="41.783905" lon="123.401215">
        <ele>50.45313</ele>
        <time>2015-07-21T11:15:09.716000Z</time>
      </trkpt>
      <trkpt lat="41.783985" lon="123.401146">
        <ele>49.03665</ele>
        <time>2015-07-21T11:15:13.027000Z</time>
      </trkpt>
      <trkpt lat="41.784065" lon="123.401054">
        <ele>47.38062</ele>
        <time>2015-07-21T11:15:16.338000Z</time>
      </trkpt>
      <trkpt lat="41.784153" lon="123.40098">
        <ele>46.282936</ele>
        <time>2015-07-21T11:15:19.649000Z</time>
      </trkpt>
      <trkpt lat="41.78423" lon="123.4009">
        <ele>45.79118</ele>
        <time>2015-07-21T11:15:22.960000Z</time>
      </trkpt>
      <trkpt lat="41.78431" lon="123.40079">
        <ele>45.87233</ele>
        <time>2015-07-21T11:15:26.271000Z</time>
      </trkpt>
      <trkpt lat="41.78438" lon="123.40072">
        <ele>46.32945</ele>
        <time>2015-07-21T11:15:29.582000Z</time>
      </trkpt>
      <trkpt lat="41.784466" lon="123.40064">
        <ele>46.926422</ele>
        <time>2015-07-21T11:15:32.893000Z</time>
      </trkpt>
      <trkpt lat="41.784546" lon="123.40057">
        <ele>47.501072</ele>
        <time>2015-07-21T11:15:36.204000Z</time>
      </trkpt>
      <trkpt lat="41.784622" lon="123.4005">
        <ele>47.90127</ele>
        <time>2015-07-21T11:15:39.515000Z</time>
      </trkpt>
      <trkpt lat="41.784687" lon="123.40039">
        <ele>47.900303</ele>
        <time>2015-07-21T11:15:42.826000Z</time>
      </trkpt>
      <trkpt lat="41.784737" lon="123.40027">
        <ele>47.52956</ele>
        <time>2015-07-21T11:15:46.137000Z</time>
      </trkpt>
      <trkpt lat="41.78474" lon="123.40015">
        <ele>47.112873</ele>
        <time>2015-07-21T11:15:49.448000Z</time>
      </trkpt>
      <trkpt lat="41.784782" lon="123.4">
        <ele>46.90517</ele>
        <time>2015-07-21T11:15:52.759000Z</time>
      </trkpt>
      <trkpt lat="41.784824" lon="123.39989">
        <ele>46.038643</ele>
        <time>2015-07-21T11:15:56.070000Z</time>
      </trkpt>
      <trkpt lat="41.784843" lon="123.399765">
        <ele>43.910297</ele>
        <time>2015-07-21T11:15:59.381000Z</time>
      </trkpt>
      <trkpt lat="41.784855" lon="123.39962">
        <ele>41.72768</ele>
        <time>2015-07-21T11:16:02.692000Z</time>
      </trkpt>
      <trkpt lat="41.78488" lon="123.399475">
        <ele>40.831017</ele>
        <time>2015-07-21T11:16:06.003000Z</time>
      </trkpt>
      <trkpt lat="41.784924" lon="123.39934">
        <ele>41.310974</ele>
        <time>2015-07-21T11:16:09.314000Z</time>
      </trkpt>
      <trkpt lat="41.784985" lon="123.39922">
        <ele>43.130234</ele>
        <time>2015-07-21T11:16:12.625000Z</time>
      </trkpt>
      <trkpt lat="41.785046" lon="123.3991">
        <ele>45.93816</ele>
        <time>2015-07-21T11:16:15.936000Z</time>
      </trkpt>
      <trkpt lat="41.785088" lon="123.39898">
        <ele>48.45779</ele>
        <time>2015-07-21T11:16:19.247000Z</time>
      </trkpt>
      <trkpt lat="41.785164" lon="123.39887">
        <ele>49.572792</ele>
        <time>2015-07-21T11:16:22.558000Z</time>
      </trkpt>
      <trkpt lat="41.785275" lon="123.398796">
        <ele>49.55516</ele>
        <time>2015-07-21T11:16:25.869000Z</time>
      </trkpt>
      <trkpt lat="41.78535" lon="123.398705">
        <ele>49.086033</ele>
        <time>2015-07-21T11:16:29.180000Z</time>
      </trkpt>
      <trkpt lat="41.785366" lon="123.398575">
        <ele>48.482304</ele>
        <time>2015-07-21T11:16:32.491000Z</time>
      </trkpt>
      <trkpt lat="41.78534" lon="123.398445">
        <ele>48.43834</ele>
        <time>2015-07-21T11:16:35.802000Z</time>
      </trkpt>
      <trkpt lat="41.78529" lon="123.39833">
        <ele>49.483433</ele>
        <time>2015-07-21T11:16:39.113000Z</time>
      </trkpt>
      <trkpt lat="41.78524" lon="123.398224">
        <ele>51.75917</ele>
        <time>2015-07-21T11:16:42.424000Z</time>
      </trkpt>
      <trkpt lat="41.785183" lon="123.39811">
        <ele>51.69135</ele>
        <time>2015-07-21T11:16:45.735000Z</time>
      </trkpt>
      <trkpt lat="41.78513" lon="123.39799">
        <ele>51.41047</ele>
        <time>2015-07-21T11:16:49.046000Z</time>
      </trkpt>
      <trkpt lat="41.78513" lon="123.39799">
        <ele>51.474567</ele>
        <time>2015-07-21T11:16:52.357000Z</time>
      </trkpt>
      <trkpt lat="41.785072" lon="123.397865">
        <ele>51.740974</ele>
        <time>2015-07-21T11:16:55.668000Z</time>
      </trkpt>
      <trkpt lat="41.78501" lon="123.397766">
        <ele>51.923042</ele>
        <time>2015-07-21T11:16:58.979000Z</time>
      </trkpt>
      <trkpt lat="41.784946" lon="123.39768">
        <ele>51.984043</ele>
        <time>2015-07-21T11:17:02.290000Z</time>
      </trkpt>
      <trkpt lat="41.784866" lon="123.397606">
        <ele>51.97804</ele>
        <time>2015-07-21T11:17:05.601000Z</time>
      </trkpt>
      <trkpt lat="41.78478" lon="123.39755">
        <ele>51.956146</ele>
        <time>2015-07-21T11:17:08.912000Z</time>
      </trkpt>
      <trkpt lat="41.78469" lon="123.39749">
        <ele>51.803215</ele>
        <time>2015-07-21T11:17:12.223000Z</time>
      </trkpt>
      <trkpt lat="41.7846" lon="123.39742">
        <ele>51.438465</ele>
        <time>2015-07-21T11:17:15.534000Z</time>
      </trkpt>
      <trkpt lat="41.78451" lon="123.397354">
        <ele>51.069584</ele>
        <time>2015-07-21T11:17:18.845000Z</time>
      </trkpt>
      <trkpt lat="41.78443" lon="123.3973">
        <ele>50.89612</ele>
        <time>2015-07-21T11:17:22.156000Z</time>
      </trkpt>
      <trkpt lat="41.784348" lon="123.39724">
        <ele>50.73261</ele>
        <time>2015-07-21T11:17:25.467000Z</time>
      </trkpt>
      <trkpt lat="41.78426" lon="123.39717">
        <ele>50.403088</ele>
        <time>2015-07-21T11:17:28.778000Z</time>
      </trkpt>
      <trkpt lat="41.784153" lon="123.39716">
        <ele>50.06371</ele>
        <time>2015-07-21T11:17:32.088000Z</time>
      </trkpt>
      <trkpt lat="41.784054" lon="123.397224">
        <ele>50.040577</ele>
        <time>2015-07-21T11:17:35.398000Z</time>
      </trkpt>
      <trkpt lat="41.783955" lon="123.39717">
        <ele>50.375862</ele>
        <time>2015-07-21T11:17:38.708000Z</time>
      </trkpt>
      <trkpt lat="41.783855" lon="123.39715">
        <ele>50.772755</ele>
        <time>2015-07-21T11:17:42.018000Z</time>
      </trkpt>
      <trkpt lat="41.78374" lon="123.39718">
        <ele>50.975677</ele>
        <time>2015-07-21T11:17:45.328000Z</time>
      </trkpt>
      <trkpt lat="41.783646" lon="123.3972">
        <ele>50.738827</ele>
        <time>2015-07-21T11:17:48.638000Z</time>
      </trkpt>
      <trkpt lat="41.783554" lon="123.39721">
        <ele>49.990932</ele>
        <time>2015-07-21T11:17:51.948000Z</time>
      </trkpt>
      <trkpt lat="41.783447" lon="123.39722">
        <ele>49.21967</ele>
        <time>2015-07-21T11:17:55.258000Z</time>
      </trkpt>
      <trkpt lat="41.783325" lon="123.397255">
        <ele>48.57644</ele>
        <time>2015-07-21T11:17:58.568000Z</time>
      </trkpt>
      <trkpt lat="41.783245" lon="123.397316">
        <ele>47.80053</ele>
        <time>2015-07-21T11:18:01.878000Z</time>
      </trkpt>
      <trkpt lat="41.783146" lon="123.397415">
        <ele>46.98581</ele>
        <time>2015-07-21T11:18:05.188000Z</time>
      </trkpt>
      <trkpt lat="41.783047" lon="123.3975">
        <ele>46.338253</ele>
        <time>2015-07-21T11:18:08.498000Z</time>
      </trkpt>
      <trkpt lat="41.782955" lon="123.397606">
        <ele>46.083443</ele>
        <time>2015-07-21T11:18:11.808000Z</time>
      </trkpt>
      <trkpt lat="41.782883" lon="123.39772">
        <ele>46.33233</ele>
        <time>2015-07-21T11:18:15.118000Z</time>
      </trkpt>
      <trkpt lat="41.782814" lon="123.39783">
        <ele>46.73026</ele>
        <time>2015-07-21T11:18:18.428000Z</time>
      </trkpt>
      <trkpt lat="41.782726" lon="123.39792">
        <ele>46.54404</ele>
        <time>2015-07-21T11:18:21.738000Z</time>
      </trkpt>
      <trkpt lat="41.782642" lon="123.398">
        <ele>45.522675</ele>
        <time>2015-07-21T11:18:25.048000Z</time>
      </trkpt>
      <trkpt lat="41.78255" lon="123.398094">
        <ele>44.116806</ele>
        <time>2015-07-21T11:18:28.358000Z</time>
      </trkpt>
      <trkpt lat="41.782455" lon="123.39817">
        <ele>42.838676</ele>
        <time>2015-07-21T11:18:31.668000Z</time>
      </trkpt>
      <trkpt lat="41.78237" lon="123.39821">
        <ele>42.001774</ele>
        <time>2015-07-21T11:18:34.978000Z</time>
      </trkpt>
      <trkpt lat="41.782272" lon="123.39826">
        <ele>41.73662</ele>
        <time>2015-07-21T11:18:38.288000Z</time>
      </trkpt>
      <trkpt lat="41.782173" lon="123.398315">
        <ele>41.775684</ele>
        <time>2015-07-21T11:18:41.598000Z</time>
      </trkpt>
      <trkpt lat="41.78206" lon="123.398384">
        <ele>41.88061</ele>
        <time>2015-07-21T11:18:44.908000Z</time>
      </trkpt>
      <trkpt lat="41.781925" lon="123.398445">
        <ele>42.224735</ele>
        <time>2015-07-21T11:18:48.218000Z</time>
      </trkpt>
      <trkpt lat="41.781822" lon="123.39854">
        <ele>42.965584</ele>
        <time>2015-07-21T11:18:51.528000Z</time>
      </trkpt>
      <trkpt lat="41.781765" lon="123.39869">
        <ele>43.562805</ele>
        <time>2015-07-21T11:18:54.838000Z</time>
      </trkpt>
      <trkpt lat="41.781723" lon="123.39884">
        <ele>43.544827</ele>
        <time>2015-07-21T11:18:58.148000Z</time>
      </trkpt>
      <trkpt lat="41.781685" lon="123.39899">
        <ele>43.08479</ele>
        <time>2015-07-21T11:19:01.458000Z</time>
      </trkpt>
      <trkpt lat="41.781647" lon="123.3991">
        <ele>42.48799</ele>
        <time>2015-07-21T11:19:04.768000Z</time>
      </trkpt>
      <trkpt lat="41.78162" lon="123.39922">
        <ele>42.17029</ele>
        <time>2015-07-21T11:19:08.078000Z</time>
      </trkpt>
      <trkpt lat="41.78156" lon="123.39933">
        <ele>42.4956</ele>
        <time>2015-07-21T11:19:11.388000Z</time>
      </trkpt>
      <trkpt lat="41.78147" lon="123.39948">
        <ele>43.224907</ele>
        <time>2015-07-21T11:19:14.698000Z</time>
      </trkpt>
      <trkpt lat="41.78142" lon="123.39959">
        <ele>43.818813</ele>
        <time>2015-07-21T11:19:18.008000Z</time>
      </trkpt>
      <trkpt lat="41.78134" lon="123.399734">
        <ele>44.19579</ele>
        <time>2015-07-21T11:19:21.318000Z</time>
      </trkpt>
      <trkpt lat="41.78126" lon="123.39986">
        <ele>44.704212</ele>
        <time>2015-07-21T11:19:24.628000Z</time>
      </trkpt>
      <trkpt lat="41.781208" lon="123.39997">
        <ele>45.511463</ele>
        <time>2015-07-21T11:19:27.938000Z</time>
      </trkpt>
      <trkpt lat="41.781143" lon="123.40008">
        <ele>46.36779</ele>
        <time>2015-07-21T11:19:31.248000Z</time>
      </trkpt>
      <trkpt lat="41.781067" lon="123.40018">
        <ele>46.919895</ele>
        <time>2015-07-21T11:19:34.558000Z</time>
      </trkpt>
      <trkpt lat="41.78099" lon="123.40029">
        <ele>47.22925</ele>
        <time>2015-07-21T11:19:37.868000Z</time>
      </trkpt>
      <trkpt lat="41.7809" lon="123.40038">
        <ele>47.560555</ele>
        <time>2015-07-21T11:19:41.178000Z</time>
      </trkpt>
      <trkpt lat="41.78081" lon="123.400475">
        <ele>47.859722</ele>
        <time>2015-07-21T11:19:44.488000Z</time>
      </trkpt>
      <trkpt lat="41.780743" lon="123.40059">
        <ele>48.128464</ele>
        <time>2015-07-21T11:19:47.798000Z</time>
      </trkpt>
      <trkpt lat="41.78071" lon="123.40074">
        <ele>48.639477</ele>
        <time>2015-07-21T11:19:51.108000Z</time>
      </trkpt>
      <trkpt lat="41.78072" lon="123.4009">
        <ele>49.894047</ele>
        <time>2015-07-21T11:19:54.418000Z</time>
      </trkpt>
      <trkpt lat="41.780773" lon="123.401054">
        <ele>51.992146</ele>
        <time>2015-07-21T11:19:57.728000Z</time>
      </trkpt>
      <trkpt lat="41.78083" lon="123.40115">
        <ele>54.02109</ele>
        <time>2015-07-21T11:20:01.038000Z</time>
      </trkpt>
      <trkpt lat="41.780933" lon="123.40128">
        <ele>55.22535</ele>
        <time>2015-07-21T11:20:04.348000Z</time>
      </trkpt>
      <trkpt lat="41.780994" lon="123.401375">
        <ele>55.946983</ele>
        <time>2015-07-21T11:20:07.658000Z</time>
      </trkpt>
      <trkpt lat="41.781075" lon="123.40144">
        <ele>56.817028</ele>
        <time>2015-07-21T11:20:10.968000Z</time>
      </trkpt>
      <trkpt lat="41.781193" lon="123.40151">
        <ele>58.192173</ele>
        <time>2015-07-21T11:20:14.278000Z</time>
      </trkpt>
      <trkpt lat="41.7813" lon="123.401596">
        <ele>59.904846</ele>
        <time>2015-07-21T11:20:17.588000Z</time>
      </trkpt>
      <trkpt lat="41.781384" lon="123.401695">
        <ele>61.47143</ele>
        <time>2015-07-21T11:20:20.898000Z</time>
      </trkpt>
      <trkpt lat="41.78148" lon="123.40178">
        <ele>62.693813</ele>
        <time>2015-07-21T11:20:24.208000Z</time>
      </trkpt>
      <trkpt lat="41.78158" lon="123.401855">
        <ele>63.560814</ele>
        <time>2015-07-21T11:20:27.518000Z</time>
      </trkpt>
      <trkpt lat="41.78167" lon="123.40193">
        <ele>64.14084</ele>
        <time>2015-07-21T11:20:30.828000Z</time>
      </trkpt>
      <trkpt lat="41.781773" lon="123.40203">
        <ele>65.000496</ele>
        <time>2015-07-21T11:20:34.138000Z</time>
      </trkpt>
      <trkpt lat="41.78189" lon="123.40211">
        <ele>66.52598</ele>
        <time>2015-07-21T11:20:37.448000Z</time>
      </trkpt>
      <trkpt lat="41.781994" lon="123.40217">
        <ele>68.37503</ele>
        <time>2015-07-21T11:20:40.758000Z</time>
      </trkpt>
      <trkpt lat="41.782097" lon="123.40224">
        <ele>69.980965</ele>
        <time>2015-07-21T11:20:44.068000Z</time>
      </trkpt>
      <trkpt lat="41.78221" lon="123.402245">
        <ele>70.938095</ele>
        <time>2015-07-21T11:20:47.378000Z</time>
      </trkpt>
      <trkpt lat="41.782326" lon="123.40222">
        <ele>71.06208</ele>
        <time>2015-07-21T11:20:50.688000Z</time>
      </trkpt>
      <trkpt lat="41.782448" lon="123.402176">
        <ele>69.79755</ele>
        <time>2015-07-21T11:20:53.998000Z</time>
      </trkpt>
      <trkpt lat="41.78254" lon="123.402115">
        <ele>66.999054</ele>
        <time>2015-07-21T11:20:57.308000Z</time>
      </trkpt>
      <trkpt lat="41.782646" lon="123.40203">
        <ele>63.89357</ele>
        <time>2015-07-21T11:21:00.618000Z</time>
      </trkpt>
      <trkpt lat="41.78277" lon="123.40194">
        <ele>61.56737</ele>
        <time>2015-07-21T11:21:03.928000Z</time>
      </trkpt>
      <trkpt lat="41.78287" lon="123.40187">
        <ele>60.032448</ele>
        <time>2015-07-21T11:21:07.238000Z</time>
      </trkpt>
      <trkpt lat="41.782963" lon="123.4018">
        <ele>59.146862</ele>
        <time>2015-07-21T11:21:10.548000Z</time>
      </trkpt>
      <trkpt lat="41.78306" lon="123.40174">
        <ele>58.780087</ele>
        <time>2015-07-21T11:21:13.858000Z</time>
      </trkpt>
      <trkpt lat="41.783146" lon="123.40167">
        <ele>58.894783</ele>
        <time>2015-07-21T11:21:17.168000Z</time>
      </trkpt>
      <trkpt lat="41.783245" lon="123.40161">
        <ele>59.341526</ele>
        <time>2015-07-21T11:21:20.478000Z</time>
      </trkpt>
      <trkpt lat="41.783333" lon="123.401566">
        <ele>59.5066</ele>
        <time>2015-07-21T11:21:23.788000Z</time>
      </trkpt>
      <trkpt lat="41.783432" lon="123.401505">
        <ele>58.99147</ele>
        <time>2015-07-21T11:21:27.098000Z</time>
      </trkpt>
      <trkpt lat="41.78352" lon="123.40146">
        <ele>58.28072</ele>
        <time>2015-07-21T11:21:30.408000Z</time>
      </trkpt>
      <trkpt lat="41.78362" lon="123.401405">
        <ele>57.754856</ele>
        <time>2015-07-21T11:21:33.718000Z</time>
      </trkpt>
      <trkpt lat="41.783722" lon="123.401344">
        <ele>57.305943</ele>
        <time>2015-07-21T11:21:37.028000Z</time>
      </trkpt>
      <trkpt lat="41.783825" lon="123.40128">
        <ele>56.98003</ele>
        <time>2015-07-21T11:21:40.338000Z</time>
      </trkpt>
      <trkpt lat="41.783916" lon="123.40122">
        <ele>56.72468</ele>
        <time>2015-07-21T11:21:43.648000Z</time>
      </trkpt>
      <trkpt lat="41.78402" lon="123.401146">
        <ele>56.093185</ele>
        <time>2015-07-21T11:21:46.958000Z</time>
      </trkpt>
      <trkpt lat="41.78411" lon="123.40106">
        <ele>55.04092</ele>
        <time>2015-07-21T11:21:50.268000Z</time>
      </trkpt>
      <trkpt lat="41.784195" lon="123.400955">
        <ele>54.15323</ele>
        <time>2015-07-21T11:21:53.578000Z</time>
      </trkpt>
      <trkpt lat="41.784267" lon="123.40086">
        <ele>53.785526</ele>
        <time>2015-07-21T11:21:56.888000Z</time>
      </trkpt>
      <trkpt lat="41.78434" lon="123.400795">
        <ele>53.900127</ele>
        <time>2015-07-21T11:22:00.198000Z</time>
      </trkpt>
      <trkpt lat="41.78442" lon="123.400696">
        <ele>54.485237</ele>
        <time>2015-07-21T11:22:03.508000Z</time>
      </trkpt>
      <trkpt lat="41.784473" lon="123.4006">
        <ele>55.28673</ele>
        <time>2015-07-21T11:22:06.818000Z</time>
      </trkpt>
      <trkpt lat="41.784523" lon="123.40046">
        <ele>55.860893</ele>
        <time>2015-07-21T11:22:10.128000Z</time>
      </trkpt>
      <trkpt lat="41.78458" lon="123.40033">
        <ele>56.06428</ele>
        <time>2015-07-21T11:22:13.438000Z</time>
      </trkpt>
      <trkpt lat="41.78463" lon="123.400215">
        <ele>56.05363</ele>
        <time>2015-07-21T11:22:16.748000Z</time>
      </trkpt>
      <trkpt lat="41.784676" lon="123.40011">
        <ele>55.98767</ele>
        <time>2015-07-21T11:22:20.058000Z</time>
      </trkpt>
      <trkpt lat="41.78471" lon="123.39997">
        <ele>55.94111</ele>
        <time>2015-07-21T11:22:23.368000Z</time>
      </trkpt>
      <trkpt lat="41.784725" lon="123.39981">
        <ele>55.510353</ele>
        <time>2015-07-21T11:22:26.678000Z</time>
      </trkpt>
      <trkpt lat="41.784744" lon="123.39965">
        <ele>54.431744</ele>
        <time>2015-07-21T11:22:29.988000Z</time>
      </trkpt>
      <trkpt lat="41.784775" lon="123.39951">
        <ele>53.328865</ele>
        <time>2015-07-21T11:22:33.298000Z</time>
      </trkpt>
      <trkpt lat="41.784847" lon="123.39939">
        <ele>52.945038</ele>
        <time>2015-07-21T11:22:36.608000Z</time>
      </trkpt>
      <trkpt lat="41.784916" lon="123.39929">
        <ele>53.22663</ele>
        <time>2015-07-21T11:22:39.918000Z</time>
      </trkpt>
      <trkpt lat="41.784973" lon="123.39919">
        <ele>53.68592</ele>
        <time>2015-07-21T11:22:43.228000Z</time>
      </trkpt>
      <trkpt lat="41.78504" lon="123.39909">
        <ele>53.951057</ele>
        <time>2015-07-21T11:22:46.538000Z</time>
      </trkpt>
      <trkpt lat="41.7851" lon="123.39899">
        <ele>54.019573</ele>
        <time>2015-07-21T11:22:49.848000Z</time>
      </trkpt>
      <trkpt lat="41.785152" lon="123.398834">
        <ele>53.99555</ele>
        <time>2015-07-21T11:22:53.158000Z</time>
      </trkpt>
      <trkpt lat="41.785202" lon="123.39872">
        <ele>54.234318</ele>
        <time>2015-07-21T11:22:56.468000Z</time>
      </trkpt>
      <trkpt lat="41.785248" lon="123.398605">
        <ele>54.932682</ele>
        <time>2015-07-21T11:22:59.778000Z</time>
      </trkpt>
      <trkpt lat="41.785248" lon="123.39845">
        <ele>55.804333</ele>
        <time>2015-07-21T11:23:03.088000Z</time>
      </trkpt>
      <trkpt lat="41.785225" lon="123.39832">
        <ele>56.516792</ele>
        <time>2015-07-21T11:23:06.398000Z</time>
      </trkpt>
      <trkpt lat="41.785194" lon="123.398186">
        <ele>56.666008</ele>
        <time>2015-07-21T11:23:09.708000Z</time>
      </trkpt>
      <trkpt lat="41.785137" lon="123.39803">
        <ele>55.786884</ele>
        <time>2015-07-21T11:23:13.018000Z</time>
      </trkpt>
      <trkpt lat="41.785076" lon="123.39789">
        <ele>54.29497</ele>
        <time>2015-07-21T11:23:16.328000Z</time>
      </trkpt>
      <trkpt lat="41.785015" lon="123.397766">
        <ele>53.285404</ele>
        <time>2015-07-21T11:23:19.638000Z</time>
      </trkpt>
      <trkpt lat="41.78494" lon="123.397675">
        <ele>53.20731</ele>
        <time>2015-07-21T11:23:22.948000Z</time>
      </trkpt>
      <trkpt lat="41.784847" lon="123.397575">
        <ele>53.298058</ele>
        <time>2015-07-21T11:23:26.258000Z</time>
      </trkpt>
      <trkpt lat="41.78475" lon="123.39749">
        <ele>52.738396</ele>
        <time>2015-07-21T11:23:29.568000Z</time>
      </trkpt>
      <trkpt lat="41.784664" lon="123.397415">
        <ele>51.75935</ele>
        <time>2015-07-21T11:23:32.878000Z</time>
      </trkpt>
      <trkpt lat="41.784584" lon="123.39734">
        <ele>51.044422</ele>
        <time>2015-07-21T11:23:36.188000Z</time>
      </trkpt>
      <trkpt lat="41.784508" lon="123.39727">
        <ele>50.647594</ele>
        <time>2015-07-21T11:23:39.498000Z</time>
      </trkpt>
      <trkpt lat="41.784416" lon="123.39722">
        <ele>50.296906</ele>
        <time>2015-07-21T11:23:42.808000Z</time>
      </trkpt>
      <trkpt lat="41.78432" lon="123.39716">
        <ele>50.008087</ele>
        <time>2015-07-21T11:23:46.118000Z</time>
      </trkpt>
      <trkpt lat="41.78421" lon="123.397224">
        <ele>49.752647</ele>
        <time>2015-07-21T11:23:49.428000Z</time>
      </trkpt>
      <trkpt lat="41.784107" lon="123.39728">
        <ele>49.525043</ele>
        <time>2015-07-21T11:23:52.738000Z</time>
      </trkpt>
      <trkpt lat="41.784008" lon="123.39726">
        <ele>49.682663</ele>
        <time>2015-07-21T11:23:56.048000Z</time>
      </trkpt>
      <trkpt lat="41.783913" lon="123.397224">
        <ele>50.260204</ele>
        <time>2015-07-21T11:23:59.358000Z</time>
      </trkpt>
      <trkpt lat="41.78381" lon="123.397194">
        <ele>50.511406</ele>
        <time>2015-07-21T11:24:02.668000Z</time>
      </trkpt>
      <trkpt lat="41.783707" lon="123.397194">
        <ele>49.885597</ele>
        <time>2015-07-21T11:24:05.978000Z</time>
      </trkpt>
      <trkpt lat="41.783615" lon="123.397194">
        <ele>48.672913</ele>
        <time>2015-07-21T11:24:09.288000Z</time>
      </trkpt>
      <trkpt lat="41.78351" lon="123.39719">
        <ele>47.406982</ele>
        <time>2015-07-21T11:24:12.598000Z</time>
      </trkpt>
      <trkpt lat="41.783398" lon="123.397194">
        <ele>46.4064</ele>
        <time>2015-07-21T11:24:15.908000Z</time>
      </trkpt>
      <trkpt lat="41.78329" lon="123.39725">
        <ele>46.014687</ele>
        <time>2015-07-21T11:24:19.218000Z</time>
      </trkpt>
      <trkpt lat="41.78319" lon="123.39733">
        <ele>46.261208</ele>
        <time>2015-07-21T11:24:22.528000Z</time>
      </trkpt>
      <trkpt lat="41.7831" lon="123.397415">
        <ele>46.69637</ele>
        <time>2015-07-21T11:24:25.838000Z</time>
      </trkpt>
      <trkpt lat="41.78302" lon="123.39751">
        <ele>46.953358</ele>
        <time>2015-07-21T11:24:29.148000Z</time>
      </trkpt>
      <trkpt lat="41.782948" lon="123.3976">
        <ele>47.022614</ele>
        <time>2015-07-21T11:24:32.458000Z</time>
      </trkpt>
      <trkpt lat="41.78287" lon="123.39769">
        <ele>47.001472</ele>
        <time>2015-07-21T11:24:35.768000Z</time>
      </trkpt>
      <trkpt lat="41.782795" lon="123.39778">
        <ele>46.827663</ele>
        <time>2015-07-21T11:24:39.078000Z</time>
      </trkpt>
      <trkpt lat="41.78272" lon="123.39787">
        <ele>46.308826</ele>
        <time>2015-07-21T11:24:42.388000Z</time>
      </trkpt>
      <trkpt lat="41.78264" lon="123.397964">
        <ele>45.297676</ele>
        <time>2015-07-21T11:24:45.698000Z</time>
      </trkpt>
      <trkpt lat="41.782547" lon="123.39805">
        <ele>43.896824</ele>
        <time>2015-07-21T11:24:49.008000Z</time>
      </trkpt>
      <trkpt lat="41.782467" lon="123.39813">
        <ele>42.46101</ele>
        <time>2015-07-21T11:24:52.318000Z</time>
      </trkpt>
      <trkpt lat="41.782368" lon="123.398224">
        <ele>41.386295</ele>
        <time>2015-07-21T11:24:55.628000Z</time>
      </trkpt>
      <trkpt lat="41.782265" lon="123.398254">
        <ele>40.98724</ele>
        <time>2015-07-21T11:24:58.938000Z</time>
      </trkpt>
      <trkpt lat="41.78215" lon="123.398315">
        <ele>41.387543</ele>
        <time>2015-07-21T11:25:02.248000Z</time>
      </trkpt>
      <trkpt lat="41.782047" lon="123.398346">
        <ele>42.3346</ele>
        <time>2015-07-21T11:25:05.558000Z</time>
      </trkpt>
      <trkpt lat="41.78194" lon="123.39838">
        <ele>43.326862</ele>
        <time>2015-07-21T11:25:08.868000Z</time>
      </trkpt>
      <trkpt lat="41.781837" lon="123.398445">
        <ele>44.63224</ele>
        <time>2015-07-21T11:25:12.178000Z</time>
      </trkpt>
      <trkpt lat="41.781773" lon="123.39858">
        <ele>46.611057</ele>
        <time>2015-07-21T11:25:15.488000Z</time>
      </trkpt>
      <trkpt lat="41.78172" lon="123.398735">
        <ele>48.418022</ele>
        <time>2015-07-21T11:25:18.798000Z</time>
      </trkpt>
      <trkpt lat="41.78166" lon="123.398895">
        <ele>49.212986</ele>
        <time>2015-07-21T11:25:22.108000Z</time>
      </trkpt>
      <trkpt lat="41.781597" lon="123.39901">
        <ele>49.29593</ele>
        <time>2015-07-21T11:25:25.418000Z</time>
      </trkpt>
      <trkpt lat="41.78156" lon="123.39913">
        <ele>48.993618</ele>
        <time>2015-07-21T11:25:28.728000Z</time>
      </trkpt>
      <trkpt lat="41.78153" lon="123.39926">
        <ele>48.48667</ele>
        <time>2015-07-21T11:25:32.038000Z</time>
      </trkpt>
      <trkpt lat="41.781517" lon="123.39939">
        <ele>47.91524</ele>
        <time>2015-07-21T11:25:35.348000Z</time>
      </trkpt>
      <trkpt lat="41.78147" lon="123.39953">
        <ele>47.374</ele>
        <time>2015-07-21T11:25:38.658000Z</time>
      </trkpt>
      <trkpt lat="41.7814" lon="123.399635">
        <ele>46.853462</ele>
        <time>2015-07-21T11:25:41.968000Z</time>
      </trkpt>
      <trkpt lat="41.781334" lon="123.399734">
        <ele>46.36026</ele>
        <time>2015-07-21T11:25:45.278000Z</time>
      </trkpt>
      <trkpt lat="41.781273" lon="123.39984">
        <ele>46.137703</ele>
        <time>2015-07-21T11:25:48.588000Z</time>
      </trkpt>
      <trkpt lat="41.781204" lon="123.39995">
        <ele>46.366856</ele>
        <time>2015-07-21T11:25:51.898000Z</time>
      </trkpt>
      <trkpt lat="41.781116" lon="123.40006">
        <ele>46.87894</ele>
        <time>2015-07-21T11:25:55.208000Z</time>
      </trkpt>
      <trkpt lat="41.781044" lon="123.40018">
        <ele>47.592884</ele>
        <time>2015-07-21T11:25:58.518000Z</time>
      </trkpt>
      <trkpt lat="41.780956" lon="123.40029">
        <ele>48.37801</ele>
        <time>2015-07-21T11:26:01.828000Z</time>
      </trkpt>
      <trkpt lat="41.780876" lon="123.4004">
        <ele>48.764977</ele>
        <time>2015-07-21T11:26:05.138000Z</time>
      </trkpt>
      <trkpt lat="41.780815" lon="123.40052">
        <ele>48.576275</ele>
        <time>2015-07-21T11:26:08.448000Z</time>
      </trkpt>
      <trkpt lat="41.780754" lon="123.400635">
        <ele>48.462303</ele>
        <time>2015-07-21T11:26:11.758000Z</time>
      </trkpt>
      <trkpt lat="41.780716" lon="123.400764">
        <ele>48.942337</ele>
        <time>2015-07-21T11:26:15.068000Z</time>
      </trkpt>
      <trkpt lat="41.780716" lon="123.40093">
        <ele>50.02667</ele>
        <time>2015-07-21T11:26:18.378000Z</time>
      </trkpt>
      <trkpt lat="41.780773" lon="123.40111">
        <ele>51.61142</ele>
        <time>2015-07-21T11:26:21.688000Z</time>
      </trkpt>
      <trkpt lat="41.78083" lon="123.4012">
        <ele>53.164665</ele>
        <time>2015-07-21T11:26:24.998000Z</time>
      </trkpt>
      <trkpt lat="41.78091" lon="123.40131">
        <ele>54.019302</ele>
        <time>2015-07-21T11:26:28.308000Z</time>
      </trkpt>
      <trkpt lat="41.780987" lon="123.40139">
        <ele>54.357586</ele>
        <time>2015-07-21T11:26:31.618000Z</time>
      </trkpt>
      <trkpt lat="41.781082" lon="123.40144">
        <ele>54.76262</ele>
        <time>2015-07-21T11:26:34.928000Z</time>
      </trkpt>
      <trkpt lat="41.781162" lon="123.4015">
        <ele>55.64133</ele>
        <time>2015-07-21T11:26:38.238000Z</time>
      </trkpt>
      <trkpt lat="41.781277" lon="123.40159">
        <ele>56.836838</ele>
        <time>2015-07-21T11:26:41.548000Z</time>
      </trkpt>
      <trkpt lat="41.781364" lon="123.401665">
        <ele>57.623634</ele>
        <time>2015-07-21T11:26:44.858000Z</time>
      </trkpt>
      <trkpt lat="41.78145" lon="123.40173">
        <ele>57.618664</ele>
        <time>2015-07-21T11:26:48.168000Z</time>
      </trkpt>
      <trkpt lat="41.781532" lon="123.401825">
        <ele>57.39075</ele>
        <time>2015-07-21T11:26:51.478000Z</time>
      </trkpt>
      <trkpt lat="41.781624" lon="123.40189">
        <ele>57.61495</ele>
        <time>2015-07-21T11:26:54.788000Z</time>
      </trkpt>
      <trkpt lat="41.781734" lon="123.40195">
        <ele>58.24264</ele>
        <time>2015-07-21T11:26:58.098000Z</time>
      </trkpt>
      <trkpt lat="41.781853" lon="123.40203">
        <ele>58.92712</ele>
        <time>2015-07-21T11:27:01.408000Z</time>
      </trkpt>
      <trkpt lat="41.781967" lon="123.402115">
        <ele>59.51897</ele>
        <time>2015-07-21T11:27:04.718000Z</time>
      </trkpt>
      <trkpt lat="41.78207" lon="123.40221">
        <ele>60.045353</ele>
        <time>2015-07-21T11:27:08.028000Z</time>
      </trkpt>
      <trkpt lat="41.782166" lon="123.40228">
        <ele>60.52853</ele>
        <time>2015-07-21T11:27:11.338000Z</time>
      </trkpt>
      <trkpt lat="41.782253" lon="123.40232">
        <ele>60.741886</ele>
        <time>2015-07-21T11:27:14.648000Z</time>
      </trkpt>
      <trkpt lat="41.782356" lon="123.40231">
        <ele>60.508667</ele>
        <time>2015-07-21T11:27:17.958000Z</time>
      </trkpt>
      <trkpt lat="41.78249" lon="123.40227">
        <ele>59.443436</ele>
        <time>2015-07-21T11:27:21.268000Z</time>
      </trkpt>
      <trkpt lat="41.782597" lon="123.40222">
        <ele>55.11218</ele>
        <time>2015-07-21T11:27:24.578000Z</time>
      </trkpt>
      <trkpt lat="41.7827" lon="123.402145">
        <ele>53.31425</ele>
        <time>2015-07-21T11:27:27.888000Z</time>
      </trkpt>
      <trkpt lat="41.78276" lon="123.402054">
        <time>2015-07-21T11:27:31.198000Z</time>
      </trkpt>
    </trkseg>
  </trk>
</gpx>