<?xml version="1.0" encoding="UTF-8"?>
<gpx xmlns="http://www.topografix.com/GPX/1/1" xmlns:gpxtpx="http://www.garmin.com/xmlschemas/TrackPointExtension/v1" xmlns:xsi="http://www.w3.org/2001/XMLSchema-instance" xsi:schemaLocation="http://www.topografix.com/GPX/1/1 http://www.topografix.com/GPX/1/1/gpx.xsd" version="1.1" creator="gpx.py -- https://github.com/tkrajina/gpxpy">
  <trk>
    <trkseg>
      <trkpt lat="41.781902" lon="123.3986">
        <ele>25.114634</ele>
        <time>2015-08-07T10:54:19.977000Z</time>
      </trkpt>
      <trkpt lat="41.78189" lon="123.3986">
        <ele>40.2592</ele>
        <time>2015-08-07T10:54:23.156000Z</time>
      </trkpt>
      <trkpt lat="41.78182" lon="123.3987">
        <ele>49.320457</ele>
        <time>2015-08-07T10:54:26.335000Z</time>
      </trkpt>
      <trkpt lat="41.78181" lon="123.398834">
        <ele>52.3719</ele>
        <time>2015-08-07T10:54:29.514000Z</time>
      </trkpt>
      <trkpt lat="41.78178" lon="123.39897">
        <ele>51.58601</ele>
        <time>2015-08-07T10:54:32.693000Z</time>
      </trkpt>
      <trkpt lat="41.78176" lon="123.3991">
        <ele>50.889206</ele>
        <time>2015-08-07T10:54:35.872000Z</time>
      </trkpt>
      <trkpt lat="41.781723" lon="123.399216">
        <ele>50.186104</ele>
        <time>2015-08-07T10:54:39.051000Z</time>
      </trkpt>
      <trkpt lat="41.781666" lon="123.39932">
        <ele>49.143127</ele>
        <time>2015-08-07T10:54:42.230000Z</time>
      </trkpt>
      <trkpt lat="41.781563" lon="123.39949">
        <ele>49.525993</ele>
        <time>2015-08-07T10:54:45.409000Z</time>
      </trkpt>
      <trkpt lat="41.781563" lon="123.39949">
        <ele>50.276924</ele>
        <time>2015-08-07T10:54:48.588000Z</time>
      </trkpt>
      <trkpt lat="41.781498" lon="123.3996">
        <ele>51.12133</ele>
        <time>2015-08-07T10:54:51.767000Z</time>
      </trkpt>
      <trkpt lat="41.781445" lon="123.39974">
        <ele>51.916134</ele>
        <time>2015-08-07T10:54:54.946000Z</time>
      </trkpt>
      <trkpt lat="41.781387" lon="123.39993">
        <ele>52.431755</ele>
        <time>2015-08-07T10:54:58.125000Z</time>
      </trkpt>
      <trkpt lat="41.781345" lon="123.40004">
        <ele>52.84902</ele>
        <time>2015-08-07T10:55:01.304000Z</time>
      </trkpt>
      <trkpt lat="41.781265" lon="123.40013">
        <ele>53.410034</ele>
        <time>2015-08-07T10:55:04.483000Z</time>
      </trkpt>
      <trkpt lat="41.781185" lon="123.40023">
        <ele>53.851192</ele>
        <time>2015-08-07T10:55:07.662000Z</time>
      </trkpt>
      <trkpt lat="41.781124" lon="123.40032">
        <ele>54.29944</ele>
        <time>2015-08-07T10:55:10.841000Z</time>
      </trkpt>
      <trkpt lat="41.781048" lon="123.40043">
        <ele>55.02278</ele>
        <time>2015-08-07T10:55:14.020000Z</time>
      </trkpt>
      <trkpt lat="41.780987" lon="123.400536">
        <ele>55.71535</ele>
        <time>2015-08-07T10:55:17.199000Z</time>
      </trkpt>
      <trkpt lat="41.78093" lon="123.40063">
        <ele>56.168224</ele>
        <time>2015-08-07T10:55:20.378000Z</time>
      </trkpt>
      <trkpt lat="41.78087" lon="123.40074">
        <ele>56.567425</ele>
        <time>2015-08-07T10:55:23.557000Z</time>
      </trkpt>
      <trkpt lat="41.78083" lon="123.40087">
        <ele>57.014935</ele>
        <time>2015-08-07T10:55:26.736000Z</time>
      </trkpt>
      <trkpt lat="41.78081" lon="123.400986">
        <ele>57.49369</ele>
        <time>2015-08-07T10:55:29.915000Z</time>
      </trkpt>
      <trkpt lat="41.780827" lon="123.40112">
        <ele>57.864372</ele>
        <time>2015-08-07T10:55:33.094000Z</time>
      </trkpt>
      <trkpt lat="41.780872" lon="123.40123">
        <ele>57.730347</ele>
        <time>2015-08-07T10:55:36.273000Z</time>
      </trkpt>
      <trkpt lat="41.780945" lon="123.401306">
        <ele>56.735622</ele>
        <time>2015-08-07T10:55:39.452000Z</time>
      </trkpt>
      <trkpt lat="41.78104" lon="123.40136">
        <ele>54.684765</ele>
        <time>2015-08-07T10:55:42.631000Z</time>
      </trkpt>
      <trkpt lat="41.781136" lon="123.40143">
        <ele>51.987526</ele>
        <time>2015-08-07T10:55:45.810000Z</time>
      </trkpt>
      <trkpt lat="41.781235" lon="123.401505">
        <ele>49.734932</ele>
        <time>2015-08-07T10:55:48.989000Z</time>
      </trkpt>
      <trkpt lat="41.781326" lon="123.401566">
        <ele>48.947735</ele>
        <time>2015-08-07T10:55:52.168000Z</time>
      </trkpt>
      <trkpt lat="41.78139" lon="123.40169">
        <ele>49.78594</ele>
        <time>2015-08-07T10:55:55.347000Z</time>
      </trkpt>
      <trkpt lat="41.781464" lon="123.401794">
        <ele>51.567036</ele>
        <time>2015-08-07T10:55:58.526000Z</time>
      </trkpt>
      <trkpt lat="41.781578" lon="123.40189">
        <ele>53.199883</ele>
        <time>2015-08-07T10:56:01.705000Z</time>
      </trkpt>
      <trkpt lat="41.78166" lon="123.401955">
        <ele>54.05843</ele>
        <time>2015-08-07T10:56:04.884000Z</time>
      </trkpt>
      <trkpt lat="41.781765" lon="123.40202">
        <ele>54.238796</ele>
        <time>2015-08-07T10:56:08.063000Z</time>
      </trkpt>
      <trkpt lat="41.781868" lon="123.40208">
        <ele>54.129803</ele>
        <time>2015-08-07T10:56:11.242000Z</time>
      </trkpt>
      <trkpt lat="41.78197" lon="123.402145">
        <ele>53.996456</ele>
        <time>2015-08-07T10:56:14.421000Z</time>
      </trkpt>
      <trkpt lat="41.78206" lon="123.40219">
        <ele>53.927235</ele>
        <time>2015-08-07T10:56:17.600000Z</time>
      </trkpt>
      <trkpt lat="41.782158" lon="123.402214">
        <ele>53.913177</ele>
        <time>2015-08-07T10:56:20.779000Z</time>
      </trkpt>
      <trkpt lat="41.78225" lon="123.40225">
        <ele>54.06051</ele>
        <time>2015-08-07T10:56:23.958000Z</time>
      </trkpt>
      <trkpt lat="41.78234" lon="123.402275">
        <ele>54.43129</ele>
        <time>2015-08-07T10:56:27.137000Z</time>
      </trkpt>
      <trkpt lat="41.782444" lon="123.40224">
        <ele>54.94448</ele>
        <time>2015-08-07T10:56:30.316000Z</time>
      </trkpt>
      <trkpt lat="41.78253" lon="123.402176">
        <ele>55.757084</ele>
        <time>2015-08-07T10:56:33.495000Z</time>
      </trkpt>
      <trkpt lat="41.782635" lon="123.40213">
        <ele>57.010242</ele>
        <time>2015-08-07T10:56:36.674000Z</time>
      </trkpt>
      <trkpt lat="41.782726" lon="123.40209">
        <ele>58.391567</ele>
        <time>2015-08-07T10:56:39.853000Z</time>
      </trkpt>
      <trkpt lat="41.782795" lon="123.402">
        <ele>59.467392</ele>
        <time>2015-08-07T10:56:43.032000Z</time>
      </trkpt>
      <trkpt lat="41.782883" lon="123.4019">
        <ele>59.744625</ele>
        <time>2015-08-07T10:56:46.211000Z</time>
      </trkpt>
      <trkpt lat="41.78295" lon="123.401794">
        <ele>58.85824</ele>
        <time>2015-08-07T10:56:49.390000Z</time>
      </trkpt>
      <trkpt lat="41.783024" lon="123.401726">
        <ele>57.186207</ele>
        <time>2015-08-07T10:56:52.569000Z</time>
      </trkpt>
      <trkpt lat="41.783146" lon="123.40166">
        <ele>55.649105</ele>
        <time>2015-08-07T10:56:55.748000Z</time>
      </trkpt>
      <trkpt lat="41.783276" lon="123.401596">
        <ele>54.83148</ele>
        <time>2015-08-07T10:56:58.927000Z</time>
      </trkpt>
      <trkpt lat="41.783394" lon="123.40155">
        <ele>54.516426</ele>
        <time>2015-08-07T10:57:02.106000Z</time>
      </trkpt>
      <trkpt lat="41.783516" lon="123.40149">
        <ele>54.256493</ele>
        <time>2015-08-07T10:57:05.285000Z</time>
      </trkpt>
      <trkpt lat="41.783627" lon="123.40141">
        <ele>54.012615</ele>
        <time>2015-08-07T10:57:08.464000Z</time>
      </trkpt>
      <trkpt lat="41.783707" lon="123.40134">
        <ele>54.04147</ele>
        <time>2015-08-07T10:57:11.643000Z</time>
      </trkpt>
      <trkpt lat="41.783787" lon="123.401276">
        <ele>54.526817</ele>
        <time>2015-08-07T10:57:14.822000Z</time>
      </trkpt>
      <trkpt lat="41.78389" lon="123.40122">
        <ele>55.277725</ele>
        <time>2015-08-07T10:57:18.001000Z</time>
      </trkpt>
      <trkpt lat="41.783978" lon="123.401184">
        <ele>55.56592</ele>
        <time>2015-08-07T10:57:21.180000Z</time>
      </trkpt>
      <trkpt lat="41.784122" lon="123.40112">
        <ele>55.05671</ele>
        <time>2015-08-07T10:57:24.359000Z</time>
      </trkpt>
      <trkpt lat="41.784233" lon="123.40103">
        <ele>54.315327</ele>
        <time>2015-08-07T10:57:27.538000Z</time>
      </trkpt>
      <trkpt lat="41.784325" lon="123.40095">
        <ele>53.90292</ele>
        <time>2015-08-07T10:57:30.717000Z</time>
      </trkpt>
      <trkpt lat="41.784405" lon="123.40085">
        <ele>53.804043</ele>
        <time>2015-08-07T10:57:33.896000Z</time>
      </trkpt>
      <trkpt lat="41.784454" lon="123.40073">
        <ele>53.70901</ele>
        <time>2015-08-07T10:57:37.075000Z</time>
      </trkpt>
      <trkpt lat="41.78451" lon="123.400604">
        <ele>53.40974</ele>
        <time>2015-08-07T10:57:40.254000Z</time>
      </trkpt>
      <trkpt lat="41.784573" lon="123.40048">
        <ele>53.073597</ele>
        <time>2015-08-07T10:57:43.433000Z</time>
      </trkpt>
      <trkpt lat="41.78463" lon="123.40036">
        <ele>53.044273</ele>
        <time>2015-08-07T10:57:46.612000Z</time>
      </trkpt>
      <trkpt lat="41.78469" lon="123.40021">
        <ele>53.373985</ele>
        <time>2015-08-07T10:57:49.791000Z</time>
      </trkpt>
      <trkpt lat="41.784737" lon="123.400055">
        <ele>54.182987</ele>
        <time>2015-08-07T10:57:52.970000Z</time>
      </trkpt>
      <trkpt lat="41.78472" lon="123.3999">
        <ele>55.87988</ele>
        <time>2015-08-07T10:57:56.149000Z</time>
      </trkpt>
      <trkpt lat="41.784702" lon="123.399765">
        <ele>58.10788</ele>
        <time>2015-08-07T10:57:59.328000Z</time>
      </trkpt>
      <trkpt lat="41.784714" lon="123.399635">
        <ele>59.576134</ele>
        <time>2015-08-07T10:58:02.507000Z</time>
      </trkpt>
      <trkpt lat="41.784763" lon="123.39951">
        <ele>59.789413</ele>
        <time>2015-08-07T10:58:05.686000Z</time>
      </trkpt>
      <trkpt lat="41.78484" lon="123.3994">
        <ele>59.2551</ele>
        <time>2015-08-07T10:58:08.865000Z</time>
      </trkpt>
      <trkpt lat="41.784912" lon="123.399284">
        <ele>58.39838</ele>
        <time>2015-08-07T10:58:12.044000Z</time>
      </trkpt>
      <trkpt lat="41.784977" lon="123.39916">
        <ele>57.374054</ele>
        <time>2015-08-07T10:58:15.223000Z</time>
      </trkpt>
      <trkpt lat="41.78504" lon="123.399025">
        <ele>56.453724</ele>
        <time>2015-08-07T10:58:18.402000Z</time>
      </trkpt>
      <trkpt lat="41.785095" lon="123.39891">
        <ele>55.77717</ele>
        <time>2015-08-07T10:58:21.581000Z</time>
      </trkpt>
      <trkpt lat="41.785156" lon="123.398796">
        <ele>55.274654</ele>
        <time>2015-08-07T10:58:24.760000Z</time>
      </trkpt>
      <trkpt lat="41.7852" lon="123.39868">
        <ele>54.813194</ele>
        <time>2015-08-07T10:58:27.939000Z</time>
      </trkpt>
      <trkpt lat="41.785213" lon="123.398544">
        <ele>54.35338</ele>
        <time>2015-08-07T10:58:31.118000Z</time>
      </trkpt>
      <trkpt lat="41.78523" lon="123.39839">
        <ele>53.586384</ele>
        <time>2015-08-07T10:58:34.297000Z</time>
      </trkpt>
      <trkpt lat="41.785213" lon="123.39827">
        <ele>52.37268</ele>
        <time>2015-08-07T10:58:37.476000Z</time>
      </trkpt>
      <trkpt lat="41.785183" lon="123.39813">
        <ele>51.40219</ele>
        <time>2015-08-07T10:58:40.655000Z</time>
      </trkpt>
      <trkpt lat="41.785152" lon="123.39801">
        <ele>51.274216</ele>
        <time>2015-08-07T10:58:43.834000Z</time>
      </trkpt>
      <trkpt lat="41.785114" lon="123.39788">
        <ele>51.592678</ele>
        <time>2015-08-07T10:58:47.013000Z</time>
      </trkpt>
      <trkpt lat="41.785088" lon="123.397766">
        <ele>52.144966</ele>
        <time>2015-08-07T10:58:50.192000Z</time>
      </trkpt>
      <trkpt lat="41.78504" lon="123.39764">
        <ele>52.981506</ele>
        <time>2015-08-07T10:58:53.371000Z</time>
      </trkpt>
      <trkpt lat="41.784954" lon="123.39753">
        <ele>54.14409</ele>
        <time>2015-08-07T10:58:56.550000Z</time>
      </trkpt>
      <trkpt lat="41.78486" lon="123.39747">
        <ele>55.54792</ele>
        <time>2015-08-07T10:58:59.729000Z</time>
      </trkpt>
      <trkpt lat="41.78478" lon="123.39741">
        <ele>56.686844</ele>
        <time>2015-08-07T10:59:02.908000Z</time>
      </trkpt>
      <trkpt lat="41.784683" lon="123.397354">
        <ele>57.143295</ele>
        <time>2015-08-07T10:59:06.087000Z</time>
      </trkpt>
      <trkpt lat="41.78459" lon="123.397285">
        <ele>57.852913</ele>
        <time>2015-08-07T10:59:09.266000Z</time>
      </trkpt>
      <trkpt lat="41.78451" lon="123.397224">
        <ele>59.81276</ele>
        <time>2015-08-07T10:59:12.445000Z</time>
      </trkpt>
      <trkpt lat="41.78441" lon="123.39714">
        <ele>62.287178</ele>
        <time>2015-08-07T10:59:15.624000Z</time>
      </trkpt>
      <trkpt lat="41.784313" lon="123.39707">
        <ele>63.58945</ele>
        <time>2015-08-07T10:59:18.803000Z</time>
      </trkpt>
      <trkpt lat="41.784206" lon="123.39707">
        <ele>63.07537</ele>
        <time>2015-08-07T10:59:21.982000Z</time>
      </trkpt>
      <trkpt lat="41.784126" lon="123.39717">
        <ele>60.97671</ele>
        <time>2015-08-07T10:59:25.161000Z</time>
      </trkpt>
      <trkpt lat="41.78403" lon="123.39722">
        <ele>58.10658</ele>
        <time>2015-08-07T10:59:28.340000Z</time>
      </trkpt>
      <trkpt lat="41.783943" lon="123.39713">
        <ele>55.599415</ele>
        <time>2015-08-07T10:59:31.519000Z</time>
      </trkpt>
      <trkpt lat="41.78386" lon="123.39708">
        <ele>53.999535</ele>
        <time>2015-08-07T10:59:34.698000Z</time>
      </trkpt>
      <trkpt lat="41.78375" lon="123.397095">
        <ele>53.11666</ele>
        <time>2015-08-07T10:59:37.877000Z</time>
      </trkpt>
      <trkpt lat="41.783634" lon="123.39713">
        <ele>52.632256</ele>
        <time>2015-08-07T10:59:41.056000Z</time>
      </trkpt>
      <trkpt lat="41.78354" lon="123.397156">
        <ele>52.125385</ele>
        <time>2015-08-07T10:59:44.235000Z</time>
      </trkpt>
      <trkpt lat="41.783447" lon="123.39716">
        <ele>51.488087</ele>
        <time>2015-08-07T10:59:47.414000Z</time>
      </trkpt>
      <trkpt lat="41.78335" lon="123.39722">
        <ele>51.015102</ele>
        <time>2015-08-07T10:59:50.593000Z</time>
      </trkpt>
      <trkpt lat="41.78326" lon="123.39728">
        <ele>50.702835</ele>
        <time>2015-08-07T10:59:53.772000Z</time>
      </trkpt>
      <trkpt lat="41.783165" lon="123.397354">
        <ele>50.3468</ele>
        <time>2015-08-07T10:59:56.951000Z</time>
      </trkpt>
      <trkpt lat="41.783077" lon="123.39743">
        <ele>49.89169</ele>
        <time>2015-08-07T11:00:00.130000Z</time>
      </trkpt>
      <trkpt lat="41.78299" lon="123.397514">
        <ele>49.11856</ele>
        <time>2015-08-07T11:00:03.309000Z</time>
      </trkpt>
      <trkpt lat="41.782913" lon="123.39759">
        <ele>47.878532</ele>
        <time>2015-08-07T11:00:06.488000Z</time>
      </trkpt>
      <trkpt lat="41.78285" lon="123.39772">
        <ele>46.49584</ele>
        <time>2015-08-07T11:00:09.667000Z</time>
      </trkpt>
      <trkpt lat="41.782787" lon="123.39785">
        <ele>45.55342</ele>
        <time>2015-08-07T11:00:12.846000Z</time>
      </trkpt>
      <trkpt lat="41.78272" lon="123.39795">
        <ele>45.63288</ele>
        <time>2015-08-07T11:00:16.025000Z</time>
      </trkpt>
      <trkpt lat="41.782654" lon="123.39807">
        <ele>47.025833</ele>
        <time>2015-08-07T11:00:19.204000Z</time>
      </trkpt>
      <trkpt lat="41.78254" lon="123.39812">
        <ele>49.094967</ele>
        <time>2015-08-07T11:00:22.383000Z</time>
      </trkpt>
      <trkpt lat="41.782352" lon="123.39822">
        <ele>50.80671</ele>
        <time>2015-08-07T11:00:25.562000Z</time>
      </trkpt>
      <trkpt lat="41.782246" lon="123.39828">
        <ele>51.622154</ele>
        <time>2015-08-07T11:00:28.741000Z</time>
      </trkpt>
      <trkpt lat="41.782143" lon="123.39831">
        <ele>51.629814</ele>
        <time>2015-08-07T11:00:31.920000Z</time>
      </trkpt>
      <trkpt lat="41.782043" lon="123.398346">
        <ele>51.265057</ele>
        <time>2015-08-07T11:00:35.099000Z</time>
      </trkpt>
      <trkpt lat="41.78195" lon="123.3984">
        <ele>50.98859</ele>
        <time>2015-08-07T11:00:38.278000Z</time>
      </trkpt>
      <trkpt lat="41.781857" lon="123.39846">
        <ele>51.022804</ele>
        <time>2015-08-07T11:00:41.457000Z</time>
      </trkpt>
      <trkpt lat="41.781803" lon="123.3986">
        <ele>51.521465</ele>
        <time>2015-08-07T11:00:44.636000Z</time>
      </trkpt>
      <trkpt lat="41.781796" lon="123.398735">
        <ele>52.28086</ele>
        <time>2015-08-07T11:00:47.815000Z</time>
      </trkpt>
      <trkpt lat="41.78178" lon="123.39889">
        <ele>52.848</ele>
        <time>2015-08-07T11:00:50.994000Z</time>
      </trkpt>
      <trkpt lat="41.78175" lon="123.399025">
        <ele>53.058098</ele>
        <time>2015-08-07T11:00:54.173000Z</time>
      </trkpt>
      <trkpt lat="41.78171" lon="123.39915">
        <ele>53.054493</ele>
        <time>2015-08-07T11:00:57.352000Z</time>
      </trkpt>
      <trkpt lat="41.78166" lon="123.39927">
        <ele>53.26828</ele>
        <time>2015-08-07T11:01:00.531000Z</time>
      </trkpt>
      <trkpt lat="41.7816" lon="123.399376">
        <ele>54.218395</ele>
        <time>2015-08-07T11:01:03.710000Z</time>
      </trkpt>
      <trkpt lat="41.78154" lon="123.399506">
        <ele>55.798447</ele>
        <time>2015-08-07T11:01:06.889000Z</time>
      </trkpt>
      <trkpt lat="41.781494" lon="123.39963">
        <ele>57.248226</ele>
        <time>2015-08-07T11:01:10.068000Z</time>
      </trkpt>
      <trkpt lat="41.781445" lon="123.399765">
        <ele>58.026394</ele>
        <time>2015-08-07T11:01:13.247000Z</time>
      </trkpt>
      <trkpt lat="41.78141" lon="123.39989">
        <ele>58.060303</ele>
        <time>2015-08-07T11:01:16.426000Z</time>
      </trkpt>
      <trkpt lat="41.78134" lon="123.39997">
        <ele>57.60809</ele>
        <time>2015-08-07T11:01:19.605000Z</time>
      </trkpt>
      <trkpt lat="41.781258" lon="123.4001">
        <ele>57.120205</ele>
        <time>2015-08-07T11:01:22.784000Z</time>
      </trkpt>
      <trkpt lat="41.781208" lon="123.40021">
        <ele>56.88218</ele>
        <time>2015-08-07T11:01:25.963000Z</time>
      </trkpt>
      <trkpt lat="41.781162" lon="123.40033">
        <ele>56.980377</ele>
        <time>2015-08-07T11:01:29.142000Z</time>
      </trkpt>
      <trkpt lat="41.78107" lon="123.400406">
        <ele>57.5162</ele>
        <time>2015-08-07T11:01:32.321000Z</time>
      </trkpt>
      <trkpt lat="41.780983" lon="123.40049">
        <ele>58.285313</ele>
        <time>2015-08-07T11:01:35.500000Z</time>
      </trkpt>
      <trkpt lat="41.78091" lon="123.4006">
        <ele>58.849167</ele>
        <time>2015-08-07T11:01:38.679000Z</time>
      </trkpt>
      <trkpt lat="41.780857" lon="123.400696">
        <ele>59.054028</ele>
        <time>2015-08-07T11:01:41.858000Z</time>
      </trkpt>
      <trkpt lat="41.780807" lon="123.40081">
        <ele>59.04742</ele>
        <time>2015-08-07T11:01:45.037000Z</time>
      </trkpt>
      <trkpt lat="41.78076" lon="123.40095">
        <ele>58.984085</ele>
        <time>2015-08-07T11:01:48.216000Z</time>
      </trkpt>
      <trkpt lat="41.78076" lon="123.40109">
        <ele>58.93834</ele>
        <time>2015-08-07T11:01:51.395000Z</time>
      </trkpt>
      <trkpt lat="41.780827" lon="123.40122">
        <ele>58.78381</ele>
        <time>2015-08-07T11:01:54.574000Z</time>
      </trkpt>
      <trkpt lat="41.78092" lon="123.40132">
        <ele>58.424656</ele>
        <time>2015-08-07T11:01:57.753000Z</time>
      </trkpt>
      <trkpt lat="41.78102" lon="123.4014">
        <ele>58.198612</ele>
        <time>2015-08-07T11:02:00.932000Z</time>
      </trkpt>
      <trkpt lat="41.781113" lon="123.40144">
        <ele>58.38695</ele>
        <time>2015-08-07T11:02:04.111000Z</time>
      </trkpt>
      <trkpt lat="41.781208" lon="123.40152">
        <ele>58.731163</ele>
        <time>2015-08-07T11:02:07.290000Z</time>
      </trkpt>
      <trkpt lat="41.781296" lon="123.40159">
        <ele>59.21269</ele>
        <time>2015-08-07T11:02:10.469000Z</time>
      </trkpt>
      <trkpt lat="41.7814" lon="123.40162">
        <ele>60.12686</ele>
        <time>2015-08-07T11:02:13.648000Z</time>
      </trkpt>
      <trkpt lat="41.78148" lon="123.401695">
        <ele>61.20943</ele>
        <time>2015-08-07T11:02:16.827000Z</time>
      </trkpt>
      <trkpt lat="41.781548" lon="123.40179">
        <ele>61.486664</ele>
        <time>2015-08-07T11:02:20.006000Z</time>
      </trkpt>
      <trkpt lat="41.78164" lon="123.40187">
        <ele>60.618725</ele>
        <time>2015-08-07T11:02:23.185000Z</time>
      </trkpt>
      <trkpt lat="41.78176" lon="123.40194">
        <ele>59.196182</ele>
        <time>2015-08-07T11:02:26.364000Z</time>
      </trkpt>
      <trkpt lat="41.78185" lon="123.402016">
        <ele>57.8618</ele>
        <time>2015-08-07T11:02:29.543000Z</time>
      </trkpt>
      <trkpt lat="41.781914" lon="123.402115">
        <ele>56.987347</ele>
        <time>2015-08-07T11:02:32.722000Z</time>
      </trkpt>
      <trkpt lat="41.781998" lon="123.4022">
        <ele>55.60456</ele>
        <time>2015-08-07T11:02:35.901000Z</time>
      </trkpt>
      <trkpt lat="41.7821" lon="123.402275">
        <ele>52.766006</ele>
        <time>2015-08-07T11:02:39.080000Z</time>
      </trkpt>
      <trkpt lat="41.78221" lon="123.40232">
        <ele>49.920074</ele>
        <time>2015-08-07T11:02:42.259000Z</time>
      </trkpt>
      <trkpt lat="41.782314" lon="123.40235">
        <ele>48.588795</ele>
        <time>2015-08-07T11:02:45.438000Z</time>
      </trkpt>
      <trkpt lat="41.78241" lon="123.40234">
        <ele>48.122234</ele>
        <time>2015-08-07T11:02:48.617000Z</time>
      </trkpt>
      <trkpt lat="41.78251" lon="123.4023">
        <ele>47.638733</ele>
        <time>2015-08-07T11:02:51.796000Z</time>
      </trkpt>
      <trkpt lat="41.78261" lon="123.40222">
        <ele>47.269913</ele>
        <time>2015-08-07T11:02:54.975000Z</time>
      </trkpt>
      <trkpt lat="41.78271" lon="123.40208">
        <ele>47.524494</ele>
        <time>2015-08-07T11:02:58.154000Z</time>
      </trkpt>
      <trkpt lat="41.782784" lon="123.40197">
        <ele>48.62972</ele>
        <time>2015-08-07T11:03:01.333000Z</time>
      </trkpt>
      <trkpt lat="41.782852" lon="123.40189">
        <ele>50.570766</ele>
        <time>2015-08-07T11:03:04.512000Z</time>
      </trkpt>
      <trkpt lat="41.782925" lon="123.40181">
        <ele>52.780155</ele>
        <time>2015-08-07T11:03:07.691000Z</time>
      </trkpt>
      <trkpt lat="41.78303" lon="123.40176">
        <ele>54.420834</ele>
        <time>2015-08-07T11:03:10.870000Z</time>
      </trkpt>
      <trkpt lat="41.783134" lon="123.40171">
        <ele>54.61053</ele>
        <time>2015-08-07T11:03:14.049000Z</time>
      </trkpt>
      <trkpt lat="41.78323" lon="123.401634">
        <ele>53.26176</ele>
        <time>2015-08-07T11:03:17.228000Z</time>
      </trkpt>
      <trkpt lat="41.783318" lon="123.40155">
        <ele>51.77895</ele>
        <time>2015-08-07T11:03:20.407000Z</time>
      </trkpt>
      <trkpt lat="41.783432" lon="123.401505">
        <ele>51.580563</ele>
        <time>2015-08-07T11:03:23.586000Z</time>
      </trkpt>
      <trkpt lat="41.78352" lon="123.401474">
        <ele>52.780376</ele>
        <time>2015-08-07T11:03:26.765000Z</time>
      </trkpt>
      <trkpt lat="41.78362" lon="123.40142">
        <ele>54.52745</ele>
        <time>2015-08-07T11:03:29.944000Z</time>
      </trkpt>
      <trkpt lat="41.783703" lon="123.40135">
        <ele>55.913876</ele>
        <time>2015-08-07T11:03:33.123000Z</time>
      </trkpt>
      <trkpt lat="41.78379" lon="123.40128">
        <ele>56.8528</ele>
        <time>2015-08-07T11:03:36.302000Z</time>
      </trkpt>
      <trkpt lat="41.783867" lon="123.40121">
        <ele>57.696163</ele>
        <time>2015-08-07T11:03:39.481000Z</time>
      </trkpt>
      <trkpt lat="41.78399" lon="123.40114">
        <ele>58.456985</ele>
        <time>2015-08-07T11:03:42.660000Z</time>
      </trkpt>
      <trkpt lat="41.78408" lon="123.40109">
        <ele>58.788803</ele>
        <time>2015-08-07T11:03:45.839000Z</time>
      </trkpt>
      <trkpt lat="41.78421" lon="123.40102">
        <ele>58.56556</ele>
        <time>2015-08-07T11:03:49.018000Z</time>
      </trkpt>
      <trkpt lat="41.78431" lon="123.40095">
        <ele>58.164967</ele>
        <time>2015-08-07T11:03:52.197000Z</time>
      </trkpt>
      <trkpt lat="41.784386" lon="123.40088">
        <ele>57.92734</ele>
        <time>2015-08-07T11:03:55.376000Z</time>
      </trkpt>
      <trkpt lat="41.784454" lon="123.40075">
        <ele>57.862793</ele>
        <time>2015-08-07T11:03:58.555000Z</time>
      </trkpt>
      <trkpt lat="41.78451" lon="123.40065">
        <ele>57.605602</ele>
        <time>2015-08-07T11:04:01.734000Z</time>
      </trkpt>
      <trkpt lat="41.784576" lon="123.40054">
        <ele>56.91862</ele>
        <time>2015-08-07T11:04:04.913000Z</time>
      </trkpt>
      <trkpt lat="41.784622" lon="123.40042">
        <ele>56.060783</ele>
        <time>2015-08-07T11:04:08.092000Z</time>
      </trkpt>
      <trkpt lat="41.784664" lon="123.40031">
        <ele>55.355465</ele>
        <time>2015-08-07T11:04:11.271000Z</time>
      </trkpt>
      <trkpt lat="41.78471" lon="123.400185">
        <ele>55.069504</ele>
        <time>2015-08-07T11:04:14.450000Z</time>
      </trkpt>
      <trkpt lat="41.784763" lon="123.400024">
        <ele>55.311424</ele>
        <time>2015-08-07T11:04:17.629000Z</time>
      </trkpt>
      <trkpt lat="41.784798" lon="123.39988">
        <ele>55.71299</ele>
        <time>2015-08-07T11:04:20.808000Z</time>
      </trkpt>
      <trkpt lat="41.784805" lon="123.39971">
        <ele>56.084206</ele>
        <time>2015-08-07T11:04:23.987000Z</time>
      </trkpt>
      <trkpt lat="41.784798" lon="123.39958">
        <ele>56.50492</ele>
        <time>2015-08-07T11:04:27.166000Z</time>
      </trkpt>
      <trkpt lat="41.7848" lon="123.39945">
        <ele>56.85369</ele>
        <time>2015-08-07T11:04:30.345000Z</time>
      </trkpt>
      <trkpt lat="41.784836" lon="123.39932">
        <ele>57.134266</ele>
        <time>2015-08-07T11:04:33.524000Z</time>
      </trkpt>
      <trkpt lat="41.784893" lon="123.3992">
        <ele>57.778214</ele>
        <time>2015-08-07T11:04:36.703000Z</time>
      </trkpt>
      <trkpt lat="41.784966" lon="123.39908">
        <ele>58.970833</ele>
        <time>2015-08-07T11:04:39.882000Z</time>
      </trkpt>
      <trkpt lat="41.78502" lon="123.39894">
        <ele>60.216507</ele>
        <time>2015-08-07T11:04:43.061000Z</time>
      </trkpt>
      <trkpt lat="41.785057" lon="123.39883">
        <ele>60.951588</ele>
        <time>2015-08-07T11:04:46.240000Z</time>
      </trkpt>
      <trkpt lat="41.785126" lon="123.3987">
        <ele>60.596714</ele>
        <time>2015-08-07T11:04:49.419000Z</time>
      </trkpt>
      <trkpt lat="41.78518" lon="123.3986">
        <ele>58.543755</ele>
        <time>2015-08-07T11:04:52.598000Z</time>
      </trkpt>
      <trkpt lat="41.785217" lon="123.398476">
        <ele>55.524452</ele>
        <time>2015-08-07T11:04:55.777000Z</time>
      </trkpt>
      <trkpt lat="41.785217" lon="123.398476">
        <ele>53.286263</ele>
        <time>2015-08-07T11:04:58.956000Z</time>
      </trkpt>
      <trkpt lat="41.785217" lon="123.398346">
        <ele>52.46348</ele>
        <time>2015-08-07T11:05:02.135000Z</time>
      </trkpt>
      <trkpt lat="41.785187" lon="123.398186">
        <ele>52.482494</ele>
        <time>2015-08-07T11:05:05.314000Z</time>
      </trkpt>
      <trkpt lat="41.78514" lon="123.39805">
        <ele>52.731216</ele>
        <time>2015-08-07T11:05:08.493000Z</time>
      </trkpt>
      <trkpt lat="41.78511" lon="123.39791">
        <ele>52.978535</ele>
        <time>2015-08-07T11:05:11.672000Z</time>
      </trkpt>
      <trkpt lat="41.784996" lon="123.39779">
        <ele>53.114372</ele>
        <time>2015-08-07T11:05:14.851000Z</time>
      </trkpt>
      <trkpt lat="41.78493" lon="123.3977">
        <ele>53.45378</ele>
        <time>2015-08-07T11:05:18.030000Z</time>
      </trkpt>
      <trkpt lat="41.784863" lon="123.39759">
        <ele>54.22302</ele>
        <time>2015-08-07T11:05:21.209000Z</time>
      </trkpt>
      <trkpt lat="41.784775" lon="123.397514">
        <ele>55.472713</ele>
        <time>2015-08-07T11:05:24.388000Z</time>
      </trkpt>
      <trkpt lat="41.784683" lon="123.39742">
        <ele>56.6078</ele>
        <time>2015-08-07T11:05:27.567000Z</time>
      </trkpt>
      <trkpt lat="41.784607" lon="123.397354">
        <ele>56.967106</ele>
        <time>2015-08-07T11:05:30.746000Z</time>
      </trkpt>
      <trkpt lat="41.784523" lon="123.39727">
        <ele>56.657894</ele>
        <time>2015-08-07T11:05:33.925000Z</time>
      </trkpt>
      <trkpt lat="41.78442" lon="123.39719">
        <ele>56.184822</ele>
        <time>2015-08-07T11:05:37.104000Z</time>
      </trkpt>
      <trkpt lat="41.784317" lon="123.397125">
        <ele>55.77901</ele>
        <time>2015-08-07T11:05:40.283000Z</time>
      </trkpt>
      <trkpt lat="41.78419" lon="123.39713">
        <ele>54.52359</ele>
        <time>2015-08-07T11:05:43.462000Z</time>
      </trkpt>
      <trkpt lat="41.784096" lon="123.39717">
        <ele>52.02108</ele>
        <time>2015-08-07T11:05:46.641000Z</time>
      </trkpt>
      <trkpt lat="41.784" lon="123.39714">
        <ele>49.667908</ele>
        <time>2015-08-07T11:05:49.820000Z</time>
      </trkpt>
      <trkpt lat="41.78389" lon="123.39707">
        <ele>49.30231</ele>
        <time>2015-08-07T11:05:52.999000Z</time>
      </trkpt>
      <trkpt lat="41.78377" lon="123.39709">
        <ele>50.977802</ele>
        <time>2015-08-07T11:05:56.178000Z</time>
      </trkpt>
      <trkpt lat="41.783676" lon="123.397095">
        <ele>53.032772</ele>
        <time>2015-08-07T11:05:59.357000Z</time>
      </trkpt>
      <trkpt lat="41.783577" lon="123.39711">
        <ele>54.100655</ele>
        <time>2015-08-07T11:06:02.536000Z</time>
      </trkpt>
      <trkpt lat="41.783463" lon="123.39714">
        <ele>54.041805</ele>
        <time>2015-08-07T11:06:05.715000Z</time>
      </trkpt>
      <trkpt lat="41.78335" lon="123.397194">
        <ele>53.043133</ele>
        <time>2015-08-07T11:06:08.894000Z</time>
      </trkpt>
      <trkpt lat="41.783245" lon="123.39726">
        <ele>51.776592</ele>
        <time>2015-08-07T11:06:12.073000Z</time>
      </trkpt>
      <trkpt lat="41.78317" lon="123.397354">
        <ele>50.832382</ele>
        <time>2015-08-07T11:06:15.252000Z</time>
      </trkpt>
      <trkpt lat="41.783096" lon="123.39749">
        <ele>50.22725</ele>
        <time>2015-08-07T11:06:18.431000Z</time>
      </trkpt>
      <trkpt lat="41.783012" lon="123.39759">
        <ele>49.764877</ele>
        <time>2015-08-07T11:06:21.610000Z</time>
      </trkpt>
      <trkpt lat="41.78292" lon="123.397675">
        <ele>49.333622</ele>
        <time>2015-08-07T11:06:24.789000Z</time>
      </trkpt>
      <trkpt lat="41.78283" lon="123.39774">
        <ele>48.864716</ele>
        <time>2015-08-07T11:06:27.968000Z</time>
      </trkpt>
      <trkpt lat="41.782738" lon="123.39781">
        <ele>48.379</ele>
        <time>2015-08-07T11:06:31.147000Z</time>
      </trkpt>
      <trkpt lat="41.782677" lon="123.39792">
        <ele>48.009182</ele>
        <time>2015-08-07T11:06:34.326000Z</time>
      </trkpt>
      <trkpt lat="41.782623" lon="123.39805">
        <ele>47.869484</ele>
        <time>2015-08-07T11:06:37.505000Z</time>
      </trkpt>
      <trkpt lat="41.782555" lon="123.39816">
        <ele>47.869804</ele>
        <time>2015-08-07T11:06:40.684000Z</time>
      </trkpt>
      <trkpt lat="41.78248" lon="123.398224">
        <ele>47.357136</ele>
        <time>2015-08-07T11:06:43.863000Z</time>
      </trkpt>
      <trkpt lat="41.782402" lon="123.39829">
        <ele>45.94759</ele>
        <time>2015-08-07T11:06:47.042000Z</time>
      </trkpt>
      <trkpt lat="41.78231" lon="123.39834">
        <ele>45.033726</ele>
        <time>2015-08-07T11:06:50.221000Z</time>
      </trkpt>
      <trkpt lat="41.78222" lon="123.39838">
        <ele>45.77209</ele>
        <time>2015-08-07T11:06:53.400000Z</time>
      </trkpt>
      <trkpt lat="41.782124" lon="123.398415">
        <ele>47.27859</ele>
        <time>2015-08-07T11:06:56.579000Z</time>
      </trkpt>
      <trkpt lat="41.782036" lon="123.39845">
        <ele>48.59521</ele>
        <time>2015-08-07T11:06:59.758000Z</time>
      </trkpt>
      <trkpt lat="41.781937" lon="123.39854">
        <ele>49.826553</ele>
        <time>2015-08-07T11:07:02.937000Z</time>
      </trkpt>
      <trkpt lat="41.781868" lon="123.398636">
        <ele>51.44203</ele>
        <time>2015-08-07T11:07:06.116000Z</time>
      </trkpt>
      <trkpt lat="41.781803" lon="123.39878">
        <ele>53.3503</ele>
        <time>2015-08-07T11:07:09.295000Z</time>
      </trkpt>
      <trkpt lat="41.781742" lon="123.39893">
        <ele>54.60132</ele>
        <time>2015-08-07T11:07:12.474000Z</time>
      </trkpt>
      <trkpt lat="41.781696" lon="123.39908">
        <ele>54.74235</ele>
        <time>2015-08-07T11:07:15.653000Z</time>
      </trkpt>
      <trkpt lat="41.78166" lon="123.39921">
        <ele>54.35378</ele>
        <time>2015-08-07T11:07:18.832000Z</time>
      </trkpt>
      <trkpt lat="41.781628" lon="123.399345">
        <ele>54.15958</ele>
        <time>2015-08-07T11:07:22.011000Z</time>
      </trkpt>
      <trkpt lat="41.78153" lon="123.39957">
        <ele>54.656605</ele>
        <time>2015-08-07T11:07:25.190000Z</time>
      </trkpt>
      <trkpt lat="41.781464" lon="123.39967">
        <ele>56.01219</ele>
        <time>2015-08-07T11:07:28.369000Z</time>
      </trkpt>
      <trkpt lat="41.781437" lon="123.39981">
        <ele>57.678265</ele>
        <time>2015-08-07T11:07:31.548000Z</time>
      </trkpt>
      <trkpt lat="41.781403" lon="123.39993">
        <ele>58.821213</ele>
        <time>2015-08-07T11:07:34.727000Z</time>
      </trkpt>
      <trkpt lat="41.78135" lon="123.400024">
        <ele>59.06779</ele>
        <time>2015-08-07T11:07:37.906000Z</time>
      </trkpt>
      <trkpt lat="41.781254" lon="123.400116">
        <ele>58.671574</ele>
        <time>2015-08-07T11:07:41.085000Z</time>
      </trkpt>
      <trkpt lat="41.78116" lon="123.400185">
        <ele>58.165195</ele>
        <time>2015-08-07T11:07:44.264000Z</time>
      </trkpt>
      <trkpt lat="41.78107" lon="123.40026">
        <ele>57.75913</ele>
        <time>2015-08-07T11:07:47.443000Z</time>
      </trkpt>
      <trkpt lat="41.781002" lon="123.40036">
        <ele>57.34207</ele>
        <time>2015-08-07T11:07:50.622000Z</time>
      </trkpt>
      <trkpt lat="41.780952" lon="123.40048">
        <ele>56.8678</ele>
        <time>2015-08-07T11:07:53.801000Z</time>
      </trkpt>
      <trkpt lat="41.78089" lon="123.400604">
        <ele>56.23583</ele>
        <time>2015-08-07T11:07:56.980000Z</time>
      </trkpt>
      <trkpt lat="41.780827" lon="123.40074">
        <ele>55.50157</ele>
        <time>2015-08-07T11:08:00.159000Z</time>
      </trkpt>
      <trkpt lat="41.780766" lon="123.40086">
        <ele>54.99132</ele>
        <time>2015-08-07T11:08:03.338000Z</time>
      </trkpt>
      <trkpt lat="41.78074" lon="123.40099">
        <ele>54.816837</ele>
        <time>2015-08-07T11:08:06.517000Z</time>
      </trkpt>
      <trkpt lat="41.78079" lon="123.40112">
        <ele>54.831013</ele>
        <time>2015-08-07T11:08:09.696000Z</time>
      </trkpt>
      <trkpt lat="41.780865" lon="123.401245">
        <ele>54.891388</ele>
        <time>2015-08-07T11:08:12.875000Z</time>
      </trkpt>
      <trkpt lat="41.78095" lon="123.40134">
        <ele>54.932747</ele>
        <time>2015-08-07T11:08:16.054000Z</time>
      </trkpt>
      <trkpt lat="41.781017" lon="123.40143">
        <ele>55.084824</ele>
        <time>2015-08-07T11:08:19.233000Z</time>
      </trkpt>
      <trkpt lat="41.781097" lon="123.4015">
        <ele>55.581562</ele>
        <time>2015-08-07T11:08:22.412000Z</time>
      </trkpt>
      <trkpt lat="41.7812" lon="123.401566">
        <ele>56.305927</ele>
        <time>2015-08-07T11:08:25.591000Z</time>
      </trkpt>
      <trkpt lat="41.781303" lon="123.40164">
        <ele>56.570915</ele>
        <time>2015-08-07T11:08:28.770000Z</time>
      </trkpt>
      <trkpt lat="41.781414" lon="123.40173">
        <ele>56.051815</ele>
        <time>2015-08-07T11:08:31.949000Z</time>
      </trkpt>
      <trkpt lat="41.781517" lon="123.40181">
        <ele>55.309612</ele>
        <time>2015-08-07T11:08:35.128000Z</time>
      </trkpt>
      <trkpt lat="41.781593" lon="123.40189">
        <ele>55.037582</ele>
        <time>2015-08-07T11:08:38.307000Z</time>
      </trkpt>
      <trkpt lat="41.781685" lon="123.40196">
        <ele>55.30048</ele>
        <time>2015-08-07T11:08:41.486000Z</time>
      </trkpt>
      <trkpt lat="41.78177" lon="123.402054">
        <ele>55.437504</ele>
        <time>2015-08-07T11:08:44.665000Z</time>
      </trkpt>
      <trkpt lat="41.78188" lon="123.40214">
        <ele>54.95366</ele>
        <time>2015-08-07T11:08:47.844000Z</time>
      </trkpt>
      <trkpt lat="41.78199" lon="123.40219">
        <ele>54.68896</ele>
        <time>2015-08-07T11:08:51.023000Z</time>
      </trkpt>
      <trkpt lat="41.7821" lon="123.40224">
        <ele>55.395737</ele>
        <time>2015-08-07T11:08:54.202000Z</time>
      </trkpt>
      <trkpt lat="41.78221" lon="123.402306">
        <ele>56.140804</ele>
        <time>2015-08-07T11:08:57.381000Z</time>
      </trkpt>
      <trkpt lat="41.782314" lon="123.40236">
        <ele>55.57319</ele>
        <time>2015-08-07T11:09:00.560000Z</time>
      </trkpt>
      <trkpt lat="41.78243" lon="123.40233">
        <ele>53.751575</ele>
        <time>2015-08-07T11:09:03.739000Z</time>
      </trkpt>
      <trkpt lat="41.78252" lon="123.402245">
        <ele>51.734814</ele>
        <time>2015-08-07T11:09:06.918000Z</time>
      </trkpt>
      <trkpt lat="41.78262" lon="123.40219">
        <ele>50.34313</ele>
        <time>2015-08-07T11:09:10.097000Z</time>
      </trkpt>
      <trkpt lat="41.7827" lon="123.40213">
        <ele>49.73307</ele>
        <time>2015-08-07T11:09:13.276000Z</time>
      </trkpt>
      <trkpt lat="41.782772" lon="123.40205">
        <ele>49.670853</ele>
        <time>2015-08-07T11:09:16.455000Z</time>
      </trkpt>
      <trkpt lat="41.782833" lon="123.401924">
        <ele>49.797882</ele>
        <time>2015-08-07T11:09:19.634000Z</time>
      </trkpt>
      <trkpt lat="41.782917" lon="123.40183">
        <ele>50.049313</ele>
        <time>2015-08-07T11:09:22.813000Z</time>
      </trkpt>
      <trkpt lat="41.783012" lon="123.401764">
        <ele>50.734528</ele>
        <time>2015-08-07T11:09:25.992000Z</time>
      </trkpt>
      <trkpt lat="41.78312" lon="123.40171">
        <ele>51.8283</ele>
        <time>2015-08-07T11:09:29.171000Z</time>
      </trkpt>
      <trkpt lat="41.783195" lon="123.40165">
        <ele>53.560974</ele>
        <time>2015-08-07T11:09:32.350000Z</time>
      </trkpt>
      <trkpt lat="41.783302" lon="123.401596">
        <ele>56.22634</ele>
        <time>2015-08-07T11:09:35.529000Z</time>
      </trkpt>
      <trkpt lat="41.783417" lon="123.40154">
        <ele>58.960167</ele>
        <time>2015-08-07T11:09:38.708000Z</time>
      </trkpt>
      <trkpt lat="41.78351" lon="123.40146">
        <ele>60.512474</ele>
        <time>2015-08-07T11:09:41.887000Z</time>
      </trkpt>
      <trkpt lat="41.783596" lon="123.40138">
        <ele>60.64484</ele>
        <time>2015-08-07T11:09:45.066000Z</time>
      </trkpt>
      <trkpt lat="41.78368" lon="123.40132">
        <ele>59.907925</ele>
        <time>2015-08-07T11:09:48.245000Z</time>
      </trkpt>
      <trkpt lat="41.783817" lon="123.40126">
        <ele>59.177895</ele>
        <time>2015-08-07T11:09:51.424000Z</time>
      </trkpt>
      <trkpt lat="41.783943" lon="123.40119">
        <ele>58.700726</ele>
        <time>2015-08-07T11:09:54.603000Z</time>
      </trkpt>
      <trkpt lat="41.784092" lon="123.40111">
        <ele>58.293922</ele>
        <time>2015-08-07T11:09:57.782000Z</time>
      </trkpt>
      <trkpt lat="41.784184" lon="123.401054">
        <ele>57.709442</ele>
        <time>2015-08-07T11:10:00.961000Z</time>
      </trkpt>
      <trkpt lat="41.784286" lon="123.40096">
        <ele>56.873867</ele>
        <time>2015-08-07T11:10:04.140000Z</time>
      </trkpt>
      <trkpt lat="41.784355" lon="123.400856">
        <ele>55.859364</ele>
        <time>2015-08-07T11:10:07.319000Z</time>
      </trkpt>
      <trkpt lat="41.78443" lon="123.40075">
        <ele>54.68441</ele>
        <time>2015-08-07T11:10:10.498000Z</time>
      </trkpt>
      <trkpt lat="41.784515" lon="123.40063">
        <ele>53.557602</ele>
        <time>2015-08-07T11:10:13.677000Z</time>
      </trkpt>
      <trkpt lat="41.78457" lon="123.400505">
        <ele>52.906868</ele>
        <time>2015-08-07T11:10:16.856000Z</time>
      </trkpt>
      <trkpt lat="41.78461" lon="123.40037">
        <ele>52.87677</ele>
        <time>2015-08-07T11:10:20.035000Z</time>
      </trkpt>
      <trkpt lat="41.784653" lon="123.40022">
        <ele>53.57189</ele>
        <time>2015-08-07T11:10:23.214000Z</time>
      </trkpt>
      <trkpt lat="41.784687" lon="123.40011">
        <ele>55.16786</ele>
        <time>2015-08-07T11:10:26.393000Z</time>
      </trkpt>
      <trkpt lat="41.784725" lon="123.39996">
        <ele>57.214233</ele>
        <time>2015-08-07T11:10:29.572000Z</time>
      </trkpt>
      <trkpt lat="41.78474" lon="123.39984">
        <ele>58.71285</ele>
        <time>2015-08-07T11:10:32.751000Z</time>
      </trkpt>
      <trkpt lat="41.784744" lon="123.39968">
        <ele>59.256695</ele>
        <time>2015-08-07T11:10:35.930000Z</time>
      </trkpt>
      <trkpt lat="41.78475" lon="123.39954">
        <ele>59.37684</ele>
        <time>2015-08-07T11:10:39.109000Z</time>
      </trkpt>
      <trkpt lat="41.784832" lon="123.39943">
        <ele>59.98275</ele>
        <time>2015-08-07T11:10:42.288000Z</time>
      </trkpt>
      <trkpt lat="41.784904" lon="123.399315">
        <ele>61.310284</ele>
        <time>2015-08-07T11:10:45.467000Z</time>
      </trkpt>
      <trkpt lat="41.78495" lon="123.39919">
        <ele>62.550438</ele>
        <time>2015-08-07T11:10:48.646000Z</time>
      </trkpt>
      <trkpt lat="41.78499" lon="123.399086">
        <ele>63.104748</ele>
        <time>2015-08-07T11:10:51.825000Z</time>
      </trkpt>
      <trkpt lat="41.784992" lon="123.39896">
        <ele>63.168224</ele>
        <time>2015-08-07T11:10:55.004000Z</time>
      </trkpt>
      <trkpt lat="41.785015" lon="123.3988">
        <ele>62.781666</ele>
        <time>2015-08-07T11:10:58.183000Z</time>
      </trkpt>
      <trkpt lat="41.78508" lon="123.39868">
        <ele>61.131855</ele>
        <time>2015-08-07T11:11:01.362000Z</time>
      </trkpt>
      <trkpt lat="41.78514" lon="123.39858">
        <ele>57.49823</ele>
        <time>2015-08-07T11:11:04.541000Z</time>
      </trkpt>
      <trkpt lat="41.78514" lon="123.39858">
        <ele>53.126926</ele>
        <time>2015-08-07T11:11:07.720000Z</time>
      </trkpt>
      <trkpt lat="41.78523" lon="123.39854">
        <ele>49.769733</ele>
        <time>2015-08-07T11:11:10.899000Z</time>
      </trkpt>
      <trkpt lat="41.785236" lon="123.3984">
        <ele>47.722755</ele>
        <time>2015-08-07T11:11:14.078000Z</time>
      </trkpt>
      <trkpt lat="41.78521" lon="123.39828">
        <ele>46.725506</ele>
        <time>2015-08-07T11:11:17.257000Z</time>
      </trkpt>
      <trkpt lat="41.78521" lon="123.39828">
        <ele>46.558838</ele>
        <time>2015-08-07T11:11:20.436000Z</time>
      </trkpt>
      <trkpt lat="41.78516" lon="123.39811">
        <ele>46.855827</ele>
        <time>2015-08-07T11:11:23.615000Z</time>
      </trkpt>
      <trkpt lat="41.78512" lon="123.398">
        <ele>47.520805</ele>
        <time>2015-08-07T11:11:26.794000Z</time>
      </trkpt>
      <trkpt lat="41.78507" lon="123.39787">
        <ele>48.33039</ele>
        <time>2015-08-07T11:11:29.973000Z</time>
      </trkpt>
      <trkpt lat="41.785023" lon="123.397736">
        <ele>48.887886</ele>
        <time>2015-08-07T11:11:33.152000Z</time>
      </trkpt>
      <trkpt lat="41.78496" lon="123.39763">
        <ele>48.938255</ele>
        <time>2015-08-07T11:11:36.331000Z</time>
      </trkpt>
      <trkpt lat="41.784874" lon="123.39755">
        <ele>48.69948</ele>
        <time>2015-08-07T11:11:39.510000Z</time>
      </trkpt>
      <trkpt lat="41.78479" lon="123.3975">
        <ele>48.761562</ele>
        <time>2015-08-07T11:11:42.689000Z</time>
      </trkpt>
      <trkpt lat="41.78469" lon="123.39743">
        <ele>49.408623</ele>
        <time>2015-08-07T11:11:45.868000Z</time>
      </trkpt>
      <trkpt lat="41.7846" lon="123.397385">
        <ele>50.271667</ele>
        <time>2015-08-07T11:11:49.047000Z</time>
      </trkpt>
      <trkpt lat="41.784496" lon="123.39731">
        <ele>51.012638</ele>
        <time>2015-08-07T11:11:52.226000Z</time>
      </trkpt>
      <trkpt lat="41.784416" lon="123.397224">
        <ele>51.579914</ele>
        <time>2015-08-07T11:11:55.405000Z</time>
      </trkpt>
      <trkpt lat="41.7843" lon="123.39717">
        <ele>51.657185</ele>
        <time>2015-08-07T11:11:58.584000Z</time>
      </trkpt>
      <trkpt lat="41.78418" lon="123.39719">
        <ele>51.04169</ele>
        <time>2015-08-07T11:12:01.763000Z</time>
      </trkpt>
      <trkpt lat="41.78407" lon="123.397224">
        <ele>50.142307</ele>
        <time>2015-08-07T11:12:04.942000Z</time>
      </trkpt>
      <trkpt lat="41.78397" lon="123.39719">
        <ele>49.247204</ele>
        <time>2015-08-07T11:12:08.121000Z</time>
      </trkpt>
      <trkpt lat="41.78387" lon="123.39712">
        <ele>47.883495</ele>
        <time>2015-08-07T11:12:11.300000Z</time>
      </trkpt>
      <trkpt lat="41.783768" lon="123.3971">
        <ele>45.95094</ele>
        <time>2015-08-07T11:12:14.479000Z</time>
      </trkpt>
      <trkpt lat="41.78367" lon="123.3971">
        <ele>44.748096</ele>
        <time>2015-08-07T11:12:17.658000Z</time>
      </trkpt>
      <trkpt lat="41.783566" lon="123.3971">
        <ele>45.300365</ele>
        <time>2015-08-07T11:12:20.837000Z</time>
      </trkpt>
      <trkpt lat="41.783466" lon="123.397064">
        <ele>46.590717</ele>
        <time>2015-08-07T11:12:24.016000Z</time>
      </trkpt>
      <trkpt lat="41.78337" lon="123.397064">
        <ele>47.009495</ele>
        <time>2015-08-07T11:12:27.195000Z</time>
      </trkpt>
      <trkpt lat="41.783283" lon="123.397125">
        <ele>46.168427</ele>
        <time>2015-08-07T11:12:30.374000Z</time>
      </trkpt>
      <trkpt lat="41.78318" lon="123.39723">
        <ele>44.884304</ele>
        <time>2015-08-07T11:12:33.553000Z</time>
      </trkpt>
      <trkpt lat="41.78307" lon="123.39731">
        <ele>44.020153</ele>
        <time>2015-08-07T11:12:36.732000Z</time>
      </trkpt>
      <trkpt lat="41.78299" lon="123.3974">
        <ele>43.87439</ele>
        <time>2015-08-07T11:12:39.911000Z</time>
      </trkpt>
      <trkpt lat="41.782936" lon="123.397514">
        <ele>44.405163</ele>
        <time>2015-08-07T11:12:43.090000Z</time>
      </trkpt>
      <trkpt lat="41.782887" lon="123.39762">
        <ele>45.239986</ele>
        <time>2015-08-07T11:12:46.269000Z</time>
      </trkpt>
      <trkpt lat="41.782833" lon="123.39779">
        <ele>46.683758</ele>
        <time>2015-08-07T11:12:49.448000Z</time>
      </trkpt>
      <trkpt lat="41.782795" lon="123.3979">
        <ele>49.06749</ele>
        <time>2015-08-07T11:12:52.627000Z</time>
      </trkpt>
      <trkpt lat="41.782734" lon="123.39807">
        <ele>51.27768</ele>
        <time>2015-08-07T11:12:55.806000Z</time>
      </trkpt>
      <trkpt lat="41.78266" lon="123.3982">
        <ele>52.536846</ele>
        <time>2015-08-07T11:12:58.985000Z</time>
      </trkpt>
      <trkpt lat="41.78258" lon="123.39828">
        <ele>53.504116</ele>
        <time>2015-08-07T11:13:02.164000Z</time>
      </trkpt>
      <trkpt lat="41.782494" lon="123.39831">
        <ele>54.543224</ele>
        <time>2015-08-07T11:13:05.343000Z</time>
      </trkpt>
      <trkpt lat="41.782375" lon="123.39833">
        <ele>55.44317</ele>
        <time>2015-08-07T11:13:08.522000Z</time>
      </trkpt>
      <trkpt lat="41.78224" lon="123.398346">
        <ele>55.96201</ele>
        <time>2015-08-07T11:13:11.701000Z</time>
      </trkpt>
      <trkpt lat="41.78215" lon="123.39836">
        <ele>56.095745</ele>
        <time>2015-08-07T11:13:14.880000Z</time>
      </trkpt>
      <trkpt lat="41.782043" lon="123.398415">
        <ele>56.186657</ele>
        <time>2015-08-07T11:13:18.059000Z</time>
      </trkpt>
      <trkpt lat="41.781956" lon="123.39846">
        <ele>56.472904</ele>
        <time>2015-08-07T11:13:21.238000Z</time>
      </trkpt>
      <trkpt lat="41.781956" lon="123.39846">
        <ele>56.727592</ele>
        <time>2015-08-07T11:13:24.417000Z</time>
      </trkpt>
      <trkpt lat="41.78186" lon="123.39853">
        <ele>56.084568</ele>
        <time>2015-08-07T11:13:27.596000Z</time>
      </trkpt>
      <trkpt lat="41.781822" lon="123.398636">
        <ele>54.586983</ele>
        <time>2015-08-07T11:13:30.775000Z</time>
      </trkpt>
      <trkpt lat="41.781822" lon="123.39877">
        <ele>53.53798</ele>
        <time>2015-08-07T11:13:33.954000Z</time>
      </trkpt>
      <trkpt lat="41.781788" lon="123.398895">
        <ele>53.590397</ele>
        <time>2015-08-07T11:13:37.133000Z</time>
      </trkpt>
      <trkpt lat="41.781746" lon="123.39904">
        <ele>54.461037</ele>
        <time>2015-08-07T11:13:40.312000Z</time>
      </trkpt>
      <trkpt lat="41.781715" lon="123.39917">
        <ele>55.889126</ele>
        <time>2015-08-07T11:13:43.491000Z</time>
      </trkpt>
      <trkpt lat="41.781662" lon="123.39931">
        <ele>57.24728</ele>
        <time>2015-08-07T11:13:46.670000Z</time>
      </trkpt>
      <trkpt lat="41.781605" lon="123.399445">
        <ele>58.138023</ele>
        <time>2015-08-07T11:13:49.849000Z</time>
      </trkpt>
      <trkpt lat="41.78156" lon="123.39955">
        <ele>58.815033</ele>
        <time>2015-08-07T11:13:53.028000Z</time>
      </trkpt>
      <trkpt lat="41.781513" lon="123.39969">
        <ele>59.326313</ele>
        <time>2015-08-07T11:13:56.207000Z</time>
      </trkpt>
      <trkpt lat="41.781464" lon="123.3998">
        <ele>59.400074</ele>
        <time>2015-08-07T11:13:59.386000Z</time>
      </trkpt>
      <trkpt lat="41.781403" lon="123.399895">
        <ele>59.171688</ele>
        <time>2015-08-07T11:14:02.565000Z</time>
      </trkpt>
      <trkpt lat="41.781303" lon="123.399994">
        <ele>58.97893</ele>
        <time>2015-08-07T11:14:05.744000Z</time>
      </trkpt>
      <trkpt lat="41.781235" lon="123.40012">
        <ele>58.89906</ele>
        <time>2015-08-07T11:14:08.923000Z</time>
      </trkpt>
      <trkpt lat="41.781155" lon="123.40021">
        <ele>59.032097</ele>
        <time>2015-08-07T11:14:12.102000Z</time>
      </trkpt>
      <trkpt lat="41.78105" lon="123.40028">
        <ele>59.410877</ele>
        <time>2015-08-07T11:14:15.281000Z</time>
      </trkpt>
      <trkpt lat="41.780956" lon="123.40038">
        <ele>59.934162</ele>
        <time>2015-08-07T11:14:18.460000Z</time>
      </trkpt>
      <trkpt lat="41.780907" lon="123.4005">
        <ele>60.475716</ele>
        <time>2015-08-07T11:14:21.639000Z</time>
      </trkpt>
      <trkpt lat="41.78087" lon="123.40063">
        <ele>60.872032</ele>
        <time>2015-08-07T11:14:24.818000Z</time>
      </trkpt>
      <trkpt lat="41.780834" lon="123.40077">
        <ele>61.015743</ele>
        <time>2015-08-07T11:14:27.997000Z</time>
      </trkpt>
      <trkpt lat="41.780773" lon="123.400894">
        <ele>61.010895</ele>
        <time>2015-08-07T11:14:31.176000Z</time>
      </trkpt>
      <trkpt lat="41.780746" lon="123.40102">
        <ele>60.65779</ele>
        <time>2015-08-07T11:14:34.355000Z</time>
      </trkpt>
      <trkpt lat="41.780766" lon="123.40113">
        <ele>59.788357</ele>
        <time>2015-08-07T11:14:37.534000Z</time>
      </trkpt>
      <trkpt lat="41.780766" lon="123.40113">
        <ele>58.69013</ele>
        <time>2015-08-07T11:14:40.713000Z</time>
      </trkpt>
      <trkpt lat="41.780834" lon="123.401245">
        <ele>57.973843</ele>
        <time>2015-08-07T11:14:43.892000Z</time>
      </trkpt>
      <trkpt lat="41.78093" lon="123.401344">
        <ele>57.886307</ele>
        <time>2015-08-07T11:14:47.071000Z</time>
      </trkpt>
      <trkpt lat="41.78102" lon="123.401405">
        <ele>58.0042</ele>
        <time>2015-08-07T11:14:50.250000Z</time>
      </trkpt>
      <trkpt lat="41.781097" lon="123.40153">
        <ele>57.744</ele>
        <time>2015-08-07T11:14:53.429000Z</time>
      </trkpt>
      <trkpt lat="41.781166" lon="123.40167">
        <ele>56.547497</ele>
        <time>2015-08-07T11:14:56.608000Z</time>
      </trkpt>
      <trkpt lat="41.781235" lon="123.401764">
        <ele>54.303795</ele>
        <time>2015-08-07T11:14:59.787000Z</time>
      </trkpt>
      <trkpt lat="41.781345" lon="123.40183">
        <ele>51.596104</ele>
        <time>2015-08-07T11:15:02.966000Z</time>
      </trkpt>
      <trkpt lat="41.781452" lon="123.40188">
        <ele>49.293156</ele>
        <time>2015-08-07T11:15:06.145000Z</time>
      </trkpt>
      <trkpt lat="41.78157" lon="123.40192">
        <ele>47.91836</ele>
        <time>2015-08-07T11:15:09.324000Z</time>
      </trkpt>
      <trkpt lat="41.7817" lon="123.40198">
        <ele>47.540726</ele>
        <time>2015-08-07T11:15:12.503000Z</time>
      </trkpt>
      <trkpt lat="41.78182" lon="123.40205">
        <ele>47.786644</ele>
        <time>2015-08-07T11:15:15.682000Z</time>
      </trkpt>
      <trkpt lat="41.781937" lon="123.40211">
        <ele>48.887863</ele>
        <time>2015-08-07T11:15:18.861000Z</time>
      </trkpt>
      <trkpt lat="41.782063" lon="123.40217">
        <ele>50.808</ele>
        <time>2015-08-07T11:15:22.040000Z</time>
      </trkpt>
      <trkpt lat="41.782185" lon="123.40224">
        <ele>52.62901</ele>
        <time>2015-08-07T11:15:25.219000Z</time>
      </trkpt>
      <trkpt lat="41.78228" lon="123.40227">
        <ele>53.70724</ele>
        <time>2015-08-07T11:15:28.398000Z</time>
      </trkpt>
      <trkpt lat="41.78238" lon="123.40227">
        <ele>53.999187</ele>
        <time>2015-08-07T11:15:31.577000Z</time>
      </trkpt>
      <trkpt lat="41.782497" lon="123.402245">
        <ele>53.517345</ele>
        <time>2015-08-07T11:15:34.756000Z</time>
      </trkpt>
      <trkpt lat="41.7826" lon="123.402214">
        <ele>52.67767</ele>
        <time>2015-08-07T11:15:37.935000Z</time>
      </trkpt>
      <trkpt lat="41.78269" lon="123.40213">
        <ele>52.04537</ele>
        <time>2015-08-07T11:15:41.114000Z</time>
      </trkpt>
      <trkpt lat="41.782753" lon="123.402016">
        <ele>51.670967</ele>
        <time>2015-08-07T11:15:44.293000Z</time>
      </trkpt>
      <trkpt lat="41.78282" lon="123.40193">
        <ele>51.17542</ele>
        <time>2015-08-07T11:15:47.472000Z</time>
      </trkpt>
      <trkpt lat="41.782925" lon="123.40184">
        <ele>50.515297</ele>
        <time>2015-08-07T11:15:50.651000Z</time>
      </trkpt>
      <trkpt lat="41.783043" lon="123.40176">
        <ele>50.02192</ele>
        <time>2015-08-07T11:15:53.830000Z</time>
      </trkpt>
      <trkpt lat="41.783134" lon="123.401665">
        <ele>50.391712</ele>
        <time>2015-08-07T11:15:57.009000Z</time>
      </trkpt>
      <trkpt lat="41.783237" lon="123.40159">
        <ele>51.972485</ele>
        <time>2015-08-07T11:16:00.188000Z</time>
      </trkpt>
      <trkpt lat="41.783337" lon="123.401535">
        <ele>53.86451</ele>
        <time>2015-08-07T11:16:03.367000Z</time>
      </trkpt>
      <trkpt lat="41.783447" lon="123.40149">
        <ele>54.698673</ele>
        <time>2015-08-07T11:16:06.546000Z</time>
      </trkpt>
      <trkpt lat="41.783585" lon="123.40141">
        <ele>53.998528</ele>
        <time>2015-08-07T11:16:09.725000Z</time>
      </trkpt>
      <trkpt lat="41.783684" lon="123.40135">
        <ele>52.446037</ele>
        <time>2015-08-07T11:16:12.904000Z</time>
      </trkpt>
      <trkpt lat="41.783783" lon="123.401276">
        <ele>51.339924</ele>
        <time>2015-08-07T11:16:16.083000Z</time>
      </trkpt>
      <trkpt lat="41.783863" lon="123.401215">
        <ele>51.206493</ele>
        <time>2015-08-07T11:16:19.262000Z</time>
      </trkpt>
      <trkpt lat="41.78396" lon="123.40113">
        <ele>51.55949</ele>
        <time>2015-08-07T11:16:22.441000Z</time>
      </trkpt>
      <trkpt lat="41.784054" lon="123.401054">
        <ele>52.00113</ele>
        <time>2015-08-07T11:16:25.620000Z</time>
      </trkpt>
      <trkpt lat="41.784153" lon="123.40098">
        <ele>52.35046</ele>
        <time>2015-08-07T11:16:28.799000Z</time>
      </trkpt>
      <trkpt lat="41.78425" lon="123.40088">
        <ele>52.369503</ele>
        <time>2015-08-07T11:16:31.978000Z</time>
      </trkpt>
      <trkpt lat="41.784336" lon="123.40079">
        <ele>52.14611</ele>
        <time>2015-08-07T11:16:35.157000Z</time>
      </trkpt>
      <trkpt lat="41.784424" lon="123.40069">
        <ele>52.11088</ele>
        <time>2015-08-07T11:16:38.336000Z</time>
      </trkpt>
      <trkpt lat="41.7845" lon="123.400566">
        <ele>52.68038</ele>
        <time>2015-08-07T11:16:41.515000Z</time>
      </trkpt>
      <trkpt lat="41.784557" lon="123.40044">
        <ele>53.906994</ele>
        <time>2015-08-07T11:16:44.694000Z</time>
      </trkpt>
      <trkpt lat="41.7846" lon="123.40032">
        <ele>55.199444</ele>
        <time>2015-08-07T11:16:47.873000Z</time>
      </trkpt>
      <trkpt lat="41.78464" lon="123.400215">
        <ele>56.23637</ele>
        <time>2015-08-07T11:16:51.051000Z</time>
      </trkpt>
      <trkpt lat="41.78468" lon="123.400085">
        <ele>57.436184</ele>
        <time>2015-08-07T11:16:54.229000Z</time>
      </trkpt>
      <trkpt lat="41.784702" lon="123.39993">
        <ele>59.107643</ele>
        <time>2015-08-07T11:16:57.407000Z</time>
      </trkpt>
      <trkpt lat="41.78471" lon="123.399796">
        <ele>60.94918</ele>
        <time>2015-08-07T11:17:00.585000Z</time>
      </trkpt>
      <trkpt lat="41.78472" lon="123.39965">
        <ele>62.66642</ele>
        <time>2015-08-07T11:17:03.763000Z</time>
      </trkpt>
      <trkpt lat="41.784748" lon="123.39952">
        <ele>64.22136</ele>
        <time>2015-08-07T11:17:06.941000Z</time>
      </trkpt>
      <trkpt lat="41.78481" lon="123.39939">
        <ele>65.43368</ele>
        <time>2015-08-07T11:17:10.119000Z</time>
      </trkpt>
      <trkpt lat="41.784863" lon="123.39925">
        <ele>66.04045</ele>
        <time>2015-08-07T11:17:13.297000Z</time>
      </trkpt>
      <trkpt lat="41.78492" lon="123.399124">
        <ele>65.73676</ele>
        <time>2015-08-07T11:17:16.475000Z</time>
      </trkpt>
      <trkpt lat="41.784966" lon="123.39901">
        <ele>64.567566</ele>
        <time>2015-08-07T11:17:19.653000Z</time>
      </trkpt>
      <trkpt lat="41.78497" lon="123.398865">
        <ele>63.360355</ele>
        <time>2015-08-07T11:17:22.831000Z</time>
      </trkpt>
      <trkpt lat="41.785023" lon="123.39874">
        <ele>62.232994</ele>
        <time>2015-08-07T11:17:26.009000Z</time>
      </trkpt>
      <trkpt lat="41.785103" lon="123.39865">
        <ele>60.428913</ele>
        <time>2015-08-07T11:17:29.187000Z</time>
      </trkpt>
      <trkpt lat="41.78518" lon="123.39855">
        <ele>58.190655</ele>
        <time>2015-08-07T11:17:32.365000Z</time>
      </trkpt>
      <trkpt lat="41.785217" lon="123.39842">
        <ele>56.35106</ele>
        <time>2015-08-07T11:17:35.543000Z</time>
      </trkpt>
      <trkpt lat="41.785206" lon="123.39829">
        <ele>55.21131</ele>
        <time>2015-08-07T11:17:38.721000Z</time>
      </trkpt>
      <trkpt lat="41.78519" lon="123.39815">
        <ele>54.740223</ele>
        <time>2015-08-07T11:17:41.899000Z</time>
      </trkpt>
      <trkpt lat="41.785145" lon="123.398026">
        <ele>54.71072</ele>
        <time>2015-08-07T11:17:45.077000Z</time>
      </trkpt>
      <trkpt lat="41.78508" lon="123.39788">
        <ele>54.960938</ele>
        <time>2015-08-07T11:17:48.255000Z</time>
      </trkpt>
      <trkpt lat="41.785004" lon="123.39777">
        <ele>55.551662</ele>
        <time>2015-08-07T11:17:51.433000Z</time>
      </trkpt>
      <trkpt lat="41.784946" lon="123.39768">
        <ele>56.31874</ele>
        <time>2015-08-07T11:17:54.611000Z</time>
      </trkpt>
      <trkpt lat="41.78488" lon="123.39758">
        <ele>57.003605</ele>
        <time>2015-08-07T11:17:57.789000Z</time>
      </trkpt>
      <trkpt lat="41.784767" lon="123.397484">
        <ele>57.556026</ele>
        <time>2015-08-07T11:18:00.967000Z</time>
      </trkpt>
      <trkpt lat="41.784664" lon="123.3974">
        <ele>57.914474</ele>
        <time>2015-08-07T11:18:04.145000Z</time>
      </trkpt>
      <trkpt lat="41.784588" lon="123.39733">
        <ele>58.02662</ele>
        <time>2015-08-07T11:18:07.323000Z</time>
      </trkpt>
      <trkpt lat="41.784496" lon="123.39728">
        <ele>57.87064</ele>
        <time>2015-08-07T11:18:10.501000Z</time>
      </trkpt>
      <trkpt lat="41.78441" lon="123.39723">
        <ele>57.46541</ele>
        <time>2015-08-07T11:18:13.679000Z</time>
      </trkpt>
      <trkpt lat="41.78428" lon="123.397156">
        <ele>57.06695</ele>
        <time>2015-08-07T11:18:16.857000Z</time>
      </trkpt>
      <trkpt lat="41.78415" lon="123.39715">
        <ele>56.60643</ele>
        <time>2015-08-07T11:18:20.035000Z</time>
      </trkpt>
      <trkpt lat="41.784023" lon="123.397156">
        <ele>55.447155</ele>
        <time>2015-08-07T11:18:23.213000Z</time>
      </trkpt>
      <trkpt lat="41.783924" lon="123.39707">
        <ele>53.524136</ele>
        <time>2015-08-07T11:18:26.391000Z</time>
      </trkpt>
      <trkpt lat="41.783817" lon="123.39706">
        <ele>51.461517</ele>
        <time>2015-08-07T11:18:29.569000Z</time>
      </trkpt>
      <trkpt lat="41.7837" lon="123.39711">
        <ele>49.67008</ele>
        <time>2015-08-07T11:18:32.747000Z</time>
      </trkpt>
      <trkpt lat="41.783604" lon="123.39716">
        <ele>48.378323</ele>
        <time>2015-08-07T11:18:35.925000Z</time>
      </trkpt>
      <trkpt lat="41.783485" lon="123.39717">
        <ele>47.50285</ele>
        <time>2015-08-07T11:18:39.103000Z</time>
      </trkpt>
      <trkpt lat="41.783363" lon="123.39722">
        <ele>46.562424</ele>
        <time>2015-08-07T11:18:42.281000Z</time>
      </trkpt>
      <trkpt lat="41.783253" lon="123.39728">
        <ele>45.572353</ele>
        <time>2015-08-07T11:18:45.459000Z</time>
      </trkpt>
      <trkpt lat="41.783154" lon="123.39735">
        <ele>45.233982</ele>
        <time>2015-08-07T11:18:48.637000Z</time>
      </trkpt>
      <trkpt lat="41.783062" lon="123.39745">
        <ele>45.773605</ele>
        <time>2015-08-07T11:18:51.815000Z</time>
      </trkpt>
      <trkpt lat="41.782955" lon="123.39755">
        <ele>46.552147</ele>
        <time>2015-08-07T11:18:54.993000Z</time>
      </trkpt>
      <trkpt lat="41.782867" lon="123.39767">
        <ele>46.983837</ele>
        <time>2015-08-07T11:18:58.171000Z</time>
      </trkpt>
      <trkpt lat="41.7828" lon="123.3978">
        <ele>47.50116</ele>
        <time>2015-08-07T11:19:01.349000Z</time>
      </trkpt>
      <trkpt lat="41.782734" lon="123.3979">
        <ele>48.535133</ele>
        <time>2015-08-07T11:19:04.527000Z</time>
      </trkpt>
      <trkpt lat="41.78266" lon="123.39802">
        <ele>49.579784</ele>
        <time>2015-08-07T11:19:07.705000Z</time>
      </trkpt>
      <trkpt lat="41.782604" lon="123.398125">
        <ele>49.932545</ele>
        <time>2015-08-07T11:19:10.883000Z</time>
      </trkpt>
      <trkpt lat="41.782516" lon="123.39823">
        <ele>49.64418</ele>
        <time>2015-08-07T11:19:14.061000Z</time>
      </trkpt>
      <trkpt lat="41.78241" lon="123.39831">
        <ele>49.326828</ele>
        <time>2015-08-07T11:19:17.239000Z</time>
      </trkpt>
      <trkpt lat="41.782284" lon="123.398346">
        <ele>49.42634</ele>
        <time>2015-08-07T11:19:20.417000Z</time>
      </trkpt>
      <trkpt lat="41.782154" lon="123.39837">
        <ele>49.729767</ele>
        <time>2015-08-07T11:19:23.595000Z</time>
      </trkpt>
      <trkpt lat="41.78203" lon="123.3984">
        <ele>49.7914</ele>
        <time>2015-08-07T11:19:26.773000Z</time>
      </trkpt>
      <trkpt lat="41.7819" lon="123.39842">
        <ele>49.080776</ele>
        <time>2015-08-07T11:19:29.951000Z</time>
      </trkpt>
      <trkpt lat="41.781815" lon="123.39848">
        <ele>47.208176</ele>
        <time>2015-08-07T11:19:33.129000Z</time>
      </trkpt>
      <trkpt lat="41.781757" lon="123.3986">
        <ele>44.820023</ele>
        <time>2015-08-07T11:19:36.307000Z</time>
      </trkpt>
      <trkpt lat="41.781734" lon="123.39875">
        <ele>43.005043</ele>
        <time>2015-08-07T11:19:39.485000Z</time>
      </trkpt>
      <trkpt lat="41.78171" lon="123.398895">
        <ele>42.20287</ele>
        <time>2015-08-07T11:19:42.663000Z</time>
      </trkpt>
      <trkpt lat="41.781685" lon="123.39905">
        <ele>42.510956</ele>
        <time>2015-08-07T11:19:45.841000Z</time>
      </trkpt>
      <trkpt lat="41.781643" lon="123.399185">
        <ele>44.03587</ele>
        <time>2015-08-07T11:19:49.019000Z</time>
      </trkpt>
      <trkpt lat="41.781597" lon="123.39933">
        <ele>46.13909</ele>
        <time>2015-08-07T11:19:52.197000Z</time>
      </trkpt>
      <trkpt lat="41.781555" lon="123.39945">
        <ele>47.97705</ele>
        <time>2015-08-07T11:19:55.375000Z</time>
      </trkpt>
      <trkpt lat="41.7815" lon="123.399574">
        <ele>49.41003</ele>
        <time>2015-08-07T11:19:58.553000Z</time>
      </trkpt>
      <trkpt lat="41.781403" lon="123.399765">
        <ele>50.49625</ele>
        <time>2015-08-07T11:20:01.731000Z</time>
      </trkpt>
      <trkpt lat="41.78135" lon="123.39986">
        <ele>50.686893</ele>
        <time>2015-08-07T11:20:04.909000Z</time>
      </trkpt>
      <trkpt lat="41.781258" lon="123.399956">
        <ele>49.744762</ele>
        <time>2015-08-07T11:20:08.087000Z</time>
      </trkpt>
      <trkpt lat="41.78118" lon="123.40006">
        <ele>48.65519</ele>
        <time>2015-08-07T11:20:11.265000Z</time>
      </trkpt>
      <trkpt lat="41.78118" lon="123.40006">
        <ele>48.056656</ele>
        <time>2015-08-07T11:20:14.443000Z</time>
      </trkpt>
      <trkpt lat="41.781136" lon="123.4002">
        <ele>48.132385</ele>
        <time>2015-08-07T11:20:17.621000Z</time>
      </trkpt>
      <trkpt lat="41.78106" lon="123.400314">
        <ele>48.53867</ele>
        <time>2015-08-07T11:20:20.799000Z</time>
      </trkpt>
      <trkpt lat="41.78099" lon="123.40042">
        <ele>49.146606</ele>
        <time>2015-08-07T11:20:23.977000Z</time>
      </trkpt>
      <trkpt lat="41.78091" lon="123.40054">
        <ele>49.999966</ele>
        <time>2015-08-07T11:20:27.155000Z</time>
      </trkpt>
      <trkpt lat="41.780834" lon="123.40068">
        <ele>50.60663</ele>
        <time>2015-08-07T11:20:30.333000Z</time>
      </trkpt>
      <trkpt lat="41.78077" lon="123.400826">
        <ele>50.56369</ele>
        <time>2015-08-07T11:20:33.511000Z</time>
      </trkpt>
      <trkpt lat="41.780746" lon="123.40099">
        <ele>50.22037</ele>
        <time>2015-08-07T11:20:36.689000Z</time>
      </trkpt>
      <trkpt lat="41.780777" lon="123.40114">
        <ele>50.11262</ele>
        <time>2015-08-07T11:20:39.867000Z</time>
      </trkpt>
      <trkpt lat="41.780865" lon="123.40126">
        <ele>50.385403</ele>
        <time>2015-08-07T11:20:43.045000Z</time>
      </trkpt>
      <trkpt lat="41.780968" lon="123.40135">
        <ele>50.89758</ele>
        <time>2015-08-07T11:20:46.223000Z</time>
      </trkpt>
      <trkpt lat="41.781055" lon="123.40143">
        <ele>51.737343</ele>
        <time>2015-08-07T11:20:49.401000Z</time>
      </trkpt>
      <trkpt lat="41.781147" lon="123.40153">
        <ele>53.011215</ele>
        <time>2015-08-07T11:20:52.579000Z</time>
      </trkpt>
      <trkpt lat="41.78125" lon="123.40162">
        <ele>54.400375</ele>
        <time>2015-08-07T11:20:55.757000Z</time>
      </trkpt>
      <trkpt lat="41.781364" lon="123.40171">
        <ele>55.476192</ele>
        <time>2015-08-07T11:20:58.935000Z</time>
      </trkpt>
      <trkpt lat="41.781483" lon="123.401794">
        <ele>56.027542</ele>
        <time>2015-08-07T11:21:02.113000Z</time>
      </trkpt>
      <trkpt lat="41.78157" lon="123.40184">
        <ele>55.997437</ele>
        <time>2015-08-07T11:21:05.291000Z</time>
      </trkpt>
      <trkpt lat="41.781693" lon="123.40189">
        <ele>55.561718</ele>
        <time>2015-08-07T11:21:08.469000Z</time>
      </trkpt>
      <trkpt lat="41.781773" lon="123.40197">
        <ele>55.104473</ele>
        <time>2015-08-07T11:21:11.647000Z</time>
      </trkpt>
      <trkpt lat="41.781834" lon="123.40209">
        <ele>54.470253</ele>
        <time>2015-08-07T11:21:14.825000Z</time>
      </trkpt>
      <trkpt lat="41.781906" lon="123.40217">
        <ele>53.079304</ele>
        <time>2015-08-07T11:21:18.003000Z</time>
      </trkpt>
      <trkpt lat="41.782" lon="123.40223">
        <ele>51.287548</ele>
        <time>2015-08-07T11:21:21.181000Z</time>
      </trkpt>
      <trkpt lat="41.782104" lon="123.40229">
        <ele>50.06017</ele>
        <time>2015-08-07T11:21:24.359000Z</time>
      </trkpt>
      <trkpt lat="41.782204" lon="123.402306">
        <ele>49.785908</ele>
        <time>2015-08-07T11:21:27.537000Z</time>
      </trkpt>
      <trkpt lat="41.78233" lon="123.4023">
        <ele>50.18537</ele>
        <time>2015-08-07T11:21:30.715000Z</time>
      </trkpt>
      <trkpt lat="41.782448" lon="123.40227">
        <ele>50.840252</ele>
        <time>2015-08-07T11:21:33.893000Z</time>
      </trkpt>
      <trkpt lat="41.782574" lon="123.40219">
        <ele>51.47487</ele>
        <time>2015-08-07T11:21:37.071000Z</time>
      </trkpt>
      <trkpt lat="41.78265" lon="123.40212">
        <ele>51.90367</ele>
        <time>2015-08-07T11:21:40.249000Z</time>
      </trkpt>
      <trkpt lat="41.782738" lon="123.40201">
        <ele>52.045296</ele>
        <time>2015-08-07T11:21:43.427000Z</time>
      </trkpt>
      <trkpt lat="41.782852" lon="123.40188">
        <ele>52.167797</ele>
        <time>2015-08-07T11:21:46.605000Z</time>
      </trkpt>
      <trkpt lat="41.78296" lon="123.40181">
        <ele>52.475548</ele>
        <time>2015-08-07T11:21:49.783000Z</time>
      </trkpt>
      <trkpt lat="41.78306" lon="123.40175">
        <ele>52.81024</ele>
        <time>2015-08-07T11:21:52.961000Z</time>
      </trkpt>
      <trkpt lat="41.783157" lon="123.40171">
        <ele>52.974236</ele>
        <time>2015-08-07T11:21:56.139000Z</time>
      </trkpt>
      <trkpt lat="41.783257" lon="123.40167">
        <ele>53.00219</ele>
        <time>2015-08-07T11:21:59.317000Z</time>
      </trkpt>
      <trkpt lat="41.78335" lon="123.40164">
        <ele>52.976486</ele>
        <time>2015-08-07T11:22:02.495000Z</time>
      </trkpt>
      <trkpt lat="41.78345" lon="123.401596">
        <ele>52.949192</ele>
        <time>2015-08-07T11:22:05.673000Z</time>
      </trkpt>
      <trkpt lat="41.78357" lon="123.40154">
        <ele>52.935993</ele>
        <time>2015-08-07T11:22:08.851000Z</time>
      </trkpt>
      <trkpt lat="41.783676" lon="123.40148">
        <ele>53.210197</ele>
        <time>2015-08-07T11:22:12.029000Z</time>
      </trkpt>
      <trkpt lat="41.783775" lon="123.40145">
        <ele>53.93213</ele>
        <time>2015-08-07T11:22:15.207000Z</time>
      </trkpt>
      <trkpt lat="41.78387" lon="123.401375">
        <ele>54.67322</ele>
        <time>2015-08-07T11:22:18.385000Z</time>
      </trkpt>
      <trkpt lat="41.78399" lon="123.401276">
        <ele>54.88663</ele>
        <time>2015-08-07T11:22:21.563000Z</time>
      </trkpt>
      <trkpt lat="41.784065" lon="123.40121">
        <ele>54.441784</ele>
        <time>2015-08-07T11:22:24.741000Z</time>
      </trkpt>
      <trkpt lat="41.784157" lon="123.4011">
        <ele>53.652306</ele>
        <time>2015-08-07T11:22:27.919000Z</time>
      </trkpt>
      <trkpt lat="41.784225" lon="123.40097">
        <ele>53.047215</ele>
        <time>2015-08-07T11:22:31.097000Z</time>
      </trkpt>
      <trkpt lat="41.784298" lon="123.40085">
        <ele>52.817146</ele>
        <time>2015-08-07T11:22:34.275000Z</time>
      </trkpt>
      <trkpt lat="41.78437" lon="123.40075">
        <ele>52.954723</ele>
        <time>2015-08-07T11:22:37.453000Z</time>
      </trkpt>
      <trkpt lat="41.784443" lon="123.400665">
        <ele>53.379715</ele>
        <time>2015-08-07T11:22:40.631000Z</time>
      </trkpt>
      <trkpt lat="41.78452" lon="123.40056">
        <ele>53.936455</ele>
        <time>2015-08-07T11:22:43.809000Z</time>
      </trkpt>
      <trkpt lat="41.78455" lon="123.40044">
        <ele>54.489998</ele>
        <time>2015-08-07T11:22:46.987000Z</time>
      </trkpt>
      <trkpt lat="41.78456" lon="123.400314">
        <ele>54.885796</ele>
        <time>2015-08-07T11:22:50.165000Z</time>
      </trkpt>
      <trkpt lat="41.78458" lon="123.400185">
        <ele>55.025707</ele>
        <time>2015-08-07T11:22:53.343000Z</time>
      </trkpt>
      <trkpt lat="41.784615" lon="123.40003">
        <ele>55.018143</ele>
        <time>2015-08-07T11:22:56.521000Z</time>
      </trkpt>
      <trkpt lat="41.784645" lon="123.39991">
        <ele>54.972588</ele>
        <time>2015-08-07T11:22:59.699000Z</time>
      </trkpt>
      <trkpt lat="41.784653" lon="123.399765">
        <ele>55.07867</ele>
        <time>2015-08-07T11:23:02.877000Z</time>
      </trkpt>
      <trkpt lat="41.78468" lon="123.39963">
        <ele>55.70376</ele>
        <time>2015-08-07T11:23:06.055000Z</time>
      </trkpt>
      <trkpt lat="41.78472" lon="123.399506">
        <ele>56.793736</ele>
        <time>2015-08-07T11:23:09.233000Z</time>
      </trkpt>
      <trkpt lat="41.784805" lon="123.39935">
        <ele>57.711613</ele>
        <time>2015-08-07T11:23:12.411000Z</time>
      </trkpt>
      <trkpt lat="41.784927" lon="123.39916">
        <ele>57.95309</ele>
        <time>2015-08-07T11:23:15.589000Z</time>
      </trkpt>
      <trkpt lat="41.785004" lon="123.39904">
        <ele>57.61716</ele>
        <time>2015-08-07T11:23:18.767000Z</time>
      </trkpt>
      <trkpt lat="41.78509" lon="123.39888">
        <ele>57.157574</ele>
        <time>2015-08-07T11:23:21.945000Z</time>
      </trkpt>
      <trkpt lat="41.785145" lon="123.39874">
        <ele>56.35498</ele>
        <time>2015-08-07T11:23:25.123000Z</time>
      </trkpt>
      <trkpt lat="41.785194" lon="123.39861">
        <ele>54.5821</ele>
        <time>2015-08-07T11:23:28.301000Z</time>
      </trkpt>
      <trkpt lat="41.785213" lon="123.398445">
        <ele>52.13659</ele>
        <time>2015-08-07T11:23:31.479000Z</time>
      </trkpt>
      <trkpt lat="41.78521" lon="123.39829">
        <ele>50.01445</ele>
        <time>2015-08-07T11:23:34.657000Z</time>
      </trkpt>
      <trkpt lat="41.78518" lon="123.398155">
        <ele>48.8391</ele>
        <time>2015-08-07T11:23:37.835000Z</time>
      </trkpt>
      <trkpt lat="41.78514" lon="123.39802">
        <ele>48.42174</ele>
        <time>2015-08-07T11:23:41.013000Z</time>
      </trkpt>
      <trkpt lat="41.78509" lon="123.397896">
        <ele>48.1868</ele>
        <time>2015-08-07T11:23:44.191000Z</time>
      </trkpt>
      <trkpt lat="41.785034" lon="123.397804">
        <ele>47.71451</ele>
        <time>2015-08-07T11:23:47.369000Z</time>
      </trkpt>
      <trkpt lat="41.784958" lon="123.397705">
        <ele>46.637978</ele>
        <time>2015-08-07T11:23:50.547000Z</time>
      </trkpt>
      <trkpt lat="41.78487" lon="123.39758">
        <ele>45.174698</ele>
        <time>2015-08-07T11:23:53.725000Z</time>
      </trkpt>
      <trkpt lat="41.784763" lon="123.3975">
        <ele>44.10473</ele>
        <time>2015-08-07T11:23:56.903000Z</time>
      </trkpt>
      <trkpt lat="41.78466" lon="123.397415">
        <ele>43.440716</ele>
        <time>2015-08-07T11:24:00.081000Z</time>
      </trkpt>
      <trkpt lat="41.78458" lon="123.39735">
        <ele>42.734287</ele>
        <time>2015-08-07T11:24:03.259000Z</time>
      </trkpt>
      <trkpt lat="41.78448" lon="123.39727">
        <ele>42.392265</ele>
        <time>2015-08-07T11:24:06.437000Z</time>
      </trkpt>
      <trkpt lat="41.784397" lon="123.39722">
        <ele>42.986507</ele>
        <time>2015-08-07T11:24:09.615000Z</time>
      </trkpt>
      <trkpt lat="41.78427" lon="123.397156">
        <ele>44.20133</ele>
        <time>2015-08-07T11:24:12.793000Z</time>
      </trkpt>
      <trkpt lat="41.784145" lon="123.397125">
        <ele>45.61604</ele>
        <time>2015-08-07T11:24:15.971000Z</time>
      </trkpt>
      <trkpt lat="41.78402" lon="123.39713">
        <ele>47.122055</ele>
        <time>2015-08-07T11:24:19.149000Z</time>
      </trkpt>
      <trkpt lat="41.783905" lon="123.397125">
        <ele>48.798325</ele>
        <time>2015-08-07T11:24:22.327000Z</time>
      </trkpt>
      <trkpt lat="41.783813" lon="123.397125">
        <ele>50.535862</ele>
        <time>2015-08-07T11:24:25.505000Z</time>
      </trkpt>
      <trkpt lat="41.78369" lon="123.39712">
        <ele>51.503002</ele>
        <time>2015-08-07T11:24:28.683000Z</time>
      </trkpt>
      <trkpt lat="41.78356" lon="123.39715">
        <ele>51.223225</ele>
        <time>2015-08-07T11:24:31.861000Z</time>
      </trkpt>
      <trkpt lat="41.78345" lon="123.39717">
        <ele>50.460922</ele>
        <time>2015-08-07T11:24:35.039000Z</time>
      </trkpt>
      <trkpt lat="41.78334" lon="123.3972">
        <ele>49.829235</ele>
        <time>2015-08-07T11:24:38.217000Z</time>
      </trkpt>
      <trkpt lat="41.783245" lon="123.39727">
        <ele>49.315437</ele>
        <time>2015-08-07T11:24:41.395000Z</time>
      </trkpt>
      <trkpt lat="41.78315" lon="123.39736">
        <ele>49.10906</ele>
        <time>2015-08-07T11:24:44.573000Z</time>
      </trkpt>
      <trkpt lat="41.783073" lon="123.39745">
        <ele>49.494427</ele>
        <time>2015-08-07T11:24:47.751000Z</time>
      </trkpt>
      <trkpt lat="41.78301" lon="123.397545">
        <ele>50.23718</ele>
        <time>2015-08-07T11:24:50.929000Z</time>
      </trkpt>
      <trkpt lat="41.782944" lon="123.39764">
        <ele>50.547726</ele>
        <time>2015-08-07T11:24:54.107000Z</time>
      </trkpt>
      <trkpt lat="41.78287" lon="123.39778">
        <ele>50.057644</ele>
        <time>2015-08-07T11:24:57.285000Z</time>
      </trkpt>
      <trkpt lat="41.782787" lon="123.39791">
        <ele>49.186104</ele>
        <time>2015-08-07T11:25:00.463000Z</time>
      </trkpt>
      <trkpt lat="41.782715" lon="123.39803">
        <ele>48.414383</ele>
        <time>2015-08-07T11:25:03.641000Z</time>
      </trkpt>
      <trkpt lat="41.78264" lon="123.39812">
        <ele>47.944218</ele>
        <time>2015-08-07T11:25:06.819000Z</time>
      </trkpt>
      <trkpt lat="41.782547" lon="123.39819">
        <ele>47.81055</ele>
        <time>2015-08-07T11:25:09.997000Z</time>
      </trkpt>
      <trkpt lat="41.782448" lon="123.39826">
        <ele>47.982178</ele>
        <time>2015-08-07T11:25:13.175000Z</time>
      </trkpt>
      <trkpt lat="41.78233" lon="123.3983">
        <ele>48.405304</ele>
        <time>2015-08-07T11:25:16.353000Z</time>
      </trkpt>
      <trkpt lat="41.782204" lon="123.39834">
        <ele>48.536407</ele>
        <time>2015-08-07T11:25:19.531000Z</time>
      </trkpt>
      <trkpt lat="41.782074" lon="123.39836">
        <ele>48.002457</ele>
        <time>2015-08-07T11:25:22.709000Z</time>
      </trkpt>
      <trkpt lat="41.781963" lon="123.39837">
        <ele>47.287235</ele>
        <time>2015-08-07T11:25:25.887000Z</time>
      </trkpt>
      <trkpt lat="41.781868" lon="123.39839">
        <ele>47.177902</ele>
        <time>2015-08-07T11:25:29.065000Z</time>
      </trkpt>
      <trkpt lat="41.78181" lon="123.39851">
        <ele>48.0878</ele>
        <time>2015-08-07T11:25:32.243000Z</time>
      </trkpt>
      <trkpt lat="41.781784" lon="123.39864">
        <ele>49.72967</ele>
        <time>2015-08-07T11:25:35.421000Z</time>
      </trkpt>
      <trkpt lat="41.781765" lon="123.39879">
        <ele>51.2374</ele>
        <time>2015-08-07T11:25:38.599000Z</time>
      </trkpt>
      <trkpt lat="41.78175" lon="123.39897">
        <ele>52.04153</ele>
        <time>2015-08-07T11:25:41.777000Z</time>
      </trkpt>
      <trkpt lat="41.781723" lon="123.399155">
        <ele>52.21662</ele>
        <time>2015-08-07T11:25:44.955000Z</time>
      </trkpt>
      <trkpt lat="41.781673" lon="123.399284">
        <ele>51.980995</ele>
        <time>2015-08-07T11:25:48.133000Z</time>
      </trkpt>
      <trkpt lat="41.781624" lon="123.39941">
        <ele>51.497936</ele>
        <time>2015-08-07T11:25:51.311000Z</time>
      </trkpt>
      <trkpt lat="41.78155" lon="123.39952">
        <ele>51.06365</ele>
        <time>2015-08-07T11:25:54.489000Z</time>
      </trkpt>
      <trkpt lat="41.78149" lon="123.39961">
        <ele>50.736534</ele>
        <time>2015-08-07T11:25:57.667000Z</time>
      </trkpt>
      <trkpt lat="41.781433" lon="123.39974">
        <ele>50.358307</ele>
        <time>2015-08-07T11:26:00.845000Z</time>
      </trkpt>
      <trkpt lat="41.78138" lon="123.39989">
        <ele>50.167095</ele>
        <time>2015-08-07T11:26:04.023000Z</time>
      </trkpt>
      <trkpt lat="41.781322" lon="123.400024">
        <ele>50.52524</ele>
        <time>2015-08-07T11:26:07.201000Z</time>
      </trkpt>
      <trkpt lat="41.781246" lon="123.40012">
        <ele>51.243202</ele>
        <time>2015-08-07T11:26:10.379000Z</time>
      </trkpt>
      <trkpt lat="41.78115" lon="123.400215">
        <ele>52.095573</ele>
        <time>2015-08-07T11:26:13.557000Z</time>
      </trkpt>
      <trkpt lat="41.781063" lon="123.40031">
        <ele>53.043938</ele>
        <time>2015-08-07T11:26:16.735000Z</time>
      </trkpt>
      <trkpt lat="41.780994" lon="123.4004">
        <ele>53.790573</ele>
        <time>2015-08-07T11:26:19.913000Z</time>
      </trkpt>
      <trkpt lat="41.780937" lon="123.40052">
        <ele>54.634518</ele>
        <time>2015-08-07T11:26:23.091000Z</time>
      </trkpt>
      <trkpt lat="41.780876" lon="123.40062">
        <ele>56.080353</ele>
        <time>2015-08-07T11:26:26.269000Z</time>
      </trkpt>
      <trkpt lat="41.78082" lon="123.40073">
        <ele>57.479824</ele>
        <time>2015-08-07T11:26:29.447000Z</time>
      </trkpt>
      <trkpt lat="41.78077" lon="123.400856">
        <ele>57.98205</ele>
        <time>2015-08-07T11:26:32.625000Z</time>
      </trkpt>
      <trkpt lat="41.780766" lon="123.40098">
        <ele>57.566803</ele>
        <time>2015-08-07T11:26:35.803000Z</time>
      </trkpt>
      <trkpt lat="41.7808" lon="123.40111">
        <ele>56.71729</ele>
        <time>2015-08-07T11:26:38.981000Z</time>
      </trkpt>
      <trkpt lat="41.78088" lon="123.40122">
        <ele>55.92044</ele>
        <time>2015-08-07T11:26:42.159000Z</time>
      </trkpt>
      <trkpt lat="41.780964" lon="123.40131">
        <ele>55.307297</ele>
        <time>2015-08-07T11:26:45.337000Z</time>
      </trkpt>
      <trkpt lat="41.78104" lon="123.40138">
        <ele>55.073273</ele>
        <time>2015-08-07T11:26:48.515000Z</time>
      </trkpt>
      <trkpt lat="41.78111" lon="123.40148">
        <ele>55.466156</ele>
        <time>2015-08-07T11:26:51.693000Z</time>
      </trkpt>
      <trkpt lat="41.781185" lon="123.40159">
        <ele>56.360615</ele>
        <time>2015-08-07T11:26:54.871000Z</time>
      </trkpt>
      <trkpt lat="41.78128" lon="123.40167">
        <ele>57.31544</ele>
        <time>2015-08-07T11:26:58.049000Z</time>
      </trkpt>
      <trkpt lat="41.781395" lon="123.401726">
        <ele>58.054943</ele>
        <time>2015-08-07T11:27:01.227000Z</time>
      </trkpt>
      <trkpt lat="41.781487" lon="123.40177">
        <ele>58.59496</ele>
        <time>2015-08-07T11:27:04.405000Z</time>
      </trkpt>
      <trkpt lat="41.78158" lon="123.40184">
        <ele>58.92851</ele>
        <time>2015-08-07T11:27:07.583000Z</time>
      </trkpt>
      <trkpt lat="41.781685" lon="123.40192">
        <ele>59.025467</ele>
        <time>2015-08-07T11:27:10.761000Z</time>
      </trkpt>
      <trkpt lat="41.781742" lon="123.40202">
        <ele>58.726982</ele>
        <time>2015-08-07T11:27:13.939000Z</time>
      </trkpt>
      <trkpt lat="41.78182" lon="123.402115">
        <ele>57.824757</ele>
        <time>2015-08-07T11:27:17.117000Z</time>
      </trkpt>
      <trkpt lat="41.781925" lon="123.40218">
        <ele>56.422657</ele>
        <time>2015-08-07T11:27:20.295000Z</time>
      </trkpt>
      <trkpt lat="41.782036" lon="123.402245">
        <ele>54.698883</ele>
        <time>2015-08-07T11:27:23.473000Z</time>
      </trkpt>
      <trkpt lat="41.782143" lon="123.402275">
        <ele>53.01382</ele>
        <time>2015-08-07T11:27:26.651000Z</time>
      </trkpt>
      <trkpt lat="41.782265" lon="123.40227">
        <ele>51.9615</ele>
        <time>2015-08-07T11:27:29.829000Z</time>
      </trkpt>
      <trkpt lat="41.78239" lon="123.40224">
        <ele>51.6503</ele>
        <time>2015-08-07T11:27:33.007000Z</time>
      </trkpt>
      <trkpt lat="41.7825" lon="123.4022">
        <ele>51.716118</ele>
        <time>2015-08-07T11:27:36.185000Z</time>
      </trkpt>
      <trkpt lat="41.78261" lon="123.40215">
        <ele>51.99246</ele>
        <time>2015-08-07T11:27:39.363000Z</time>
      </trkpt>
      <trkpt lat="41.7827" lon="123.40209">
        <ele>52.299313</ele>
        <time>2015-08-07T11:27:42.541000Z</time>
      </trkpt>
      <trkpt lat="41.78278" lon="123.40201">
        <ele>52.471687</ele>
        <time>2015-08-07T11:27:45.719000Z</time>
      </trkpt>
      <trkpt lat="41.782894" lon="123.401924">
        <ele>52.63169</ele>
        <time>2015-08-07T11:27:48.897000Z</time>
      </trkpt>
      <trkpt lat="41.783005" lon="123.40184">
        <ele>52.84107</ele>
        <time>2015-08-07T11:27:52.075000Z</time>
      </trkpt>
      <trkpt lat="41.78312" lon="123.40178">
        <ele>52.952927</ele>
        <time>2015-08-07T11:27:55.253000Z</time>
      </trkpt>
      <trkpt lat="41.783237" lon="123.401726">
        <ele>52.977386</ele>
        <time>2015-08-07T11:27:58.431000Z</time>
      </trkpt>
      <trkpt lat="41.78336" lon="123.40168">
        <ele>52.68755</ele>
        <time>2015-08-07T11:28:01.609000Z</time>
      </trkpt>
      <trkpt lat="41.78347" lon="123.401566">
        <ele>51.95066</ele>
        <time>2015-08-07T11:28:04.787000Z</time>
      </trkpt>
      <trkpt lat="41.783592" lon="123.40145">
        <ele>50.92641</ele>
        <time>2015-08-07T11:28:07.965000Z</time>
      </trkpt>
      <trkpt lat="41.783695" lon="123.4014">
        <ele>49.854195</ele>
        <time>2015-08-07T11:28:11.143000Z</time>
      </trkpt>
      <trkpt lat="41.783783" lon="123.40132">
        <ele>48.92522</ele>
        <time>2015-08-07T11:28:14.321000Z</time>
      </trkpt>
      <trkpt lat="41.78386" lon="123.40122">
        <ele>48.276176</ele>
        <time>2015-08-07T11:28:17.499000Z</time>
      </trkpt>
      <trkpt lat="41.783928" lon="123.401146">
        <ele>47.776443</ele>
        <time>2015-08-07T11:28:20.677000Z</time>
      </trkpt>
      <trkpt lat="41.784042" lon="123.40108">
        <ele>47.05325</ele>
        <time>2015-08-07T11:28:23.855000Z</time>
      </trkpt>
      <trkpt lat="41.784138" lon="123.40101">
        <ele>46.001663</ele>
        <time>2015-08-07T11:28:27.033000Z</time>
      </trkpt>
      <trkpt lat="41.78424" lon="123.40095">
        <ele>45.140602</ele>
        <time>2015-08-07T11:28:30.211000Z</time>
      </trkpt>
      <trkpt lat="41.78434" lon="123.40088">
        <ele>45.06909</ele>
        <time>2015-08-07T11:28:33.389000Z</time>
      </trkpt>
      <trkpt lat="41.784428" lon="123.40074">
        <ele>45.910805</ele>
        <time>2015-08-07T11:28:36.567000Z</time>
      </trkpt>
      <trkpt lat="41.7845" lon="123.40063">
        <ele>47.37282</ele>
        <time>2015-08-07T11:28:39.745000Z</time>
      </trkpt>
      <trkpt lat="41.784542" lon="123.40051">
        <ele>49.020714</ele>
        <time>2015-08-07T11:28:42.923000Z</time>
      </trkpt>
      <trkpt lat="41.784615" lon="123.40039">
        <ele>50.790188</ele>
        <time>2015-08-07T11:28:46.101000Z</time>
      </trkpt>
      <trkpt lat="41.784664" lon="123.40026">
        <ele>52.833748</ele>
        <time>2015-08-07T11:28:49.279000Z</time>
      </trkpt>
      <trkpt lat="41.784687" lon="123.40012">
        <ele>54.930958</ele>
        <time>2015-08-07T11:28:52.457000Z</time>
      </trkpt>
      <trkpt lat="41.784695" lon="123.4">
        <ele>56.458076</ele>
        <time>2015-08-07T11:28:55.635000Z</time>
      </trkpt>
      <trkpt lat="41.784706" lon="123.399864">
        <ele>57.147057</ele>
        <time>2015-08-07T11:28:58.813000Z</time>
      </trkpt>
      <trkpt lat="41.784725" lon="123.39971">
        <ele>57.230034</ele>
        <time>2015-08-07T11:29:01.991000Z</time>
      </trkpt>
      <trkpt lat="41.784763" lon="123.39959">
        <ele>57.096123</ele>
        <time>2015-08-07T11:29:05.169000Z</time>
      </trkpt>
      <trkpt lat="41.784817" lon="123.399475">
        <ele>56.971786</ele>
        <time>2015-08-07T11:29:08.347000Z</time>
      </trkpt>
      <trkpt lat="41.784878" lon="123.39935">
        <ele>57.05462</ele>
        <time>2015-08-07T11:29:11.525000Z</time>
      </trkpt>
      <trkpt lat="41.784946" lon="123.39923">
        <ele>57.40832</ele>
        <time>2015-08-07T11:29:14.703000Z</time>
      </trkpt>
      <trkpt lat="41.785015" lon="123.399086">
        <ele>57.650692</ele>
        <time>2015-08-07T11:29:17.881000Z</time>
      </trkpt>
      <trkpt lat="41.785046" lon="123.398964">
        <ele>57.06165</ele>
        <time>2015-08-07T11:29:21.059000Z</time>
      </trkpt>
      <trkpt lat="41.785088" lon="123.39882">
        <ele>55.643513</ele>
        <time>2015-08-07T11:29:24.237000Z</time>
      </trkpt>
      <trkpt lat="41.785145" lon="123.39866">
        <ele>54.330418</ele>
        <time>2015-08-07T11:29:27.415000Z</time>
      </trkpt>
      <trkpt lat="41.78521" lon="123.398506">
        <ele>53.6089</ele>
        <time>2015-08-07T11:29:30.593000Z</time>
      </trkpt>
      <trkpt lat="41.78521" lon="123.398506">
        <ele>53.18448</ele>
        <time>2015-08-07T11:29:33.771000Z</time>
      </trkpt>
      <trkpt lat="41.7852" lon="123.39837">
        <ele>53.01687</ele>
        <time>2015-08-07T11:29:36.949000Z</time>
      </trkpt>
      <trkpt lat="41.785183" lon="123.39822">
        <ele>53.359848</ele>
        <time>2015-08-07T11:29:40.127000Z</time>
      </trkpt>
      <trkpt lat="41.785183" lon="123.39822">
        <ele>54.10575</ele>
        <time>2015-08-07T11:29:43.305000Z</time>
      </trkpt>
      <trkpt lat="41.785164" lon="123.39806">
        <ele>54.622967</ele>
        <time>2015-08-07T11:29:46.483000Z</time>
      </trkpt>
      <trkpt lat="41.785152" lon="123.39794">
        <ele>54.454926</ele>
        <time>2015-08-07T11:29:49.661000Z</time>
      </trkpt>
      <trkpt lat="41.785095" lon="123.39783">
        <ele>53.967606</ele>
        <time>2015-08-07T11:29:52.839000Z</time>
      </trkpt>
      <trkpt lat="41.785015" lon="123.39773">
        <ele>53.586273</ele>
        <time>2015-08-07T11:29:56.017000Z</time>
      </trkpt>
      <trkpt lat="41.784912" lon="123.39762">
        <ele>53.270844</ele>
        <time>2015-08-07T11:29:59.195000Z</time>
      </trkpt>
      <trkpt lat="41.784912" lon="123.39762">
        <ele>53.00412</ele>
        <time>2015-08-07T11:30:02.373000Z</time>
      </trkpt>
      <trkpt lat="41.784817" lon="123.39753">
        <ele>52.89343</ele>
        <time>2015-08-07T11:30:05.551000Z</time>
      </trkpt>
      <trkpt lat="41.784718" lon="123.39745">
        <ele>52.886185</ele>
        <time>2015-08-07T11:30:08.729000Z</time>
      </trkpt>
      <trkpt lat="41.784634" lon="123.397385">
        <ele>52.912277</ele>
        <time>2015-08-07T11:30:11.907000Z</time>
      </trkpt>
      <trkpt lat="41.784557" lon="123.397316">
        <ele>52.933964</ele>
        <time>2015-08-07T11:30:15.085000Z</time>
      </trkpt>
      <trkpt lat="41.78446" lon="123.39726">
        <ele>52.942837</ele>
        <time>2015-08-07T11:30:18.263000Z</time>
      </trkpt>
      <trkpt lat="41.78446" lon="123.39726">
        <ele>52.93543</ele>
        <time>2015-08-07T11:30:21.441000Z</time>
      </trkpt>
      <trkpt lat="41.784374" lon="123.3972">
        <ele>52.50606</ele>
        <time>2015-08-07T11:30:24.619000Z</time>
      </trkpt>
      <trkpt lat="41.784283" lon="123.39715">
        <ele>51.42408</ele>
        <time>2015-08-07T11:30:27.797000Z</time>
      </trkpt>
      <trkpt lat="41.78419" lon="123.39714">
        <ele>50.326164</ele>
        <time>2015-08-07T11:30:30.975000Z</time>
      </trkpt>
      <trkpt lat="41.784084" lon="123.39719">
        <time>2015-08-07T11:30:34.153000Z</time>
      </trkpt>
    </trkseg>
  </trk>
</gpx>