<?xml version="1.0" encoding="UTF-8"?>
<gpx xmlns="http://www.topografix.com/GPX/1/1" xmlns:gpxtpx="http://www.garmin.com/xmlschemas/TrackPointExtension/v1" xmlns:xsi="http://www.w3.org/2001/XMLSchema-instance" xsi:schemaLocation="http://www.topografix.com/GPX/1/1 http://www.topografix.com/GPX/1/1/gpx.xsd" version="1.1" creator="gpx.py -- https://github.com/tkrajina/gpxpy">
  <trk>
    <trkseg>
      <trkpt lat="41.783905" lon="123.397224">
        <ele>51.59937</ele>
        <time>2015-08-12T11:52:49.135000Z</time>
      </trkpt>
      <trkpt lat="41.783886" lon="123.39722">
        <ele>50.54774</ele>
        <time>2015-08-12T11:52:52.564000Z</time>
      </trkpt>
      <trkpt lat="41.783794" lon="123.39721">
        <ele>50.713852</ele>
        <time>2015-08-12T11:52:55.993000Z</time>
      </trkpt>
      <trkpt lat="41.7837" lon="123.39722">
        <ele>51.552933</ele>
        <time>2015-08-12T11:52:59.422000Z</time>
      </trkpt>
      <trkpt lat="41.783615" lon="123.39719">
        <ele>52.530727</ele>
        <time>2015-08-12T11:53:02.851000Z</time>
      </trkpt>
      <trkpt lat="41.783512" lon="123.3972">
        <ele>53.42109</ele>
        <time>2015-08-12T11:53:06.280000Z</time>
      </trkpt>
      <trkpt lat="41.783417" lon="123.397156">
        <ele>53.673836</ele>
        <time>2015-08-12T11:53:09.709000Z</time>
      </trkpt>
      <trkpt lat="41.783318" lon="123.39719">
        <ele>52.82188</ele>
        <time>2015-08-12T11:53:13.138000Z</time>
      </trkpt>
      <trkpt lat="41.783226" lon="123.39724">
        <ele>51.320896</ele>
        <time>2015-08-12T11:53:16.567000Z</time>
      </trkpt>
      <trkpt lat="41.783176" lon="123.39736">
        <ele>50.15859</ele>
        <time>2015-08-12T11:53:19.996000Z</time>
      </trkpt>
      <trkpt lat="41.783104" lon="123.397446">
        <ele>50.26495</ele>
        <time>2015-08-12T11:53:23.425000Z</time>
      </trkpt>
      <trkpt lat="41.78303" lon="123.39756">
        <ele>51.700047</ele>
        <time>2015-08-12T11:53:26.854000Z</time>
      </trkpt>
      <trkpt lat="41.78297" lon="123.39767">
        <ele>53.163418</ele>
        <time>2015-08-12T11:53:30.283000Z</time>
      </trkpt>
      <trkpt lat="41.782932" lon="123.3978">
        <ele>53.59895</ele>
        <time>2015-08-12T11:53:33.712000Z</time>
      </trkpt>
      <trkpt lat="41.782856" lon="123.3979">
        <ele>53.07607</ele>
        <time>2015-08-12T11:53:37.141000Z</time>
      </trkpt>
      <trkpt lat="41.782776" lon="123.39798">
        <ele>52.366188</ele>
        <time>2015-08-12T11:53:40.570000Z</time>
      </trkpt>
      <trkpt lat="41.782673" lon="123.39809">
        <ele>50.89256</ele>
        <time>2015-08-12T11:53:43.999000Z</time>
      </trkpt>
      <trkpt lat="41.782578" lon="123.39819">
        <ele>49.157635</ele>
        <time>2015-08-12T11:53:47.428000Z</time>
      </trkpt>
      <trkpt lat="41.78249" lon="123.39827">
        <ele>47.76092</ele>
        <time>2015-08-12T11:53:50.857000Z</time>
      </trkpt>
      <trkpt lat="41.78238" lon="123.39829">
        <ele>46.928608</ele>
        <time>2015-08-12T11:53:54.286000Z</time>
      </trkpt>
      <trkpt lat="41.782288" lon="123.39831">
        <ele>46.977043</ele>
        <time>2015-08-12T11:53:57.715000Z</time>
      </trkpt>
      <trkpt lat="41.782192" lon="123.398346">
        <ele>47.76259</ele>
        <time>2015-08-12T11:54:01.144000Z</time>
      </trkpt>
      <trkpt lat="41.7821" lon="123.39839">
        <ele>48.477665</ele>
        <time>2015-08-12T11:54:04.573000Z</time>
      </trkpt>
      <trkpt lat="41.78198" lon="123.39845">
        <ele>48.535576</ele>
        <time>2015-08-12T11:54:08.002000Z</time>
      </trkpt>
      <trkpt lat="41.781864" lon="123.398544">
        <ele>48.37538</ele>
        <time>2015-08-12T11:54:11.431000Z</time>
      </trkpt>
      <trkpt lat="41.781815" lon="123.39868">
        <ele>48.632584</ele>
        <time>2015-08-12T11:54:14.860000Z</time>
      </trkpt>
      <trkpt lat="41.781807" lon="123.398834">
        <ele>49.2658</ele>
        <time>2015-08-12T11:54:18.289000Z</time>
      </trkpt>
      <trkpt lat="41.781776" lon="123.39899">
        <ele>49.80685</ele>
        <time>2015-08-12T11:54:21.718000Z</time>
      </trkpt>
      <trkpt lat="41.781734" lon="123.39913">
        <ele>49.89511</ele>
        <time>2015-08-12T11:54:25.147000Z</time>
      </trkpt>
      <trkpt lat="41.781673" lon="123.39928">
        <ele>49.55133</ele>
        <time>2015-08-12T11:54:28.576000Z</time>
      </trkpt>
      <trkpt lat="41.781605" lon="123.399414">
        <ele>48.991318</ele>
        <time>2015-08-12T11:54:32.005000Z</time>
      </trkpt>
      <trkpt lat="41.78156" lon="123.39952">
        <ele>48.273994</ele>
        <time>2015-08-12T11:54:35.434000Z</time>
      </trkpt>
      <trkpt lat="41.78151" lon="123.39967">
        <ele>47.499985</ele>
        <time>2015-08-12T11:54:38.863000Z</time>
      </trkpt>
      <trkpt lat="41.781452" lon="123.3998">
        <ele>47.122337</ele>
        <time>2015-08-12T11:54:42.292000Z</time>
      </trkpt>
      <trkpt lat="41.781387" lon="123.39992">
        <ele>47.31488</ele>
        <time>2015-08-12T11:54:45.721000Z</time>
      </trkpt>
      <trkpt lat="41.78133" lon="123.40003">
        <ele>47.84362</ele>
        <time>2015-08-12T11:54:49.150000Z</time>
      </trkpt>
      <trkpt lat="41.781254" lon="123.40013">
        <ele>48.58052</ele>
        <time>2015-08-12T11:54:52.579000Z</time>
      </trkpt>
      <trkpt lat="41.78116" lon="123.40023">
        <ele>49.51634</ele>
        <time>2015-08-12T11:54:56.008000Z</time>
      </trkpt>
      <trkpt lat="41.781082" lon="123.400314">
        <ele>50.404247</ele>
        <time>2015-08-12T11:54:59.437000Z</time>
      </trkpt>
      <trkpt lat="41.781002" lon="123.4004">
        <ele>50.94347</ele>
        <time>2015-08-12T11:55:02.866000Z</time>
      </trkpt>
      <trkpt lat="41.780895" lon="123.40052">
        <ele>51.234135</ele>
        <time>2015-08-12T11:55:06.295000Z</time>
      </trkpt>
      <trkpt lat="41.780823" lon="123.40065">
        <ele>51.41688</ele>
        <time>2015-08-12T11:55:09.724000Z</time>
      </trkpt>
      <trkpt lat="41.780777" lon="123.400764">
        <ele>51.353672</ele>
        <time>2015-08-12T11:55:13.153000Z</time>
      </trkpt>
      <trkpt lat="41.780773" lon="123.400925">
        <ele>51.1159</ele>
        <time>2015-08-12T11:55:16.582000Z</time>
      </trkpt>
      <trkpt lat="41.780807" lon="123.40106">
        <ele>51.093285</ele>
        <time>2015-08-12T11:55:20.011000Z</time>
      </trkpt>
      <trkpt lat="41.78087" lon="123.40119">
        <ele>51.400013</ele>
        <time>2015-08-12T11:55:23.440000Z</time>
      </trkpt>
      <trkpt lat="41.78094" lon="123.40128">
        <ele>52.328</ele>
        <time>2015-08-12T11:55:26.869000Z</time>
      </trkpt>
      <trkpt lat="41.78101" lon="123.40136">
        <ele>54.100544</ele>
        <time>2015-08-12T11:55:30.298000Z</time>
      </trkpt>
      <trkpt lat="41.781086" lon="123.40145">
        <ele>55.977734</ele>
        <time>2015-08-12T11:55:33.727000Z</time>
      </trkpt>
      <trkpt lat="41.781162" lon="123.40156">
        <ele>57.022457</ele>
        <time>2015-08-12T11:55:37.156000Z</time>
      </trkpt>
      <trkpt lat="41.78125" lon="123.40166">
        <ele>57.411377</ele>
        <time>2015-08-12T11:55:40.585000Z</time>
      </trkpt>
      <trkpt lat="41.781338" lon="123.40177">
        <ele>57.662155</ele>
        <time>2015-08-12T11:55:44.014000Z</time>
      </trkpt>
      <trkpt lat="41.781433" lon="123.40185">
        <ele>57.878098</ele>
        <time>2015-08-12T11:55:47.443000Z</time>
      </trkpt>
      <trkpt lat="41.78155" lon="123.40193">
        <ele>58.1072</ele>
        <time>2015-08-12T11:55:50.872000Z</time>
      </trkpt>
      <trkpt lat="41.781673" lon="123.40204">
        <ele>58.61212</ele>
        <time>2015-08-12T11:55:54.301000Z</time>
      </trkpt>
      <trkpt lat="41.781796" lon="123.40214">
        <ele>59.8734</ele>
        <time>2015-08-12T11:55:57.730000Z</time>
      </trkpt>
      <trkpt lat="41.781895" lon="123.40217">
        <ele>61.978283</ele>
        <time>2015-08-12T11:56:01.159000Z</time>
      </trkpt>
      <trkpt lat="41.782005" lon="123.40223">
        <ele>64.010414</ele>
        <time>2015-08-12T11:56:04.588000Z</time>
      </trkpt>
      <trkpt lat="41.782112" lon="123.40228">
        <ele>64.93878</ele>
        <time>2015-08-12T11:56:08.017000Z</time>
      </trkpt>
      <trkpt lat="41.782227" lon="123.40228">
        <ele>64.801895</ele>
        <time>2015-08-12T11:56:11.446000Z</time>
      </trkpt>
      <trkpt lat="41.782337" lon="123.402214">
        <ele>64.1581</ele>
        <time>2015-08-12T11:56:14.875000Z</time>
      </trkpt>
      <trkpt lat="41.78245" lon="123.40214">
        <ele>63.45699</ele>
        <time>2015-08-12T11:56:18.304000Z</time>
      </trkpt>
      <trkpt lat="41.78258" lon="123.402054">
        <ele>62.97504</ele>
        <time>2015-08-12T11:56:21.732000Z</time>
      </trkpt>
      <trkpt lat="41.782665" lon="123.40201">
        <ele>62.81239</ele>
        <time>2015-08-12T11:56:25.160000Z</time>
      </trkpt>
      <trkpt lat="41.78276" lon="123.40195">
        <ele>62.8274</ele>
        <time>2015-08-12T11:56:28.588000Z</time>
      </trkpt>
      <trkpt lat="41.78285" lon="123.40189">
        <ele>62.608677</ele>
        <time>2015-08-12T11:56:32.016000Z</time>
      </trkpt>
      <trkpt lat="41.78297" lon="123.401825">
        <ele>61.789772</ele>
        <time>2015-08-12T11:56:35.444000Z</time>
      </trkpt>
      <trkpt lat="41.783085" lon="123.40176">
        <ele>60.565784</ele>
        <time>2015-08-12T11:56:38.872000Z</time>
      </trkpt>
      <trkpt lat="41.78318" lon="123.40169">
        <ele>59.484543</ele>
        <time>2015-08-12T11:56:42.300000Z</time>
      </trkpt>
      <trkpt lat="41.78327" lon="123.40162">
        <ele>58.882053</ele>
        <time>2015-08-12T11:56:45.728000Z</time>
      </trkpt>
      <trkpt lat="41.783375" lon="123.40156">
        <ele>58.598892</ele>
        <time>2015-08-12T11:56:49.156000Z</time>
      </trkpt>
      <trkpt lat="41.783493" lon="123.40148">
        <ele>58.30164</ele>
        <time>2015-08-12T11:56:52.584000Z</time>
      </trkpt>
      <trkpt lat="41.783592" lon="123.401405">
        <ele>57.467907</ele>
        <time>2015-08-12T11:56:56.012000Z</time>
      </trkpt>
      <trkpt lat="41.78369" lon="123.40136">
        <ele>55.90171</ele>
        <time>2015-08-12T11:56:59.440000Z</time>
      </trkpt>
      <trkpt lat="41.783802" lon="123.4013">
        <ele>54.408825</ele>
        <time>2015-08-12T11:57:02.868000Z</time>
      </trkpt>
      <trkpt lat="41.783924" lon="123.401215">
        <ele>53.732468</ele>
        <time>2015-08-12T11:57:06.296000Z</time>
      </trkpt>
      <trkpt lat="41.78405" lon="123.40111">
        <ele>53.649227</ele>
        <time>2015-08-12T11:57:09.724000Z</time>
      </trkpt>
      <trkpt lat="41.784176" lon="123.401">
        <ele>53.779343</ele>
        <time>2015-08-12T11:57:13.152000Z</time>
      </trkpt>
      <trkpt lat="41.78425" lon="123.40093">
        <ele>53.9009</ele>
        <time>2015-08-12T11:57:16.580000Z</time>
      </trkpt>
      <trkpt lat="41.78435" lon="123.40082">
        <ele>54.093414</ele>
        <time>2015-08-12T11:57:20.008000Z</time>
      </trkpt>
      <trkpt lat="41.784424" lon="123.40074">
        <ele>54.45953</ele>
        <time>2015-08-12T11:57:23.436000Z</time>
      </trkpt>
      <trkpt lat="41.78452" lon="123.40061">
        <ele>54.679985</ele>
        <time>2015-08-12T11:57:26.864000Z</time>
      </trkpt>
      <trkpt lat="41.784645" lon="123.40051">
        <ele>54.48546</ele>
        <time>2015-08-12T11:57:30.292000Z</time>
      </trkpt>
      <trkpt lat="41.784706" lon="123.4004">
        <ele>54.00001</ele>
        <time>2015-08-12T11:57:33.720000Z</time>
      </trkpt>
      <trkpt lat="41.78474" lon="123.40026">
        <ele>53.57259</ele>
        <time>2015-08-12T11:57:37.148000Z</time>
      </trkpt>
      <trkpt lat="41.78478" lon="123.40012">
        <ele>53.507305</ele>
        <time>2015-08-12T11:57:40.576000Z</time>
      </trkpt>
      <trkpt lat="41.78483" lon="123.39997">
        <ele>53.99453</ele>
        <time>2015-08-12T11:57:44.004000Z</time>
      </trkpt>
      <trkpt lat="41.78486" lon="123.39982">
        <ele>54.891483</ele>
        <time>2015-08-12T11:57:47.432000Z</time>
      </trkpt>
      <trkpt lat="41.784885" lon="123.39968">
        <ele>55.42714</ele>
        <time>2015-08-12T11:57:50.860000Z</time>
      </trkpt>
      <trkpt lat="41.784924" lon="123.39953">
        <ele>55.062397</ele>
        <time>2015-08-12T11:57:54.288000Z</time>
      </trkpt>
      <trkpt lat="41.784973" lon="123.39939">
        <ele>54.497326</ele>
        <time>2015-08-12T11:57:57.716000Z</time>
      </trkpt>
      <trkpt lat="41.78503" lon="123.399254">
        <ele>54.432323</ele>
        <time>2015-08-12T11:58:01.144000Z</time>
      </trkpt>
      <trkpt lat="41.78512" lon="123.399124">
        <ele>54.12991</ele>
        <time>2015-08-12T11:58:04.572000Z</time>
      </trkpt>
      <trkpt lat="41.785202" lon="123.39905">
        <ele>52.7589</ele>
        <time>2015-08-12T11:58:08Z</time>
      </trkpt>
      <trkpt lat="41.785282" lon="123.39899">
        <ele>49.62363</ele>
        <time>2015-08-12T11:58:11.428000Z</time>
      </trkpt>
      <trkpt lat="41.785343" lon="123.39884">
        <ele>44.820423</ele>
        <time>2015-08-12T11:58:14.856000Z</time>
      </trkpt>
      <trkpt lat="41.785385" lon="123.39869">
        <ele>40.049576</ele>
        <time>2015-08-12T11:58:18.284000Z</time>
      </trkpt>
      <trkpt lat="41.785397" lon="123.39857">
        <ele>36.924465</ele>
        <time>2015-08-12T11:58:21.712000Z</time>
      </trkpt>
      <trkpt lat="41.785374" lon="123.39839">
        <ele>35.51927</ele>
        <time>2015-08-12T11:58:25.140000Z</time>
      </trkpt>
      <trkpt lat="41.78528" lon="123.3982">
        <ele>35.49121</ele>
        <time>2015-08-12T11:58:28.568000Z</time>
      </trkpt>
      <trkpt lat="41.7852" lon="123.39804">
        <ele>36.126465</ele>
        <time>2015-08-12T11:58:31.996000Z</time>
      </trkpt>
      <trkpt lat="41.78514" lon="123.39793">
        <ele>37.303043</ele>
        <time>2015-08-12T11:58:35.424000Z</time>
      </trkpt>
      <trkpt lat="41.785027" lon="123.39778">
        <ele>39.58345</ele>
        <time>2015-08-12T11:58:38.852000Z</time>
      </trkpt>
      <trkpt lat="41.784943" lon="123.397705">
        <ele>42.9542</ele>
        <time>2015-08-12T11:58:42.280000Z</time>
      </trkpt>
      <trkpt lat="41.78486" lon="123.39764">
        <time>2015-08-12T11:58:45.708000Z</time>
      </trkpt>
    </trkseg>
  </trk>
</gpx>