<?xml version="1.0" encoding="UTF-8"?>
<gpx xmlns="http://www.topografix.com/GPX/1/1" xmlns:gpxtpx="http://www.garmin.com/xmlschemas/TrackPointExtension/v1" xmlns:xsi="http://www.w3.org/2001/XMLSchema-instance" xsi:schemaLocation="http://www.topografix.com/GPX/1/1 http://www.topografix.com/GPX/1/1/gpx.xsd" version="1.1" creator="gpx.py -- https://github.com/tkrajina/gpxpy">
  <trk>
    <trkseg>
      <trkpt lat="41.785027" lon="123.39775">
        <ele>61.92272</ele>
        <time>2015-09-17T10:15:47.788000Z</time>
      </trkpt>
      <trkpt lat="41.785015" lon="123.39773">
        <ele>61.922848</ele>
        <time>2015-09-17T10:15:50.936000Z</time>
      </trkpt>
      <trkpt lat="41.784946" lon="123.39765">
        <ele>61.925983</ele>
        <time>2015-09-17T10:15:54.084000Z</time>
      </trkpt>
      <trkpt lat="41.784946" lon="123.39765">
        <ele>61.918076</ele>
        <time>2015-09-17T10:15:57.232000Z</time>
      </trkpt>
      <trkpt lat="41.784863" lon="123.39757">
        <ele>61.211628</ele>
        <time>2015-09-17T10:16:00.380000Z</time>
      </trkpt>
      <trkpt lat="41.784775" lon="123.39747">
        <ele>59.549618</ele>
        <time>2015-09-17T10:16:03.528000Z</time>
      </trkpt>
      <trkpt lat="41.78469" lon="123.39741">
        <ele>58.07645</ele>
        <time>2015-09-17T10:16:06.676000Z</time>
      </trkpt>
      <trkpt lat="41.784584" lon="123.39738">
        <ele>57.5804</ele>
        <time>2015-09-17T10:16:09.824000Z</time>
      </trkpt>
      <trkpt lat="41.78449" lon="123.3973">
        <ele>57.7653</ele>
        <time>2015-09-17T10:16:12.972000Z</time>
      </trkpt>
      <trkpt lat="41.784393" lon="123.39724">
        <ele>58.439842</ele>
        <time>2015-09-17T10:16:16.120000Z</time>
      </trkpt>
      <trkpt lat="41.784298" lon="123.397194">
        <ele>59.28856</ele>
        <time>2015-09-17T10:16:19.268000Z</time>
      </trkpt>
      <trkpt lat="41.784187" lon="123.39725">
        <ele>60.01093</ele>
        <time>2015-09-17T10:16:22.416000Z</time>
      </trkpt>
      <trkpt lat="41.7841" lon="123.397316">
        <ele>60.568295</ele>
        <time>2015-09-17T10:16:25.564000Z</time>
      </trkpt>
      <trkpt lat="41.784004" lon="123.39724">
        <ele>61.19613</ele>
        <time>2015-09-17T10:16:28.712000Z</time>
      </trkpt>
      <trkpt lat="41.783916" lon="123.39719">
        <ele>62.021408</ele>
        <time>2015-09-17T10:16:31.860000Z</time>
      </trkpt>
      <trkpt lat="41.78382" lon="123.39719">
        <ele>62.73946</ele>
        <time>2015-09-17T10:16:35.008000Z</time>
      </trkpt>
      <trkpt lat="41.783714" lon="123.39718">
        <ele>62.906094</ele>
        <time>2015-09-17T10:16:38.156000Z</time>
      </trkpt>
      <trkpt lat="41.78362" lon="123.39718">
        <ele>62.57082</ele>
        <time>2015-09-17T10:16:41.304000Z</time>
      </trkpt>
      <trkpt lat="41.78352" lon="123.3972">
        <ele>61.856693</ele>
        <time>2015-09-17T10:16:44.452000Z</time>
      </trkpt>
      <trkpt lat="41.783413" lon="123.39718">
        <ele>60.488716</ele>
        <time>2015-09-17T10:16:47.600000Z</time>
      </trkpt>
      <trkpt lat="41.783314" lon="123.39724">
        <ele>58.619194</ele>
        <time>2015-09-17T10:16:50.748000Z</time>
      </trkpt>
      <trkpt lat="41.783215" lon="123.39728">
        <ele>57.050434</ele>
        <time>2015-09-17T10:16:53.896000Z</time>
      </trkpt>
      <trkpt lat="41.78313" lon="123.39733">
        <ele>56.00928</ele>
        <time>2015-09-17T10:16:57.044000Z</time>
      </trkpt>
      <trkpt lat="41.78304" lon="123.39742">
        <ele>55.279182</ele>
        <time>2015-09-17T10:17:00.192000Z</time>
      </trkpt>
      <trkpt lat="41.78297" lon="123.39753">
        <ele>54.888638</ele>
        <time>2015-09-17T10:17:03.340000Z</time>
      </trkpt>
      <trkpt lat="41.782932" lon="123.397644">
        <ele>54.52663</ele>
        <time>2015-09-17T10:17:06.488000Z</time>
      </trkpt>
      <trkpt lat="41.78289" lon="123.39779">
        <ele>53.715538</ele>
        <time>2015-09-17T10:17:09.636000Z</time>
      </trkpt>
      <trkpt lat="41.782818" lon="123.397865">
        <ele>52.676422</ele>
        <time>2015-09-17T10:17:12.784000Z</time>
      </trkpt>
      <trkpt lat="41.782753" lon="123.39797">
        <ele>51.849785</ele>
        <time>2015-09-17T10:17:15.932000Z</time>
      </trkpt>
      <trkpt lat="41.78268" lon="123.39808">
        <ele>51.130085</ele>
        <time>2015-09-17T10:17:19.080000Z</time>
      </trkpt>
      <trkpt lat="41.782616" lon="123.39819">
        <ele>50.292076</ele>
        <time>2015-09-17T10:17:22.228000Z</time>
      </trkpt>
      <trkpt lat="41.78255" lon="123.39829">
        <ele>49.196465</ele>
        <time>2015-09-17T10:17:25.376000Z</time>
      </trkpt>
      <trkpt lat="41.782455" lon="123.39834">
        <ele>47.823036</ele>
        <time>2015-09-17T10:17:28.524000Z</time>
      </trkpt>
      <trkpt lat="41.78235" lon="123.39833">
        <ele>46.570084</ele>
        <time>2015-09-17T10:17:31.672000Z</time>
      </trkpt>
      <trkpt lat="41.782238" lon="123.39834">
        <ele>45.881054</ele>
        <time>2015-09-17T10:17:34.820000Z</time>
      </trkpt>
      <trkpt lat="41.782143" lon="123.39841">
        <ele>45.996273</ele>
        <time>2015-09-17T10:17:37.968000Z</time>
      </trkpt>
      <trkpt lat="41.78205" lon="123.398476">
        <ele>47.20574</ele>
        <time>2015-09-17T10:17:41.116000Z</time>
      </trkpt>
      <trkpt lat="41.781963" lon="123.39852">
        <ele>49.126713</ele>
        <time>2015-09-17T10:17:44.264000Z</time>
      </trkpt>
      <trkpt lat="41.78188" lon="123.39857">
        <ele>50.502968</ele>
        <time>2015-09-17T10:17:47.412000Z</time>
      </trkpt>
      <trkpt lat="41.781803" lon="123.398674">
        <ele>50.73455</ele>
        <time>2015-09-17T10:17:50.560000Z</time>
      </trkpt>
      <trkpt lat="41.781803" lon="123.398674">
        <ele>50.378387</ele>
        <time>2015-09-17T10:17:53.708000Z</time>
      </trkpt>
      <trkpt lat="41.78176" lon="123.39878">
        <ele>49.768227</ele>
        <time>2015-09-17T10:17:56.856000Z</time>
      </trkpt>
      <trkpt lat="41.78176" lon="123.398926">
        <ele>49.175266</ele>
        <time>2015-09-17T10:18:00.004000Z</time>
      </trkpt>
      <trkpt lat="41.78176" lon="123.398926">
        <ele>49.024887</ele>
        <time>2015-09-17T10:18:03.152000Z</time>
      </trkpt>
      <trkpt lat="41.781746" lon="123.39906">
        <ele>49.259953</ele>
        <time>2015-09-17T10:18:06.300000Z</time>
      </trkpt>
      <trkpt lat="41.781723" lon="123.39919">
        <ele>49.853073</ele>
        <time>2015-09-17T10:18:09.448000Z</time>
      </trkpt>
      <trkpt lat="41.781715" lon="123.399345">
        <ele>50.85804</ele>
        <time>2015-09-17T10:18:12.596000Z</time>
      </trkpt>
      <trkpt lat="41.78167" lon="123.399475">
        <ele>51.306572</ele>
        <time>2015-09-17T10:18:15.744000Z</time>
      </trkpt>
      <trkpt lat="41.781605" lon="123.39957">
        <ele>50.58955</ele>
        <time>2015-09-17T10:18:18.892000Z</time>
      </trkpt>
      <trkpt lat="41.78153" lon="123.399666">
        <ele>49.7844</ele>
        <time>2015-09-17T10:18:22.040000Z</time>
      </trkpt>
      <trkpt lat="41.781456" lon="123.399765">
        <ele>50.033405</ele>
        <time>2015-09-17T10:18:25.188000Z</time>
      </trkpt>
      <trkpt lat="41.781384" lon="123.39987">
        <ele>51.25875</ele>
        <time>2015-09-17T10:18:28.336000Z</time>
      </trkpt>
      <trkpt lat="41.781307" lon="123.39996">
        <ele>52.759373</ele>
        <time>2015-09-17T10:18:31.484000Z</time>
      </trkpt>
      <trkpt lat="41.781227" lon="123.4001">
        <ele>53.953197</ele>
        <time>2015-09-17T10:18:34.632000Z</time>
      </trkpt>
      <trkpt lat="41.781155" lon="123.40024">
        <ele>54.67934</ele>
        <time>2015-09-17T10:18:37.780000Z</time>
      </trkpt>
      <trkpt lat="41.781082" lon="123.400314">
        <ele>55.714294</ele>
        <time>2015-09-17T10:18:40.928000Z</time>
      </trkpt>
      <trkpt lat="41.781006" lon="123.40041">
        <ele>57.565586</ele>
        <time>2015-09-17T10:18:44.076000Z</time>
      </trkpt>
      <trkpt lat="41.780968" lon="123.400536">
        <ele>59.768238</ele>
        <time>2015-09-17T10:18:47.224000Z</time>
      </trkpt>
      <trkpt lat="41.780926" lon="123.40066">
        <ele>61.665043</ele>
        <time>2015-09-17T10:18:50.372000Z</time>
      </trkpt>
      <trkpt lat="41.780865" lon="123.40077">
        <ele>62.878326</ele>
        <time>2015-09-17T10:18:53.520000Z</time>
      </trkpt>
      <trkpt lat="41.780796" lon="123.40086">
        <ele>63.250233</ele>
        <time>2015-09-17T10:18:56.668000Z</time>
      </trkpt>
      <trkpt lat="41.780724" lon="123.400955">
        <ele>63.1842</ele>
        <time>2015-09-17T10:18:59.816000Z</time>
      </trkpt>
      <trkpt lat="41.780704" lon="123.401115">
        <ele>62.890404</ele>
        <time>2015-09-17T10:19:02.964000Z</time>
      </trkpt>
      <trkpt lat="41.780727" lon="123.401245">
        <ele>62.432304</ele>
        <time>2015-09-17T10:19:06.112000Z</time>
      </trkpt>
      <trkpt lat="41.780823" lon="123.401375">
        <ele>62.033363</ele>
        <time>2015-09-17T10:19:09.260000Z</time>
      </trkpt>
      <trkpt lat="41.781017" lon="123.40144">
        <ele>61.725716</ele>
        <time>2015-09-17T10:19:12.408000Z</time>
      </trkpt>
      <trkpt lat="41.781105" lon="123.40148">
        <ele>59.970276</ele>
        <time>2015-09-17T10:19:15.556000Z</time>
      </trkpt>
      <trkpt lat="41.78119" lon="123.401566">
        <ele>55.48714</ele>
        <time>2015-09-17T10:19:18.704000Z</time>
      </trkpt>
      <trkpt lat="41.78129" lon="123.401665">
        <ele>50.21041</ele>
        <time>2015-09-17T10:19:21.852000Z</time>
      </trkpt>
      <trkpt lat="41.781364" lon="123.40173">
        <ele>47.105297</ele>
        <time>2015-09-17T10:19:25Z</time>
      </trkpt>
      <trkpt lat="41.781456" lon="123.40181">
        <ele>46.529804</ele>
        <time>2015-09-17T10:19:28.148000Z</time>
      </trkpt>
      <trkpt lat="41.78153" lon="123.4019">
        <ele>47.119946</ele>
        <time>2015-09-17T10:19:31.296000Z</time>
      </trkpt>
      <trkpt lat="41.78162" lon="123.40198">
        <ele>47.727688</ele>
        <time>2015-09-17T10:19:34.444000Z</time>
      </trkpt>
      <trkpt lat="41.78175" lon="123.401985">
        <ele>48.569252</ele>
        <time>2015-09-17T10:19:37.592000Z</time>
      </trkpt>
      <trkpt lat="41.781864" lon="123.40202">
        <ele>50.05287</ele>
        <time>2015-09-17T10:19:40.740000Z</time>
      </trkpt>
      <trkpt lat="41.781967" lon="123.40205">
        <ele>51.75779</ele>
        <time>2015-09-17T10:19:43.888000Z</time>
      </trkpt>
      <trkpt lat="41.78205" lon="123.40212">
        <ele>52.852734</ele>
        <time>2015-09-17T10:19:47.036000Z</time>
      </trkpt>
      <trkpt lat="41.78215" lon="123.40219">
        <ele>53.092884</ele>
        <time>2015-09-17T10:19:50.184000Z</time>
      </trkpt>
      <trkpt lat="41.782257" lon="123.40223">
        <ele>52.941124</ele>
        <time>2015-09-17T10:19:53.332000Z</time>
      </trkpt>
      <trkpt lat="41.78233" lon="123.40231">
        <ele>52.896763</ele>
        <time>2015-09-17T10:19:56.480000Z</time>
      </trkpt>
      <trkpt lat="41.782433" lon="123.40227">
        <ele>52.768463</ele>
        <time>2015-09-17T10:19:59.628000Z</time>
      </trkpt>
      <trkpt lat="41.78254" lon="123.40223">
        <ele>52.428642</ele>
        <time>2015-09-17T10:20:02.776000Z</time>
      </trkpt>
      <trkpt lat="41.78263" lon="123.40219">
        <ele>52.071484</ele>
        <time>2015-09-17T10:20:05.924000Z</time>
      </trkpt>
      <trkpt lat="41.78272" lon="123.40211">
        <ele>52.590626</ele>
        <time>2015-09-17T10:20:09.072000Z</time>
      </trkpt>
      <trkpt lat="41.782803" lon="123.40205">
        <ele>54.500877</ele>
        <time>2015-09-17T10:20:12.220000Z</time>
      </trkpt>
      <trkpt lat="41.78288" lon="123.40197">
        <ele>56.736286</ele>
        <time>2015-09-17T10:20:15.368000Z</time>
      </trkpt>
      <trkpt lat="41.782967" lon="123.401886">
        <ele>58.01114</ele>
        <time>2015-09-17T10:20:18.516000Z</time>
      </trkpt>
      <trkpt lat="41.783054" lon="123.40184">
        <ele>57.78016</ele>
        <time>2015-09-17T10:20:21.664000Z</time>
      </trkpt>
      <trkpt lat="41.783096" lon="123.40173">
        <ele>56.219284</ele>
        <time>2015-09-17T10:20:24.812000Z</time>
      </trkpt>
      <trkpt lat="41.783195" lon="123.401665">
        <ele>54.83502</ele>
        <time>2015-09-17T10:20:27.960000Z</time>
      </trkpt>
      <trkpt lat="41.783295" lon="123.401634">
        <ele>54.750793</ele>
        <time>2015-09-17T10:20:31.108000Z</time>
      </trkpt>
      <trkpt lat="41.783413" lon="123.401566">
        <ele>54.943695</ele>
        <time>2015-09-17T10:20:34.256000Z</time>
      </trkpt>
      <trkpt lat="41.78353" lon="123.40151">
        <ele>54.344784</ele>
        <time>2015-09-17T10:20:37.404000Z</time>
      </trkpt>
      <trkpt lat="41.783646" lon="123.40147">
        <ele>53.563107</ele>
        <time>2015-09-17T10:20:40.552000Z</time>
      </trkpt>
      <trkpt lat="41.783722" lon="123.4014">
        <ele>53.6783</ele>
        <time>2015-09-17T10:20:43.700000Z</time>
      </trkpt>
      <trkpt lat="41.783775" lon="123.401276">
        <ele>54.637787</ele>
        <time>2015-09-17T10:20:46.848000Z</time>
      </trkpt>
      <trkpt lat="41.78386" lon="123.40122">
        <ele>55.602825</ele>
        <time>2015-09-17T10:20:49.996000Z</time>
      </trkpt>
      <trkpt lat="41.783974" lon="123.40118">
        <ele>55.916946</ele>
        <time>2015-09-17T10:20:53.144000Z</time>
      </trkpt>
      <trkpt lat="41.784092" lon="123.40111">
        <ele>55.484024</ele>
        <time>2015-09-17T10:20:56.292000Z</time>
      </trkpt>
      <trkpt lat="41.7842" lon="123.40103">
        <ele>54.67482</ele>
        <time>2015-09-17T10:20:59.440000Z</time>
      </trkpt>
      <trkpt lat="41.784306" lon="123.40095">
        <ele>54.051495</ele>
        <time>2015-09-17T10:21:02.588000Z</time>
      </trkpt>
      <trkpt lat="41.784374" lon="123.40086">
        <ele>53.53698</ele>
        <time>2015-09-17T10:21:05.736000Z</time>
      </trkpt>
      <trkpt lat="41.784435" lon="123.40076">
        <ele>52.401173</ele>
        <time>2015-09-17T10:21:08.884000Z</time>
      </trkpt>
      <trkpt lat="41.78452" lon="123.400635">
        <ele>50.51119</ele>
        <time>2015-09-17T10:21:12.032000Z</time>
      </trkpt>
      <trkpt lat="41.78457" lon="123.400505">
        <ele>48.743076</ele>
        <time>2015-09-17T10:21:15.180000Z</time>
      </trkpt>
      <trkpt lat="41.78462" lon="123.40039">
        <ele>47.81384</ele>
        <time>2015-09-17T10:21:18.328000Z</time>
      </trkpt>
      <trkpt lat="41.78466" lon="123.40026">
        <ele>47.61886</ele>
        <time>2015-09-17T10:21:21.476000Z</time>
      </trkpt>
      <trkpt lat="41.784695" lon="123.400116">
        <ele>47.737</ele>
        <time>2015-09-17T10:21:24.624000Z</time>
      </trkpt>
      <trkpt lat="41.784718" lon="123.399994">
        <ele>47.881393</ele>
        <time>2015-09-17T10:21:27.772000Z</time>
      </trkpt>
      <trkpt lat="41.784737" lon="123.39984">
        <ele>48.09449</ele>
        <time>2015-09-17T10:21:30.920000Z</time>
      </trkpt>
      <trkpt lat="41.784748" lon="123.399704">
        <ele>48.88411</ele>
        <time>2015-09-17T10:21:34.068000Z</time>
      </trkpt>
      <trkpt lat="41.784756" lon="123.39958">
        <ele>50.323303</ele>
        <time>2015-09-17T10:21:37.216000Z</time>
      </trkpt>
      <trkpt lat="41.784805" lon="123.39945">
        <ele>51.4569</ele>
        <time>2015-09-17T10:21:40.364000Z</time>
      </trkpt>
      <trkpt lat="41.784847" lon="123.39932">
        <ele>51.643284</ele>
        <time>2015-09-17T10:21:43.512000Z</time>
      </trkpt>
      <trkpt lat="41.784885" lon="123.39921">
        <ele>52.15134</ele>
        <time>2015-09-17T10:21:46.660000Z</time>
      </trkpt>
      <trkpt lat="41.784935" lon="123.39911">
        <ele>54.016197</ele>
        <time>2015-09-17T10:21:49.808000Z</time>
      </trkpt>
      <trkpt lat="41.784985" lon="123.399">
        <ele>56.102818</ele>
        <time>2015-09-17T10:21:52.956000Z</time>
      </trkpt>
      <trkpt lat="41.78504" lon="123.39889">
        <ele>57.416904</ele>
        <time>2015-09-17T10:21:56.104000Z</time>
      </trkpt>
      <trkpt lat="41.785095" lon="123.39876">
        <ele>58.46068</ele>
        <time>2015-09-17T10:21:59.252000Z</time>
      </trkpt>
      <trkpt lat="41.78514" lon="123.39865">
        <ele>59.403492</ele>
        <time>2015-09-17T10:22:02.400000Z</time>
      </trkpt>
      <trkpt lat="41.785202" lon="123.398544">
        <ele>59.95324</ele>
        <time>2015-09-17T10:22:05.548000Z</time>
      </trkpt>
      <trkpt lat="41.78521" lon="123.39841">
        <ele>59.821648</ele>
        <time>2015-09-17T10:22:08.696000Z</time>
      </trkpt>
      <trkpt lat="41.785175" lon="123.39827">
        <ele>59.054085</ele>
        <time>2015-09-17T10:22:11.844000Z</time>
      </trkpt>
      <trkpt lat="41.78513" lon="123.39813">
        <ele>58.23804</ele>
        <time>2015-09-17T10:22:14.992000Z</time>
      </trkpt>
      <trkpt lat="41.785072" lon="123.39801">
        <ele>57.843098</ele>
        <time>2015-09-17T10:22:18.140000Z</time>
      </trkpt>
      <trkpt lat="41.785015" lon="123.39786">
        <ele>57.9168</ele>
        <time>2015-09-17T10:22:21.288000Z</time>
      </trkpt>
      <trkpt lat="41.78497" lon="123.397736">
        <ele>57.926205</ele>
        <time>2015-09-17T10:22:24.436000Z</time>
      </trkpt>
      <trkpt lat="41.784916" lon="123.39764">
        <ele>57.420673</ele>
        <time>2015-09-17T10:22:27.584000Z</time>
      </trkpt>
      <trkpt lat="41.784843" lon="123.39753">
        <ele>56.879303</ele>
        <time>2015-09-17T10:22:30.732000Z</time>
      </trkpt>
      <trkpt lat="41.784748" lon="123.39745">
        <ele>56.754425</ele>
        <time>2015-09-17T10:22:33.880000Z</time>
      </trkpt>
      <trkpt lat="41.78465" lon="123.39743">
        <ele>56.81477</ele>
        <time>2015-09-17T10:22:37.028000Z</time>
      </trkpt>
      <trkpt lat="41.784554" lon="123.397415">
        <ele>56.89573</ele>
        <time>2015-09-17T10:22:40.176000Z</time>
      </trkpt>
      <trkpt lat="41.784466" lon="123.39736">
        <ele>56.66306</ele>
        <time>2015-09-17T10:22:43.324000Z</time>
      </trkpt>
      <trkpt lat="41.784386" lon="123.397285">
        <ele>55.6767</ele>
        <time>2015-09-17T10:22:46.472000Z</time>
      </trkpt>
      <trkpt lat="41.784294" lon="123.3972">
        <ele>54.074776</ele>
        <time>2015-09-17T10:22:49.620000Z</time>
      </trkpt>
      <trkpt lat="41.784184" lon="123.3972">
        <ele>52.618877</ele>
        <time>2015-09-17T10:22:52.768000Z</time>
      </trkpt>
      <trkpt lat="41.784096" lon="123.39731">
        <ele>51.842335</ele>
        <time>2015-09-17T10:22:55.916000Z</time>
      </trkpt>
      <trkpt lat="41.784004" lon="123.39731">
        <ele>52.087753</ele>
        <time>2015-09-17T10:22:59.064000Z</time>
      </trkpt>
      <trkpt lat="41.7839" lon="123.397224">
        <ele>53.399696</ele>
        <time>2015-09-17T10:23:02.212000Z</time>
      </trkpt>
      <trkpt lat="41.783745" lon="123.39722">
        <ele>54.986828</ele>
        <time>2015-09-17T10:23:05.360000Z</time>
      </trkpt>
      <trkpt lat="41.783672" lon="123.39714">
        <ele>55.806496</ele>
        <time>2015-09-17T10:23:08.508000Z</time>
      </trkpt>
      <trkpt lat="41.783554" lon="123.39712">
        <ele>55.02377</ele>
        <time>2015-09-17T10:23:11.656000Z</time>
      </trkpt>
      <trkpt lat="41.78343" lon="123.39715">
        <ele>52.783535</ele>
        <time>2015-09-17T10:23:14.804000Z</time>
      </trkpt>
      <trkpt lat="41.783318" lon="123.39721">
        <ele>50.631077</ele>
        <time>2015-09-17T10:23:17.952000Z</time>
      </trkpt>
      <trkpt lat="41.78321" lon="123.39729">
        <ele>49.650795</ele>
        <time>2015-09-17T10:23:21.100000Z</time>
      </trkpt>
      <trkpt lat="41.78314" lon="123.3974">
        <ele>49.665115</ele>
        <time>2015-09-17T10:23:24.248000Z</time>
      </trkpt>
      <trkpt lat="41.783047" lon="123.3975">
        <ele>50.211178</ele>
        <time>2015-09-17T10:23:27.396000Z</time>
      </trkpt>
      <trkpt lat="41.78296" lon="123.397575">
        <ele>50.755898</ele>
        <time>2015-09-17T10:23:30.544000Z</time>
      </trkpt>
      <trkpt lat="41.782875" lon="123.39766">
        <ele>51.148098</ele>
        <time>2015-09-17T10:23:33.692000Z</time>
      </trkpt>
      <trkpt lat="41.782787" lon="123.397804">
        <ele>51.681984</ele>
        <time>2015-09-17T10:23:36.840000Z</time>
      </trkpt>
      <trkpt lat="41.782722" lon="123.39797">
        <ele>52.64222</ele>
        <time>2015-09-17T10:23:39.988000Z</time>
      </trkpt>
      <trkpt lat="41.782635" lon="123.39808">
        <ele>53.862324</ele>
        <time>2015-09-17T10:23:43.136000Z</time>
      </trkpt>
      <trkpt lat="41.78256" lon="123.39819">
        <ele>54.368027</ele>
        <time>2015-09-17T10:23:46.284000Z</time>
      </trkpt>
      <trkpt lat="41.78249" lon="123.39828">
        <ele>53.632706</ele>
        <time>2015-09-17T10:23:49.432000Z</time>
      </trkpt>
      <trkpt lat="41.782375" lon="123.398346">
        <ele>52.659325</ele>
        <time>2015-09-17T10:23:52.580000Z</time>
      </trkpt>
      <trkpt lat="41.782272" lon="123.3984">
        <ele>52.669228</ele>
        <time>2015-09-17T10:23:55.728000Z</time>
      </trkpt>
      <trkpt lat="41.78216" lon="123.39842">
        <ele>53.604164</ele>
        <time>2015-09-17T10:23:58.876000Z</time>
      </trkpt>
      <trkpt lat="41.782047" lon="123.39843">
        <ele>54.58074</ele>
        <time>2015-09-17T10:24:02.024000Z</time>
      </trkpt>
      <trkpt lat="41.781944" lon="123.39848">
        <ele>55.04871</ele>
        <time>2015-09-17T10:24:05.172000Z</time>
      </trkpt>
      <trkpt lat="41.781853" lon="123.39853">
        <ele>55.122356</ele>
        <time>2015-09-17T10:24:08.320000Z</time>
      </trkpt>
      <trkpt lat="41.781788" lon="123.39865">
        <ele>55.044403</ele>
        <time>2015-09-17T10:24:11.468000Z</time>
      </trkpt>
      <trkpt lat="41.781757" lon="123.39881">
        <ele>54.964798</ele>
        <time>2015-09-17T10:24:14.616000Z</time>
      </trkpt>
      <trkpt lat="41.781734" lon="123.39895">
        <ele>55.203506</ele>
        <time>2015-09-17T10:24:17.764000Z</time>
      </trkpt>
      <trkpt lat="41.781704" lon="123.39912">
        <ele>56.05584</ele>
        <time>2015-09-17T10:24:20.912000Z</time>
      </trkpt>
      <trkpt lat="41.78165" lon="123.399254">
        <ele>57.299274</ele>
        <time>2015-09-17T10:24:24.060000Z</time>
      </trkpt>
      <trkpt lat="41.78161" lon="123.399376">
        <ele>58.38561</ele>
        <time>2015-09-17T10:24:27.208000Z</time>
      </trkpt>
      <trkpt lat="41.781574" lon="123.39951">
        <ele>58.986393</ele>
        <time>2015-09-17T10:24:30.356000Z</time>
      </trkpt>
      <trkpt lat="41.781532" lon="123.39963">
        <ele>59.128643</ele>
        <time>2015-09-17T10:24:33.504000Z</time>
      </trkpt>
      <trkpt lat="41.781475" lon="123.39973">
        <ele>58.92625</ele>
        <time>2015-09-17T10:24:36.652000Z</time>
      </trkpt>
      <trkpt lat="41.781403" lon="123.39984">
        <ele>58.477547</ele>
        <time>2015-09-17T10:24:39.800000Z</time>
      </trkpt>
      <trkpt lat="41.781338" lon="123.39996">
        <ele>58.05962</ele>
        <time>2015-09-17T10:24:42.948000Z</time>
      </trkpt>
      <trkpt lat="41.781292" lon="123.40008">
        <ele>57.596844</ele>
        <time>2015-09-17T10:24:46.096000Z</time>
      </trkpt>
      <trkpt lat="41.781246" lon="123.40022">
        <ele>56.855957</ele>
        <time>2015-09-17T10:24:49.244000Z</time>
      </trkpt>
      <trkpt lat="41.781166" lon="123.40032">
        <ele>56.15433</ele>
        <time>2015-09-17T10:24:52.392000Z</time>
      </trkpt>
      <trkpt lat="41.781105" lon="123.40041">
        <ele>55.83783</ele>
        <time>2015-09-17T10:24:55.540000Z</time>
      </trkpt>
      <trkpt lat="41.78101" lon="123.400475">
        <ele>55.66156</ele>
        <time>2015-09-17T10:24:58.688000Z</time>
      </trkpt>
      <trkpt lat="41.780926" lon="123.40054">
        <ele>55.363205</ele>
        <time>2015-09-17T10:25:01.836000Z</time>
      </trkpt>
      <trkpt lat="41.780857" lon="123.40063">
        <ele>55.050896</ele>
        <time>2015-09-17T10:25:04.984000Z</time>
      </trkpt>
      <trkpt lat="41.780796" lon="123.40078">
        <ele>55.039238</ele>
        <time>2015-09-17T10:25:08.132000Z</time>
      </trkpt>
      <trkpt lat="41.78076" lon="123.40093">
        <ele>55.37544</ele>
        <time>2015-09-17T10:25:11.280000Z</time>
      </trkpt>
      <trkpt lat="41.780785" lon="123.40107">
        <ele>55.907932</ele>
        <time>2015-09-17T10:25:14.428000Z</time>
      </trkpt>
      <trkpt lat="41.780827" lon="123.40118">
        <ele>57.435787</ele>
        <time>2015-09-17T10:25:17.576000Z</time>
      </trkpt>
      <trkpt lat="41.78092" lon="123.401306">
        <ele>60.501232</ele>
        <time>2015-09-17T10:25:20.724000Z</time>
      </trkpt>
      <trkpt lat="41.781017" lon="123.401405">
        <ele>63.87061</ele>
        <time>2015-09-17T10:25:23.872000Z</time>
      </trkpt>
      <trkpt lat="41.781113" lon="123.401474">
        <ele>66.18101</ele>
        <time>2015-09-17T10:25:27.020000Z</time>
      </trkpt>
      <trkpt lat="41.7812" lon="123.40158">
        <ele>66.26745</ele>
        <time>2015-09-17T10:25:30.168000Z</time>
      </trkpt>
      <trkpt lat="41.781273" lon="123.401665">
        <ele>63.46772</ele>
        <time>2015-09-17T10:25:33.316000Z</time>
      </trkpt>
      <trkpt lat="41.781357" lon="123.40174">
        <ele>59.60258</ele>
        <time>2015-09-17T10:25:36.464000Z</time>
      </trkpt>
      <trkpt lat="41.781475" lon="123.4018">
        <ele>57.0793</ele>
        <time>2015-09-17T10:25:39.612000Z</time>
      </trkpt>
      <trkpt lat="41.781635" lon="123.401825">
        <ele>56.283142</ele>
        <time>2015-09-17T10:25:42.760000Z</time>
      </trkpt>
      <trkpt lat="41.781734" lon="123.4019">
        <ele>55.850685</ele>
        <time>2015-09-17T10:25:45.908000Z</time>
      </trkpt>
      <trkpt lat="41.781796" lon="123.402">
        <ele>54.72839</ele>
        <time>2015-09-17T10:25:49.056000Z</time>
      </trkpt>
      <trkpt lat="41.781883" lon="123.40211">
        <ele>53.454964</ele>
        <time>2015-09-17T10:25:52.204000Z</time>
      </trkpt>
      <trkpt lat="41.781986" lon="123.40216">
        <ele>52.817158</ele>
        <time>2015-09-17T10:25:55.352000Z</time>
      </trkpt>
      <trkpt lat="41.78208" lon="123.40221">
        <ele>52.70038</ele>
        <time>2015-09-17T10:25:58.500000Z</time>
      </trkpt>
      <trkpt lat="41.78222" lon="123.40229">
        <ele>52.379753</ele>
        <time>2015-09-17T10:26:01.648000Z</time>
      </trkpt>
      <trkpt lat="41.782337" lon="123.40233">
        <ele>51.40397</ele>
        <time>2015-09-17T10:26:04.796000Z</time>
      </trkpt>
      <trkpt lat="41.78244" lon="123.402275">
        <ele>50.34703</ele>
        <time>2015-09-17T10:26:07.944000Z</time>
      </trkpt>
      <trkpt lat="41.782562" lon="123.40225">
        <ele>49.553913</ele>
        <time>2015-09-17T10:26:11.092000Z</time>
      </trkpt>
      <trkpt lat="41.78266" lon="123.40216">
        <ele>48.74669</ele>
        <time>2015-09-17T10:26:14.240000Z</time>
      </trkpt>
      <trkpt lat="41.782738" lon="123.40207">
        <ele>48.089306</ele>
        <time>2015-09-17T10:26:17.388000Z</time>
      </trkpt>
      <trkpt lat="41.78284" lon="123.40198">
        <ele>46.719547</ele>
        <time>2015-09-17T10:26:20.536000Z</time>
      </trkpt>
      <trkpt lat="41.782917" lon="123.40191">
        <ele>43.82894</ele>
        <time>2015-09-17T10:26:23.684000Z</time>
      </trkpt>
      <trkpt lat="41.783024" lon="123.401825">
        <ele>40.940155</ele>
        <time>2015-09-17T10:26:26.832000Z</time>
      </trkpt>
      <trkpt lat="41.783123" lon="123.40176">
        <ele>39.591484</ele>
        <time>2015-09-17T10:26:29.980000Z</time>
      </trkpt>
      <trkpt lat="41.783222" lon="123.4017">
        <ele>39.67676</ele>
        <time>2015-09-17T10:26:33.128000Z</time>
      </trkpt>
      <trkpt lat="41.783333" lon="123.401634">
        <ele>40.637135</ele>
        <time>2015-09-17T10:26:36.276000Z</time>
      </trkpt>
      <trkpt lat="41.783474" lon="123.401596">
        <ele>41.611355</ele>
        <time>2015-09-17T10:26:39.424000Z</time>
      </trkpt>
      <trkpt lat="41.783566" lon="123.401566">
        <ele>40.55035</ele>
        <time>2015-09-17T10:26:42.572000Z</time>
      </trkpt>
      <trkpt lat="41.78366" lon="123.40149">
        <ele>36.659077</ele>
        <time>2015-09-17T10:26:45.720000Z</time>
      </trkpt>
      <trkpt lat="41.783783" lon="123.40142">
        <ele>32.515312</ele>
        <time>2015-09-17T10:26:48.868000Z</time>
      </trkpt>
      <trkpt lat="41.783894" lon="123.40135">
        <ele>29.817165</ele>
        <time>2015-09-17T10:26:52.016000Z</time>
      </trkpt>
      <trkpt lat="41.783993" lon="123.40132">
        <ele>27.688965</ele>
        <time>2015-09-17T10:26:55.164000Z</time>
      </trkpt>
      <trkpt lat="41.784103" lon="123.40127">
        <ele>26.44286</ele>
        <time>2015-09-17T10:26:58.312000Z</time>
      </trkpt>
      <trkpt lat="41.78419" lon="123.40122">
        <ele>26.900532</ele>
        <time>2015-09-17T10:27:01.460000Z</time>
      </trkpt>
      <trkpt lat="41.784283" lon="123.40114">
        <ele>28.388062</ele>
        <time>2015-09-17T10:27:04.608000Z</time>
      </trkpt>
      <trkpt lat="41.78435" lon="123.400986">
        <ele>30.067122</ele>
        <time>2015-09-17T10:27:07.756000Z</time>
      </trkpt>
      <trkpt lat="41.784397" lon="123.40085">
        <ele>31.950205</ele>
        <time>2015-09-17T10:27:10.904000Z</time>
      </trkpt>
      <trkpt lat="41.78445" lon="123.400734">
        <ele>34.91975</ele>
        <time>2015-09-17T10:27:14.052000Z</time>
      </trkpt>
      <trkpt lat="41.784496" lon="123.4006">
        <ele>39.216824</ele>
        <time>2015-09-17T10:27:17.200000Z</time>
      </trkpt>
      <trkpt lat="41.78456" lon="123.40047">
        <ele>43.495743</ele>
        <time>2015-09-17T10:27:20.348000Z</time>
      </trkpt>
      <trkpt lat="41.78462" lon="123.400345">
        <ele>46.27734</ele>
        <time>2015-09-17T10:27:23.496000Z</time>
      </trkpt>
      <trkpt lat="41.784664" lon="123.40023">
        <ele>47.70256</ele>
        <time>2015-09-17T10:27:26.644000Z</time>
      </trkpt>
      <trkpt lat="41.7847" lon="123.40011">
        <ele>48.908245</ele>
        <time>2015-09-17T10:27:29.792000Z</time>
      </trkpt>
      <trkpt lat="41.784695" lon="123.39998">
        <ele>50.45312</ele>
        <time>2015-09-17T10:27:32.940000Z</time>
      </trkpt>
      <trkpt lat="41.78471" lon="123.39984">
        <ele>51.962177</ele>
        <time>2015-09-17T10:27:36.088000Z</time>
      </trkpt>
      <trkpt lat="41.78473" lon="123.3997">
        <ele>53.30692</ele>
        <time>2015-09-17T10:27:39.236000Z</time>
      </trkpt>
      <trkpt lat="41.78478" lon="123.399536">
        <ele>54.420498</ele>
        <time>2015-09-17T10:27:42.384000Z</time>
      </trkpt>
      <trkpt lat="41.784832" lon="123.39941">
        <ele>54.73655</ele>
        <time>2015-09-17T10:27:45.532000Z</time>
      </trkpt>
      <trkpt lat="41.784916" lon="123.39929">
        <ele>53.730415</ele>
        <time>2015-09-17T10:27:48.680000Z</time>
      </trkpt>
      <trkpt lat="41.784977" lon="123.399185">
        <ele>51.70129</ele>
        <time>2015-09-17T10:27:51.828000Z</time>
      </trkpt>
      <trkpt lat="41.785034" lon="123.39905">
        <ele>49.791607</ele>
        <time>2015-09-17T10:27:54.976000Z</time>
      </trkpt>
      <trkpt lat="41.7851" lon="123.39892">
        <ele>48.657375</ele>
        <time>2015-09-17T10:27:58.124000Z</time>
      </trkpt>
      <trkpt lat="41.78517" lon="123.398796">
        <ele>48.092598</ele>
        <time>2015-09-17T10:28:01.272000Z</time>
      </trkpt>
      <trkpt lat="41.785236" lon="123.39864">
        <ele>47.99107</ele>
        <time>2015-09-17T10:28:04.420000Z</time>
      </trkpt>
      <trkpt lat="41.785255" lon="123.39851">
        <ele>48.60799</ele>
        <time>2015-09-17T10:28:07.568000Z</time>
      </trkpt>
      <trkpt lat="41.785225" lon="123.39837">
        <ele>49.889145</ele>
        <time>2015-09-17T10:28:10.716000Z</time>
      </trkpt>
      <trkpt lat="41.785206" lon="123.39821">
        <ele>51.347282</ele>
        <time>2015-09-17T10:28:13.864000Z</time>
      </trkpt>
      <trkpt lat="41.785168" lon="123.39807">
        <ele>52.472885</ele>
        <time>2015-09-17T10:28:17.012000Z</time>
      </trkpt>
      <trkpt lat="41.785084" lon="123.39798">
        <ele>53.732914</ele>
        <time>2015-09-17T10:28:20.160000Z</time>
      </trkpt>
      <trkpt lat="41.785007" lon="123.39788">
        <ele>56.05417</ele>
        <time>2015-09-17T10:28:23.308000Z</time>
      </trkpt>
      <trkpt lat="41.784958" lon="123.39776">
        <ele>59.175873</ele>
        <time>2015-09-17T10:28:26.456000Z</time>
      </trkpt>
      <trkpt lat="41.78489" lon="123.39766">
        <ele>61.78842</ele>
        <time>2015-09-17T10:28:29.604000Z</time>
      </trkpt>
      <trkpt lat="41.784813" lon="123.39757">
        <ele>63.13988</ele>
        <time>2015-09-17T10:28:32.752000Z</time>
      </trkpt>
      <trkpt lat="41.784733" lon="123.39749">
        <ele>63.27358</ele>
        <time>2015-09-17T10:28:35.900000Z</time>
      </trkpt>
      <trkpt lat="41.78462" lon="123.39742">
        <ele>62.73307</ele>
        <time>2015-09-17T10:28:39.048000Z</time>
      </trkpt>
      <trkpt lat="41.78454" lon="123.39733">
        <ele>62.012173</ele>
        <time>2015-09-17T10:28:42.196000Z</time>
      </trkpt>
      <trkpt lat="41.784435" lon="123.39731">
        <ele>61.50628</ele>
        <time>2015-09-17T10:28:45.344000Z</time>
      </trkpt>
      <trkpt lat="41.784348" lon="123.397224">
        <ele>61.310894</ele>
        <time>2015-09-17T10:28:48.492000Z</time>
      </trkpt>
      <trkpt lat="41.784256" lon="123.397156">
        <ele>60.63759</ele>
        <time>2015-09-17T10:28:51.640000Z</time>
      </trkpt>
      <trkpt lat="41.784153" lon="123.39719">
        <ele>58.748478</ele>
        <time>2015-09-17T10:28:54.788000Z</time>
      </trkpt>
      <trkpt lat="41.784054" lon="123.397255">
        <ele>56.178722</ele>
        <time>2015-09-17T10:28:57.936000Z</time>
      </trkpt>
      <trkpt lat="41.783947" lon="123.39722">
        <ele>54.272633</ele>
        <time>2015-09-17T10:29:01.084000Z</time>
      </trkpt>
      <trkpt lat="41.78386" lon="123.39717">
        <ele>53.807114</ele>
        <time>2015-09-17T10:29:04.232000Z</time>
      </trkpt>
      <trkpt lat="41.78376" lon="123.3972">
        <ele>54.276505</ele>
        <time>2015-09-17T10:29:07.380000Z</time>
      </trkpt>
      <trkpt lat="41.783657" lon="123.39721">
        <ele>54.762108</ele>
        <time>2015-09-17T10:29:10.528000Z</time>
      </trkpt>
      <trkpt lat="41.783546" lon="123.39722">
        <ele>54.855347</ele>
        <time>2015-09-17T10:29:13.676000Z</time>
      </trkpt>
      <trkpt lat="41.783436" lon="123.39725">
        <ele>54.531113</ele>
        <time>2015-09-17T10:29:16.824000Z</time>
      </trkpt>
      <trkpt lat="41.783344" lon="123.39727">
        <ele>54.12256</ele>
        <time>2015-09-17T10:29:19.972000Z</time>
      </trkpt>
      <trkpt lat="41.78324" lon="123.39734">
        <ele>53.90772</ele>
        <time>2015-09-17T10:29:23.120000Z</time>
      </trkpt>
      <trkpt lat="41.78314" lon="123.397415">
        <ele>53.86257</ele>
        <time>2015-09-17T10:29:26.268000Z</time>
      </trkpt>
      <trkpt lat="41.78302" lon="123.39749">
        <ele>54.30437</ele>
        <time>2015-09-17T10:29:29.416000Z</time>
      </trkpt>
      <trkpt lat="41.782913" lon="123.3976">
        <ele>55.831947</ele>
        <time>2015-09-17T10:29:32.564000Z</time>
      </trkpt>
      <trkpt lat="41.78284" lon="123.397705">
        <ele>58.03725</ele>
        <time>2015-09-17T10:29:35.712000Z</time>
      </trkpt>
      <trkpt lat="41.782764" lon="123.39781">
        <ele>59.260323</ele>
        <time>2015-09-17T10:29:38.860000Z</time>
      </trkpt>
      <trkpt lat="41.782692" lon="123.397934">
        <ele>58.369198</ele>
        <time>2015-09-17T10:29:42.008000Z</time>
      </trkpt>
      <trkpt lat="41.782627" lon="123.39805">
        <ele>56.168125</ele>
        <time>2015-09-17T10:29:45.156000Z</time>
      </trkpt>
      <trkpt lat="41.782578" lon="123.39817">
        <ele>54.21418</ele>
        <time>2015-09-17T10:29:48.304000Z</time>
      </trkpt>
      <trkpt lat="41.782494" lon="123.398254">
        <ele>53.116028</ele>
        <time>2015-09-17T10:29:51.452000Z</time>
      </trkpt>
      <trkpt lat="41.78237" lon="123.39838">
        <ele>52.57062</ele>
        <time>2015-09-17T10:29:54.600000Z</time>
      </trkpt>
      <trkpt lat="41.782246" lon="123.39838">
        <ele>52.217396</ele>
        <time>2015-09-17T10:29:57.748000Z</time>
      </trkpt>
      <trkpt lat="41.78212" lon="123.39839">
        <ele>52.521717</ele>
        <time>2015-09-17T10:30:00.896000Z</time>
      </trkpt>
      <trkpt lat="41.78203" lon="123.39843">
        <ele>53.87514</ele>
        <time>2015-09-17T10:30:04.044000Z</time>
      </trkpt>
      <trkpt lat="41.781918" lon="123.39848">
        <ele>55.35888</ele>
        <time>2015-09-17T10:30:07.192000Z</time>
      </trkpt>
      <trkpt lat="41.78182" lon="123.39853">
        <ele>56.088978</ele>
        <time>2015-09-17T10:30:10.340000Z</time>
      </trkpt>
      <trkpt lat="41.781742" lon="123.39862">
        <ele>56.215237</ele>
        <time>2015-09-17T10:30:13.488000Z</time>
      </trkpt>
      <trkpt lat="41.781693" lon="123.39877">
        <ele>56.378513</ele>
        <time>2015-09-17T10:30:16.636000Z</time>
      </trkpt>
      <trkpt lat="41.78167" lon="123.39893">
        <ele>57.253647</ele>
        <time>2015-09-17T10:30:19.784000Z</time>
      </trkpt>
      <trkpt lat="41.78166" lon="123.39907">
        <ele>58.65353</ele>
        <time>2015-09-17T10:30:22.932000Z</time>
      </trkpt>
      <trkpt lat="41.781624" lon="123.39921">
        <ele>59.733204</ele>
        <time>2015-09-17T10:30:26.080000Z</time>
      </trkpt>
      <trkpt lat="41.78159" lon="123.39934">
        <ele>60.2844</ele>
        <time>2015-09-17T10:30:29.228000Z</time>
      </trkpt>
      <trkpt lat="41.781548" lon="123.39947">
        <ele>60.923603</ele>
        <time>2015-09-17T10:30:32.376000Z</time>
      </trkpt>
      <trkpt lat="41.7815" lon="123.3996">
        <ele>61.897366</ele>
        <time>2015-09-17T10:30:35.524000Z</time>
      </trkpt>
      <trkpt lat="41.78147" lon="123.39973">
        <ele>62.723835</ele>
        <time>2015-09-17T10:30:38.672000Z</time>
      </trkpt>
      <trkpt lat="41.781414" lon="123.39986">
        <ele>63.067863</ele>
        <time>2015-09-17T10:30:41.820000Z</time>
      </trkpt>
      <trkpt lat="41.781338" lon="123.39996">
        <ele>62.952908</ele>
        <time>2015-09-17T10:30:44.968000Z</time>
      </trkpt>
      <trkpt lat="41.78127" lon="123.400055">
        <ele>62.374275</ele>
        <time>2015-09-17T10:30:48.116000Z</time>
      </trkpt>
      <trkpt lat="41.781197" lon="123.40018">
        <ele>61.16322</ele>
        <time>2015-09-17T10:30:51.264000Z</time>
      </trkpt>
      <trkpt lat="41.781113" lon="123.4003">
        <ele>59.51127</ele>
        <time>2015-09-17T10:30:54.412000Z</time>
      </trkpt>
      <trkpt lat="41.781002" lon="123.40038">
        <ele>58.199585</ele>
        <time>2015-09-17T10:30:57.560000Z</time>
      </trkpt>
      <trkpt lat="41.780907" lon="123.40042">
        <ele>57.683918</ele>
        <time>2015-09-17T10:31:00.708000Z</time>
      </trkpt>
      <trkpt lat="41.780838" lon="123.40051">
        <ele>56.978992</ele>
        <time>2015-09-17T10:31:03.856000Z</time>
      </trkpt>
      <trkpt lat="41.78079" lon="123.40065">
        <ele>54.90137</ele>
        <time>2015-09-17T10:31:07.004000Z</time>
      </trkpt>
      <trkpt lat="41.780735" lon="123.40078">
        <ele>52.081066</ele>
        <time>2015-09-17T10:31:10.152000Z</time>
      </trkpt>
      <trkpt lat="41.780697" lon="123.40093">
        <ele>50.13772</ele>
        <time>2015-09-17T10:31:13.300000Z</time>
      </trkpt>
      <trkpt lat="41.7807" lon="123.40108">
        <ele>49.479954</ele>
        <time>2015-09-17T10:31:16.448000Z</time>
      </trkpt>
      <trkpt lat="41.780754" lon="123.401215">
        <ele>49.539043</ele>
        <time>2015-09-17T10:31:19.596000Z</time>
      </trkpt>
      <trkpt lat="41.780846" lon="123.40131">
        <ele>49.770885</ele>
        <time>2015-09-17T10:31:22.744000Z</time>
      </trkpt>
      <trkpt lat="41.780922" lon="123.40139">
        <ele>50.204746</ele>
        <time>2015-09-17T10:31:25.892000Z</time>
      </trkpt>
      <trkpt lat="41.781048" lon="123.40146">
        <ele>51.253265</ele>
        <time>2015-09-17T10:31:29.040000Z</time>
      </trkpt>
      <trkpt lat="41.781143" lon="123.40154">
        <ele>52.706432</ele>
        <time>2015-09-17T10:31:32.188000Z</time>
      </trkpt>
      <trkpt lat="41.781223" lon="123.40162">
        <ele>53.91495</ele>
        <time>2015-09-17T10:31:35.336000Z</time>
      </trkpt>
      <trkpt lat="41.781326" lon="123.401695">
        <ele>54.66566</ele>
        <time>2015-09-17T10:31:38.484000Z</time>
      </trkpt>
      <trkpt lat="41.7814" lon="123.40177">
        <ele>55.300373</ele>
        <time>2015-09-17T10:31:41.632000Z</time>
      </trkpt>
      <trkpt lat="41.7815" lon="123.40183">
        <ele>56.075733</ele>
        <time>2015-09-17T10:31:44.780000Z</time>
      </trkpt>
      <trkpt lat="41.781597" lon="123.40189">
        <ele>56.477936</ele>
        <time>2015-09-17T10:31:47.928000Z</time>
      </trkpt>
      <trkpt lat="41.781693" lon="123.40197">
        <ele>55.909306</ele>
        <time>2015-09-17T10:31:51.076000Z</time>
      </trkpt>
      <trkpt lat="41.78179" lon="123.40204">
        <ele>54.834778</ele>
        <time>2015-09-17T10:31:54.224000Z</time>
      </trkpt>
      <trkpt lat="41.781883" lon="123.4021">
        <ele>53.912426</ele>
        <time>2015-09-17T10:31:57.372000Z</time>
      </trkpt>
      <trkpt lat="41.781998" lon="123.40215">
        <ele>53.130844</ele>
        <time>2015-09-17T10:32:00.520000Z</time>
      </trkpt>
      <trkpt lat="41.782112" lon="123.40223">
        <ele>52.273575</ele>
        <time>2015-09-17T10:32:03.668000Z</time>
      </trkpt>
      <trkpt lat="41.782207" lon="123.40227">
        <ele>51.457462</ele>
        <time>2015-09-17T10:32:06.816000Z</time>
      </trkpt>
      <trkpt lat="41.78232" lon="123.40231">
        <ele>51.088028</ele>
        <time>2015-09-17T10:32:09.963000Z</time>
      </trkpt>
      <trkpt lat="41.782444" lon="123.40232">
        <ele>51.43692</ele>
        <time>2015-09-17T10:32:13.110000Z</time>
      </trkpt>
      <trkpt lat="41.782547" lon="123.4023">
        <ele>52.060524</ele>
        <time>2015-09-17T10:32:16.257000Z</time>
      </trkpt>
      <trkpt lat="41.782642" lon="123.40226">
        <ele>52.312237</ele>
        <time>2015-09-17T10:32:19.404000Z</time>
      </trkpt>
      <trkpt lat="41.782734" lon="123.402214">
        <ele>52.04748</ele>
        <time>2015-09-17T10:32:22.551000Z</time>
      </trkpt>
      <trkpt lat="41.782814" lon="123.40211">
        <ele>51.520687</ele>
        <time>2015-09-17T10:32:25.698000Z</time>
      </trkpt>
      <trkpt lat="41.78289" lon="123.40199">
        <ele>51.199993</ele>
        <time>2015-09-17T10:32:28.845000Z</time>
      </trkpt>
      <trkpt lat="41.78297" lon="123.40191">
        <ele>51.36492</ele>
        <time>2015-09-17T10:32:31.992000Z</time>
      </trkpt>
      <trkpt lat="41.783054" lon="123.401855">
        <ele>50.889427</ele>
        <time>2015-09-17T10:32:35.139000Z</time>
      </trkpt>
      <trkpt lat="41.783157" lon="123.4018">
        <ele>48.6726</ele>
        <time>2015-09-17T10:32:38.286000Z</time>
      </trkpt>
      <trkpt lat="41.78327" lon="123.40175">
        <ele>45.80006</ele>
        <time>2015-09-17T10:32:41.433000Z</time>
      </trkpt>
      <trkpt lat="41.783367" lon="123.4017">
        <ele>43.857094</ele>
        <time>2015-09-17T10:32:44.580000Z</time>
      </trkpt>
      <trkpt lat="41.783474" lon="123.40161">
        <ele>42.958515</ele>
        <time>2015-09-17T10:32:47.727000Z</time>
      </trkpt>
      <trkpt lat="41.783585" lon="123.40154">
        <ele>42.56005</ele>
        <time>2015-09-17T10:32:50.874000Z</time>
      </trkpt>
      <trkpt lat="41.783695" lon="123.401474">
        <ele>41.984104</ele>
        <time>2015-09-17T10:32:54.021000Z</time>
      </trkpt>
      <trkpt lat="41.783787" lon="123.40142">
        <ele>41.01439</ele>
        <time>2015-09-17T10:32:57.168000Z</time>
      </trkpt>
      <trkpt lat="41.78387" lon="123.40137">
        <ele>40.31112</ele>
        <time>2015-09-17T10:33:00.315000Z</time>
      </trkpt>
      <trkpt lat="41.783974" lon="123.40129">
        <ele>40.314564</ele>
        <time>2015-09-17T10:33:03.462000Z</time>
      </trkpt>
      <trkpt lat="41.784058" lon="123.40122">
        <ele>41.208424</ele>
        <time>2015-09-17T10:33:06.609000Z</time>
      </trkpt>
      <trkpt lat="41.784153" lon="123.401115">
        <ele>43.179897</ele>
        <time>2015-09-17T10:33:09.756000Z</time>
      </trkpt>
      <trkpt lat="41.78423" lon="123.401054">
        <ele>45.74874</ele>
        <time>2015-09-17T10:33:12.903000Z</time>
      </trkpt>
      <trkpt lat="41.78433" lon="123.40098">
        <ele>47.907036</ele>
        <time>2015-09-17T10:33:16.050000Z</time>
      </trkpt>
      <trkpt lat="41.78439" lon="123.40088">
        <ele>49.074436</ele>
        <time>2015-09-17T10:33:19.197000Z</time>
      </trkpt>
      <trkpt lat="41.784466" lon="123.40078">
        <ele>49.337337</ele>
        <time>2015-09-17T10:33:22.344000Z</time>
      </trkpt>
      <trkpt lat="41.78454" lon="123.40068">
        <ele>49.202408</ele>
        <time>2015-09-17T10:33:25.491000Z</time>
      </trkpt>
      <trkpt lat="41.784603" lon="123.40056">
        <ele>49.16422</ele>
        <time>2015-09-17T10:33:28.638000Z</time>
      </trkpt>
      <trkpt lat="41.784637" lon="123.40044">
        <ele>49.42993</ele>
        <time>2015-09-17T10:33:31.785000Z</time>
      </trkpt>
      <trkpt lat="41.784676" lon="123.400314">
        <ele>49.7788</ele>
        <time>2015-09-17T10:33:34.932000Z</time>
      </trkpt>
      <trkpt lat="41.78472" lon="123.40018">
        <ele>49.965427</ele>
        <time>2015-09-17T10:33:38.079000Z</time>
      </trkpt>
      <trkpt lat="41.784756" lon="123.40004">
        <ele>50.006367</ele>
        <time>2015-09-17T10:33:41.226000Z</time>
      </trkpt>
      <trkpt lat="41.78478" lon="123.39992">
        <ele>49.983974</ele>
        <time>2015-09-17T10:33:44.373000Z</time>
      </trkpt>
      <trkpt lat="41.784782" lon="123.39979">
        <ele>49.817295</ele>
        <time>2015-09-17T10:33:47.520000Z</time>
      </trkpt>
      <trkpt lat="41.7848" lon="123.39965">
        <ele>49.442352</ele>
        <time>2015-09-17T10:33:50.667000Z</time>
      </trkpt>
      <trkpt lat="41.784847" lon="123.399536">
        <ele>49.207897</ele>
        <time>2015-09-17T10:33:53.814000Z</time>
      </trkpt>
      <trkpt lat="41.784878" lon="123.39942">
        <ele>49.53259</ele>
        <time>2015-09-17T10:33:56.961000Z</time>
      </trkpt>
      <trkpt lat="41.78492" lon="123.399315">
        <ele>50.237713</ele>
        <time>2015-09-17T10:34:00.108000Z</time>
      </trkpt>
      <trkpt lat="41.784985" lon="123.39918">
        <ele>50.81361</ele>
        <time>2015-09-17T10:34:03.255000Z</time>
      </trkpt>
      <trkpt lat="41.785046" lon="123.399055">
        <ele>51.045757</ele>
        <time>2015-09-17T10:34:06.402000Z</time>
      </trkpt>
      <trkpt lat="41.785107" lon="123.39894">
        <ele>51.05624</ele>
        <time>2015-09-17T10:34:09.549000Z</time>
      </trkpt>
      <trkpt lat="41.78519" lon="123.39884">
        <ele>50.99798</ele>
        <time>2015-09-17T10:34:12.696000Z</time>
      </trkpt>
      <trkpt lat="41.785263" lon="123.39871">
        <ele>51.08936</ele>
        <time>2015-09-17T10:34:15.843000Z</time>
      </trkpt>
      <trkpt lat="41.785313" lon="123.39858">
        <ele>51.43066</ele>
        <time>2015-09-17T10:34:18.990000Z</time>
      </trkpt>
      <trkpt lat="41.785313" lon="123.39845">
        <ele>51.66127</ele>
        <time>2015-09-17T10:34:22.137000Z</time>
      </trkpt>
      <trkpt lat="41.78527" lon="123.39831">
        <ele>51.481453</ele>
        <time>2015-09-17T10:34:25.284000Z</time>
      </trkpt>
      <trkpt lat="41.785194" lon="123.39817">
        <ele>51.14235</ele>
        <time>2015-09-17T10:34:28.431000Z</time>
      </trkpt>
      <trkpt lat="41.78514" lon="123.39808">
        <ele>52.044014</ele>
        <time>2015-09-17T10:34:31.578000Z</time>
      </trkpt>
      <trkpt lat="41.78505" lon="123.39796">
        <ele>54.86655</ele>
        <time>2015-09-17T10:34:34.725000Z</time>
      </trkpt>
      <trkpt lat="41.784973" lon="123.39782">
        <ele>57.83752</ele>
        <time>2015-09-17T10:34:37.872000Z</time>
      </trkpt>
      <trkpt lat="41.7849" lon="123.397675">
        <ele>59.267387</ele>
        <time>2015-09-17T10:34:41.019000Z</time>
      </trkpt>
      <trkpt lat="41.78483" lon="123.39759">
        <ele>59.357925</ele>
        <time>2015-09-17T10:34:44.166000Z</time>
      </trkpt>
      <trkpt lat="41.784725" lon="123.397545">
        <ele>58.762615</ele>
        <time>2015-09-17T10:34:47.313000Z</time>
      </trkpt>
      <trkpt lat="41.784634" lon="123.39748">
        <ele>58.565525</ele>
        <time>2015-09-17T10:34:50.460000Z</time>
      </trkpt>
      <trkpt lat="41.78455" lon="123.39738">
        <ele>59.631252</ele>
        <time>2015-09-17T10:34:53.607000Z</time>
      </trkpt>
      <trkpt lat="41.784466" lon="123.3973">
        <ele>61.27713</ele>
        <time>2015-09-17T10:34:56.754000Z</time>
      </trkpt>
      <trkpt lat="41.784374" lon="123.39722">
        <ele>62.23149</ele>
        <time>2015-09-17T10:34:59.901000Z</time>
      </trkpt>
      <trkpt lat="41.784275" lon="123.39718">
        <ele>62.065662</ele>
        <time>2015-09-17T10:35:03.048000Z</time>
      </trkpt>
      <trkpt lat="41.78416" lon="123.397194">
        <ele>61.157066</ele>
        <time>2015-09-17T10:35:06.195000Z</time>
      </trkpt>
      <trkpt lat="41.784054" lon="123.39726">
        <ele>60.244728</ele>
        <time>2015-09-17T10:35:09.342000Z</time>
      </trkpt>
      <trkpt lat="41.783955" lon="123.39723">
        <ele>59.81756</ele>
        <time>2015-09-17T10:35:12.489000Z</time>
      </trkpt>
      <trkpt lat="41.78385" lon="123.39717">
        <ele>59.756287</ele>
        <time>2015-09-17T10:35:15.636000Z</time>
      </trkpt>
      <trkpt lat="41.78373" lon="123.39716">
        <ele>59.693745</ele>
        <time>2015-09-17T10:35:18.783000Z</time>
      </trkpt>
      <trkpt lat="41.78363" lon="123.39719">
        <ele>59.270008</ele>
        <time>2015-09-17T10:35:21.930000Z</time>
      </trkpt>
      <trkpt lat="41.78354" lon="123.39722">
        <ele>58.575027</ele>
        <time>2015-09-17T10:35:25.077000Z</time>
      </trkpt>
      <trkpt lat="41.783432" lon="123.39723">
        <ele>58.311337</ele>
        <time>2015-09-17T10:35:28.224000Z</time>
      </trkpt>
      <trkpt lat="41.783318" lon="123.39728">
        <ele>58.823036</ele>
        <time>2015-09-17T10:35:31.371000Z</time>
      </trkpt>
      <trkpt lat="41.78322" lon="123.39735">
        <ele>59.28295</ele>
        <time>2015-09-17T10:35:34.518000Z</time>
      </trkpt>
      <trkpt lat="41.78313" lon="123.39741">
        <ele>58.832848</ele>
        <time>2015-09-17T10:35:37.665000Z</time>
      </trkpt>
      <trkpt lat="41.78304" lon="123.39745">
        <ele>57.692818</ele>
        <time>2015-09-17T10:35:40.812000Z</time>
      </trkpt>
      <trkpt lat="41.782963" lon="123.39754">
        <ele>56.43146</ele>
        <time>2015-09-17T10:35:43.959000Z</time>
      </trkpt>
      <trkpt lat="41.782894" lon="123.39765">
        <ele>55.413616</ele>
        <time>2015-09-17T10:35:47.106000Z</time>
      </trkpt>
      <trkpt lat="41.7828" lon="123.397835">
        <ele>54.869442</ele>
        <time>2015-09-17T10:35:50.253000Z</time>
      </trkpt>
      <trkpt lat="41.78272" lon="123.397964">
        <ele>54.61207</ele>
        <time>2015-09-17T10:35:53.400000Z</time>
      </trkpt>
      <trkpt lat="41.78265" lon="123.39806">
        <ele>54.317596</ele>
        <time>2015-09-17T10:35:56.547000Z</time>
      </trkpt>
      <trkpt lat="41.78257" lon="123.398186">
        <ele>54.584026</ele>
        <time>2015-09-17T10:35:59.694000Z</time>
      </trkpt>
      <trkpt lat="41.78246" lon="123.398285">
        <ele>55.892223</ele>
        <time>2015-09-17T10:36:02.841000Z</time>
      </trkpt>
      <trkpt lat="41.782364" lon="123.39833">
        <ele>57.35274</ele>
        <time>2015-09-17T10:36:05.988000Z</time>
      </trkpt>
      <trkpt lat="41.78226" lon="123.398346">
        <ele>58.07827</ele>
        <time>2015-09-17T10:36:09.135000Z</time>
      </trkpt>
      <trkpt lat="41.782127" lon="123.398415">
        <ele>58.06953</ele>
        <time>2015-09-17T10:36:12.282000Z</time>
      </trkpt>
      <trkpt lat="41.782036" lon="123.398415">
        <ele>57.462074</ele>
        <time>2015-09-17T10:36:15.429000Z</time>
      </trkpt>
      <trkpt lat="41.78194" lon="123.398445">
        <ele>56.61361</ele>
        <time>2015-09-17T10:36:18.576000Z</time>
      </trkpt>
      <trkpt lat="41.781857" lon="123.398575">
        <ele>56.42503</ele>
        <time>2015-09-17T10:36:21.723000Z</time>
      </trkpt>
      <trkpt lat="41.781826" lon="123.39872">
        <ele>57.431107</ele>
        <time>2015-09-17T10:36:24.870000Z</time>
      </trkpt>
      <trkpt lat="41.781784" lon="123.39888">
        <ele>58.911896</ele>
        <time>2015-09-17T10:36:28.017000Z</time>
      </trkpt>
      <trkpt lat="41.781734" lon="123.399025">
        <ele>59.60057</ele>
        <time>2015-09-17T10:36:31.164000Z</time>
      </trkpt>
      <trkpt lat="41.781677" lon="123.39918">
        <ele>59.184544</ele>
        <time>2015-09-17T10:36:34.311000Z</time>
      </trkpt>
      <trkpt lat="41.781605" lon="123.3993">
        <ele>58.39913</ele>
        <time>2015-09-17T10:36:37.458000Z</time>
      </trkpt>
      <trkpt lat="41.78156" lon="123.39942">
        <ele>58.06524</ele>
        <time>2015-09-17T10:36:40.605000Z</time>
      </trkpt>
      <trkpt lat="41.78151" lon="123.399536">
        <ele>58.432114</ele>
        <time>2015-09-17T10:36:43.752000Z</time>
      </trkpt>
      <trkpt lat="41.78144" lon="123.39963">
        <ele>59.197285</ele>
        <time>2015-09-17T10:36:46.899000Z</time>
      </trkpt>
      <trkpt lat="41.781395" lon="123.39975">
        <ele>59.80632</ele>
        <time>2015-09-17T10:36:50.046000Z</time>
      </trkpt>
      <trkpt lat="41.781357" lon="123.399864">
        <ele>59.76992</ele>
        <time>2015-09-17T10:36:53.193000Z</time>
      </trkpt>
      <trkpt lat="41.781292" lon="123.39997">
        <ele>59.05705</ele>
        <time>2015-09-17T10:36:56.340000Z</time>
      </trkpt>
      <trkpt lat="41.781227" lon="123.40006">
        <ele>58.53136</ele>
        <time>2015-09-17T10:36:59.487000Z</time>
      </trkpt>
      <trkpt lat="41.78115" lon="123.400185">
        <ele>58.85115</ele>
        <time>2015-09-17T10:37:02.634000Z</time>
      </trkpt>
      <trkpt lat="41.781063" lon="123.40028">
        <ele>59.103226</ele>
        <time>2015-09-17T10:37:05.781000Z</time>
      </trkpt>
      <trkpt lat="41.781002" lon="123.400375">
        <ele>58.157345</ele>
        <time>2015-09-17T10:37:08.928000Z</time>
      </trkpt>
      <trkpt lat="41.78095" lon="123.400475">
        <ele>56.447742</ele>
        <time>2015-09-17T10:37:12.075000Z</time>
      </trkpt>
      <trkpt lat="41.780872" lon="123.40061">
        <ele>55.155327</ele>
        <time>2015-09-17T10:37:15.222000Z</time>
      </trkpt>
      <trkpt lat="41.780827" lon="123.40073">
        <ele>54.670578</ele>
        <time>2015-09-17T10:37:18.369000Z</time>
      </trkpt>
      <trkpt lat="41.78079" lon="123.40086">
        <ele>54.6743</ele>
        <time>2015-09-17T10:37:21.516000Z</time>
      </trkpt>
      <trkpt lat="41.78077" lon="123.401024">
        <ele>54.815216</ele>
        <time>2015-09-17T10:37:24.663000Z</time>
      </trkpt>
      <trkpt lat="41.780785" lon="123.40116">
        <ele>54.92012</ele>
        <time>2015-09-17T10:37:27.810000Z</time>
      </trkpt>
      <trkpt lat="41.78082" lon="123.40128">
        <ele>54.820675</ele>
        <time>2015-09-17T10:37:30.957000Z</time>
      </trkpt>
      <trkpt lat="41.7809" lon="123.40139">
        <ele>54.736378</ele>
        <time>2015-09-17T10:37:34.104000Z</time>
      </trkpt>
      <trkpt lat="41.781013" lon="123.401474">
        <ele>54.79876</ele>
        <time>2015-09-17T10:37:37.251000Z</time>
      </trkpt>
      <trkpt lat="41.781128" lon="123.40155">
        <ele>54.77225</ele>
        <time>2015-09-17T10:37:40.398000Z</time>
      </trkpt>
      <trkpt lat="41.781235" lon="123.4016">
        <ele>54.575993</ele>
        <time>2015-09-17T10:37:43.545000Z</time>
      </trkpt>
      <trkpt lat="41.781334" lon="123.40167">
        <ele>54.31816</ele>
        <time>2015-09-17T10:37:46.692000Z</time>
      </trkpt>
      <trkpt lat="41.781433" lon="123.40175">
        <ele>54.042015</ele>
        <time>2015-09-17T10:37:49.839000Z</time>
      </trkpt>
      <trkpt lat="41.781544" lon="123.40184">
        <ele>53.90783</ele>
        <time>2015-09-17T10:37:52.986000Z</time>
      </trkpt>
      <trkpt lat="41.78163" lon="123.401886">
        <ele>53.885605</ele>
        <time>2015-09-17T10:37:56.133000Z</time>
      </trkpt>
      <trkpt lat="41.78163" lon="123.401886">
        <ele>53.89132</ele>
        <time>2015-09-17T10:37:59.280000Z</time>
      </trkpt>
      <trkpt lat="41.78171" lon="123.40196">
        <ele>53.612114</ele>
        <time>2015-09-17T10:38:02.427000Z</time>
      </trkpt>
      <trkpt lat="41.78171" lon="123.40196">
        <ele>53.124798</ele>
        <time>2015-09-17T10:38:05.574000Z</time>
      </trkpt>
      <trkpt lat="41.781796" lon="123.40202">
        <ele>52.767273</ele>
        <time>2015-09-17T10:38:08.721000Z</time>
      </trkpt>
      <trkpt lat="41.78187" lon="123.402084">
        <ele>52.447353</ele>
        <time>2015-09-17T10:38:11.868000Z</time>
      </trkpt>
      <trkpt lat="41.78197" lon="123.402145">
        <ele>51.809536</ele>
        <time>2015-09-17T10:38:15.015000Z</time>
      </trkpt>
      <trkpt lat="41.782066" lon="123.402214">
        <ele>50.9091</ele>
        <time>2015-09-17T10:38:18.162000Z</time>
      </trkpt>
      <trkpt lat="41.782158" lon="123.40227">
        <ele>50.13737</ele>
        <time>2015-09-17T10:38:21.309000Z</time>
      </trkpt>
      <trkpt lat="41.78227" lon="123.40229">
        <ele>50.08997</ele>
        <time>2015-09-17T10:38:24.456000Z</time>
      </trkpt>
      <trkpt lat="41.78239" lon="123.40233">
        <ele>50.786182</ele>
        <time>2015-09-17T10:38:27.603000Z</time>
      </trkpt>
      <trkpt lat="41.78249" lon="123.40228">
        <ele>51.59957</ele>
        <time>2015-09-17T10:38:30.750000Z</time>
      </trkpt>
      <trkpt lat="41.782578" lon="123.40219">
        <ele>51.321957</ele>
        <time>2015-09-17T10:38:33.897000Z</time>
      </trkpt>
      <trkpt lat="41.78266" lon="123.40213">
        <ele>49.601513</ele>
        <time>2015-09-17T10:38:37.044000Z</time>
      </trkpt>
      <trkpt lat="41.782738" lon="123.40206">
        <ele>47.696003</ele>
        <time>2015-09-17T10:38:40.191000Z</time>
      </trkpt>
      <trkpt lat="41.78284" lon="123.401955">
        <ele>46.8915</ele>
        <time>2015-09-17T10:38:43.338000Z</time>
      </trkpt>
      <trkpt lat="41.782944" lon="123.40188">
        <ele>47.085445</ele>
        <time>2015-09-17T10:38:46.485000Z</time>
      </trkpt>
      <trkpt lat="41.783047" lon="123.40182">
        <ele>47.736866</ele>
        <time>2015-09-17T10:38:49.632000Z</time>
      </trkpt>
      <trkpt lat="41.783134" lon="123.40174">
        <ele>48.565617</ele>
        <time>2015-09-17T10:38:52.779000Z</time>
      </trkpt>
      <trkpt lat="41.78324" lon="123.40164">
        <ele>50.08826</ele>
        <time>2015-09-17T10:38:55.926000Z</time>
      </trkpt>
      <trkpt lat="41.783348" lon="123.40156">
        <ele>52.41522</ele>
        <time>2015-09-17T10:38:59.073000Z</time>
      </trkpt>
      <trkpt lat="41.783455" lon="123.40148">
        <ele>54.283894</ele>
        <time>2015-09-17T10:39:02.220000Z</time>
      </trkpt>
      <trkpt lat="41.783577" lon="123.401436">
        <ele>54.631905</ele>
        <time>2015-09-17T10:39:05.367000Z</time>
      </trkpt>
      <trkpt lat="41.783726" lon="123.40139">
        <ele>53.967003</ele>
        <time>2015-09-17T10:39:08.514000Z</time>
      </trkpt>
      <trkpt lat="41.783817" lon="123.40129">
        <ele>53.506042</ele>
        <time>2015-09-17T10:39:11.661000Z</time>
      </trkpt>
      <trkpt lat="41.78392" lon="123.40122">
        <ele>53.999012</ele>
        <time>2015-09-17T10:39:14.808000Z</time>
      </trkpt>
      <trkpt lat="41.78401" lon="123.40111">
        <ele>55.171566</ele>
        <time>2015-09-17T10:39:17.955000Z</time>
      </trkpt>
      <trkpt lat="41.784092" lon="123.40098">
        <ele>56.72153</ele>
        <time>2015-09-17T10:39:21.102000Z</time>
      </trkpt>
      <trkpt lat="41.78417" lon="123.40091">
        <ele>58.73546</ele>
        <time>2015-09-17T10:39:24.249000Z</time>
      </trkpt>
      <trkpt lat="41.784256" lon="123.40085">
        <ele>61.14929</ele>
        <time>2015-09-17T10:39:27.396000Z</time>
      </trkpt>
      <trkpt lat="41.78433" lon="123.40075">
        <ele>63.43491</ele>
        <time>2015-09-17T10:39:30.543000Z</time>
      </trkpt>
      <trkpt lat="41.784397" lon="123.40064">
        <ele>65.15675</ele>
        <time>2015-09-17T10:39:33.690000Z</time>
      </trkpt>
      <trkpt lat="41.78446" lon="123.400536">
        <ele>66.31227</ele>
        <time>2015-09-17T10:39:36.837000Z</time>
      </trkpt>
      <trkpt lat="41.784515" lon="123.400406">
        <ele>66.96695</ele>
        <time>2015-09-17T10:39:39.984000Z</time>
      </trkpt>
      <trkpt lat="41.78456" lon="123.40028">
        <ele>67.13001</ele>
        <time>2015-09-17T10:39:43.131000Z</time>
      </trkpt>
      <trkpt lat="41.784588" lon="123.40016">
        <ele>66.92792</ele>
        <time>2015-09-17T10:39:46.278000Z</time>
      </trkpt>
      <trkpt lat="41.78465" lon="123.40005">
        <ele>66.33532</ele>
        <time>2015-09-17T10:39:49.425000Z</time>
      </trkpt>
      <trkpt lat="41.78471" lon="123.39993">
        <ele>65.55313</ele>
        <time>2015-09-17T10:39:52.572000Z</time>
      </trkpt>
      <trkpt lat="41.784748" lon="123.399765">
        <ele>64.99561</ele>
        <time>2015-09-17T10:39:55.719000Z</time>
      </trkpt>
      <trkpt lat="41.784798" lon="123.39963">
        <ele>64.79924</ele>
        <time>2015-09-17T10:39:58.866000Z</time>
      </trkpt>
      <trkpt lat="41.78489" lon="123.39948">
        <ele>63.705</ele>
        <time>2015-09-17T10:40:02.013000Z</time>
      </trkpt>
      <trkpt lat="41.784966" lon="123.399284">
        <ele>58.67938</ele>
        <time>2015-09-17T10:40:05.160000Z</time>
      </trkpt>
      <trkpt lat="41.78502" lon="123.39916">
        <ele>50.010838</ele>
        <time>2015-09-17T10:40:08.307000Z</time>
      </trkpt>
      <trkpt lat="41.78508" lon="123.39907">
        <ele>42.989803</ele>
        <time>2015-09-17T10:40:11.454000Z</time>
      </trkpt>
      <trkpt lat="41.78514" lon="123.39896">
        <ele>40.69206</ele>
        <time>2015-09-17T10:40:14.601000Z</time>
      </trkpt>
      <trkpt lat="41.785183" lon="123.398834">
        <ele>41.241043</ele>
        <time>2015-09-17T10:40:17.748000Z</time>
      </trkpt>
      <trkpt lat="41.785217" lon="123.39868">
        <ele>42.723072</ele>
        <time>2015-09-17T10:40:20.895000Z</time>
      </trkpt>
      <trkpt lat="41.785263" lon="123.39853">
        <ele>44.725407</ele>
        <time>2015-09-17T10:40:24.042000Z</time>
      </trkpt>
      <trkpt lat="41.78526" lon="123.39838">
        <ele>47.149876</ele>
        <time>2015-09-17T10:40:27.189000Z</time>
      </trkpt>
      <trkpt lat="41.78522" lon="123.39824">
        <ele>49.4468</ele>
        <time>2015-09-17T10:40:30.336000Z</time>
      </trkpt>
      <trkpt lat="41.78517" lon="123.3981">
        <ele>50.759583</ele>
        <time>2015-09-17T10:40:33.483000Z</time>
      </trkpt>
      <trkpt lat="41.78511" lon="123.39799">
        <ele>50.42178</ele>
        <time>2015-09-17T10:40:36.630000Z</time>
      </trkpt>
      <trkpt lat="41.785038" lon="123.39786">
        <ele>48.88759</ele>
        <time>2015-09-17T10:40:39.777000Z</time>
      </trkpt>
      <trkpt lat="41.784966" lon="123.39771">
        <ele>47.553814</ele>
        <time>2015-09-17T10:40:42.924000Z</time>
      </trkpt>
      <trkpt lat="41.784885" lon="123.397644">
        <ele>47.520332</ele>
        <time>2015-09-17T10:40:46.071000Z</time>
      </trkpt>
      <trkpt lat="41.784798" lon="123.39756">
        <ele>48.52533</ele>
        <time>2015-09-17T10:40:49.218000Z</time>
      </trkpt>
      <trkpt lat="41.78467" lon="123.39748">
        <ele>49.705128</ele>
        <time>2015-09-17T10:40:52.365000Z</time>
      </trkpt>
      <trkpt lat="41.784595" lon="123.39741">
        <ele>50.561935</ele>
        <time>2015-09-17T10:40:55.512000Z</time>
      </trkpt>
      <trkpt lat="41.784477" lon="123.39734">
        <ele>51.14643</ele>
        <time>2015-09-17T10:40:58.659000Z</time>
      </trkpt>
      <trkpt lat="41.784378" lon="123.397255">
        <ele>52.150528</ele>
        <time>2015-09-17T10:41:01.806000Z</time>
      </trkpt>
      <trkpt lat="41.78427" lon="123.39719">
        <ele>54.03934</ele>
        <time>2015-09-17T10:41:04.953000Z</time>
      </trkpt>
      <trkpt lat="41.784172" lon="123.39719">
        <ele>56.258633</ele>
        <time>2015-09-17T10:41:08.100000Z</time>
      </trkpt>
      <trkpt lat="41.784073" lon="123.39726">
        <ele>58.03945</ele>
        <time>2015-09-17T10:41:11.247000Z</time>
      </trkpt>
      <trkpt lat="41.78396" lon="123.39722">
        <ele>59.160774</ele>
        <time>2015-09-17T10:41:14.394000Z</time>
      </trkpt>
      <trkpt lat="41.783844" lon="123.397194">
        <ele>60.1671</ele>
        <time>2015-09-17T10:41:17.541000Z</time>
      </trkpt>
      <trkpt lat="41.783722" lon="123.3972">
        <ele>61.648643</ele>
        <time>2015-09-17T10:41:20.688000Z</time>
      </trkpt>
      <trkpt lat="41.783592" lon="123.39721">
        <ele>63.146515</ele>
        <time>2015-09-17T10:41:23.835000Z</time>
      </trkpt>
      <trkpt lat="41.7835" lon="123.39721">
        <ele>63.85074</ele>
        <time>2015-09-17T10:41:26.982000Z</time>
      </trkpt>
      <trkpt lat="41.783405" lon="123.397224">
        <ele>63.28299</ele>
        <time>2015-09-17T10:41:30.129000Z</time>
      </trkpt>
      <trkpt lat="41.78331" lon="123.397255">
        <ele>61.6111</ele>
        <time>2015-09-17T10:41:33.276000Z</time>
      </trkpt>
      <trkpt lat="41.783203" lon="123.397285">
        <ele>59.845135</ele>
        <time>2015-09-17T10:41:36.423000Z</time>
      </trkpt>
      <trkpt lat="41.783073" lon="123.39737">
        <ele>58.85537</ele>
        <time>2015-09-17T10:41:39.570000Z</time>
      </trkpt>
      <trkpt lat="41.782978" lon="123.39748">
        <ele>58.614265</ele>
        <time>2015-09-17T10:41:42.717000Z</time>
      </trkpt>
      <trkpt lat="41.78289" lon="123.39757">
        <ele>58.714966</ele>
        <time>2015-09-17T10:41:45.864000Z</time>
      </trkpt>
      <trkpt lat="41.78282" lon="123.39768">
        <ele>58.85939</ele>
        <time>2015-09-17T10:41:49.011000Z</time>
      </trkpt>
      <trkpt lat="41.782738" lon="123.397804">
        <ele>58.66294</ele>
        <time>2015-09-17T10:41:52.158000Z</time>
      </trkpt>
      <trkpt lat="41.782654" lon="123.397934">
        <ele>57.962093</ele>
        <time>2015-09-17T10:41:55.305000Z</time>
      </trkpt>
      <trkpt lat="41.78257" lon="123.39806">
        <ele>57.076523</ele>
        <time>2015-09-17T10:41:58.452000Z</time>
      </trkpt>
      <trkpt lat="41.78249" lon="123.39817">
        <ele>56.354298</ele>
        <time>2015-09-17T10:42:01.599000Z</time>
      </trkpt>
      <trkpt lat="41.78239" lon="123.398254">
        <ele>55.787178</ele>
        <time>2015-09-17T10:42:04.746000Z</time>
      </trkpt>
      <trkpt lat="41.782276" lon="123.398315">
        <ele>55.172333</ele>
        <time>2015-09-17T10:42:07.893000Z</time>
      </trkpt>
      <trkpt lat="41.782192" lon="123.39836">
        <ele>54.201054</ele>
        <time>2015-09-17T10:42:11.040000Z</time>
      </trkpt>
      <trkpt lat="41.782074" lon="123.39842">
        <ele>52.995716</ele>
        <time>2015-09-17T10:42:14.187000Z</time>
      </trkpt>
      <trkpt lat="41.781975" lon="123.39848">
        <ele>52.227905</ele>
        <time>2015-09-17T10:42:17.334000Z</time>
      </trkpt>
      <trkpt lat="41.7819" lon="123.39858">
        <ele>52.24995</ele>
        <time>2015-09-17T10:42:20.481000Z</time>
      </trkpt>
      <trkpt lat="41.78185" lon="123.3987">
        <ele>52.4853</ele>
        <time>2015-09-17T10:42:23.628000Z</time>
      </trkpt>
      <trkpt lat="41.781834" lon="123.398834">
        <ele>52.399998</ele>
        <time>2015-09-17T10:42:26.775000Z</time>
      </trkpt>
      <trkpt lat="41.781807" lon="123.39896">
        <ele>52.130627</ele>
        <time>2015-09-17T10:42:29.922000Z</time>
      </trkpt>
      <trkpt lat="41.781757" lon="123.39907">
        <ele>52.090546</ele>
        <time>2015-09-17T10:42:33.069000Z</time>
      </trkpt>
      <trkpt lat="41.781696" lon="123.39919">
        <ele>52.393147</ele>
        <time>2015-09-17T10:42:36.216000Z</time>
      </trkpt>
      <trkpt lat="41.781635" lon="123.39932">
        <ele>52.908466</ele>
        <time>2015-09-17T10:42:39.363000Z</time>
      </trkpt>
      <trkpt lat="41.781563" lon="123.39947">
        <ele>53.603916</ele>
        <time>2015-09-17T10:42:42.510000Z</time>
      </trkpt>
      <trkpt lat="41.78149" lon="123.39963">
        <ele>54.374214</ele>
        <time>2015-09-17T10:42:45.657000Z</time>
      </trkpt>
      <trkpt lat="41.781433" lon="123.39982">
        <ele>55.031654</ele>
        <time>2015-09-17T10:42:48.804000Z</time>
      </trkpt>
      <trkpt lat="41.781376" lon="123.39998">
        <ele>55.148006</ele>
        <time>2015-09-17T10:42:51.951000Z</time>
      </trkpt>
      <trkpt lat="41.781296" lon="123.40008">
        <ele>54.28022</ele>
        <time>2015-09-17T10:42:55.098000Z</time>
      </trkpt>
      <trkpt lat="41.78118" lon="123.40018">
        <ele>52.924</ele>
        <time>2015-09-17T10:42:58.245000Z</time>
      </trkpt>
      <trkpt lat="41.781067" lon="123.400276">
        <ele>52.01324</ele>
        <time>2015-09-17T10:43:01.392000Z</time>
      </trkpt>
      <trkpt lat="41.780956" lon="123.40036">
        <ele>51.16209</ele>
        <time>2015-09-17T10:43:04.539000Z</time>
      </trkpt>
      <trkpt lat="41.780872" lon="123.400475">
        <ele>49.7576</ele>
        <time>2015-09-17T10:43:07.686000Z</time>
      </trkpt>
      <trkpt lat="41.780827" lon="123.40059">
        <ele>49.082157</ele>
        <time>2015-09-17T10:43:10.833000Z</time>
      </trkpt>
      <trkpt lat="41.78078" lon="123.40076">
        <ele>50.392536</ele>
        <time>2015-09-17T10:43:13.980000Z</time>
      </trkpt>
      <trkpt lat="41.780766" lon="123.40093">
        <ele>52.51722</ele>
        <time>2015-09-17T10:43:17.127000Z</time>
      </trkpt>
      <trkpt lat="41.780773" lon="123.40108">
        <ele>53.879734</ele>
        <time>2015-09-17T10:43:20.274000Z</time>
      </trkpt>
      <trkpt lat="41.780804" lon="123.40126">
        <ele>54.298927</ele>
        <time>2015-09-17T10:43:23.421000Z</time>
      </trkpt>
      <trkpt lat="41.780922" lon="123.40139">
        <ele>54.225937</ele>
        <time>2015-09-17T10:43:26.568000Z</time>
      </trkpt>
      <trkpt lat="41.781063" lon="123.4015">
        <ele>54.18979</ele>
        <time>2015-09-17T10:43:29.715000Z</time>
      </trkpt>
      <trkpt lat="41.781166" lon="123.401535">
        <ele>54.577568</ele>
        <time>2015-09-17T10:43:32.862000Z</time>
      </trkpt>
      <trkpt lat="41.781296" lon="123.40159">
        <ele>55.135452</ele>
        <time>2015-09-17T10:43:36.009000Z</time>
      </trkpt>
      <trkpt lat="41.781372" lon="123.40168">
        <ele>55.188488</ele>
        <time>2015-09-17T10:43:39.156000Z</time>
      </trkpt>
      <trkpt lat="41.78145" lon="123.40177">
        <ele>54.67525</ele>
        <time>2015-09-17T10:43:42.303000Z</time>
      </trkpt>
      <trkpt lat="41.781597" lon="123.40192">
        <ele>53.306957</ele>
        <time>2015-09-17T10:43:45.450000Z</time>
      </trkpt>
      <trkpt lat="41.781696" lon="123.401955">
        <ele>50.75018</ele>
        <time>2015-09-17T10:43:48.597000Z</time>
      </trkpt>
      <trkpt lat="41.781815" lon="123.40199">
        <ele>47.856014</ele>
        <time>2015-09-17T10:43:51.744000Z</time>
      </trkpt>
      <trkpt lat="41.781895" lon="123.40208">
        <ele>45.75803</ele>
        <time>2015-09-17T10:43:54.891000Z</time>
      </trkpt>
      <trkpt lat="41.78199" lon="123.40216">
        <ele>44.728676</ele>
        <time>2015-09-17T10:43:58.038000Z</time>
      </trkpt>
      <trkpt lat="41.782093" lon="123.40223">
        <ele>44.82875</ele>
        <time>2015-09-17T10:44:01.185000Z</time>
      </trkpt>
      <trkpt lat="41.7822" lon="123.4023">
        <ele>45.847446</ele>
        <time>2015-09-17T10:44:04.332000Z</time>
      </trkpt>
      <trkpt lat="41.782295" lon="123.40232">
        <ele>47.255478</ele>
        <time>2015-09-17T10:44:07.479000Z</time>
      </trkpt>
      <trkpt lat="41.782394" lon="123.40229">
        <ele>48.556362</ele>
        <time>2015-09-17T10:44:10.626000Z</time>
      </trkpt>
      <trkpt lat="41.782505" lon="123.40223">
        <ele>49.66575</ele>
        <time>2015-09-17T10:44:13.773000Z</time>
      </trkpt>
      <trkpt lat="41.782677" lon="123.40214">
        <ele>50.523483</ele>
        <time>2015-09-17T10:44:16.920000Z</time>
      </trkpt>
      <trkpt lat="41.782772" lon="123.402054">
        <ele>51.128735</ele>
        <time>2015-09-17T10:44:20.067000Z</time>
      </trkpt>
      <trkpt lat="41.782852" lon="123.401985">
        <ele>51.733643</ele>
        <time>2015-09-17T10:44:23.214000Z</time>
      </trkpt>
      <trkpt lat="41.782944" lon="123.40189">
        <ele>52.41023</ele>
        <time>2015-09-17T10:44:26.361000Z</time>
      </trkpt>
      <trkpt lat="41.78303" lon="123.40181">
        <ele>52.884823</ele>
        <time>2015-09-17T10:44:29.508000Z</time>
      </trkpt>
      <trkpt lat="41.783134" lon="123.4017">
        <ele>52.35804</ele>
        <time>2015-09-17T10:44:32.655000Z</time>
      </trkpt>
      <trkpt lat="41.783234" lon="123.40161">
        <ele>50.546757</ele>
        <time>2015-09-17T10:44:35.802000Z</time>
      </trkpt>
      <trkpt lat="41.783356" lon="123.401566">
        <ele>48.643936</ele>
        <time>2015-09-17T10:44:38.949000Z</time>
      </trkpt>
      <trkpt lat="41.78354" lon="123.40152">
        <ele>47.867332</ele>
        <time>2015-09-17T10:44:42.096000Z</time>
      </trkpt>
      <trkpt lat="41.783657" lon="123.40146">
        <ele>48.081497</ele>
        <time>2015-09-17T10:44:45.243000Z</time>
      </trkpt>
      <trkpt lat="41.783764" lon="123.40138">
        <ele>48.60199</ele>
        <time>2015-09-17T10:44:48.390000Z</time>
      </trkpt>
      <trkpt lat="41.78385" lon="123.40129">
        <ele>48.794186</ele>
        <time>2015-09-17T10:44:51.537000Z</time>
      </trkpt>
      <trkpt lat="41.78395" lon="123.401245">
        <ele>48.534424</ele>
        <time>2015-09-17T10:44:54.684000Z</time>
      </trkpt>
      <trkpt lat="41.784058" lon="123.401184">
        <ele>48.146152</ele>
        <time>2015-09-17T10:44:57.831000Z</time>
      </trkpt>
      <trkpt lat="41.784134" lon="123.40112">
        <ele>47.928196</ele>
        <time>2015-09-17T10:45:00.978000Z</time>
      </trkpt>
      <trkpt lat="41.78423" lon="123.40105">
        <ele>47.874928</ele>
        <time>2015-09-17T10:45:04.125000Z</time>
      </trkpt>
      <trkpt lat="41.784306" lon="123.40095">
        <ele>48.035152</ele>
        <time>2015-09-17T10:45:07.272000Z</time>
      </trkpt>
      <trkpt lat="41.784374" lon="123.40083">
        <ele>48.564976</ele>
        <time>2015-09-17T10:45:10.419000Z</time>
      </trkpt>
      <trkpt lat="41.784454" lon="123.40073">
        <ele>49.3119</ele>
        <time>2015-09-17T10:45:13.566000Z</time>
      </trkpt>
      <trkpt lat="41.784523" lon="123.40063">
        <ele>49.860783</ele>
        <time>2015-09-17T10:45:16.713000Z</time>
      </trkpt>
      <trkpt lat="41.78457" lon="123.400505">
        <ele>50.198883</ele>
        <time>2015-09-17T10:45:19.860000Z</time>
      </trkpt>
      <trkpt lat="41.784607" lon="123.40036">
        <ele>50.552723</ele>
        <time>2015-09-17T10:45:23.007000Z</time>
      </trkpt>
      <trkpt lat="41.784664" lon="123.400246">
        <ele>50.99882</ele>
        <time>2015-09-17T10:45:26.154000Z</time>
      </trkpt>
      <trkpt lat="41.784718" lon="123.40012">
        <ele>51.489445</ele>
        <time>2015-09-17T10:45:29.301000Z</time>
      </trkpt>
      <trkpt lat="41.78476" lon="123.40001">
        <ele>51.73127</ele>
        <time>2015-09-17T10:45:32.448000Z</time>
      </trkpt>
      <trkpt lat="41.78478" lon="123.399864">
        <ele>51.37916</ele>
        <time>2015-09-17T10:45:35.595000Z</time>
      </trkpt>
      <trkpt lat="41.7848" lon="123.399734">
        <ele>50.513145</ele>
        <time>2015-09-17T10:45:38.742000Z</time>
      </trkpt>
      <trkpt lat="41.784843" lon="123.39961">
        <ele>49.568085</ele>
        <time>2015-09-17T10:45:41.889000Z</time>
      </trkpt>
      <trkpt lat="41.78491" lon="123.3995">
        <ele>48.966003</ele>
        <time>2015-09-17T10:45:45.036000Z</time>
      </trkpt>
      <trkpt lat="41.78497" lon="123.399376">
        <ele>48.782528</ele>
        <time>2015-09-17T10:45:48.183000Z</time>
      </trkpt>
      <trkpt lat="41.785034" lon="123.39924">
        <ele>48.816105</ele>
        <time>2015-09-17T10:45:51.330000Z</time>
      </trkpt>
      <trkpt lat="41.78509" lon="123.3991">
        <time>2015-09-17T10:45:54.477000Z</time>
      </trkpt>
    </trkseg>
  </trk>
</gpx>