<?xml version="1.0" encoding="UTF-8"?>
<gpx xmlns="http://www.topografix.com/GPX/1/1" xmlns:gpxtpx="http://www.garmin.com/xmlschemas/TrackPointExtension/v1" xmlns:xsi="http://www.w3.org/2001/XMLSchema-instance" xsi:schemaLocation="http://www.topografix.com/GPX/1/1 http://www.topografix.com/GPX/1/1/gpx.xsd" version="1.1" creator="gpx.py -- https://github.com/tkrajina/gpxpy">
  <trk>
    <trkseg>
      <trkpt lat="41.759933" lon="123.361244">
        <ele>54.43276</ele>
        <time>2015-10-07T22:21:17.304000Z</time>
      </trkpt>
      <trkpt lat="41.75992" lon="123.36125">
        <ele>50.500877</ele>
        <time>2015-10-07T22:21:20.724000Z</time>
      </trkpt>
      <trkpt lat="41.75981" lon="123.36125">
        <ele>47.624134</ele>
        <time>2015-10-07T22:21:24.144000Z</time>
      </trkpt>
      <trkpt lat="41.75981" lon="123.36125">
        <ele>46.048862</ele>
        <time>2015-10-07T22:21:27.564000Z</time>
      </trkpt>
      <trkpt lat="41.759712" lon="123.36123">
        <ele>45.407604</ele>
        <time>2015-10-07T22:21:30.984000Z</time>
      </trkpt>
      <trkpt lat="41.7596" lon="123.361206">
        <ele>44.980064</ele>
        <time>2015-10-07T22:21:34.404000Z</time>
      </trkpt>
      <trkpt lat="41.759495" lon="123.36117">
        <ele>44.447113</ele>
        <time>2015-10-07T22:21:37.824000Z</time>
      </trkpt>
      <trkpt lat="41.75939" lon="123.361145">
        <ele>44.029987</ele>
        <time>2015-10-07T22:21:41.244000Z</time>
      </trkpt>
      <trkpt lat="41.759296" lon="123.36113">
        <ele>43.868176</ele>
        <time>2015-10-07T22:21:44.664000Z</time>
      </trkpt>
      <trkpt lat="41.759205" lon="123.3611">
        <ele>43.865345</ele>
        <time>2015-10-07T22:21:48.084000Z</time>
      </trkpt>
      <trkpt lat="41.759106" lon="123.36105">
        <ele>43.90932</ele>
        <time>2015-10-07T22:21:51.504000Z</time>
      </trkpt>
      <trkpt lat="41.759106" lon="123.36105">
        <ele>43.930668</ele>
        <time>2015-10-07T22:21:54.924000Z</time>
      </trkpt>
      <trkpt lat="41.759003" lon="123.36099">
        <ele>43.910976</ele>
        <time>2015-10-07T22:21:58.344000Z</time>
      </trkpt>
      <trkpt lat="41.75891" lon="123.360954">
        <ele>43.61373</ele>
        <time>2015-10-07T22:22:01.764000Z</time>
      </trkpt>
      <trkpt lat="41.758816" lon="123.360916">
        <ele>42.907063</ele>
        <time>2015-10-07T22:22:05.184000Z</time>
      </trkpt>
      <trkpt lat="41.758816" lon="123.360916">
        <ele>42.196537</ele>
        <time>2015-10-07T22:22:08.604000Z</time>
      </trkpt>
      <trkpt lat="41.758713" lon="123.360855">
        <ele>41.587234</ele>
        <time>2015-10-07T22:22:12.024000Z</time>
      </trkpt>
      <trkpt lat="41.758617" lon="123.360794">
        <ele>40.957706</ele>
        <time>2015-10-07T22:22:15.444000Z</time>
      </trkpt>
      <trkpt lat="41.75851" lon="123.36074">
        <ele>40.63756</ele>
        <time>2015-10-07T22:22:18.864000Z</time>
      </trkpt>
      <trkpt lat="41.7584" lon="123.36069">
        <ele>40.714367</ele>
        <time>2015-10-07T22:22:22.284000Z</time>
      </trkpt>
      <trkpt lat="41.758297" lon="123.360634">
        <ele>41.001514</ele>
        <time>2015-10-07T22:22:25.704000Z</time>
      </trkpt>
      <trkpt lat="41.758205" lon="123.3606">
        <ele>41.58972</ele>
        <time>2015-10-07T22:22:29.124000Z</time>
      </trkpt>
      <trkpt lat="41.758125" lon="123.36054">
        <ele>42.482563</ele>
        <time>2015-10-07T22:22:32.544000Z</time>
      </trkpt>
      <trkpt lat="41.758022" lon="123.36047">
        <ele>43.38052</ele>
        <time>2015-10-07T22:22:35.964000Z</time>
      </trkpt>
      <trkpt lat="41.757923" lon="123.3604">
        <ele>43.663185</ele>
        <time>2015-10-07T22:22:39.384000Z</time>
      </trkpt>
      <trkpt lat="41.757828" lon="123.360306">
        <ele>42.831562</ele>
        <time>2015-10-07T22:22:42.804000Z</time>
      </trkpt>
      <trkpt lat="41.757744" lon="123.36023">
        <ele>41.060986</ele>
        <time>2015-10-07T22:22:46.224000Z</time>
      </trkpt>
      <trkpt lat="41.757656" lon="123.36012">
        <ele>39.178192</ele>
        <time>2015-10-07T22:22:49.644000Z</time>
      </trkpt>
      <trkpt lat="41.757587" lon="123.36001">
        <ele>38.405045</ele>
        <time>2015-10-07T22:22:53.064000Z</time>
      </trkpt>
      <trkpt lat="41.757507" lon="123.35995">
        <ele>39.12808</ele>
        <time>2015-10-07T22:22:56.484000Z</time>
      </trkpt>
      <trkpt lat="41.757416" lon="123.35986">
        <ele>40.3066</ele>
        <time>2015-10-07T22:22:59.904000Z</time>
      </trkpt>
      <trkpt lat="41.75732" lon="123.35979">
        <ele>41.124973</ele>
        <time>2015-10-07T22:23:03.324000Z</time>
      </trkpt>
      <trkpt lat="41.757244" lon="123.3597">
        <ele>41.660564</ele>
        <time>2015-10-07T22:23:06.744000Z</time>
      </trkpt>
      <trkpt lat="41.75716" lon="123.359604">
        <ele>42.382847</ele>
        <time>2015-10-07T22:23:10.164000Z</time>
      </trkpt>
      <trkpt lat="41.757084" lon="123.359535">
        <ele>43.54134</ele>
        <time>2015-10-07T22:23:13.584000Z</time>
      </trkpt>
      <trkpt lat="41.75702" lon="123.35942">
        <ele>44.621227</ele>
        <time>2015-10-07T22:23:17.004000Z</time>
      </trkpt>
      <trkpt lat="41.756973" lon="123.35931">
        <ele>44.550472</ele>
        <time>2015-10-07T22:23:20.424000Z</time>
      </trkpt>
      <trkpt lat="41.756916" lon="123.35921">
        <ele>43.165638</ele>
        <time>2015-10-07T22:23:23.844000Z</time>
      </trkpt>
      <trkpt lat="41.756855" lon="123.35911">
        <ele>41.591732</ele>
        <time>2015-10-07T22:23:27.264000Z</time>
      </trkpt>
      <trkpt lat="41.756786" lon="123.358986">
        <ele>40.80278</ele>
        <time>2015-10-07T22:23:30.684000Z</time>
      </trkpt>
      <trkpt lat="41.756725" lon="123.358864">
        <ele>40.51978</ele>
        <time>2015-10-07T22:23:34.104000Z</time>
      </trkpt>
      <trkpt lat="41.756668" lon="123.35875">
        <ele>40.275776</ele>
        <time>2015-10-07T22:23:37.524000Z</time>
      </trkpt>
      <trkpt lat="41.756607" lon="123.358635">
        <ele>40.44928</ele>
        <time>2015-10-07T22:23:40.944000Z</time>
      </trkpt>
      <trkpt lat="41.75655" lon="123.358505">
        <ele>42.38448</ele>
        <time>2015-10-07T22:23:44.364000Z</time>
      </trkpt>
      <trkpt lat="41.756516" lon="123.35838">
        <ele>46.27305</ele>
        <time>2015-10-07T22:23:47.784000Z</time>
      </trkpt>
      <trkpt lat="41.756447" lon="123.35828">
        <ele>50.263138</ele>
        <time>2015-10-07T22:23:51.204000Z</time>
      </trkpt>
      <trkpt lat="41.756363" lon="123.35819">
        <ele>52.687954</ele>
        <time>2015-10-07T22:23:54.624000Z</time>
      </trkpt>
      <trkpt lat="41.756298" lon="123.35807">
        <ele>53.512646</ele>
        <time>2015-10-07T22:23:58.044000Z</time>
      </trkpt>
      <trkpt lat="41.756256" lon="123.35795">
        <ele>53.4419</ele>
        <time>2015-10-07T22:24:01.464000Z</time>
      </trkpt>
      <trkpt lat="41.756207" lon="123.35781">
        <ele>53.291904</ele>
        <time>2015-10-07T22:24:04.884000Z</time>
      </trkpt>
      <trkpt lat="41.75618" lon="123.35767">
        <ele>53.45526</ele>
        <time>2015-10-07T22:24:08.304000Z</time>
      </trkpt>
      <trkpt lat="41.756138" lon="123.357544">
        <ele>53.75901</ele>
        <time>2015-10-07T22:24:11.724000Z</time>
      </trkpt>
      <trkpt lat="41.7561" lon="123.35742">
        <ele>53.526344</ele>
        <time>2015-10-07T22:24:15.144000Z</time>
      </trkpt>
      <trkpt lat="41.756058" lon="123.357315">
        <ele>52.220524</ele>
        <time>2015-10-07T22:24:18.564000Z</time>
      </trkpt>
      <trkpt lat="41.755997" lon="123.357185">
        <ele>50.378376</ele>
        <time>2015-10-07T22:24:21.984000Z</time>
      </trkpt>
      <trkpt lat="41.755947" lon="123.35708">
        <ele>49.088844</ele>
        <time>2015-10-07T22:24:25.404000Z</time>
      </trkpt>
      <trkpt lat="41.755913" lon="123.356926">
        <ele>48.644028</ele>
        <time>2015-10-07T22:24:28.824000Z</time>
      </trkpt>
      <trkpt lat="41.755882" lon="123.35677">
        <ele>48.400604</ele>
        <time>2015-10-07T22:24:32.244000Z</time>
      </trkpt>
      <trkpt lat="41.755848" lon="123.35665">
        <ele>47.555965</ele>
        <time>2015-10-07T22:24:35.664000Z</time>
      </trkpt>
      <trkpt lat="41.755817" lon="123.35651">
        <ele>46.06367</ele>
        <time>2015-10-07T22:24:39.084000Z</time>
      </trkpt>
      <trkpt lat="41.75578" lon="123.35639">
        <ele>44.649834</ele>
        <time>2015-10-07T22:24:42.504000Z</time>
      </trkpt>
      <trkpt lat="41.75578" lon="123.35639">
        <ele>43.873684</ele>
        <time>2015-10-07T22:24:45.924000Z</time>
      </trkpt>
      <trkpt lat="41.755722" lon="123.35648">
        <ele>43.140167</ele>
        <time>2015-10-07T22:24:49.344000Z</time>
      </trkpt>
      <trkpt lat="41.755615" lon="123.356514">
        <ele>40.81854</ele>
        <time>2015-10-07T22:24:52.764000Z</time>
      </trkpt>
      <trkpt lat="41.755527" lon="123.35655">
        <ele>33.85085</ele>
        <time>2015-10-07T22:24:56.184000Z</time>
      </trkpt>
      <trkpt lat="41.755424" lon="123.3566">
        <ele>32.89196</ele>
        <time>2015-10-07T22:24:59.604000Z</time>
      </trkpt>
      <trkpt lat="41.755344" lon="123.3567">
        <ele>33.05026</ele>
        <time>2015-10-07T22:25:03.024000Z</time>
      </trkpt>
      <trkpt lat="41.755276" lon="123.3568">
        <ele>32.63381</ele>
        <time>2015-10-07T22:25:06.444000Z</time>
      </trkpt>
      <trkpt lat="41.755215" lon="123.35691">
        <ele>31.113419</ele>
        <time>2015-10-07T22:25:09.864000Z</time>
      </trkpt>
      <trkpt lat="41.75516" lon="123.35703">
        <ele>29.950615</ele>
        <time>2015-10-07T22:25:13.284000Z</time>
      </trkpt>
      <trkpt lat="41.755108" lon="123.357155">
        <ele>30.553738</ele>
        <time>2015-10-07T22:25:16.704000Z</time>
      </trkpt>
      <trkpt lat="41.755062" lon="123.357285">
        <ele>32.541435</ele>
        <time>2015-10-07T22:25:20.124000Z</time>
      </trkpt>
      <trkpt lat="41.75502" lon="123.35741">
        <ele>34.928963</ele>
        <time>2015-10-07T22:25:23.544000Z</time>
      </trkpt>
      <trkpt lat="41.754967" lon="123.35756">
        <ele>37.084473</ele>
        <time>2015-10-07T22:25:26.964000Z</time>
      </trkpt>
      <trkpt lat="41.75491" lon="123.35767">
        <ele>38.695602</ele>
        <time>2015-10-07T22:25:30.384000Z</time>
      </trkpt>
      <trkpt lat="41.75488" lon="123.35783">
        <ele>39.68713</ele>
        <time>2015-10-07T22:25:33.804000Z</time>
      </trkpt>
      <trkpt lat="41.75485" lon="123.35796">
        <ele>40.52639</ele>
        <time>2015-10-07T22:25:37.224000Z</time>
      </trkpt>
      <trkpt lat="41.754833" lon="123.3581">
        <ele>41.642937</ele>
        <time>2015-10-07T22:25:40.644000Z</time>
      </trkpt>
      <trkpt lat="41.75483" lon="123.358246">
        <ele>42.519775</ele>
        <time>2015-10-07T22:25:44.064000Z</time>
      </trkpt>
      <trkpt lat="41.75484" lon="123.358376">
        <ele>42.60501</ele>
        <time>2015-10-07T22:25:47.484000Z</time>
      </trkpt>
      <trkpt lat="41.754837" lon="123.358505">
        <ele>42.00474</ele>
        <time>2015-10-07T22:25:50.904000Z</time>
      </trkpt>
      <trkpt lat="41.754814" lon="123.35866">
        <ele>41.017097</ele>
        <time>2015-10-07T22:25:54.324000Z</time>
      </trkpt>
      <trkpt lat="41.75479" lon="123.35881">
        <ele>40.03092</ele>
        <time>2015-10-07T22:25:57.744000Z</time>
      </trkpt>
      <trkpt lat="41.754776" lon="123.35893">
        <ele>39.314762</ele>
        <time>2015-10-07T22:26:01.164000Z</time>
      </trkpt>
      <trkpt lat="41.754745" lon="123.35908">
        <ele>38.780865</ele>
        <time>2015-10-07T22:26:04.584000Z</time>
      </trkpt>
      <trkpt lat="41.754726" lon="123.359215">
        <ele>38.051098</ele>
        <time>2015-10-07T22:26:08.004000Z</time>
      </trkpt>
      <trkpt lat="41.754692" lon="123.35937">
        <ele>37.004303</ele>
        <time>2015-10-07T22:26:11.424000Z</time>
      </trkpt>
      <trkpt lat="41.754684" lon="123.35949">
        <ele>35.872368</ele>
        <time>2015-10-07T22:26:14.844000Z</time>
      </trkpt>
      <trkpt lat="41.754696" lon="123.35961">
        <ele>34.669292</ele>
        <time>2015-10-07T22:26:18.264000Z</time>
      </trkpt>
      <trkpt lat="41.7547" lon="123.35974">
        <ele>33.55479</ele>
        <time>2015-10-07T22:26:21.684000Z</time>
      </trkpt>
      <trkpt lat="41.754665" lon="123.3599">
        <ele>32.921326</ele>
        <time>2015-10-07T22:26:25.104000Z</time>
      </trkpt>
      <trkpt lat="41.754654" lon="123.36003">
        <ele>32.76253</ele>
        <time>2015-10-07T22:26:28.524000Z</time>
      </trkpt>
      <trkpt lat="41.754646" lon="123.36016">
        <ele>32.823612</ele>
        <time>2015-10-07T22:26:31.944000Z</time>
      </trkpt>
      <trkpt lat="41.75463" lon="123.36029">
        <ele>32.914783</ele>
        <time>2015-10-07T22:26:35.364000Z</time>
      </trkpt>
      <trkpt lat="41.75462" lon="123.36041">
        <ele>32.27505</ele>
        <time>2015-10-07T22:26:38.784000Z</time>
      </trkpt>
      <trkpt lat="41.75459" lon="123.36056">
        <ele>30.488081</ele>
        <time>2015-10-07T22:26:42.204000Z</time>
      </trkpt>
      <trkpt lat="41.754574" lon="123.36069">
        <ele>29.188437</ele>
        <time>2015-10-07T22:26:45.624000Z</time>
      </trkpt>
      <trkpt lat="41.7546" lon="123.36083">
        <ele>29.744242</ele>
        <time>2015-10-07T22:26:49.044000Z</time>
      </trkpt>
      <trkpt lat="41.754635" lon="123.36095">
        <ele>30.256132</ele>
        <time>2015-10-07T22:26:52.464000Z</time>
      </trkpt>
      <trkpt lat="41.754635" lon="123.36095">
        <ele>28.946774</ele>
        <time>2015-10-07T22:26:55.884000Z</time>
      </trkpt>
      <trkpt lat="41.75463" lon="123.36107">
        <ele>26.434551</ele>
        <time>2015-10-07T22:26:59.304000Z</time>
      </trkpt>
      <trkpt lat="41.754543" lon="123.361015">
        <ele>23.341848</ele>
        <time>2015-10-07T22:27:02.724000Z</time>
      </trkpt>
      <trkpt lat="41.754543" lon="123.361015">
        <ele>20.15537</ele>
        <time>2015-10-07T22:27:06.144000Z</time>
      </trkpt>
      <trkpt lat="41.75441" lon="123.36099">
        <ele>18.778603</ele>
        <time>2015-10-07T22:27:09.564000Z</time>
      </trkpt>
      <trkpt lat="41.754295" lon="123.36097">
        <ele>19.978392</ele>
        <time>2015-10-07T22:27:12.984000Z</time>
      </trkpt>
      <trkpt lat="41.75422" lon="123.36091">
        <ele>22.694918</ele>
        <time>2015-10-07T22:27:16.404000Z</time>
      </trkpt>
      <trkpt lat="41.754097" lon="123.36085">
        <ele>26.464537</ele>
        <time>2015-10-07T22:27:19.824000Z</time>
      </trkpt>
      <trkpt lat="41.75402" lon="123.360756">
        <ele>30.981096</ele>
        <time>2015-10-07T22:27:23.244000Z</time>
      </trkpt>
      <trkpt lat="41.75392" lon="123.36071">
        <ele>34.920746</ele>
        <time>2015-10-07T22:27:26.664000Z</time>
      </trkpt>
      <trkpt lat="41.753834" lon="123.36064">
        <ele>37.52287</ele>
        <time>2015-10-07T22:27:30.084000Z</time>
      </trkpt>
      <trkpt lat="41.753742" lon="123.36056">
        <ele>39.30396</ele>
        <time>2015-10-07T22:27:33.504000Z</time>
      </trkpt>
      <trkpt lat="41.753677" lon="123.36046">
        <ele>40.808014</ele>
        <time>2015-10-07T22:27:36.924000Z</time>
      </trkpt>
      <trkpt lat="41.75357" lon="123.3604">
        <ele>41.846073</ele>
        <time>2015-10-07T22:27:40.344000Z</time>
      </trkpt>
      <trkpt lat="41.753452" lon="123.36034">
        <ele>42.612656</ele>
        <time>2015-10-07T22:27:43.764000Z</time>
      </trkpt>
      <trkpt lat="41.753353" lon="123.360245">
        <ele>43.79947</ele>
        <time>2015-10-07T22:27:47.184000Z</time>
      </trkpt>
      <trkpt lat="41.753353" lon="123.360245">
        <ele>45.00584</ele>
        <time>2015-10-07T22:27:50.604000Z</time>
      </trkpt>
      <trkpt lat="41.753246" lon="123.360176">
        <ele>45.457035</ele>
        <time>2015-10-07T22:27:54.024000Z</time>
      </trkpt>
      <trkpt lat="41.753155" lon="123.360146">
        <ele>45.176235</ele>
        <time>2015-10-07T22:27:57.444000Z</time>
      </trkpt>
      <trkpt lat="41.75304" lon="123.36016">
        <ele>44.718723</ele>
        <time>2015-10-07T22:28:00.864000Z</time>
      </trkpt>
      <trkpt lat="41.752953" lon="123.36012">
        <ele>44.629852</ele>
        <time>2015-10-07T22:28:04.284000Z</time>
      </trkpt>
      <trkpt lat="41.75287" lon="123.360054">
        <ele>44.74921</ele>
        <time>2015-10-07T22:28:07.704000Z</time>
      </trkpt>
      <trkpt lat="41.75279" lon="123.35999">
        <ele>44.540924</ele>
        <time>2015-10-07T22:28:11.124000Z</time>
      </trkpt>
      <trkpt lat="41.752697" lon="123.35993">
        <ele>43.733276</ele>
        <time>2015-10-07T22:28:14.544000Z</time>
      </trkpt>
      <trkpt lat="41.752613" lon="123.359825">
        <ele>42.00093</ele>
        <time>2015-10-07T22:28:17.964000Z</time>
      </trkpt>
      <trkpt lat="41.752537" lon="123.359764">
        <ele>39.51027</ele>
        <time>2015-10-07T22:28:21.384000Z</time>
      </trkpt>
      <trkpt lat="41.752445" lon="123.35975">
        <ele>37.44007</ele>
        <time>2015-10-07T22:28:24.804000Z</time>
      </trkpt>
      <trkpt lat="41.75234" lon="123.35971">
        <ele>36.178463</ele>
        <time>2015-10-07T22:28:28.224000Z</time>
      </trkpt>
      <trkpt lat="41.752247" lon="123.359665">
        <ele>35.05166</ele>
        <time>2015-10-07T22:28:31.644000Z</time>
      </trkpt>
      <trkpt lat="41.752144" lon="123.35964">
        <ele>34.14927</ele>
        <time>2015-10-07T22:28:35.064000Z</time>
      </trkpt>
      <trkpt lat="41.752045" lon="123.359634">
        <ele>33.653576</ele>
        <time>2015-10-07T22:28:38.484000Z</time>
      </trkpt>
      <trkpt lat="41.75194" lon="123.35959">
        <ele>33.0056</ele>
        <time>2015-10-07T22:28:41.904000Z</time>
      </trkpt>
      <trkpt lat="41.751858" lon="123.35953">
        <ele>31.73307</ele>
        <time>2015-10-07T22:28:45.324000Z</time>
      </trkpt>
      <trkpt lat="41.75175" lon="123.35948">
        <ele>30.172462</ele>
        <time>2015-10-07T22:28:48.744000Z</time>
      </trkpt>
      <trkpt lat="41.751656" lon="123.359436">
        <ele>29.914223</ele>
        <time>2015-10-07T22:28:52.164000Z</time>
      </trkpt>
      <trkpt lat="41.751553" lon="123.359406">
        <ele>32.115143</ele>
        <time>2015-10-07T22:28:55.584000Z</time>
      </trkpt>
      <trkpt lat="41.751472" lon="123.35935">
        <ele>35.44077</ele>
        <time>2015-10-07T22:28:59.004000Z</time>
      </trkpt>
      <trkpt lat="41.751385" lon="123.35928">
        <ele>37.86715</ele>
        <time>2015-10-07T22:29:02.424000Z</time>
      </trkpt>
      <trkpt lat="41.751278" lon="123.359245">
        <ele>39.2765</ele>
        <time>2015-10-07T22:29:05.844000Z</time>
      </trkpt>
      <trkpt lat="41.751167" lon="123.35923">
        <ele>40.43329</ele>
        <time>2015-10-07T22:29:09.264000Z</time>
      </trkpt>
      <trkpt lat="41.751057" lon="123.359215">
        <ele>41.433937</ele>
        <time>2015-10-07T22:29:12.684000Z</time>
      </trkpt>
      <trkpt lat="41.750942" lon="123.3592">
        <ele>42.27133</ele>
        <time>2015-10-07T22:29:16.104000Z</time>
      </trkpt>
      <trkpt lat="41.75084" lon="123.35918">
        <ele>43.12789</ele>
        <time>2015-10-07T22:29:19.524000Z</time>
      </trkpt>
      <trkpt lat="41.750744" lon="123.35917">
        <ele>43.947937</ele>
        <time>2015-10-07T22:29:22.944000Z</time>
      </trkpt>
      <trkpt lat="41.750637" lon="123.35916">
        <ele>44.99105</ele>
        <time>2015-10-07T22:29:26.364000Z</time>
      </trkpt>
      <trkpt lat="41.750538" lon="123.35914">
        <ele>46.447926</ele>
        <time>2015-10-07T22:29:29.784000Z</time>
      </trkpt>
      <trkpt lat="41.750435" lon="123.35912">
        <ele>47.5226</ele>
        <time>2015-10-07T22:29:33.204000Z</time>
      </trkpt>
      <trkpt lat="41.750435" lon="123.35912">
        <ele>47.65963</ele>
        <time>2015-10-07T22:29:36.624000Z</time>
      </trkpt>
      <trkpt lat="41.750355" lon="123.35903">
        <ele>47.041943</ele>
        <time>2015-10-07T22:29:40.044000Z</time>
      </trkpt>
      <trkpt lat="41.75028" lon="123.35912">
        <ele>45.335552</ele>
        <time>2015-10-07T22:29:43.464000Z</time>
      </trkpt>
      <trkpt lat="41.75028" lon="123.35912">
        <ele>42.672108</ele>
        <time>2015-10-07T22:29:46.884000Z</time>
      </trkpt>
      <trkpt lat="41.7502" lon="123.35922">
        <ele>40.602764</ele>
        <time>2015-10-07T22:29:50.304000Z</time>
      </trkpt>
      <trkpt lat="41.75016" lon="123.359344">
        <ele>40.47608</ele>
        <time>2015-10-07T22:29:53.724000Z</time>
      </trkpt>
      <trkpt lat="41.750145" lon="123.35948">
        <ele>41.876564</ele>
        <time>2015-10-07T22:29:57.144000Z</time>
      </trkpt>
      <trkpt lat="41.750153" lon="123.35965">
        <ele>43.38031</ele>
        <time>2015-10-07T22:30:00.564000Z</time>
      </trkpt>
      <trkpt lat="41.750187" lon="123.359764">
        <ele>43.97387</ele>
        <time>2015-10-07T22:30:03.984000Z</time>
      </trkpt>
      <trkpt lat="41.750206" lon="123.359886">
        <ele>43.735767</ele>
        <time>2015-10-07T22:30:07.404000Z</time>
      </trkpt>
      <trkpt lat="41.75021" lon="123.360016">
        <ele>43.387604</ele>
        <time>2015-10-07T22:30:10.824000Z</time>
      </trkpt>
      <trkpt lat="41.750206" lon="123.36014">
        <ele>43.86416</ele>
        <time>2015-10-07T22:30:14.244000Z</time>
      </trkpt>
      <trkpt lat="41.7502" lon="123.36026">
        <ele>45.504204</ele>
        <time>2015-10-07T22:30:17.664000Z</time>
      </trkpt>
      <trkpt lat="41.7502" lon="123.36038">
        <ele>47.66637</ele>
        <time>2015-10-07T22:30:21.084000Z</time>
      </trkpt>
      <trkpt lat="41.750225" lon="123.36051">
        <ele>49.49548</ele>
        <time>2015-10-07T22:30:24.504000Z</time>
      </trkpt>
      <trkpt lat="41.75021" lon="123.36064">
        <ele>50.787205</ele>
        <time>2015-10-07T22:30:27.924000Z</time>
      </trkpt>
      <trkpt lat="41.750187" lon="123.36079">
        <ele>51.9079</ele>
        <time>2015-10-07T22:30:31.344000Z</time>
      </trkpt>
      <trkpt lat="41.750183" lon="123.36094">
        <ele>53.170918</ele>
        <time>2015-10-07T22:30:34.764000Z</time>
      </trkpt>
      <trkpt lat="41.75019" lon="123.36106">
        <ele>54.333694</ele>
        <time>2015-10-07T22:30:38.184000Z</time>
      </trkpt>
      <trkpt lat="41.7502" lon="123.36119">
        <ele>54.98638</ele>
        <time>2015-10-07T22:30:41.604000Z</time>
      </trkpt>
      <trkpt lat="41.7502" lon="123.36131">
        <ele>55.145874</ele>
        <time>2015-10-07T22:30:45.024000Z</time>
      </trkpt>
      <trkpt lat="41.750195" lon="123.36144">
        <ele>55.079845</ele>
        <time>2015-10-07T22:30:48.444000Z</time>
      </trkpt>
      <trkpt lat="41.750187" lon="123.361565">
        <ele>54.846573</ele>
        <time>2015-10-07T22:30:51.864000Z</time>
      </trkpt>
      <trkpt lat="41.750183" lon="123.36169">
        <ele>54.433987</ele>
        <time>2015-10-07T22:30:55.284000Z</time>
      </trkpt>
      <trkpt lat="41.75019" lon="123.36181">
        <ele>54.190197</ele>
        <time>2015-10-07T22:30:58.704000Z</time>
      </trkpt>
      <trkpt lat="41.7502" lon="123.36194">
        <ele>54.518597</ele>
        <time>2015-10-07T22:31:02.124000Z</time>
      </trkpt>
      <trkpt lat="41.75018" lon="123.36209">
        <ele>55.22917</ele>
        <time>2015-10-07T22:31:05.544000Z</time>
      </trkpt>
      <trkpt lat="41.75018" lon="123.36221">
        <ele>55.808105</ele>
        <time>2015-10-07T22:31:08.964000Z</time>
      </trkpt>
      <trkpt lat="41.750153" lon="123.36235">
        <ele>56.04099</ele>
        <time>2015-10-07T22:31:12.384000Z</time>
      </trkpt>
      <trkpt lat="41.750053" lon="123.362404">
        <ele>55.360264</ele>
        <time>2015-10-07T22:31:15.804000Z</time>
      </trkpt>
      <trkpt lat="41.749973" lon="123.36252">
        <ele>53.502098</ele>
        <time>2015-10-07T22:31:19.224000Z</time>
      </trkpt>
      <trkpt lat="41.749935" lon="123.36263">
        <ele>51.60788</ele>
        <time>2015-10-07T22:31:22.644000Z</time>
      </trkpt>
      <trkpt lat="41.74987" lon="123.36274">
        <ele>50.851105</ele>
        <time>2015-10-07T22:31:26.064000Z</time>
      </trkpt>
      <trkpt lat="41.749813" lon="123.36283">
        <ele>51.077724</ele>
        <time>2015-10-07T22:31:29.484000Z</time>
      </trkpt>
      <trkpt lat="41.74973" lon="123.3629">
        <ele>50.358337</ele>
        <time>2015-10-07T22:31:32.904000Z</time>
      </trkpt>
      <trkpt lat="41.749664" lon="123.36299">
        <ele>47.034397</ele>
        <time>2015-10-07T22:31:36.324000Z</time>
      </trkpt>
      <trkpt lat="41.749584" lon="123.36307">
        <ele>42.72831</ele>
        <time>2015-10-07T22:31:39.744000Z</time>
      </trkpt>
      <trkpt lat="41.7495" lon="123.363174">
        <ele>40.57552</ele>
        <time>2015-10-07T22:31:43.164000Z</time>
      </trkpt>
      <trkpt lat="41.7494" lon="123.36322">
        <ele>41.207546</ele>
        <time>2015-10-07T22:31:46.584000Z</time>
      </trkpt>
      <trkpt lat="41.749348" lon="123.36312">
        <ele>42.434364</ele>
        <time>2015-10-07T22:31:50.004000Z</time>
      </trkpt>
      <trkpt lat="41.74925" lon="123.36303">
        <ele>41.71796</ele>
        <time>2015-10-07T22:31:53.424000Z</time>
      </trkpt>
      <trkpt lat="41.749146" lon="123.36295">
        <ele>38.858875</ele>
        <time>2015-10-07T22:31:56.844000Z</time>
      </trkpt>
      <trkpt lat="41.749043" lon="123.36289">
        <ele>35.710197</ele>
        <time>2015-10-07T22:32:00.264000Z</time>
      </trkpt>
      <trkpt lat="41.748962" lon="123.36298">
        <ele>33.880756</ele>
        <time>2015-10-07T22:32:03.684000Z</time>
      </trkpt>
      <trkpt lat="41.74897" lon="123.36311">
        <ele>33.26403</ele>
        <time>2015-10-07T22:32:07.104000Z</time>
      </trkpt>
      <trkpt lat="41.748962" lon="123.36324">
        <ele>33.065536</ele>
        <time>2015-10-07T22:32:10.524000Z</time>
      </trkpt>
      <trkpt lat="41.748928" lon="123.363396">
        <ele>32.953815</ele>
        <time>2015-10-07T22:32:13.944000Z</time>
      </trkpt>
      <trkpt lat="41.748905" lon="123.363556">
        <ele>32.92636</ele>
        <time>2015-10-07T22:32:17.364000Z</time>
      </trkpt>
      <trkpt lat="41.74888" lon="123.36369">
        <ele>32.93755</ele>
        <time>2015-10-07T22:32:20.784000Z</time>
      </trkpt>
      <trkpt lat="41.74888" lon="123.363846">
        <ele>32.953785</ele>
        <time>2015-10-07T22:32:24.204000Z</time>
      </trkpt>
      <trkpt lat="41.748886" lon="123.36399">
        <ele>32.962803</ele>
        <time>2015-10-07T22:32:27.624000Z</time>
      </trkpt>
      <trkpt lat="41.74892" lon="123.36412">
        <ele>33.103138</ele>
        <time>2015-10-07T22:32:31.044000Z</time>
      </trkpt>
      <trkpt lat="41.748924" lon="123.36425">
        <ele>33.323906</ele>
        <time>2015-10-07T22:32:34.464000Z</time>
      </trkpt>
      <trkpt lat="41.74892" lon="123.36438">
        <ele>33.4703</ele>
        <time>2015-10-07T22:32:37.884000Z</time>
      </trkpt>
      <trkpt lat="41.74891" lon="123.36451">
        <ele>33.63529</ele>
        <time>2015-10-07T22:32:41.304000Z</time>
      </trkpt>
      <trkpt lat="41.7489" lon="123.36463">
        <ele>33.994003</ele>
        <time>2015-10-07T22:32:44.724000Z</time>
      </trkpt>
      <trkpt lat="41.74889" lon="123.364784">
        <ele>35.992676</ele>
        <time>2015-10-07T22:32:48.144000Z</time>
      </trkpt>
      <trkpt lat="41.748863" lon="123.36495">
        <ele>40.48562</ele>
        <time>2015-10-07T22:32:51.564000Z</time>
      </trkpt>
      <trkpt lat="41.74884" lon="123.36512">
        <ele>45.07064</ele>
        <time>2015-10-07T22:32:54.984000Z</time>
      </trkpt>
      <trkpt lat="41.748844" lon="123.365265">
        <ele>46.961926</ele>
        <time>2015-10-07T22:32:58.404000Z</time>
      </trkpt>
      <trkpt lat="41.748833" lon="123.36539">
        <ele>46.033417</ele>
        <time>2015-10-07T22:33:01.824000Z</time>
      </trkpt>
      <trkpt lat="41.748814" lon="123.36555">
        <ele>43.869827</ele>
        <time>2015-10-07T22:33:05.244000Z</time>
      </trkpt>
      <trkpt lat="41.748795" lon="123.36571">
        <ele>42.36926</ele>
        <time>2015-10-07T22:33:08.664000Z</time>
      </trkpt>
      <trkpt lat="41.74878" lon="123.36583">
        <ele>42.113323</ele>
        <time>2015-10-07T22:33:12.084000Z</time>
      </trkpt>
      <trkpt lat="41.748764" lon="123.36599">
        <ele>42.210236</ele>
        <time>2015-10-07T22:33:15.504000Z</time>
      </trkpt>
      <trkpt lat="41.748745" lon="123.36611">
        <ele>41.84406</ele>
        <time>2015-10-07T22:33:18.924000Z</time>
      </trkpt>
      <trkpt lat="41.74872" lon="123.36626">
        <ele>41.264736</ele>
        <time>2015-10-07T22:33:22.344000Z</time>
      </trkpt>
      <trkpt lat="41.74871" lon="123.36639">
        <ele>41.071617</ele>
        <time>2015-10-07T22:33:25.764000Z</time>
      </trkpt>
      <trkpt lat="41.74871" lon="123.36651">
        <ele>41.347446</ele>
        <time>2015-10-07T22:33:29.184000Z</time>
      </trkpt>
      <trkpt lat="41.748714" lon="123.36667">
        <ele>41.471706</ele>
        <time>2015-10-07T22:33:32.604000Z</time>
      </trkpt>
      <trkpt lat="41.748703" lon="123.3668">
        <ele>40.974583</ele>
        <time>2015-10-07T22:33:36.024000Z</time>
      </trkpt>
      <trkpt lat="41.74869" lon="123.36694">
        <ele>40.150826</ele>
        <time>2015-10-07T22:33:39.444000Z</time>
      </trkpt>
      <trkpt lat="41.74868" lon="123.367065">
        <ele>39.417038</ele>
        <time>2015-10-07T22:33:42.864000Z</time>
      </trkpt>
      <trkpt lat="41.748672" lon="123.36721">
        <ele>38.96179</ele>
        <time>2015-10-07T22:33:46.284000Z</time>
      </trkpt>
      <trkpt lat="41.748676" lon="123.36733">
        <ele>38.828526</ele>
        <time>2015-10-07T22:33:49.704000Z</time>
      </trkpt>
      <trkpt lat="41.748676" lon="123.36746">
        <ele>38.85803</ele>
        <time>2015-10-07T22:33:53.124000Z</time>
      </trkpt>
      <trkpt lat="41.748665" lon="123.367584">
        <ele>38.918182</ele>
        <time>2015-10-07T22:33:56.544000Z</time>
      </trkpt>
      <trkpt lat="41.74867" lon="123.367714">
        <ele>39.09319</ele>
        <time>2015-10-07T22:33:59.964000Z</time>
      </trkpt>
      <trkpt lat="41.748688" lon="123.367836">
        <ele>39.463634</ele>
        <time>2015-10-07T22:34:03.384000Z</time>
      </trkpt>
      <trkpt lat="41.748714" lon="123.36799">
        <ele>39.692337</ele>
        <time>2015-10-07T22:34:06.804000Z</time>
      </trkpt>
      <trkpt lat="41.748714" lon="123.36814">
        <ele>39.226418</ele>
        <time>2015-10-07T22:34:10.224000Z</time>
      </trkpt>
      <trkpt lat="41.74873" lon="123.3683">
        <ele>38.298927</ele>
        <time>2015-10-07T22:34:13.644000Z</time>
      </trkpt>
      <trkpt lat="41.748756" lon="123.36845">
        <ele>37.71387</ele>
        <time>2015-10-07T22:34:17.064000Z</time>
      </trkpt>
      <trkpt lat="41.748787" lon="123.36857">
        <ele>37.676365</ele>
        <time>2015-10-07T22:34:20.484000Z</time>
      </trkpt>
      <trkpt lat="41.7488" lon="123.36872">
        <ele>37.67668</ele>
        <time>2015-10-07T22:34:23.904000Z</time>
      </trkpt>
      <trkpt lat="41.74881" lon="123.36886">
        <ele>37.29344</ele>
        <time>2015-10-07T22:34:27.324000Z</time>
      </trkpt>
      <trkpt lat="41.74883" lon="123.368996">
        <ele>36.611</ele>
        <time>2015-10-07T22:34:30.744000Z</time>
      </trkpt>
      <trkpt lat="41.748848" lon="123.36912">
        <ele>36.068844</ele>
        <time>2015-10-07T22:34:34.164000Z</time>
      </trkpt>
      <trkpt lat="41.748882" lon="123.36927">
        <ele>36.13196</ele>
        <time>2015-10-07T22:34:37.584000Z</time>
      </trkpt>
      <trkpt lat="41.748856" lon="123.369415">
        <ele>36.845867</ele>
        <time>2015-10-07T22:34:41.004000Z</time>
      </trkpt>
      <trkpt lat="41.74882" lon="123.36956">
        <ele>37.088364</ele>
        <time>2015-10-07T22:34:44.424000Z</time>
      </trkpt>
      <trkpt lat="41.748825" lon="123.36972">
        <ele>35.905178</ele>
        <time>2015-10-07T22:34:47.844000Z</time>
      </trkpt>
      <trkpt lat="41.74879" lon="123.369865">
        <ele>33.723137</ele>
        <time>2015-10-07T22:34:51.264000Z</time>
      </trkpt>
      <trkpt lat="41.74876" lon="123.37">
        <ele>31.375114</ele>
        <time>2015-10-07T22:34:54.684000Z</time>
      </trkpt>
      <trkpt lat="41.748745" lon="123.370125">
        <ele>29.56067</ele>
        <time>2015-10-07T22:34:58.104000Z</time>
      </trkpt>
      <trkpt lat="41.74872" lon="123.370255">
        <ele>29.27981</ele>
        <time>2015-10-07T22:35:01.524000Z</time>
      </trkpt>
      <trkpt lat="41.748695" lon="123.37038">
        <ele>30.747713</ele>
        <time>2015-10-07T22:35:04.944000Z</time>
      </trkpt>
      <trkpt lat="41.7487" lon="123.37053">
        <ele>33.016605</ele>
        <time>2015-10-07T22:35:08.364000Z</time>
      </trkpt>
      <trkpt lat="41.748726" lon="123.37066">
        <ele>35.09283</ele>
        <time>2015-10-07T22:35:11.784000Z</time>
      </trkpt>
      <trkpt lat="41.748775" lon="123.37077">
        <ele>36.678143</ele>
        <time>2015-10-07T22:35:15.204000Z</time>
      </trkpt>
      <trkpt lat="41.74883" lon="123.37089">
        <ele>37.811024</ele>
        <time>2015-10-07T22:35:18.624000Z</time>
      </trkpt>
      <trkpt lat="41.748817" lon="123.371025">
        <ele>38.605385</ele>
        <time>2015-10-07T22:35:22.044000Z</time>
      </trkpt>
      <trkpt lat="41.74883" lon="123.37117">
        <ele>38.879936</ele>
        <time>2015-10-07T22:35:25.464000Z</time>
      </trkpt>
      <trkpt lat="41.74885" lon="123.37131">
        <ele>38.60407</ele>
        <time>2015-10-07T22:35:28.884000Z</time>
      </trkpt>
      <trkpt lat="41.748867" lon="123.37149">
        <ele>38.042046</ele>
        <time>2015-10-07T22:35:32.304000Z</time>
      </trkpt>
      <trkpt lat="41.748863" lon="123.37166">
        <ele>36.889324</ele>
        <time>2015-10-07T22:35:35.724000Z</time>
      </trkpt>
      <trkpt lat="41.74888" lon="123.37179">
        <ele>35.020523</ele>
        <time>2015-10-07T22:35:39.144000Z</time>
      </trkpt>
      <trkpt lat="41.748917" lon="123.371925">
        <ele>33.390972</ele>
        <time>2015-10-07T22:35:42.564000Z</time>
      </trkpt>
      <trkpt lat="41.748947" lon="123.37206">
        <ele>32.55989</ele>
        <time>2015-10-07T22:35:45.984000Z</time>
      </trkpt>
      <trkpt lat="41.74898" lon="123.37219">
        <ele>32.143253</ele>
        <time>2015-10-07T22:35:49.404000Z</time>
      </trkpt>
      <trkpt lat="41.74903" lon="123.372314">
        <ele>31.928574</ele>
        <time>2015-10-07T22:35:52.824000Z</time>
      </trkpt>
      <trkpt lat="41.74911" lon="123.37237">
        <ele>31.885849</ele>
        <time>2015-10-07T22:35:56.244000Z</time>
      </trkpt>
      <trkpt lat="41.749165" lon="123.37249">
        <ele>31.91489</ele>
        <time>2015-10-07T22:35:59.664000Z</time>
      </trkpt>
      <trkpt lat="41.749207" lon="123.37263">
        <ele>32.363434</ele>
        <time>2015-10-07T22:36:03.084000Z</time>
      </trkpt>
      <trkpt lat="41.749237" lon="123.37277">
        <ele>33.59859</ele>
        <time>2015-10-07T22:36:06.504000Z</time>
      </trkpt>
      <trkpt lat="41.74925" lon="123.37292">
        <ele>35.208282</ele>
        <time>2015-10-07T22:36:09.924000Z</time>
      </trkpt>
      <trkpt lat="41.749313" lon="123.373055">
        <ele>36.875496</ele>
        <time>2015-10-07T22:36:13.344000Z</time>
      </trkpt>
      <trkpt lat="41.749313" lon="123.373055">
        <ele>38.576683</ele>
        <time>2015-10-07T22:36:16.764000Z</time>
      </trkpt>
      <trkpt lat="41.749367" lon="123.37316">
        <ele>39.795425</ele>
        <time>2015-10-07T22:36:20.184000Z</time>
      </trkpt>
      <trkpt lat="41.749405" lon="123.37328">
        <ele>40.227173</ele>
        <time>2015-10-07T22:36:23.604000Z</time>
      </trkpt>
      <trkpt lat="41.749405" lon="123.37328">
        <ele>40.204586</ele>
        <time>2015-10-07T22:36:27.024000Z</time>
      </trkpt>
      <trkpt lat="41.74944" lon="123.37341">
        <ele>40.064587</ele>
        <time>2015-10-07T22:36:30.444000Z</time>
      </trkpt>
      <trkpt lat="41.749466" lon="123.37353">
        <ele>39.827568</ele>
        <time>2015-10-07T22:36:33.864000Z</time>
      </trkpt>
      <trkpt lat="41.749535" lon="123.37366">
        <ele>39.43324</ele>
        <time>2015-10-07T22:36:37.284000Z</time>
      </trkpt>
      <trkpt lat="41.7496" lon="123.37377">
        <ele>39.066074</ele>
        <time>2015-10-07T22:36:40.704000Z</time>
      </trkpt>
      <trkpt lat="41.749653" lon="123.37392">
        <ele>38.764153</ele>
        <time>2015-10-07T22:36:44.124000Z</time>
      </trkpt>
      <trkpt lat="41.749653" lon="123.37392">
        <ele>38.49133</ele>
        <time>2015-10-07T22:36:47.544000Z</time>
      </trkpt>
      <trkpt lat="41.749687" lon="123.37404">
        <ele>38.18587</ele>
        <time>2015-10-07T22:36:50.964000Z</time>
      </trkpt>
      <trkpt lat="41.749695" lon="123.3739">
        <ele>37.931667</ele>
        <time>2015-10-07T22:36:54.384000Z</time>
      </trkpt>
      <trkpt lat="41.749695" lon="123.3739">
        <ele>37.920345</ele>
        <time>2015-10-07T22:36:57.804000Z</time>
      </trkpt>
      <trkpt lat="41.749645" lon="123.37374">
        <ele>38.024364</ele>
        <time>2015-10-07T22:37:01.224000Z</time>
      </trkpt>
      <trkpt lat="41.7496" lon="123.373604">
        <ele>38.008274</ele>
        <time>2015-10-07T22:37:04.644000Z</time>
      </trkpt>
      <trkpt lat="41.749557" lon="123.37348">
        <ele>37.975975</ele>
        <time>2015-10-07T22:37:08.064000Z</time>
      </trkpt>
      <trkpt lat="41.7495" lon="123.37336">
        <ele>37.956276</ele>
        <time>2015-10-07T22:37:11.484000Z</time>
      </trkpt>
      <trkpt lat="41.74947" lon="123.373245">
        <ele>37.674305</ele>
        <time>2015-10-07T22:37:14.904000Z</time>
      </trkpt>
      <trkpt lat="41.74944" lon="123.37312">
        <ele>36.955914</ele>
        <time>2015-10-07T22:37:18.324000Z</time>
      </trkpt>
      <trkpt lat="41.749382" lon="123.37299">
        <ele>36.219692</ele>
        <time>2015-10-07T22:37:21.744000Z</time>
      </trkpt>
      <trkpt lat="41.749336" lon="123.37286">
        <ele>36.00894</ele>
        <time>2015-10-07T22:37:25.164000Z</time>
      </trkpt>
      <trkpt lat="41.749287" lon="123.37273">
        <ele>36.316216</ele>
        <time>2015-10-07T22:37:28.584000Z</time>
      </trkpt>
      <trkpt lat="41.749252" lon="123.372604">
        <ele>36.745502</ele>
        <time>2015-10-07T22:37:32.004000Z</time>
      </trkpt>
      <trkpt lat="41.74921" lon="123.372475">
        <ele>37.118942</ele>
        <time>2015-10-07T22:37:35.424000Z</time>
      </trkpt>
      <trkpt lat="41.749176" lon="123.37236">
        <ele>37.53343</ele>
        <time>2015-10-07T22:37:38.844000Z</time>
      </trkpt>
      <trkpt lat="41.749146" lon="123.37223">
        <ele>37.876884</ele>
        <time>2015-10-07T22:37:42.264000Z</time>
      </trkpt>
      <trkpt lat="41.749107" lon="123.3721">
        <ele>38.29341</ele>
        <time>2015-10-07T22:37:45.684000Z</time>
      </trkpt>
      <trkpt lat="41.749077" lon="123.37196">
        <ele>39.02074</ele>
        <time>2015-10-07T22:37:49.104000Z</time>
      </trkpt>
      <trkpt lat="41.74903" lon="123.37182">
        <ele>39.58717</ele>
        <time>2015-10-07T22:37:52.524000Z</time>
      </trkpt>
      <trkpt lat="41.74898" lon="123.371704">
        <ele>39.549885</ele>
        <time>2015-10-07T22:37:55.944000Z</time>
      </trkpt>
      <trkpt lat="41.748924" lon="123.37157">
        <ele>39.22228</ele>
        <time>2015-10-07T22:37:59.364000Z</time>
      </trkpt>
      <trkpt lat="41.74891" lon="123.37143">
        <ele>38.986557</ele>
        <time>2015-10-07T22:38:02.784000Z</time>
      </trkpt>
      <trkpt lat="41.748886" lon="123.37129">
        <ele>38.90264</ele>
        <time>2015-10-07T22:38:06.204000Z</time>
      </trkpt>
      <trkpt lat="41.748863" lon="123.37117">
        <ele>38.353992</ele>
        <time>2015-10-07T22:38:09.624000Z</time>
      </trkpt>
      <trkpt lat="41.74883" lon="123.371056">
        <ele>36.66503</ele>
        <time>2015-10-07T22:38:13.044000Z</time>
      </trkpt>
      <trkpt lat="41.748814" lon="123.37093">
        <ele>34.486626</ele>
        <time>2015-10-07T22:38:16.464000Z</time>
      </trkpt>
      <trkpt lat="41.74881" lon="123.370804">
        <ele>33.053406</ele>
        <time>2015-10-07T22:38:19.884000Z</time>
      </trkpt>
      <trkpt lat="41.748783" lon="123.37068">
        <ele>32.734528</ele>
        <time>2015-10-07T22:38:23.304000Z</time>
      </trkpt>
      <trkpt lat="41.748745" lon="123.370544">
        <ele>33.159084</ele>
        <time>2015-10-07T22:38:26.724000Z</time>
      </trkpt>
      <trkpt lat="41.74872" lon="123.37041">
        <ele>33.70737</ele>
        <time>2015-10-07T22:38:30.144000Z</time>
      </trkpt>
      <trkpt lat="41.74868" lon="123.37026">
        <ele>34.13688</ele>
        <time>2015-10-07T22:38:33.564000Z</time>
      </trkpt>
      <trkpt lat="41.748688" lon="123.37014">
        <ele>34.55962</ele>
        <time>2015-10-07T22:38:36.984000Z</time>
      </trkpt>
      <trkpt lat="41.748764" lon="123.37006">
        <ele>34.893307</ele>
        <time>2015-10-07T22:38:40.404000Z</time>
      </trkpt>
      <trkpt lat="41.748802" lon="123.36991">
        <ele>35.30014</ele>
        <time>2015-10-07T22:38:43.824000Z</time>
      </trkpt>
      <trkpt lat="41.748844" lon="123.36973">
        <ele>36.161137</ele>
        <time>2015-10-07T22:38:47.244000Z</time>
      </trkpt>
      <trkpt lat="41.748875" lon="123.36957">
        <ele>37.22501</ele>
        <time>2015-10-07T22:38:50.664000Z</time>
      </trkpt>
      <trkpt lat="41.748882" lon="123.36942">
        <ele>37.917862</ele>
        <time>2015-10-07T22:38:54.084000Z</time>
      </trkpt>
      <trkpt lat="41.74887" lon="123.36926">
        <ele>38.135746</ele>
        <time>2015-10-07T22:38:57.504000Z</time>
      </trkpt>
      <trkpt lat="41.748844" lon="123.36907">
        <ele>38.240353</ele>
        <time>2015-10-07T22:39:00.924000Z</time>
      </trkpt>
      <trkpt lat="41.748817" lon="123.36895">
        <ele>38.512924</ele>
        <time>2015-10-07T22:39:04.344000Z</time>
      </trkpt>
      <trkpt lat="41.748787" lon="123.36882">
        <ele>38.82626</ele>
        <time>2015-10-07T22:39:07.764000Z</time>
      </trkpt>
      <trkpt lat="41.748795" lon="123.368675">
        <ele>38.984215</ele>
        <time>2015-10-07T22:39:11.184000Z</time>
      </trkpt>
      <trkpt lat="41.74878" lon="123.36856">
        <ele>39.704605</ele>
        <time>2015-10-07T22:39:14.604000Z</time>
      </trkpt>
      <trkpt lat="41.74878" lon="123.36856">
        <ele>41.481247</ele>
        <time>2015-10-07T22:39:18.024000Z</time>
      </trkpt>
      <trkpt lat="41.748775" lon="123.36844">
        <ele>43.026497</ele>
        <time>2015-10-07T22:39:21.444000Z</time>
      </trkpt>
      <trkpt lat="41.748756" lon="123.3683">
        <ele>43.170296</ele>
        <time>2015-10-07T22:39:24.864000Z</time>
      </trkpt>
      <trkpt lat="41.748756" lon="123.3683">
        <ele>42.723507</ele>
        <time>2015-10-07T22:39:28.284000Z</time>
      </trkpt>
      <trkpt lat="41.74873" lon="123.36816">
        <ele>43.175323</ele>
        <time>2015-10-07T22:39:31.704000Z</time>
      </trkpt>
      <trkpt lat="41.748695" lon="123.368034">
        <ele>44.78444</ele>
        <time>2015-10-07T22:39:35.124000Z</time>
      </trkpt>
      <trkpt lat="41.74868" lon="123.3679">
        <ele>46.394886</ele>
        <time>2015-10-07T22:39:38.544000Z</time>
      </trkpt>
      <trkpt lat="41.74868" lon="123.36774">
        <ele>47.14742</ele>
        <time>2015-10-07T22:39:41.964000Z</time>
      </trkpt>
      <trkpt lat="41.748707" lon="123.36759">
        <ele>47.25444</ele>
        <time>2015-10-07T22:39:45.384000Z</time>
      </trkpt>
      <trkpt lat="41.748695" lon="123.36744">
        <ele>47.258686</ele>
        <time>2015-10-07T22:39:48.804000Z</time>
      </trkpt>
      <trkpt lat="41.748688" lon="123.36729">
        <ele>47.48737</ele>
        <time>2015-10-07T22:39:52.224000Z</time>
      </trkpt>
      <trkpt lat="41.748688" lon="123.367165">
        <ele>47.796303</ele>
        <time>2015-10-07T22:39:55.644000Z</time>
      </trkpt>
      <trkpt lat="41.748688" lon="123.367165">
        <ele>47.96345</ele>
        <time>2015-10-07T22:39:59.064000Z</time>
      </trkpt>
      <trkpt lat="41.74869" lon="123.36702">
        <ele>48.001118</ele>
        <time>2015-10-07T22:40:02.484000Z</time>
      </trkpt>
      <trkpt lat="41.748707" lon="123.366875">
        <ele>47.953674</ele>
        <time>2015-10-07T22:40:05.904000Z</time>
      </trkpt>
      <trkpt lat="41.748707" lon="123.366875">
        <ele>47.876865</ele>
        <time>2015-10-07T22:40:09.324000Z</time>
      </trkpt>
      <trkpt lat="41.74871" lon="123.36675">
        <ele>47.712986</ele>
        <time>2015-10-07T22:40:12.744000Z</time>
      </trkpt>
      <trkpt lat="41.748726" lon="123.366615">
        <ele>47.38926</ele>
        <time>2015-10-07T22:40:16.164000Z</time>
      </trkpt>
      <trkpt lat="41.748753" lon="123.366486">
        <ele>47.06074</ele>
        <time>2015-10-07T22:40:19.584000Z</time>
      </trkpt>
      <trkpt lat="41.74879" lon="123.366356">
        <ele>46.905945</ele>
        <time>2015-10-07T22:40:23.004000Z</time>
      </trkpt>
      <trkpt lat="41.748795" lon="123.36624">
        <ele>46.883144</ele>
        <time>2015-10-07T22:40:26.424000Z</time>
      </trkpt>
      <trkpt lat="41.748814" lon="123.36612">
        <ele>46.49557</ele>
        <time>2015-10-07T22:40:29.844000Z</time>
      </trkpt>
      <trkpt lat="41.748833" lon="123.36598">
        <ele>45.304485</ele>
        <time>2015-10-07T22:40:33.264000Z</time>
      </trkpt>
      <trkpt lat="41.748844" lon="123.365845">
        <ele>43.84874</ele>
        <time>2015-10-07T22:40:36.684000Z</time>
      </trkpt>
      <trkpt lat="41.74887" lon="123.36572">
        <ele>42.678898</ele>
        <time>2015-10-07T22:40:40.104000Z</time>
      </trkpt>
      <trkpt lat="41.74889" lon="123.36558">
        <ele>41.56384</ele>
        <time>2015-10-07T22:40:43.524000Z</time>
      </trkpt>
      <trkpt lat="41.748882" lon="123.36545">
        <ele>40.526325</ele>
        <time>2015-10-07T22:40:46.944000Z</time>
      </trkpt>
      <trkpt lat="41.748882" lon="123.365326">
        <ele>39.925674</ele>
        <time>2015-10-07T22:40:50.364000Z</time>
      </trkpt>
      <trkpt lat="41.74889" lon="123.36519">
        <ele>39.76962</ele>
        <time>2015-10-07T22:40:53.784000Z</time>
      </trkpt>
      <trkpt lat="41.74891" lon="123.36504">
        <ele>39.961586</ele>
        <time>2015-10-07T22:40:57.204000Z</time>
      </trkpt>
      <trkpt lat="41.74891" lon="123.36488">
        <ele>40.40639</ele>
        <time>2015-10-07T22:41:00.624000Z</time>
      </trkpt>
      <trkpt lat="41.74891" lon="123.364746">
        <ele>40.824352</ele>
        <time>2015-10-07T22:41:04.044000Z</time>
      </trkpt>
      <trkpt lat="41.748905" lon="123.36461">
        <ele>41.150085</ele>
        <time>2015-10-07T22:41:07.464000Z</time>
      </trkpt>
      <trkpt lat="41.748917" lon="123.36445">
        <ele>41.53193</ele>
        <time>2015-10-07T22:41:10.884000Z</time>
      </trkpt>
      <trkpt lat="41.748917" lon="123.36427">
        <ele>42.00261</ele>
        <time>2015-10-07T22:41:14.304000Z</time>
      </trkpt>
      <trkpt lat="41.74892" lon="123.36411">
        <ele>42.503735</ele>
        <time>2015-10-07T22:41:17.724000Z</time>
      </trkpt>
      <trkpt lat="41.748917" lon="123.363976">
        <ele>42.884636</ele>
        <time>2015-10-07T22:41:21.144000Z</time>
      </trkpt>
      <trkpt lat="41.74891" lon="123.36383">
        <ele>43.02828</ele>
        <time>2015-10-07T22:41:24.564000Z</time>
      </trkpt>
      <trkpt lat="41.748928" lon="123.363716">
        <ele>43.027763</ele>
        <time>2015-10-07T22:41:27.984000Z</time>
      </trkpt>
      <trkpt lat="41.748962" lon="123.3636">
        <ele>42.986454</ele>
        <time>2015-10-07T22:41:31.404000Z</time>
      </trkpt>
      <trkpt lat="41.748978" lon="123.36345">
        <ele>42.955532</ele>
        <time>2015-10-07T22:41:34.824000Z</time>
      </trkpt>
      <trkpt lat="41.74899" lon="123.36332">
        <ele>42.944054</ele>
        <time>2015-10-07T22:41:38.244000Z</time>
      </trkpt>
      <trkpt lat="41.748985" lon="123.36318">
        <ele>43.08241</ele>
        <time>2015-10-07T22:41:41.664000Z</time>
      </trkpt>
      <trkpt lat="41.748993" lon="123.363045">
        <ele>43.445705</ele>
        <time>2015-10-07T22:41:45.084000Z</time>
      </trkpt>
      <trkpt lat="41.74893" lon="123.36292">
        <ele>43.81765</ele>
        <time>2015-10-07T22:41:48.504000Z</time>
      </trkpt>
      <trkpt lat="41.74884" lon="123.362816">
        <ele>43.993828</ele>
        <time>2015-10-07T22:41:51.924000Z</time>
      </trkpt>
      <trkpt lat="41.748764" lon="123.36274">
        <ele>44.434864</ele>
        <time>2015-10-07T22:41:55.344000Z</time>
      </trkpt>
      <trkpt lat="41.748672" lon="123.362686">
        <ele>45.484276</ele>
        <time>2015-10-07T22:41:58.764000Z</time>
      </trkpt>
      <trkpt lat="41.748592" lon="123.36261">
        <ele>46.562267</ele>
        <time>2015-10-07T22:42:02.184000Z</time>
      </trkpt>
      <trkpt lat="41.74853" lon="123.36252">
        <ele>47.073883</ele>
        <time>2015-10-07T22:42:05.604000Z</time>
      </trkpt>
      <trkpt lat="41.748478" lon="123.3624">
        <ele>47.151455</ele>
        <time>2015-10-07T22:42:09.024000Z</time>
      </trkpt>
      <trkpt lat="41.748436" lon="123.36228">
        <ele>46.92584</ele>
        <time>2015-10-07T22:42:12.444000Z</time>
      </trkpt>
      <trkpt lat="41.7484" lon="123.36213">
        <ele>46.201736</ele>
        <time>2015-10-07T22:42:15.864000Z</time>
      </trkpt>
      <trkpt lat="41.748363" lon="123.36199">
        <ele>45.07137</ele>
        <time>2015-10-07T22:42:19.284000Z</time>
      </trkpt>
      <trkpt lat="41.748318" lon="123.361885">
        <ele>44.01315</ele>
        <time>2015-10-07T22:42:22.704000Z</time>
      </trkpt>
      <trkpt lat="41.74827" lon="123.36177">
        <ele>42.592594</ele>
        <time>2015-10-07T22:42:26.124000Z</time>
      </trkpt>
      <trkpt lat="41.748226" lon="123.36163">
        <ele>39.716892</ele>
        <time>2015-10-07T22:42:29.544000Z</time>
      </trkpt>
      <trkpt lat="41.748165" lon="123.36154">
        <ele>35.988384</ele>
        <time>2015-10-07T22:42:32.964000Z</time>
      </trkpt>
      <trkpt lat="41.748096" lon="123.36144">
        <ele>33.313133</ele>
        <time>2015-10-07T22:42:36.384000Z</time>
      </trkpt>
      <trkpt lat="41.748035" lon="123.36133">
        <ele>32.778305</ele>
        <time>2015-10-07T22:42:39.804000Z</time>
      </trkpt>
      <trkpt lat="41.747982" lon="123.361206">
        <ele>33.90633</ele>
        <time>2015-10-07T22:42:43.224000Z</time>
      </trkpt>
      <trkpt lat="41.747932" lon="123.361084">
        <ele>35.321487</ele>
        <time>2015-10-07T22:42:46.644000Z</time>
      </trkpt>
      <trkpt lat="41.74786" lon="123.36098">
        <ele>36.06424</ele>
        <time>2015-10-07T22:42:50.064000Z</time>
      </trkpt>
      <trkpt lat="41.747776" lon="123.360886">
        <ele>36.219555</ele>
        <time>2015-10-07T22:42:53.484000Z</time>
      </trkpt>
      <trkpt lat="41.747707" lon="123.36079">
        <ele>35.710182</ele>
        <time>2015-10-07T22:42:56.904000Z</time>
      </trkpt>
      <trkpt lat="41.747654" lon="123.36065">
        <ele>34.514942</ele>
        <time>2015-10-07T22:43:00.324000Z</time>
      </trkpt>
      <trkpt lat="41.747635" lon="123.36053">
        <ele>33.899467</ele>
        <time>2015-10-07T22:43:03.744000Z</time>
      </trkpt>
      <trkpt lat="41.74762" lon="123.36039">
        <ele>34.939327</ele>
        <time>2015-10-07T22:43:07.164000Z</time>
      </trkpt>
      <trkpt lat="41.74759" lon="123.36027">
        <ele>36.70533</ele>
        <time>2015-10-07T22:43:10.584000Z</time>
      </trkpt>
      <trkpt lat="41.747578" lon="123.360115">
        <ele>38.013382</ele>
        <time>2015-10-07T22:43:14.004000Z</time>
      </trkpt>
      <trkpt lat="41.747562" lon="123.36">
        <ele>38.749805</ele>
        <time>2015-10-07T22:43:17.424000Z</time>
      </trkpt>
      <trkpt lat="41.747566" lon="123.35985">
        <ele>39.069057</ele>
        <time>2015-10-07T22:43:20.844000Z</time>
      </trkpt>
      <trkpt lat="41.74756" lon="123.359726">
        <ele>38.82294</ele>
        <time>2015-10-07T22:43:24.264000Z</time>
      </trkpt>
      <trkpt lat="41.74754" lon="123.35959">
        <ele>37.75858</ele>
        <time>2015-10-07T22:43:27.684000Z</time>
      </trkpt>
      <trkpt lat="41.747505" lon="123.35944">
        <ele>36.24001</ele>
        <time>2015-10-07T22:43:31.104000Z</time>
      </trkpt>
      <trkpt lat="41.747494" lon="123.35932">
        <ele>35.125</ele>
        <time>2015-10-07T22:43:34.524000Z</time>
      </trkpt>
      <trkpt lat="41.747494" lon="123.35932">
        <ele>34.7365</ele>
        <time>2015-10-07T22:43:37.944000Z</time>
      </trkpt>
      <trkpt lat="41.74749" lon="123.3592">
        <ele>34.79405</ele>
        <time>2015-10-07T22:43:41.364000Z</time>
      </trkpt>
      <trkpt lat="41.747486" lon="123.35907">
        <ele>35.36255</ele>
        <time>2015-10-07T22:43:44.784000Z</time>
      </trkpt>
      <trkpt lat="41.747475" lon="123.35895">
        <ele>36.924145</ele>
        <time>2015-10-07T22:43:48.204000Z</time>
      </trkpt>
      <trkpt lat="41.74746" lon="123.3588">
        <ele>40.846848</ele>
        <time>2015-10-07T22:43:51.624000Z</time>
      </trkpt>
      <trkpt lat="41.74745" lon="123.35868">
        <ele>41.79474</ele>
        <time>2015-10-07T22:43:55.044000Z</time>
      </trkpt>
      <trkpt lat="41.747463" lon="123.35855">
        <ele>42.286633</ele>
        <time>2015-10-07T22:43:58.464000Z</time>
      </trkpt>
      <trkpt lat="41.747513" lon="123.35843">
        <ele>42.64243</ele>
        <time>2015-10-07T22:44:01.884000Z</time>
      </trkpt>
      <trkpt lat="41.747547" lon="123.35828">
        <ele>42.908005</ele>
        <time>2015-10-07T22:44:05.304000Z</time>
      </trkpt>
      <trkpt lat="41.74756" lon="123.35814">
        <ele>43.144512</ele>
        <time>2015-10-07T22:44:08.724000Z</time>
      </trkpt>
      <trkpt lat="41.747543" lon="123.35793">
        <ele>43.502674</ele>
        <time>2015-10-07T22:44:12.144000Z</time>
      </trkpt>
      <trkpt lat="41.747524" lon="123.35779">
        <ele>44.257328</ele>
        <time>2015-10-07T22:44:15.564000Z</time>
      </trkpt>
      <trkpt lat="41.7475" lon="123.35765">
        <ele>45.490715</ele>
        <time>2015-10-07T22:44:18.984000Z</time>
      </trkpt>
      <trkpt lat="41.747463" lon="123.35751">
        <ele>46.617695</ele>
        <time>2015-10-07T22:44:22.404000Z</time>
      </trkpt>
      <trkpt lat="41.747417" lon="123.3574">
        <ele>47.251904</ele>
        <time>2015-10-07T22:44:25.824000Z</time>
      </trkpt>
      <trkpt lat="41.747356" lon="123.35727">
        <ele>47.663696</ele>
        <time>2015-10-07T22:44:29.244000Z</time>
      </trkpt>
      <trkpt lat="41.747295" lon="123.35715">
        <ele>47.930824</ele>
        <time>2015-10-07T22:44:32.664000Z</time>
      </trkpt>
      <trkpt lat="41.747295" lon="123.35715">
        <ele>48.00481</ele>
        <time>2015-10-07T22:44:36.084000Z</time>
      </trkpt>
      <trkpt lat="41.74724" lon="123.35705">
        <ele>47.966625</ele>
        <time>2015-10-07T22:44:39.504000Z</time>
      </trkpt>
      <trkpt lat="41.74718" lon="123.35694">
        <ele>47.778652</ele>
        <time>2015-10-07T22:44:42.924000Z</time>
      </trkpt>
      <trkpt lat="41.74718" lon="123.35694">
        <ele>47.409904</ele>
        <time>2015-10-07T22:44:46.344000Z</time>
      </trkpt>
      <trkpt lat="41.747128" lon="123.356834">
        <ele>46.91938</ele>
        <time>2015-10-07T22:44:49.764000Z</time>
      </trkpt>
      <trkpt lat="41.74709" lon="123.35673">
        <ele>46.26142</ele>
        <time>2015-10-07T22:44:53.184000Z</time>
      </trkpt>
      <trkpt lat="41.747063" lon="123.35658">
        <ele>45.512253</ele>
        <time>2015-10-07T22:44:56.604000Z</time>
      </trkpt>
      <trkpt lat="41.747044" lon="123.35647">
        <ele>44.998196</ele>
        <time>2015-10-07T22:45:00.024000Z</time>
      </trkpt>
      <trkpt lat="41.747032" lon="123.35632">
        <ele>44.825092</ele>
        <time>2015-10-07T22:45:03.444000Z</time>
      </trkpt>
      <trkpt lat="41.747013" lon="123.35618">
        <ele>44.841396</ele>
        <time>2015-10-07T22:45:06.864000Z</time>
      </trkpt>
      <trkpt lat="41.746986" lon="123.356026">
        <ele>44.902973</ele>
        <time>2015-10-07T22:45:10.284000Z</time>
      </trkpt>
      <trkpt lat="41.746967" lon="123.35588">
        <ele>44.806458</ele>
        <time>2015-10-07T22:45:13.704000Z</time>
      </trkpt>
      <trkpt lat="41.746956" lon="123.35575">
        <ele>44.460346</ele>
        <time>2015-10-07T22:45:17.124000Z</time>
      </trkpt>
      <trkpt lat="41.746925" lon="123.3556">
        <ele>44.089405</ele>
        <time>2015-10-07T22:45:20.544000Z</time>
      </trkpt>
      <trkpt lat="41.746914" lon="123.35548">
        <ele>43.909084</ele>
        <time>2015-10-07T22:45:23.964000Z</time>
      </trkpt>
      <trkpt lat="41.746906" lon="123.355354">
        <ele>43.879177</ele>
        <time>2015-10-07T22:45:27.384000Z</time>
      </trkpt>
      <trkpt lat="41.74685" lon="123.35523">
        <ele>43.90807</ele>
        <time>2015-10-07T22:45:30.804000Z</time>
      </trkpt>
      <trkpt lat="41.746784" lon="123.35512">
        <ele>43.938313</ele>
        <time>2015-10-07T22:45:34.224000Z</time>
      </trkpt>
      <trkpt lat="41.746784" lon="123.35512">
        <ele>43.9443</ele>
        <time>2015-10-07T22:45:37.644000Z</time>
      </trkpt>
      <trkpt lat="41.746727" lon="123.354996">
        <ele>43.924393</ele>
        <time>2015-10-07T22:45:41.064000Z</time>
      </trkpt>
      <trkpt lat="41.74667" lon="123.35489">
        <ele>43.90772</ele>
        <time>2015-10-07T22:45:44.484000Z</time>
      </trkpt>
      <trkpt lat="41.746674" lon="123.35502">
        <ele>43.916645</ele>
        <time>2015-10-07T22:45:47.904000Z</time>
      </trkpt>
      <trkpt lat="41.746674" lon="123.35502">
        <ele>43.92511</ele>
        <time>2015-10-07T22:45:51.324000Z</time>
      </trkpt>
      <trkpt lat="41.746716" lon="123.35513">
        <ele>43.64276</ele>
        <time>2015-10-07T22:45:54.744000Z</time>
      </trkpt>
      <trkpt lat="41.746777" lon="123.35523">
        <ele>42.925877</ele>
        <time>2015-10-07T22:45:58.164000Z</time>
      </trkpt>
      <trkpt lat="41.74681" lon="123.355354">
        <ele>42.06423</ele>
        <time>2015-10-07T22:46:01.584000Z</time>
      </trkpt>
      <trkpt lat="41.746838" lon="123.35548">
        <ele>41.36458</ele>
        <time>2015-10-07T22:46:05.004000Z</time>
      </trkpt>
      <trkpt lat="41.746887" lon="123.355606">
        <ele>40.807606</ele>
        <time>2015-10-07T22:46:08.424000Z</time>
      </trkpt>
      <trkpt lat="41.746902" lon="123.35574">
        <ele>40.33214</ele>
        <time>2015-10-07T22:46:11.844000Z</time>
      </trkpt>
      <trkpt lat="41.746902" lon="123.35574">
        <ele>39.995125</ele>
        <time>2015-10-07T22:46:15.264000Z</time>
      </trkpt>
      <trkpt lat="41.74692" lon="123.355865">
        <ele>39.600815</ele>
        <time>2015-10-07T22:46:18.684000Z</time>
      </trkpt>
      <trkpt lat="41.746964" lon="123.35597">
        <ele>39.210606</ele>
        <time>2015-10-07T22:46:22.104000Z</time>
      </trkpt>
      <trkpt lat="41.746964" lon="123.35597">
        <ele>39.1952</ele>
        <time>2015-10-07T22:46:25.524000Z</time>
      </trkpt>
      <trkpt lat="41.74699" lon="123.35614">
        <ele>39.439026</ele>
        <time>2015-10-07T22:46:28.944000Z</time>
      </trkpt>
      <trkpt lat="41.746998" lon="123.3563">
        <ele>39.673866</ele>
        <time>2015-10-07T22:46:32.364000Z</time>
      </trkpt>
      <trkpt lat="41.747025" lon="123.35644">
        <ele>40.16642</ele>
        <time>2015-10-07T22:46:35.784000Z</time>
      </trkpt>
      <trkpt lat="41.747047" lon="123.35659">
        <ele>40.981865</ele>
        <time>2015-10-07T22:46:39.204000Z</time>
      </trkpt>
      <trkpt lat="41.747055" lon="123.35673">
        <ele>41.869247</ele>
        <time>2015-10-07T22:46:42.624000Z</time>
      </trkpt>
      <trkpt lat="41.74707" lon="123.35687">
        <ele>42.560177</ele>
        <time>2015-10-07T22:46:46.044000Z</time>
      </trkpt>
      <trkpt lat="41.747135" lon="123.35701">
        <ele>43.103252</ele>
        <time>2015-10-07T22:46:49.464000Z</time>
      </trkpt>
      <trkpt lat="41.747204" lon="123.35712">
        <ele>43.708935</ele>
        <time>2015-10-07T22:46:52.884000Z</time>
      </trkpt>
      <trkpt lat="41.747284" lon="123.357216">
        <ele>44.403812</ele>
        <time>2015-10-07T22:46:56.304000Z</time>
      </trkpt>
      <trkpt lat="41.747356" lon="123.35731">
        <ele>44.891945</ele>
        <time>2015-10-07T22:46:59.724000Z</time>
      </trkpt>
      <trkpt lat="41.74742" lon="123.35743">
        <ele>45.47555</ele>
        <time>2015-10-07T22:47:03.144000Z</time>
      </trkpt>
      <trkpt lat="41.74748" lon="123.35757">
        <ele>46.543285</ele>
        <time>2015-10-07T22:47:06.564000Z</time>
      </trkpt>
      <trkpt lat="41.747517" lon="123.3577">
        <ele>47.594437</ele>
        <time>2015-10-07T22:47:09.984000Z</time>
      </trkpt>
      <trkpt lat="41.747536" lon="123.35782">
        <ele>47.80429</ele>
        <time>2015-10-07T22:47:13.404000Z</time>
      </trkpt>
      <trkpt lat="41.747585" lon="123.35795">
        <ele>47.150623</ele>
        <time>2015-10-07T22:47:16.824000Z</time>
      </trkpt>
      <trkpt lat="41.74758" lon="123.358086">
        <ele>46.322937</ele>
        <time>2015-10-07T22:47:20.244000Z</time>
      </trkpt>
      <trkpt lat="41.747524" lon="123.35826">
        <ele>45.33408</ele>
        <time>2015-10-07T22:47:23.664000Z</time>
      </trkpt>
      <trkpt lat="41.74748" lon="123.35837">
        <ele>43.526012</ele>
        <time>2015-10-07T22:47:27.084000Z</time>
      </trkpt>
      <trkpt lat="41.747425" lon="123.35852">
        <ele>41.38347</ele>
        <time>2015-10-07T22:47:30.504000Z</time>
      </trkpt>
      <trkpt lat="41.747402" lon="123.358665">
        <ele>40.28751</ele>
        <time>2015-10-07T22:47:33.924000Z</time>
      </trkpt>
      <trkpt lat="41.74742" lon="123.35884">
        <ele>40.72399</ele>
        <time>2015-10-07T22:47:37.344000Z</time>
      </trkpt>
      <trkpt lat="41.74743" lon="123.35899">
        <ele>41.89682</ele>
        <time>2015-10-07T22:47:40.764000Z</time>
      </trkpt>
      <trkpt lat="41.747456" lon="123.359146">
        <ele>42.37803</ele>
        <time>2015-10-07T22:47:44.184000Z</time>
      </trkpt>
      <trkpt lat="41.74747" lon="123.35928">
        <ele>41.499577</ele>
        <time>2015-10-07T22:47:47.604000Z</time>
      </trkpt>
      <trkpt lat="41.74749" lon="123.35945">
        <ele>40.031384</ele>
        <time>2015-10-07T22:47:51.024000Z</time>
      </trkpt>
      <trkpt lat="41.7475" lon="123.359604">
        <ele>39.039463</ele>
        <time>2015-10-07T22:47:54.444000Z</time>
      </trkpt>
      <trkpt lat="41.74751" lon="123.35976">
        <ele>38.711895</ele>
        <time>2015-10-07T22:47:57.864000Z</time>
      </trkpt>
      <trkpt lat="41.747524" lon="123.359886">
        <ele>38.471836</ele>
        <time>2015-10-07T22:48:01.284000Z</time>
      </trkpt>
      <trkpt lat="41.747566" lon="123.36001">
        <ele>37.87268</ele>
        <time>2015-10-07T22:48:04.704000Z</time>
      </trkpt>
      <trkpt lat="41.74757" lon="123.36014">
        <ele>37.490532</ele>
        <time>2015-10-07T22:48:08.124000Z</time>
      </trkpt>
      <trkpt lat="41.747574" lon="123.36028">
        <ele>38.162212</ele>
        <time>2015-10-07T22:48:11.544000Z</time>
      </trkpt>
      <trkpt lat="41.747604" lon="123.36041">
        <ele>39.564507</ele>
        <time>2015-10-07T22:48:14.964000Z</time>
      </trkpt>
      <trkpt lat="41.747654" lon="123.36054">
        <ele>40.703964</ele>
        <time>2015-10-07T22:48:18.384000Z</time>
      </trkpt>
      <trkpt lat="41.7477" lon="123.360664">
        <ele>41.161255</ele>
        <time>2015-10-07T22:48:21.804000Z</time>
      </trkpt>
      <trkpt lat="41.747757" lon="123.36078">
        <ele>41.18046</ele>
        <time>2015-10-07T22:48:25.224000Z</time>
      </trkpt>
      <trkpt lat="41.747757" lon="123.36078">
        <ele>41.08955</ele>
        <time>2015-10-07T22:48:28.644000Z</time>
      </trkpt>
      <trkpt lat="41.747738" lon="123.3613">
        <ele>36.97731</ele>
        <time>2015-10-07T22:48:32.064000Z</time>
      </trkpt>
      <trkpt lat="41.74783" lon="123.36137">
        <ele>36.960247</ele>
        <time>2015-10-07T22:48:35.484000Z</time>
      </trkpt>
      <trkpt lat="41.747913" lon="123.36147">
        <ele>36.953884</ele>
        <time>2015-10-07T22:48:38.904000Z</time>
      </trkpt>
      <trkpt lat="41.748" lon="123.36157">
        <ele>37.230312</ele>
        <time>2015-10-07T22:48:42.324000Z</time>
      </trkpt>
      <trkpt lat="41.748093" lon="123.36168">
        <ele>37.95197</ele>
        <time>2015-10-07T22:48:45.744000Z</time>
      </trkpt>
      <trkpt lat="41.748173" lon="123.36181">
        <ele>38.545185</ele>
        <time>2015-10-07T22:48:49.164000Z</time>
      </trkpt>
      <trkpt lat="41.748245" lon="123.3619">
        <ele>38.366974</ele>
        <time>2015-10-07T22:48:52.583000Z</time>
      </trkpt>
      <trkpt lat="41.748306" lon="123.36201">
        <ele>38.491478</ele>
        <time>2015-10-07T22:48:56.002000Z</time>
      </trkpt>
      <trkpt lat="41.748363" lon="123.362114">
        <ele>38.774055</ele>
        <time>2015-10-07T22:48:59.421000Z</time>
      </trkpt>
      <trkpt lat="41.74841" lon="123.36222">
        <ele>38.951073</ele>
        <time>2015-10-07T22:49:02.840000Z</time>
      </trkpt>
      <trkpt lat="41.748474" lon="123.36236">
        <ele>39.003666</ele>
        <time>2015-10-07T22:49:06.259000Z</time>
      </trkpt>
      <trkpt lat="41.74852" lon="123.36247">
        <ele>38.992783</ele>
        <time>2015-10-07T22:49:09.678000Z</time>
      </trkpt>
      <trkpt lat="41.748573" lon="123.36259">
        <ele>38.969612</ele>
        <time>2015-10-07T22:49:13.097000Z</time>
      </trkpt>
      <trkpt lat="41.74864" lon="123.36269">
        <ele>38.955288</ele>
        <time>2015-10-07T22:49:16.516000Z</time>
      </trkpt>
      <trkpt lat="41.748714" lon="123.362785">
        <ele>39.0893</ele>
        <time>2015-10-07T22:49:19.935000Z</time>
      </trkpt>
      <trkpt lat="41.748802" lon="123.36286">
        <ele>39.450138</ele>
        <time>2015-10-07T22:49:23.354000Z</time>
      </trkpt>
      <trkpt lat="41.74889" lon="123.36292">
        <ele>39.95965</ele>
        <time>2015-10-07T22:49:26.773000Z</time>
      </trkpt>
      <trkpt lat="41.748993" lon="123.36297">
        <ele>40.63414</ele>
        <time>2015-10-07T22:49:30.192000Z</time>
      </trkpt>
      <trkpt lat="41.74909" lon="123.363">
        <ele>41.390327</ele>
        <time>2015-10-07T22:49:33.611000Z</time>
      </trkpt>
      <trkpt lat="41.749184" lon="123.36305">
        <ele>41.904957</ele>
        <time>2015-10-07T22:49:37.030000Z</time>
      </trkpt>
      <trkpt lat="41.74927" lon="123.363106">
        <ele>42.076485</ele>
        <time>2015-10-07T22:49:40.449000Z</time>
      </trkpt>
      <trkpt lat="41.74937" lon="123.36316">
        <ele>42.058838</ele>
        <time>2015-10-07T22:49:43.868000Z</time>
      </trkpt>
      <trkpt lat="41.74947" lon="123.36315">
        <ele>41.996696</ele>
        <time>2015-10-07T22:49:47.287000Z</time>
      </trkpt>
      <trkpt lat="41.749565" lon="123.36307">
        <ele>41.954994</ele>
        <time>2015-10-07T22:49:50.706000Z</time>
      </trkpt>
      <trkpt lat="41.74965" lon="123.36296">
        <ele>41.941345</ele>
        <time>2015-10-07T22:49:54.125000Z</time>
      </trkpt>
      <trkpt lat="41.749725" lon="123.362854">
        <ele>42.08114</ele>
        <time>2015-10-07T22:49:57.544000Z</time>
      </trkpt>
      <trkpt lat="41.74981" lon="123.36272">
        <ele>42.446133</ele>
        <time>2015-10-07T22:50:00.963000Z</time>
      </trkpt>
      <trkpt lat="41.74988" lon="123.36258">
        <ele>42.818947</ele>
        <time>2015-10-07T22:50:04.382000Z</time>
      </trkpt>
      <trkpt lat="41.749935" lon="123.36247">
        <ele>42.995293</ele>
        <time>2015-10-07T22:50:07.801000Z</time>
      </trkpt>
      <trkpt lat="41.74998" lon="123.36237">
        <ele>43.159855</ele>
        <time>2015-10-07T22:50:11.220000Z</time>
      </trkpt>
      <trkpt lat="41.75003" lon="123.362236">
        <ele>43.48934</ele>
        <time>2015-10-07T22:50:14.639000Z</time>
      </trkpt>
      <trkpt lat="41.750103" lon="123.36214">
        <ele>43.828396</ele>
        <time>2015-10-07T22:50:18.058000Z</time>
      </trkpt>
      <trkpt lat="41.750145" lon="123.36203">
        <ele>44.127655</ele>
        <time>2015-10-07T22:50:21.477000Z</time>
      </trkpt>
      <trkpt lat="41.750168" lon="123.361885">
        <ele>44.650246</ele>
        <time>2015-10-07T22:50:24.896000Z</time>
      </trkpt>
      <trkpt lat="41.7502" lon="123.36174">
        <ele>45.490295</ele>
        <time>2015-10-07T22:50:28.315000Z</time>
      </trkpt>
      <trkpt lat="41.750206" lon="123.36162">
        <ele>46.367252</ele>
        <time>2015-10-07T22:50:31.734000Z</time>
      </trkpt>
      <trkpt lat="41.75021" lon="123.36148">
        <ele>46.92552</ele>
        <time>2015-10-07T22:50:35.153000Z</time>
      </trkpt>
      <trkpt lat="41.750206" lon="123.36136">
        <ele>47.095455</ele>
        <time>2015-10-07T22:50:38.572000Z</time>
      </trkpt>
      <trkpt lat="41.750217" lon="123.3612">
        <ele>46.926003</ele>
        <time>2015-10-07T22:50:41.991000Z</time>
      </trkpt>
      <trkpt lat="41.75023" lon="123.36107">
        <ele>46.217815</ele>
        <time>2015-10-07T22:50:45.410000Z</time>
      </trkpt>
      <trkpt lat="41.75024" lon="123.36093">
        <ele>44.945232</ele>
        <time>2015-10-07T22:50:48.829000Z</time>
      </trkpt>
      <trkpt lat="41.750225" lon="123.36079">
        <ele>43.519554</ele>
        <time>2015-10-07T22:50:52.248000Z</time>
      </trkpt>
      <trkpt lat="41.750217" lon="123.36066">
        <ele>42.415913</ele>
        <time>2015-10-07T22:50:55.667000Z</time>
      </trkpt>
      <trkpt lat="41.75021" lon="123.36052">
        <ele>41.992218</ele>
        <time>2015-10-07T22:50:59.086000Z</time>
      </trkpt>
      <trkpt lat="41.750206" lon="123.36038">
        <ele>42.244053</ele>
        <time>2015-10-07T22:51:02.505000Z</time>
      </trkpt>
      <trkpt lat="41.75021" lon="123.360245">
        <ele>42.554146</ele>
        <time>2015-10-07T22:51:05.924000Z</time>
      </trkpt>
      <trkpt lat="41.750206" lon="123.36011">
        <ele>42.459587</ele>
        <time>2015-10-07T22:51:09.343000Z</time>
      </trkpt>
      <trkpt lat="41.750187" lon="123.359955">
        <ele>42.16195</ele>
        <time>2015-10-07T22:51:12.762000Z</time>
      </trkpt>
      <trkpt lat="41.75018" lon="123.3598">
        <ele>41.965076</ele>
        <time>2015-10-07T22:51:16.181000Z</time>
      </trkpt>
      <trkpt lat="41.750183" lon="123.359665">
        <ele>41.90184</ele>
        <time>2015-10-07T22:51:19.600000Z</time>
      </trkpt>
      <trkpt lat="41.750183" lon="123.35952">
        <ele>42.04856</ele>
        <time>2015-10-07T22:51:23.019000Z</time>
      </trkpt>
      <trkpt lat="41.750183" lon="123.35937">
        <ele>42.43289</ele>
        <time>2015-10-07T22:51:26.438000Z</time>
      </trkpt>
      <trkpt lat="41.750175" lon="123.359245">
        <ele>42.680096</ele>
        <time>2015-10-07T22:51:29.857000Z</time>
      </trkpt>
      <trkpt lat="41.75017" lon="123.35911">
        <ele>42.50049</ele>
        <time>2015-10-07T22:51:33.276000Z</time>
      </trkpt>
      <trkpt lat="41.750263" lon="123.35906">
        <ele>42.295</ele>
        <time>2015-10-07T22:51:36.695000Z</time>
      </trkpt>
      <trkpt lat="41.750378" lon="123.35906">
        <ele>42.723995</ele>
        <time>2015-10-07T22:51:40.114000Z</time>
      </trkpt>
      <trkpt lat="41.75048" lon="123.35906">
        <ele>43.893463</ele>
        <time>2015-10-07T22:51:43.533000Z</time>
      </trkpt>
      <trkpt lat="41.750603" lon="123.3591">
        <ele>45.32115</ele>
        <time>2015-10-07T22:51:46.952000Z</time>
      </trkpt>
      <trkpt lat="41.75074" lon="123.35916">
        <ele>46.593864</ele>
        <time>2015-10-07T22:51:50.371000Z</time>
      </trkpt>
      <trkpt lat="41.75083" lon="123.35918">
        <ele>47.538284</ele>
        <time>2015-10-07T22:51:53.790000Z</time>
      </trkpt>
      <trkpt lat="41.750942" lon="123.3592">
        <ele>48.02401</ele>
        <time>2015-10-07T22:51:57.209000Z</time>
      </trkpt>
      <trkpt lat="41.75103" lon="123.35927">
        <ele>48.25835</ele>
        <time>2015-10-07T22:52:00.628000Z</time>
      </trkpt>
      <trkpt lat="41.751114" lon="123.35932">
        <ele>48.55216</ele>
        <time>2015-10-07T22:52:04.047000Z</time>
      </trkpt>
      <trkpt lat="41.751213" lon="123.359344">
        <ele>48.706326</ele>
        <time>2015-10-07T22:52:07.466000Z</time>
      </trkpt>
      <trkpt lat="41.751328" lon="123.359375">
        <ele>48.48255</ele>
        <time>2015-10-07T22:52:10.885000Z</time>
      </trkpt>
      <trkpt lat="41.75142" lon="123.35941">
        <ele>48.13218</ele>
        <time>2015-10-07T22:52:14.304000Z</time>
      </trkpt>
      <trkpt lat="41.75151" lon="123.35947">
        <ele>47.794292</ele>
        <time>2015-10-07T22:52:17.723000Z</time>
      </trkpt>
      <trkpt lat="41.751606" lon="123.359505">
        <ele>47.107697</ele>
        <time>2015-10-07T22:52:21.142000Z</time>
      </trkpt>
      <trkpt lat="41.751606" lon="123.359505">
        <ele>46.03752</ele>
        <time>2015-10-07T22:52:24.561000Z</time>
      </trkpt>
      <trkpt lat="41.751705" lon="123.35951">
        <time>2015-10-07T22:52:27.980000Z</time>
      </trkpt>
    </trkseg>
  </trk>
</gpx>