<?xml version="1.0" encoding="UTF-8"?>
<gpx xmlns="http://www.topografix.com/GPX/1/1" xmlns:gpxtpx="http://www.garmin.com/xmlschemas/TrackPointExtension/v1" xmlns:xsi="http://www.w3.org/2001/XMLSchema-instance" xsi:schemaLocation="http://www.topografix.com/GPX/1/1 http://www.topografix.com/GPX/1/1/gpx.xsd" version="1.1" creator="gpx.py -- https://github.com/tkrajina/gpxpy">
  <trk>
    <trkseg>
      <trkpt lat="41.703815" lon="123.43312">
        <ele>52.93394</ele>
        <time>2015-10-27T09:04:22.036000Z</time>
      </trkpt>
      <trkpt lat="41.703815" lon="123.43312">
        <ele>52.929558</ele>
        <time>2015-10-27T09:04:25.469000Z</time>
      </trkpt>
      <trkpt lat="41.70389" lon="123.43298">
        <ele>53.063206</ele>
        <time>2015-10-27T09:04:28.902000Z</time>
      </trkpt>
      <trkpt lat="41.7039" lon="123.432945">
        <ele>53.424774</ele>
        <time>2015-10-27T09:04:32.335000Z</time>
      </trkpt>
      <trkpt lat="41.70395" lon="123.432816">
        <ele>53.801247</ele>
        <time>2015-10-27T09:04:35.768000Z</time>
      </trkpt>
      <trkpt lat="41.70401" lon="123.43272">
        <ele>53.704967</ele>
        <time>2015-10-27T09:04:39.201000Z</time>
      </trkpt>
      <trkpt lat="41.70406" lon="123.43261">
        <ele>52.10614</ele>
        <time>2015-10-27T09:04:42.634000Z</time>
      </trkpt>
      <trkpt lat="41.70412" lon="123.432495">
        <ele>51.36504</ele>
        <time>2015-10-27T09:04:46.067000Z</time>
      </trkpt>
      <trkpt lat="41.704185" lon="123.43237">
        <ele>50.651703</ele>
        <time>2015-10-27T09:04:49.500000Z</time>
      </trkpt>
      <trkpt lat="41.704243" lon="123.43226">
        <ele>49.81448</ele>
        <time>2015-10-27T09:04:52.933000Z</time>
      </trkpt>
      <trkpt lat="41.704292" lon="123.43211">
        <ele>48.973625</ele>
        <time>2015-10-27T09:04:56.366000Z</time>
      </trkpt>
      <trkpt lat="41.70433" lon="123.43195">
        <ele>48.32389</ele>
        <time>2015-10-27T09:04:59.799000Z</time>
      </trkpt>
      <trkpt lat="41.70437" lon="123.43184">
        <ele>47.93671</ele>
        <time>2015-10-27T09:05:03.232000Z</time>
      </trkpt>
      <trkpt lat="41.704414" lon="123.43171">
        <ele>47.83069</ele>
        <time>2015-10-27T09:05:06.665000Z</time>
      </trkpt>
      <trkpt lat="41.704464" lon="123.43158">
        <ele>47.861282</ele>
        <time>2015-10-27T09:05:10.098000Z</time>
      </trkpt>
      <trkpt lat="41.704525" lon="123.43144">
        <ele>47.914494</ele>
        <time>2015-10-27T09:05:13.531000Z</time>
      </trkpt>
      <trkpt lat="41.704575" lon="123.43133">
        <ele>47.807613</ele>
        <time>2015-10-27T09:05:16.964000Z</time>
      </trkpt>
      <trkpt lat="41.704624" lon="123.43123">
        <ele>47.456093</ele>
        <time>2015-10-27T09:05:20.397000Z</time>
      </trkpt>
      <trkpt lat="41.70469" lon="123.43112">
        <ele>47.084038</ele>
        <time>2015-10-27T09:05:23.830000Z</time>
      </trkpt>
      <trkpt lat="41.704773" lon="123.43101">
        <ele>47.0426</ele>
        <time>2015-10-27T09:05:27.263000Z</time>
      </trkpt>
      <trkpt lat="41.704853" lon="123.43091">
        <ele>47.787964</ele>
        <time>2015-10-27T09:05:30.696000Z</time>
      </trkpt>
      <trkpt lat="41.704906" lon="123.4308">
        <ele>49.266403</ele>
        <time>2015-10-27T09:05:34.129000Z</time>
      </trkpt>
      <trkpt lat="41.70495" lon="123.43063">
        <ele>50.5803</ele>
        <time>2015-10-27T09:05:37.562000Z</time>
      </trkpt>
      <trkpt lat="41.70495" lon="123.43063">
        <ele>51.089073</ele>
        <time>2015-10-27T09:05:40.995000Z</time>
      </trkpt>
      <trkpt lat="41.70495" lon="123.43063">
        <ele>50.768883</ele>
        <time>2015-10-27T09:05:44.428000Z</time>
      </trkpt>
      <trkpt lat="41.70496" lon="123.4305">
        <ele>50.735832</ele>
        <time>2015-10-27T09:05:47.861000Z</time>
      </trkpt>
      <trkpt lat="41.705025" lon="123.430374">
        <ele>50.002865</ele>
        <time>2015-10-27T09:05:51.294000Z</time>
      </trkpt>
      <trkpt lat="41.70508" lon="123.430275">
        <ele>47.927788</ele>
        <time>2015-10-27T09:05:54.727000Z</time>
      </trkpt>
      <trkpt lat="41.705112" lon="123.43012">
        <ele>45.748573</ele>
        <time>2015-10-27T09:05:58.160000Z</time>
      </trkpt>
      <trkpt lat="41.705147" lon="123.429985">
        <ele>44.701115</ele>
        <time>2015-10-27T09:06:01.593000Z</time>
      </trkpt>
      <trkpt lat="41.705208" lon="123.42986">
        <ele>44.534367</ele>
        <time>2015-10-27T09:06:05.026000Z</time>
      </trkpt>
      <trkpt lat="41.70525" lon="123.42974">
        <ele>44.707424</ele>
        <time>2015-10-27T09:06:08.459000Z</time>
      </trkpt>
      <trkpt lat="41.705284" lon="123.42958">
        <ele>44.885067</ele>
        <time>2015-10-27T09:06:11.892000Z</time>
      </trkpt>
      <trkpt lat="41.705334" lon="123.42948">
        <ele>44.96934</ele>
        <time>2015-10-27T09:06:15.325000Z</time>
      </trkpt>
      <trkpt lat="41.7054" lon="123.42938">
        <ele>44.982098</ele>
        <time>2015-10-27T09:06:18.758000Z</time>
      </trkpt>
      <trkpt lat="41.705467" lon="123.42926">
        <ele>44.8295</ele>
        <time>2015-10-27T09:06:22.191000Z</time>
      </trkpt>
      <trkpt lat="41.705517" lon="123.42914">
        <ele>44.593307</ele>
        <time>2015-10-27T09:06:25.624000Z</time>
      </trkpt>
      <trkpt lat="41.70557" lon="123.42903">
        <ele>44.57699</ele>
        <time>2015-10-27T09:06:29.057000Z</time>
      </trkpt>
      <trkpt lat="41.705635" lon="123.42894">
        <ele>44.770187</ele>
        <time>2015-10-27T09:06:32.490000Z</time>
      </trkpt>
      <trkpt lat="41.70571" lon="123.42882">
        <ele>45.058296</ele>
        <time>2015-10-27T09:06:35.923000Z</time>
      </trkpt>
      <trkpt lat="41.705776" lon="123.4287">
        <ele>45.614063</ele>
        <time>2015-10-27T09:06:39.356000Z</time>
      </trkpt>
      <trkpt lat="41.705826" lon="123.428566">
        <ele>46.620415</ele>
        <time>2015-10-27T09:06:42.789000Z</time>
      </trkpt>
      <trkpt lat="41.705833" lon="123.42843">
        <ele>48.559845</ele>
        <time>2015-10-27T09:06:46.222000Z</time>
      </trkpt>
      <trkpt lat="41.705883" lon="123.42831">
        <ele>51.564148</ele>
        <time>2015-10-27T09:06:49.655000Z</time>
      </trkpt>
      <trkpt lat="41.705936" lon="123.42821">
        <ele>54.47356</ele>
        <time>2015-10-27T09:06:53.088000Z</time>
      </trkpt>
      <trkpt lat="41.70599" lon="123.42809">
        <ele>55.805347</ele>
        <time>2015-10-27T09:06:56.521000Z</time>
      </trkpt>
      <trkpt lat="41.706047" lon="123.42798">
        <ele>55.465874</ele>
        <time>2015-10-27T09:06:59.954000Z</time>
      </trkpt>
      <trkpt lat="41.706043" lon="123.42784">
        <ele>54.55479</ele>
        <time>2015-10-27T09:07:03.387000Z</time>
      </trkpt>
      <trkpt lat="41.70605" lon="123.42773">
        <ele>54.242764</ele>
        <time>2015-10-27T09:07:06.820000Z</time>
      </trkpt>
      <trkpt lat="41.706135" lon="123.42761">
        <ele>55.05605</ele>
        <time>2015-10-27T09:07:10.253000Z</time>
      </trkpt>
      <trkpt lat="41.706203" lon="123.427505">
        <ele>57.097557</ele>
        <time>2015-10-27T09:07:13.686000Z</time>
      </trkpt>
      <trkpt lat="41.70626" lon="123.42741">
        <ele>61.768417</ele>
        <time>2015-10-27T09:07:17.119000Z</time>
      </trkpt>
      <trkpt lat="41.706333" lon="123.4273">
        <ele>62.975136</ele>
        <time>2015-10-27T09:07:20.552000Z</time>
      </trkpt>
      <trkpt lat="41.706387" lon="123.42717">
        <ele>63.82592</ele>
        <time>2015-10-27T09:07:23.985000Z</time>
      </trkpt>
      <trkpt lat="41.706425" lon="123.42703">
        <ele>64.51602</ele>
        <time>2015-10-27T09:07:27.418000Z</time>
      </trkpt>
      <trkpt lat="41.70646" lon="123.42692">
        <ele>64.65437</ele>
        <time>2015-10-27T09:07:30.851000Z</time>
      </trkpt>
      <trkpt lat="41.706516" lon="123.42679">
        <ele>63.911625</ele>
        <time>2015-10-27T09:07:34.284000Z</time>
      </trkpt>
      <trkpt lat="41.706516" lon="123.42679">
        <ele>62.781345</ele>
        <time>2015-10-27T09:07:37.717000Z</time>
      </trkpt>
      <trkpt lat="41.706596" lon="123.42664">
        <ele>61.86668</ele>
        <time>2015-10-27T09:07:41.150000Z</time>
      </trkpt>
      <trkpt lat="41.706676" lon="123.42651">
        <ele>60.69223</ele>
        <time>2015-10-27T09:07:44.583000Z</time>
      </trkpt>
      <trkpt lat="41.706703" lon="123.42638">
        <ele>58.769382</ele>
        <time>2015-10-27T09:07:48.016000Z</time>
      </trkpt>
      <trkpt lat="41.70671" lon="123.42623">
        <ele>56.71122</ele>
        <time>2015-10-27T09:07:51.449000Z</time>
      </trkpt>
      <trkpt lat="41.706757" lon="123.426094">
        <ele>55.317245</ele>
        <time>2015-10-27T09:07:54.882000Z</time>
      </trkpt>
      <trkpt lat="41.70677" lon="123.425934">
        <ele>54.579086</ele>
        <time>2015-10-27T09:07:58.315000Z</time>
      </trkpt>
      <trkpt lat="41.70681" lon="123.425804">
        <ele>53.75067</ele>
        <time>2015-10-27T09:08:01.748000Z</time>
      </trkpt>
      <trkpt lat="41.706875" lon="123.425705">
        <ele>52.431908</ele>
        <time>2015-10-27T09:08:05.181000Z</time>
      </trkpt>
      <trkpt lat="41.706944" lon="123.425575">
        <ele>51.26174</ele>
        <time>2015-10-27T09:08:08.614000Z</time>
      </trkpt>
      <trkpt lat="41.70689" lon="123.425476">
        <ele>50.757565</ele>
        <time>2015-10-27T09:08:12.047000Z</time>
      </trkpt>
      <trkpt lat="41.70683" lon="123.425385">
        <ele>50.9882</ele>
        <time>2015-10-27T09:08:15.480000Z</time>
      </trkpt>
      <trkpt lat="41.70683" lon="123.425385">
        <ele>51.817257</ele>
        <time>2015-10-27T09:08:18.913000Z</time>
      </trkpt>
      <trkpt lat="41.70683" lon="123.425385">
        <ele>52.487896</ele>
        <time>2015-10-27T09:08:22.346000Z</time>
      </trkpt>
      <trkpt lat="41.706753" lon="123.425285">
        <ele>52.453205</ele>
        <time>2015-10-27T09:08:25.779000Z</time>
      </trkpt>
      <trkpt lat="41.706646" lon="123.42523">
        <ele>52.072613</ele>
        <time>2015-10-27T09:08:29.212000Z</time>
      </trkpt>
      <trkpt lat="41.706573" lon="123.42514">
        <ele>51.683376</ele>
        <time>2015-10-27T09:08:32.645000Z</time>
      </trkpt>
      <trkpt lat="41.70649" lon="123.42503">
        <ele>51.151737</ele>
        <time>2015-10-27T09:08:36.078000Z</time>
      </trkpt>
      <trkpt lat="41.706398" lon="123.42495">
        <ele>50.63213</ele>
        <time>2015-10-27T09:08:39.511000Z</time>
      </trkpt>
      <trkpt lat="41.706287" lon="123.42488">
        <ele>50.51069</ele>
        <time>2015-10-27T09:08:42.944000Z</time>
      </trkpt>
      <trkpt lat="41.706192" lon="123.424805">
        <ele>50.705593</ele>
        <time>2015-10-27T09:08:46.377000Z</time>
      </trkpt>
      <trkpt lat="41.706112" lon="123.42474">
        <ele>50.748577</ele>
        <time>2015-10-27T09:08:49.810000Z</time>
      </trkpt>
      <trkpt lat="41.706013" lon="123.424675">
        <ele>50.054848</ele>
        <time>2015-10-27T09:08:53.243000Z</time>
      </trkpt>
      <trkpt lat="41.705933" lon="123.42458">
        <ele>48.6148</ele>
        <time>2015-10-27T09:08:56.676000Z</time>
      </trkpt>
      <trkpt lat="41.705814" lon="123.424515">
        <ele>47.31506</ele>
        <time>2015-10-27T09:09:00.109000Z</time>
      </trkpt>
      <trkpt lat="41.705654" lon="123.42449">
        <ele>46.60982</ele>
        <time>2015-10-27T09:09:03.542000Z</time>
      </trkpt>
      <trkpt lat="41.705574" lon="123.42443">
        <ele>46.193844</ele>
        <time>2015-10-27T09:09:06.975000Z</time>
      </trkpt>
      <trkpt lat="41.705467" lon="123.42437">
        <ele>46.08198</ele>
        <time>2015-10-27T09:09:10.408000Z</time>
      </trkpt>
      <trkpt lat="41.705376" lon="123.42432">
        <ele>46.51055</ele>
        <time>2015-10-27T09:09:13.841000Z</time>
      </trkpt>
      <trkpt lat="41.705276" lon="123.424225">
        <ele>47.258858</ele>
        <time>2015-10-27T09:09:17.274000Z</time>
      </trkpt>
      <trkpt lat="41.70519" lon="123.42412">
        <ele>47.975807</ele>
        <time>2015-10-27T09:09:20.707000Z</time>
      </trkpt>
      <trkpt lat="41.705082" lon="123.42405">
        <ele>48.557705</ele>
        <time>2015-10-27T09:09:24.140000Z</time>
      </trkpt>
      <trkpt lat="41.70498" lon="123.42399">
        <ele>48.929176</ele>
        <time>2015-10-27T09:09:27.573000Z</time>
      </trkpt>
      <trkpt lat="41.7049" lon="123.42392">
        <ele>49.45725</ele>
        <time>2015-10-27T09:09:31.006000Z</time>
      </trkpt>
      <trkpt lat="41.704803" lon="123.42385">
        <ele>50.51646</ele>
        <time>2015-10-27T09:09:34.439000Z</time>
      </trkpt>
      <trkpt lat="41.704723" lon="123.42378">
        <ele>51.43885</ele>
        <time>2015-10-27T09:09:37.872000Z</time>
      </trkpt>
      <trkpt lat="41.70464" lon="123.42372">
        <ele>51.16014</ele>
        <time>2015-10-27T09:09:41.305000Z</time>
      </trkpt>
      <trkpt lat="41.704556" lon="123.42364">
        <ele>49.643436</ele>
        <time>2015-10-27T09:09:44.738000Z</time>
      </trkpt>
      <trkpt lat="41.70447" lon="123.42356">
        <ele>47.91181</ele>
        <time>2015-10-27T09:09:48.171000Z</time>
      </trkpt>
      <trkpt lat="41.704384" lon="123.4235">
        <ele>46.903656</ele>
        <time>2015-10-27T09:09:51.604000Z</time>
      </trkpt>
      <trkpt lat="41.704292" lon="123.42343">
        <ele>46.77711</ele>
        <time>2015-10-27T09:09:55.037000Z</time>
      </trkpt>
      <trkpt lat="41.704197" lon="123.42337">
        <ele>47.22519</ele>
        <time>2015-10-27T09:09:58.470000Z</time>
      </trkpt>
      <trkpt lat="41.70409" lon="123.423294">
        <ele>47.736362</ele>
        <time>2015-10-27T09:10:01.903000Z</time>
      </trkpt>
      <trkpt lat="41.70399" lon="123.42324">
        <ele>47.8549</ele>
        <time>2015-10-27T09:10:05.336000Z</time>
      </trkpt>
      <trkpt lat="41.7039" lon="123.42319">
        <ele>47.542408</ele>
        <time>2015-10-27T09:10:08.769000Z</time>
      </trkpt>
      <trkpt lat="41.703815" lon="123.423134">
        <ele>47.273647</ele>
        <time>2015-10-27T09:10:12.202000Z</time>
      </trkpt>
      <trkpt lat="41.703815" lon="123.423134">
        <ele>47.416573</ele>
        <time>2015-10-27T09:10:15.635000Z</time>
      </trkpt>
      <trkpt lat="41.703716" lon="123.423065">
        <ele>47.87698</ele>
        <time>2015-10-27T09:10:19.068000Z</time>
      </trkpt>
      <trkpt lat="41.70364" lon="123.423">
        <ele>49.129345</ele>
        <time>2015-10-27T09:10:22.501000Z</time>
      </trkpt>
      <trkpt lat="41.703556" lon="123.42293">
        <ele>51.358013</ele>
        <time>2015-10-27T09:10:25.934000Z</time>
      </trkpt>
      <trkpt lat="41.703476" lon="123.42285">
        <ele>53.367958</ele>
        <time>2015-10-27T09:10:29.367000Z</time>
      </trkpt>
      <trkpt lat="41.703445" lon="123.42272">
        <ele>54.106197</ele>
        <time>2015-10-27T09:10:32.800000Z</time>
      </trkpt>
      <trkpt lat="41.703426" lon="123.42259">
        <ele>53.556305</ele>
        <time>2015-10-27T09:10:36.233000Z</time>
      </trkpt>
      <trkpt lat="41.703407" lon="123.42248">
        <ele>52.14413</ele>
        <time>2015-10-27T09:10:39.666000Z</time>
      </trkpt>
      <trkpt lat="41.703358" lon="123.42237">
        <ele>50.70656</ele>
        <time>2015-10-27T09:10:43.099000Z</time>
      </trkpt>
      <trkpt lat="41.703274" lon="123.42232">
        <ele>49.751556</ele>
        <time>2015-10-27T09:10:46.532000Z</time>
      </trkpt>
      <trkpt lat="41.703197" lon="123.422226">
        <ele>48.772503</ele>
        <time>2015-10-27T09:10:49.965000Z</time>
      </trkpt>
      <trkpt lat="41.703197" lon="123.422226">
        <ele>47.402252</ele>
        <time>2015-10-27T09:10:53.398000Z</time>
      </trkpt>
      <trkpt lat="41.70313" lon="123.42212">
        <ele>46.51264</ele>
        <time>2015-10-27T09:10:56.831000Z</time>
      </trkpt>
      <trkpt lat="41.70313" lon="123.42212">
        <ele>47.278175</ele>
        <time>2015-10-27T09:11:00.264000Z</time>
      </trkpt>
      <trkpt lat="41.70313" lon="123.42212">
        <ele>47.290794</ele>
        <time>2015-10-27T09:11:03.697000Z</time>
      </trkpt>
      <trkpt lat="41.70322" lon="123.422165">
        <ele>46.975414</ele>
        <time>2015-10-27T09:11:07.130000Z</time>
      </trkpt>
      <trkpt lat="41.70332" lon="123.42226">
        <ele>46.493393</ele>
        <time>2015-10-27T09:11:10.563000Z</time>
      </trkpt>
      <trkpt lat="41.70343" lon="123.422356">
        <ele>45.773815</ele>
        <time>2015-10-27T09:11:13.996000Z</time>
      </trkpt>
      <trkpt lat="41.70352" lon="123.42241">
        <ele>45.54332</ele>
        <time>2015-10-27T09:11:17.429000Z</time>
      </trkpt>
      <trkpt lat="41.703632" lon="123.42245">
        <ele>46.34298</ele>
        <time>2015-10-27T09:11:20.862000Z</time>
      </trkpt>
      <trkpt lat="41.703712" lon="123.42237">
        <ele>47.424503</ele>
        <time>2015-10-27T09:11:24.295000Z</time>
      </trkpt>
      <trkpt lat="41.703766" lon="123.42224">
        <ele>48.28629</ele>
        <time>2015-10-27T09:11:27.728000Z</time>
      </trkpt>
      <trkpt lat="41.703835" lon="123.4221">
        <ele>49.690857</ele>
        <time>2015-10-27T09:11:31.161000Z</time>
      </trkpt>
      <trkpt lat="41.70389" lon="123.42196">
        <ele>51.801807</ele>
        <time>2015-10-27T09:11:34.594000Z</time>
      </trkpt>
      <trkpt lat="41.703926" lon="123.42184">
        <ele>53.54169</ele>
        <time>2015-10-27T09:11:38.027000Z</time>
      </trkpt>
      <trkpt lat="41.70394" lon="123.421684">
        <ele>54.11039</ele>
        <time>2015-10-27T09:11:41.460000Z</time>
      </trkpt>
      <trkpt lat="41.703953" lon="123.42155">
        <ele>53.92449</ele>
        <time>2015-10-27T09:11:44.893000Z</time>
      </trkpt>
      <trkpt lat="41.703983" lon="123.42141">
        <ele>53.602295</ele>
        <time>2015-10-27T09:11:48.326000Z</time>
      </trkpt>
      <trkpt lat="41.704025" lon="123.42128">
        <ele>53.295174</ele>
        <time>2015-10-27T09:11:51.759000Z</time>
      </trkpt>
      <trkpt lat="41.704067" lon="123.42116">
        <ele>53.017853</ele>
        <time>2015-10-27T09:11:55.192000Z</time>
      </trkpt>
      <trkpt lat="41.7041" lon="123.421036">
        <ele>53.173176</ele>
        <time>2015-10-27T09:11:58.625000Z</time>
      </trkpt>
      <trkpt lat="41.704132" lon="123.420906">
        <ele>53.880966</ele>
        <time>2015-10-27T09:12:02.058000Z</time>
      </trkpt>
      <trkpt lat="41.704227" lon="123.42078">
        <ele>54.645298</ele>
        <time>2015-10-27T09:12:05.491000Z</time>
      </trkpt>
      <trkpt lat="41.704235" lon="123.42062">
        <ele>55.156567</ele>
        <time>2015-10-27T09:12:08.924000Z</time>
      </trkpt>
      <trkpt lat="41.704247" lon="123.42047">
        <ele>55.57923</ele>
        <time>2015-10-27T09:12:12.357000Z</time>
      </trkpt>
      <trkpt lat="41.704266" lon="123.42035">
        <ele>55.751392</ele>
        <time>2015-10-27T09:12:15.790000Z</time>
      </trkpt>
      <trkpt lat="41.704296" lon="123.42023">
        <ele>55.366257</ele>
        <time>2015-10-27T09:12:19.223000Z</time>
      </trkpt>
      <trkpt lat="41.70433" lon="123.420074">
        <ele>54.495255</ele>
        <time>2015-10-27T09:12:22.656000Z</time>
      </trkpt>
      <trkpt lat="41.704384" lon="123.41994">
        <ele>53.003147</ele>
        <time>2015-10-27T09:12:26.089000Z</time>
      </trkpt>
      <trkpt lat="41.70442" lon="123.4198">
        <ele>50.828995</ele>
        <time>2015-10-27T09:12:29.522000Z</time>
      </trkpt>
      <trkpt lat="41.70444" lon="123.41965">
        <ele>48.672363</ele>
        <time>2015-10-27T09:12:32.955000Z</time>
      </trkpt>
      <trkpt lat="41.70448" lon="123.419495">
        <ele>47.27595</ele>
        <time>2015-10-27T09:12:36.388000Z</time>
      </trkpt>
      <trkpt lat="41.704506" lon="123.41938">
        <ele>46.287655</ele>
        <time>2015-10-27T09:12:39.821000Z</time>
      </trkpt>
      <trkpt lat="41.704533" lon="123.41924">
        <ele>45.1744</ele>
        <time>2015-10-27T09:12:43.254000Z</time>
      </trkpt>
      <trkpt lat="41.70457" lon="123.41912">
        <ele>44.204323</ele>
        <time>2015-10-27T09:12:46.687000Z</time>
      </trkpt>
      <trkpt lat="41.70461" lon="123.418976">
        <ele>43.930225</ele>
        <time>2015-10-27T09:12:50.120000Z</time>
      </trkpt>
      <trkpt lat="41.704643" lon="123.41886">
        <ele>44.671032</ele>
        <time>2015-10-27T09:12:53.553000Z</time>
      </trkpt>
      <trkpt lat="41.704655" lon="123.41875">
        <ele>46.21233</ele>
        <time>2015-10-27T09:12:56.986000Z</time>
      </trkpt>
      <trkpt lat="41.704697" lon="123.41862">
        <ele>47.574795</ele>
        <time>2015-10-27T09:13:00.419000Z</time>
      </trkpt>
      <trkpt lat="41.704697" lon="123.41862">
        <ele>48.101418</ele>
        <time>2015-10-27T09:13:03.852000Z</time>
      </trkpt>
      <trkpt lat="41.704758" lon="123.41849">
        <ele>48.000378</ele>
        <time>2015-10-27T09:13:07.285000Z</time>
      </trkpt>
      <trkpt lat="41.704777" lon="123.41833">
        <ele>47.636173</ele>
        <time>2015-10-27T09:13:10.718000Z</time>
      </trkpt>
      <trkpt lat="41.70476" lon="123.418205">
        <ele>47.243954</ele>
        <time>2015-10-27T09:13:14.151000Z</time>
      </trkpt>
      <trkpt lat="41.70476" lon="123.418205">
        <ele>46.973362</ele>
        <time>2015-10-27T09:13:17.584000Z</time>
      </trkpt>
      <trkpt lat="41.70477" lon="123.41805">
        <ele>46.60528</ele>
        <time>2015-10-27T09:13:21.017000Z</time>
      </trkpt>
      <trkpt lat="41.704834" lon="123.417946">
        <ele>45.893623</ele>
        <time>2015-10-27T09:13:24.450000Z</time>
      </trkpt>
      <trkpt lat="41.704903" lon="123.417854">
        <ele>45.186996</ele>
        <time>2015-10-27T09:13:27.883000Z</time>
      </trkpt>
      <trkpt lat="41.704903" lon="123.417854">
        <ele>44.884247</ele>
        <time>2015-10-27T09:13:31.316000Z</time>
      </trkpt>
      <trkpt lat="41.704964" lon="123.417755">
        <ele>45.018127</ele>
        <time>2015-10-27T09:13:34.749000Z</time>
      </trkpt>
      <trkpt lat="41.705044" lon="123.41766">
        <ele>45.577198</ele>
        <time>2015-10-27T09:13:38.182000Z</time>
      </trkpt>
      <trkpt lat="41.705128" lon="123.41759">
        <ele>46.32778</ele>
        <time>2015-10-27T09:13:41.615000Z</time>
      </trkpt>
      <trkpt lat="41.705204" lon="123.41747">
        <ele>47.00926</ele>
        <time>2015-10-27T09:13:45.048000Z</time>
      </trkpt>
      <trkpt lat="41.705254" lon="123.41737">
        <ele>47.563835</ele>
        <time>2015-10-27T09:13:48.481000Z</time>
      </trkpt>
      <trkpt lat="41.705334" lon="123.41726">
        <ele>47.92487</ele>
        <time>2015-10-27T09:13:51.914000Z</time>
      </trkpt>
      <trkpt lat="41.70539" lon="123.41716">
        <ele>48.03834</ele>
        <time>2015-10-27T09:13:55.347000Z</time>
      </trkpt>
      <trkpt lat="41.70544" lon="123.41704">
        <ele>47.975285</ele>
        <time>2015-10-27T09:13:58.780000Z</time>
      </trkpt>
      <trkpt lat="41.7055" lon="123.41693">
        <ele>47.946053</ele>
        <time>2015-10-27T09:14:02.213000Z</time>
      </trkpt>
      <trkpt lat="41.705563" lon="123.41683">
        <ele>47.93704</ele>
        <time>2015-10-27T09:14:05.646000Z</time>
      </trkpt>
      <trkpt lat="41.70563" lon="123.41672">
        <ele>47.93859</ele>
        <time>2015-10-27T09:14:09.079000Z</time>
      </trkpt>
      <trkpt lat="41.7057" lon="123.416626">
        <ele>48.080505</ele>
        <time>2015-10-27T09:14:12.512000Z</time>
      </trkpt>
      <trkpt lat="41.705784" lon="123.41654">
        <ele>49.13365</ele>
        <time>2015-10-27T09:14:15.945000Z</time>
      </trkpt>
      <trkpt lat="41.705864" lon="123.41646">
        <ele>51.303265</ele>
        <time>2015-10-27T09:14:19.378000Z</time>
      </trkpt>
      <trkpt lat="41.705948" lon="123.4164">
        <ele>53.32556</ele>
        <time>2015-10-27T09:14:22.811000Z</time>
      </trkpt>
      <trkpt lat="41.706055" lon="123.41635">
        <ele>54.228092</ele>
        <time>2015-10-27T09:14:26.244000Z</time>
      </trkpt>
      <trkpt lat="41.706146" lon="123.41627">
        <ele>54.468742</ele>
        <time>2015-10-27T09:14:29.677000Z</time>
      </trkpt>
      <trkpt lat="41.706253" lon="123.416245">
        <ele>54.924896</ele>
        <time>2015-10-27T09:14:33.110000Z</time>
      </trkpt>
      <trkpt lat="41.706356" lon="123.41617">
        <ele>55.849495</ele>
        <time>2015-10-27T09:14:36.543000Z</time>
      </trkpt>
      <trkpt lat="41.70645" lon="123.41608">
        <ele>56.55297</ele>
        <time>2015-10-27T09:14:39.976000Z</time>
      </trkpt>
      <trkpt lat="41.70653" lon="123.41598">
        <ele>56.562534</ele>
        <time>2015-10-27T09:14:43.409000Z</time>
      </trkpt>
      <trkpt lat="41.706608" lon="123.41588">
        <ele>56.092934</ele>
        <time>2015-10-27T09:14:46.842000Z</time>
      </trkpt>
      <trkpt lat="41.706688" lon="123.415825">
        <ele>55.204742</ele>
        <time>2015-10-27T09:14:50.275000Z</time>
      </trkpt>
      <trkpt lat="41.706795" lon="123.415764">
        <ele>54.0205</ele>
        <time>2015-10-27T09:14:53.708000Z</time>
      </trkpt>
      <trkpt lat="41.70687" lon="123.41569">
        <ele>52.83034</ele>
        <time>2015-10-27T09:14:57.141000Z</time>
      </trkpt>
      <trkpt lat="41.70692" lon="123.41555">
        <ele>51.484474</ele>
        <time>2015-10-27T09:15:00.574000Z</time>
      </trkpt>
      <trkpt lat="41.70693" lon="123.4154">
        <ele>49.885017</ele>
        <time>2015-10-27T09:15:04.007000Z</time>
      </trkpt>
      <trkpt lat="41.706917" lon="123.415245">
        <ele>48.118874</ele>
        <time>2015-10-27T09:15:07.439000Z</time>
      </trkpt>
      <trkpt lat="41.70691" lon="123.41509">
        <ele>46.340374</ele>
        <time>2015-10-27T09:15:10.871000Z</time>
      </trkpt>
      <trkpt lat="41.706913" lon="123.41495">
        <ele>45.091682</ele>
        <time>2015-10-27T09:15:14.303000Z</time>
      </trkpt>
      <trkpt lat="41.70693" lon="123.4148">
        <ele>44.797623</ele>
        <time>2015-10-27T09:15:17.735000Z</time>
      </trkpt>
      <trkpt lat="41.706955" lon="123.41467">
        <ele>45.326443</ele>
        <time>2015-10-27T09:15:21.167000Z</time>
      </trkpt>
      <trkpt lat="41.70699" lon="123.41456">
        <ele>46.20205</ele>
        <time>2015-10-27T09:15:24.599000Z</time>
      </trkpt>
      <trkpt lat="41.706997" lon="123.4144">
        <ele>46.84798</ele>
        <time>2015-10-27T09:15:28.031000Z</time>
      </trkpt>
      <trkpt lat="41.70699" lon="123.414276">
        <ele>47.222397</ele>
        <time>2015-10-27T09:15:31.463000Z</time>
      </trkpt>
      <trkpt lat="41.706978" lon="123.41412">
        <ele>47.85225</ele>
        <time>2015-10-27T09:15:34.895000Z</time>
      </trkpt>
      <trkpt lat="41.706936" lon="123.41401">
        <ele>48.869347</ele>
        <time>2015-10-27T09:15:38.327000Z</time>
      </trkpt>
      <trkpt lat="41.70686" lon="123.41381">
        <ele>49.731068</ele>
        <time>2015-10-27T09:15:41.759000Z</time>
      </trkpt>
      <trkpt lat="41.706882" lon="123.413666">
        <ele>50.227436</ele>
        <time>2015-10-27T09:15:45.191000Z</time>
      </trkpt>
      <trkpt lat="41.70688" lon="123.413536">
        <ele>50.749332</ele>
        <time>2015-10-27T09:15:48.623000Z</time>
      </trkpt>
      <trkpt lat="41.706882" lon="123.41337">
        <ele>51.394516</ele>
        <time>2015-10-27T09:15:52.055000Z</time>
      </trkpt>
      <trkpt lat="41.70686" lon="123.413246">
        <ele>51.869152</ele>
        <time>2015-10-27T09:15:55.487000Z</time>
      </trkpt>
      <trkpt lat="41.70685" lon="123.4131">
        <ele>51.489525</ele>
        <time>2015-10-27T09:15:58.919000Z</time>
      </trkpt>
      <trkpt lat="41.706818" lon="123.412964">
        <ele>50.044872</ele>
        <time>2015-10-27T09:16:02.351000Z</time>
      </trkpt>
      <trkpt lat="41.706787" lon="123.4128">
        <ele>48.513996</ele>
        <time>2015-10-27T09:16:05.783000Z</time>
      </trkpt>
      <trkpt lat="41.706764" lon="123.41267">
        <ele>47.636265</ele>
        <time>2015-10-27T09:16:09.215000Z</time>
      </trkpt>
      <trkpt lat="41.706753" lon="123.41254">
        <ele>46.880077</ele>
        <time>2015-10-27T09:16:12.647000Z</time>
      </trkpt>
      <trkpt lat="41.706738" lon="123.4124">
        <ele>45.911385</ele>
        <time>2015-10-27T09:16:16.079000Z</time>
      </trkpt>
      <trkpt lat="41.706715" lon="123.412254">
        <ele>44.98388</ele>
        <time>2015-10-27T09:16:19.511000Z</time>
      </trkpt>
      <trkpt lat="41.706696" lon="123.412125">
        <ele>44.306442</ele>
        <time>2015-10-27T09:16:22.943000Z</time>
      </trkpt>
      <trkpt lat="41.706676" lon="123.41199">
        <ele>43.923122</ele>
        <time>2015-10-27T09:16:26.375000Z</time>
      </trkpt>
      <trkpt lat="41.70666" lon="123.411865">
        <ele>43.55154</ele>
        <time>2015-10-27T09:16:29.807000Z</time>
      </trkpt>
      <trkpt lat="41.70665" lon="123.411705">
        <ele>42.731186</ele>
        <time>2015-10-27T09:16:33.239000Z</time>
      </trkpt>
      <trkpt lat="41.706635" lon="123.41155">
        <ele>41.68784</ele>
        <time>2015-10-27T09:16:36.671000Z</time>
      </trkpt>
      <trkpt lat="41.706627" lon="123.41142">
        <ele>41.137012</ele>
        <time>2015-10-27T09:16:40.103000Z</time>
      </trkpt>
      <trkpt lat="41.706615" lon="123.41129">
        <ele>41.27607</ele>
        <time>2015-10-27T09:16:43.535000Z</time>
      </trkpt>
      <trkpt lat="41.706608" lon="123.41115">
        <ele>41.53758</ele>
        <time>2015-10-27T09:16:46.967000Z</time>
      </trkpt>
      <trkpt lat="41.706593" lon="123.410995">
        <ele>41.30044</ele>
        <time>2015-10-27T09:16:50.399000Z</time>
      </trkpt>
      <trkpt lat="41.706573" lon="123.410835">
        <ele>40.37709</ele>
        <time>2015-10-27T09:16:53.831000Z</time>
      </trkpt>
      <trkpt lat="41.70656" lon="123.41069">
        <ele>39.100174</ele>
        <time>2015-10-27T09:16:57.263000Z</time>
      </trkpt>
      <trkpt lat="41.70654" lon="123.41056">
        <ele>38.40306</ele>
        <time>2015-10-27T09:17:00.695000Z</time>
      </trkpt>
      <trkpt lat="41.70654" lon="123.41056">
        <ele>38.75465</ele>
        <time>2015-10-27T09:17:04.127000Z</time>
      </trkpt>
      <trkpt lat="41.706497" lon="123.410416">
        <ele>39.27335</ele>
        <time>2015-10-27T09:17:07.559000Z</time>
      </trkpt>
      <trkpt lat="41.706482" lon="123.41029">
        <ele>39.098732</ele>
        <time>2015-10-27T09:17:10.991000Z</time>
      </trkpt>
      <trkpt lat="41.70651" lon="123.41018">
        <ele>38.219437</ele>
        <time>2015-10-27T09:17:14.423000Z</time>
      </trkpt>
      <trkpt lat="41.70651" lon="123.41018">
        <ele>37.040325</ele>
        <time>2015-10-27T09:17:17.855000Z</time>
      </trkpt>
      <trkpt lat="41.706528" lon="123.41005">
        <ele>36.127842</ele>
        <time>2015-10-27T09:17:21.287000Z</time>
      </trkpt>
      <trkpt lat="41.706528" lon="123.40993">
        <ele>35.915825</ele>
        <time>2015-10-27T09:17:24.719000Z</time>
      </trkpt>
      <trkpt lat="41.706516" lon="123.409805">
        <ele>36.272366</ele>
        <time>2015-10-27T09:17:28.151000Z</time>
      </trkpt>
      <trkpt lat="41.7065" lon="123.40967">
        <ele>36.87724</ele>
        <time>2015-10-27T09:17:31.583000Z</time>
      </trkpt>
      <trkpt lat="41.70649" lon="123.40954">
        <ele>37.48648</ele>
        <time>2015-10-27T09:17:35.015000Z</time>
      </trkpt>
      <trkpt lat="41.706474" lon="123.4094">
        <ele>37.91045</ele>
        <time>2015-10-27T09:17:38.447000Z</time>
      </trkpt>
      <trkpt lat="41.706455" lon="123.40926">
        <ele>38.193848</ele>
        <time>2015-10-27T09:17:41.879000Z</time>
      </trkpt>
      <trkpt lat="41.706432" lon="123.40913">
        <ele>38.680325</ele>
        <time>2015-10-27T09:17:45.311000Z</time>
      </trkpt>
      <trkpt lat="41.706425" lon="123.409">
        <ele>39.359554</ele>
        <time>2015-10-27T09:17:48.743000Z</time>
      </trkpt>
      <trkpt lat="41.70641" lon="123.40885">
        <ele>40.284416</ele>
        <time>2015-10-27T09:17:52.175000Z</time>
      </trkpt>
      <trkpt lat="41.706417" lon="123.40872">
        <ele>41.554314</ele>
        <time>2015-10-27T09:17:55.607000Z</time>
      </trkpt>
      <trkpt lat="41.70642" lon="123.408585">
        <ele>42.660255</ele>
        <time>2015-10-27T09:17:59.039000Z</time>
      </trkpt>
      <trkpt lat="41.7064" lon="123.40843">
        <ele>42.991886</ele>
        <time>2015-10-27T09:18:02.471000Z</time>
      </trkpt>
      <trkpt lat="41.706417" lon="123.408295">
        <ele>42.531986</ele>
        <time>2015-10-27T09:18:05.903000Z</time>
      </trkpt>
      <trkpt lat="41.706417" lon="123.408295">
        <ele>41.697506</ele>
        <time>2015-10-27T09:18:09.335000Z</time>
      </trkpt>
      <trkpt lat="41.706448" lon="123.408165">
        <ele>41.274548</ele>
        <time>2015-10-27T09:18:12.767000Z</time>
      </trkpt>
      <trkpt lat="41.706467" lon="123.40801">
        <ele>41.789276</ele>
        <time>2015-10-27T09:18:16.199000Z</time>
      </trkpt>
      <trkpt lat="41.70651" lon="123.40789">
        <ele>42.884323</ele>
        <time>2015-10-27T09:18:19.631000Z</time>
      </trkpt>
      <trkpt lat="41.70651" lon="123.40789">
        <ele>43.76395</ele>
        <time>2015-10-27T09:18:23.063000Z</time>
      </trkpt>
      <trkpt lat="41.706535" lon="123.40776">
        <ele>44.1134</ele>
        <time>2015-10-27T09:18:26.495000Z</time>
      </trkpt>
      <trkpt lat="41.706554" lon="123.40763">
        <ele>44.125546</ele>
        <time>2015-10-27T09:18:29.927000Z</time>
      </trkpt>
      <trkpt lat="41.70657" lon="123.40751">
        <ele>44.035114</ele>
        <time>2015-10-27T09:18:33.359000Z</time>
      </trkpt>
      <trkpt lat="41.70659" lon="123.40739">
        <ele>43.825474</ele>
        <time>2015-10-27T09:18:36.791000Z</time>
      </trkpt>
      <trkpt lat="41.706593" lon="123.40726">
        <ele>43.29943</ele>
        <time>2015-10-27T09:18:40.223000Z</time>
      </trkpt>
      <trkpt lat="41.706593" lon="123.40713">
        <ele>42.293076</ele>
        <time>2015-10-27T09:18:43.655000Z</time>
      </trkpt>
      <trkpt lat="41.70661" lon="123.407">
        <ele>41.03606</ele>
        <time>2015-10-27T09:18:47.087000Z</time>
      </trkpt>
      <trkpt lat="41.706646" lon="123.406876">
        <ele>40.37756</ele>
        <time>2015-10-27T09:18:50.519000Z</time>
      </trkpt>
      <trkpt lat="41.70668" lon="123.40675">
        <ele>40.890694</ele>
        <time>2015-10-27T09:18:53.951000Z</time>
      </trkpt>
      <trkpt lat="41.706707" lon="123.406624">
        <ele>41.996517</ele>
        <time>2015-10-27T09:18:57.383000Z</time>
      </trkpt>
      <trkpt lat="41.70673" lon="123.40649">
        <ele>42.820034</ele>
        <time>2015-10-27T09:19:00.815000Z</time>
      </trkpt>
      <trkpt lat="41.706757" lon="123.40636">
        <ele>43.124218</ele>
        <time>2015-10-27T09:19:04.247000Z</time>
      </trkpt>
      <trkpt lat="41.706783" lon="123.406235">
        <ele>43.118317</ele>
        <time>2015-10-27T09:19:07.679000Z</time>
      </trkpt>
      <trkpt lat="41.706825" lon="123.40608">
        <ele>43.027206</ele>
        <time>2015-10-27T09:19:11.111000Z</time>
      </trkpt>
      <trkpt lat="41.70686" lon="123.40594">
        <ele>42.96038</ele>
        <time>2015-10-27T09:19:14.543000Z</time>
      </trkpt>
      <trkpt lat="41.70688" lon="123.40578">
        <ele>42.79791</ele>
        <time>2015-10-27T09:19:17.975000Z</time>
      </trkpt>
      <trkpt lat="41.706917" lon="123.405624">
        <ele>42.43879</ele>
        <time>2015-10-27T09:19:21.407000Z</time>
      </trkpt>
      <trkpt lat="41.70697" lon="123.4055">
        <ele>41.662323</ele>
        <time>2015-10-27T09:19:24.839000Z</time>
      </trkpt>
      <trkpt lat="41.70701" lon="123.405396">
        <ele>40.412807</ele>
        <time>2015-10-27T09:19:28.271000Z</time>
      </trkpt>
      <trkpt lat="41.707047" lon="123.405266">
        <ele>39.27991</ele>
        <time>2015-10-27T09:19:31.703000Z</time>
      </trkpt>
      <trkpt lat="41.7071" lon="123.405136">
        <ele>38.645847</ele>
        <time>2015-10-27T09:19:35.135000Z</time>
      </trkpt>
      <trkpt lat="41.707115" lon="123.404976">
        <ele>38.235855</ele>
        <time>2015-10-27T09:19:38.567000Z</time>
      </trkpt>
      <trkpt lat="41.70712" lon="123.40482">
        <ele>38.24639</ele>
        <time>2015-10-27T09:19:41.999000Z</time>
      </trkpt>
      <trkpt lat="41.707127" lon="123.404686">
        <ele>39.297638</ele>
        <time>2015-10-27T09:19:45.431000Z</time>
      </trkpt>
      <trkpt lat="41.70711" lon="123.40452">
        <ele>41.267635</ele>
        <time>2015-10-27T09:19:48.863000Z</time>
      </trkpt>
      <trkpt lat="41.70713" lon="123.40437">
        <ele>43.39636</ele>
        <time>2015-10-27T09:19:52.295000Z</time>
      </trkpt>
      <trkpt lat="41.70715" lon="123.40425">
        <ele>45.08594</ele>
        <time>2015-10-27T09:19:55.727000Z</time>
      </trkpt>
      <trkpt lat="41.707184" lon="123.40413">
        <ele>46.026287</ele>
        <time>2015-10-27T09:19:59.159000Z</time>
      </trkpt>
      <trkpt lat="41.707214" lon="123.404015">
        <ele>46.113815</ele>
        <time>2015-10-27T09:20:02.591000Z</time>
      </trkpt>
      <trkpt lat="41.707268" lon="123.403885">
        <ele>45.655724</ele>
        <time>2015-10-27T09:20:06.023000Z</time>
      </trkpt>
      <trkpt lat="41.70732" lon="123.40375">
        <ele>44.871777</ele>
        <time>2015-10-27T09:20:09.455000Z</time>
      </trkpt>
      <trkpt lat="41.707375" lon="123.40363">
        <ele>43.62447</ele>
        <time>2015-10-27T09:20:12.887000Z</time>
      </trkpt>
      <trkpt lat="41.707397" lon="123.40348">
        <ele>42.12157</ele>
        <time>2015-10-27T09:20:16.319000Z</time>
      </trkpt>
      <trkpt lat="41.707405" lon="123.40333">
        <ele>41.07047</ele>
        <time>2015-10-27T09:20:19.751000Z</time>
      </trkpt>
      <trkpt lat="41.70742" lon="123.40317">
        <ele>40.57011</ele>
        <time>2015-10-27T09:20:23.183000Z</time>
      </trkpt>
      <trkpt lat="41.707436" lon="123.40304">
        <ele>40.23735</ele>
        <time>2015-10-27T09:20:26.615000Z</time>
      </trkpt>
      <trkpt lat="41.70745" lon="123.4029">
        <ele>39.991512</ele>
        <time>2015-10-27T09:20:30.047000Z</time>
      </trkpt>
      <trkpt lat="41.70742" lon="123.40268">
        <ele>39.901463</ele>
        <time>2015-10-27T09:20:33.479000Z</time>
      </trkpt>
      <trkpt lat="41.707478" lon="123.40257">
        <ele>40.73286</ele>
        <time>2015-10-27T09:20:36.911000Z</time>
      </trkpt>
      <trkpt lat="41.707558" lon="123.402504">
        <ele>43.472332</ele>
        <time>2015-10-27T09:20:40.343000Z</time>
      </trkpt>
      <trkpt lat="41.707645" lon="123.40243">
        <ele>47.148457</ele>
        <time>2015-10-27T09:20:43.775000Z</time>
      </trkpt>
      <trkpt lat="41.707706" lon="123.40229">
        <ele>49.82313</ele>
        <time>2015-10-27T09:20:47.207000Z</time>
      </trkpt>
      <trkpt lat="41.707733" lon="123.40217">
        <ele>51.181152</ele>
        <time>2015-10-27T09:20:50.639000Z</time>
      </trkpt>
      <trkpt lat="41.7078" lon="123.40205">
        <ele>52.248962</ele>
        <time>2015-10-27T09:20:54.071000Z</time>
      </trkpt>
      <trkpt lat="41.707897" lon="123.401955">
        <ele>53.571125</ele>
        <time>2015-10-27T09:20:57.503000Z</time>
      </trkpt>
      <trkpt lat="41.70798" lon="123.40186">
        <ele>53.98475</ele>
        <time>2015-10-27T09:21:00.935000Z</time>
      </trkpt>
      <trkpt lat="41.70807" lon="123.40174">
        <ele>52.639133</ele>
        <time>2015-10-27T09:21:04.367000Z</time>
      </trkpt>
      <trkpt lat="41.708157" lon="123.40165">
        <ele>50.81853</ele>
        <time>2015-10-27T09:21:07.799000Z</time>
      </trkpt>
      <trkpt lat="41.708252" lon="123.40159">
        <ele>49.832897</ele>
        <time>2015-10-27T09:21:11.231000Z</time>
      </trkpt>
      <trkpt lat="41.708366" lon="123.401535">
        <ele>49.472286</ele>
        <time>2015-10-27T09:21:14.663000Z</time>
      </trkpt>
      <trkpt lat="41.70849" lon="123.40152">
        <ele>48.949604</ele>
        <time>2015-10-27T09:21:18.095000Z</time>
      </trkpt>
      <trkpt lat="41.708576" lon="123.40155">
        <ele>48.009163</ele>
        <time>2015-10-27T09:21:21.527000Z</time>
      </trkpt>
      <trkpt lat="41.708675" lon="123.401505">
        <ele>47.174545</ele>
        <time>2015-10-27T09:21:24.959000Z</time>
      </trkpt>
      <trkpt lat="41.708767" lon="123.40145">
        <ele>46.8149</ele>
        <time>2015-10-27T09:21:28.391000Z</time>
      </trkpt>
      <trkpt lat="41.708874" lon="123.40139">
        <ele>46.644077</ele>
        <time>2015-10-27T09:21:31.823000Z</time>
      </trkpt>
      <trkpt lat="41.708965" lon="123.40137">
        <ele>46.36211</ele>
        <time>2015-10-27T09:21:35.255000Z</time>
      </trkpt>
      <trkpt lat="41.709064" lon="123.40139">
        <ele>46.060574</ele>
        <time>2015-10-27T09:21:38.687000Z</time>
      </trkpt>
      <trkpt lat="41.709175" lon="123.401405">
        <ele>45.914165</ele>
        <time>2015-10-27T09:21:42.119000Z</time>
      </trkpt>
      <trkpt lat="41.70927" lon="123.401375">
        <ele>45.889988</ele>
        <time>2015-10-27T09:21:45.551000Z</time>
      </trkpt>
      <trkpt lat="41.70937" lon="123.4013">
        <ele>46.0517</ele>
        <time>2015-10-27T09:21:48.983000Z</time>
      </trkpt>
      <trkpt lat="41.709476" lon="123.40128">
        <ele>46.436176</ele>
        <time>2015-10-27T09:21:52.415000Z</time>
      </trkpt>
      <trkpt lat="41.709564" lon="123.40131">
        <ele>46.817394</ele>
        <time>2015-10-27T09:21:55.847000Z</time>
      </trkpt>
      <trkpt lat="41.709682" lon="123.40132">
        <ele>47.132687</ele>
        <time>2015-10-27T09:21:59.279000Z</time>
      </trkpt>
      <trkpt lat="41.70978" lon="123.401375">
        <ele>47.655327</ele>
        <time>2015-10-27T09:22:02.711000Z</time>
      </trkpt>
      <trkpt lat="41.70988" lon="123.40147">
        <ele>48.352665</ele>
        <time>2015-10-27T09:22:06.143000Z</time>
      </trkpt>
      <trkpt lat="41.709957" lon="123.40157">
        <ele>49.004482</ele>
        <time>2015-10-27T09:22:09.575000Z</time>
      </trkpt>
      <trkpt lat="41.710033" lon="123.40165">
        <ele>49.41375</ele>
        <time>2015-10-27T09:22:13.007000Z</time>
      </trkpt>
      <trkpt lat="41.710114" lon="123.40171">
        <ele>49.556156</ele>
        <time>2015-10-27T09:22:16.439000Z</time>
      </trkpt>
      <trkpt lat="41.710224" lon="123.40177">
        <ele>49.683735</ele>
        <time>2015-10-27T09:22:19.871000Z</time>
      </trkpt>
      <trkpt lat="41.71033" lon="123.401825">
        <ele>49.78327</ele>
        <time>2015-10-27T09:22:23.303000Z</time>
      </trkpt>
      <trkpt lat="41.710434" lon="123.40189">
        <ele>49.896477</ele>
        <time>2015-10-27T09:22:26.735000Z</time>
      </trkpt>
      <trkpt lat="41.710434" lon="123.40189">
        <ele>49.953243</ele>
        <time>2015-10-27T09:22:30.167000Z</time>
      </trkpt>
      <trkpt lat="41.71054" lon="123.40195">
        <ele>50.101852</ele>
        <time>2015-10-27T09:22:33.599000Z</time>
      </trkpt>
      <trkpt lat="41.710632" lon="123.40199">
        <ele>50.72977</ele>
        <time>2015-10-27T09:22:37.031000Z</time>
      </trkpt>
      <trkpt lat="41.710716" lon="123.40205">
        <ele>51.809753</ele>
        <time>2015-10-27T09:22:40.463000Z</time>
      </trkpt>
      <trkpt lat="41.710815" lon="123.40211">
        <ele>52.581135</ele>
        <time>2015-10-27T09:22:43.895000Z</time>
      </trkpt>
      <trkpt lat="41.710976" lon="123.40217">
        <ele>52.59749</ele>
        <time>2015-10-27T09:22:47.327000Z</time>
      </trkpt>
      <trkpt lat="41.711063" lon="123.40222">
        <ele>52.80454</ele>
        <time>2015-10-27T09:22:50.759000Z</time>
      </trkpt>
      <trkpt lat="41.711166" lon="123.402275">
        <ele>54.255875</ele>
        <time>2015-10-27T09:22:54.191000Z</time>
      </trkpt>
      <trkpt lat="41.711254" lon="123.40233">
        <ele>56.4911</ele>
        <time>2015-10-27T09:22:57.623000Z</time>
      </trkpt>
      <trkpt lat="41.71137" lon="123.40237">
        <ele>58.42892</ele>
        <time>2015-10-27T09:23:01.055000Z</time>
      </trkpt>
      <trkpt lat="41.711468" lon="123.40241">
        <ele>59.91975</ele>
        <time>2015-10-27T09:23:04.487000Z</time>
      </trkpt>
      <trkpt lat="41.711575" lon="123.40247">
        <ele>61.277004</ele>
        <time>2015-10-27T09:23:07.919000Z</time>
      </trkpt>
      <trkpt lat="41.71165" lon="123.40257">
        <ele>62.405186</ele>
        <time>2015-10-27T09:23:11.351000Z</time>
      </trkpt>
      <trkpt lat="41.71175" lon="123.402626">
        <ele>63.00501</ele>
        <time>2015-10-27T09:23:14.783000Z</time>
      </trkpt>
      <trkpt lat="41.711853" lon="123.402664">
        <ele>62.85825</ele>
        <time>2015-10-27T09:23:18.215000Z</time>
      </trkpt>
      <trkpt lat="41.71195" lon="123.402725">
        <ele>61.788662</ele>
        <time>2015-10-27T09:23:21.647000Z</time>
      </trkpt>
      <trkpt lat="41.712048" lon="123.40278">
        <ele>60.237854</ele>
        <time>2015-10-27T09:23:25.079000Z</time>
      </trkpt>
      <trkpt lat="41.712154" lon="123.40284">
        <ele>58.96191</ele>
        <time>2015-10-27T09:23:28.511000Z</time>
      </trkpt>
      <trkpt lat="41.712254" lon="123.4029">
        <ele>58.3265</ele>
        <time>2015-10-27T09:23:31.943000Z</time>
      </trkpt>
      <trkpt lat="41.712357" lon="123.402954">
        <time>2015-10-27T09:23:35.375000Z</time>
      </trkpt>
    </trkseg>
  </trk>
</gpx>