<?xml version="1.0" encoding="UTF-8"?>
<gpx xmlns="http://www.topografix.com/GPX/1/1" xmlns:gpxtpx="http://www.garmin.com/xmlschemas/TrackPointExtension/v1" xmlns:xsi="http://www.w3.org/2001/XMLSchema-instance" xsi:schemaLocation="http://www.topografix.com/GPX/1/1 http://www.topografix.com/GPX/1/1/gpx.xsd" version="1.1" creator="gpx.py -- https://github.com/tkrajina/gpxpy">
  <trk>
    <trkseg>
      <trkpt lat="41.749" lon="123.36331">
        <ele>59.93554</ele>
        <time>2015-12-18T23:44:26.890000Z</time>
      </trkpt>
      <trkpt lat="41.749" lon="123.36331">
        <ele>0</ele>
        <time>2015-12-18T23:44:31.818000Z</time>
      </trkpt>
      <trkpt lat="41.748974" lon="123.363434">
        <ele>0</ele>
        <time>2015-12-18T23:44:36.746000Z</time>
      </trkpt>
      <trkpt lat="41.748955" lon="123.363556">
        <ele>0</ele>
        <time>2015-12-18T23:44:41.674000Z</time>
      </trkpt>
      <trkpt lat="41.748924" lon="123.36369">
        <ele>0</ele>
        <time>2015-12-18T23:44:46.602000Z</time>
      </trkpt>
      <trkpt lat="41.748917" lon="123.36383">
        <ele>0</ele>
        <time>2015-12-18T23:44:51.530000Z</time>
      </trkpt>
      <trkpt lat="41.748928" lon="123.36395">
        <ele>0</ele>
        <time>2015-12-18T23:44:56.458000Z</time>
      </trkpt>
      <trkpt lat="41.74893" lon="123.36409">
        <ele>0</ele>
        <time>2015-12-18T23:45:01.386000Z</time>
      </trkpt>
      <trkpt lat="41.74895" lon="123.36421">
        <ele>0</ele>
        <time>2015-12-18T23:45:06.314000Z</time>
      </trkpt>
      <trkpt lat="41.74896" lon="123.36435">
        <ele>0</ele>
        <time>2015-12-18T23:45:11.242000Z</time>
      </trkpt>
      <trkpt lat="41.748974" lon="123.36448">
        <ele>0</ele>
        <time>2015-12-18T23:45:16.170000Z</time>
      </trkpt>
      <trkpt lat="41.748978" lon="123.36461">
        <ele>0</ele>
        <time>2015-12-18T23:45:21.098000Z</time>
      </trkpt>
      <trkpt lat="41.748962" lon="123.36474">
        <ele>0</ele>
        <time>2015-12-18T23:45:26.026000Z</time>
      </trkpt>
      <trkpt lat="41.74897" lon="123.36486">
        <ele>0</ele>
        <time>2015-12-18T23:45:30.954000Z</time>
      </trkpt>
      <trkpt lat="41.74897" lon="123.36501">
        <ele>0</ele>
        <time>2015-12-18T23:45:35.882000Z</time>
      </trkpt>
      <trkpt lat="41.748962" lon="123.365135">
        <ele>0</ele>
        <time>2015-12-18T23:45:40.810000Z</time>
      </trkpt>
      <trkpt lat="41.748962" lon="123.365135">
        <ele>0</ele>
        <time>2015-12-18T23:45:45.738000Z</time>
      </trkpt>
      <trkpt lat="41.748962" lon="123.365135">
        <ele>0</ele>
        <time>2015-12-18T23:45:50.666000Z</time>
      </trkpt>
      <trkpt lat="41.74887" lon="123.36518">
        <ele>0</ele>
        <time>2015-12-18T23:45:55.594000Z</time>
      </trkpt>
      <trkpt lat="41.74887" lon="123.36532">
        <ele>0</ele>
        <time>2015-12-18T23:46:00.522000Z</time>
      </trkpt>
      <trkpt lat="41.74887" lon="123.36547">
        <ele>0</ele>
        <time>2015-12-18T23:46:05.450000Z</time>
      </trkpt>
      <trkpt lat="41.748867" lon="123.3656">
        <ele>0</ele>
        <time>2015-12-18T23:46:10.378000Z</time>
      </trkpt>
      <trkpt lat="41.74885" lon="123.365746">
        <ele>0</ele>
        <time>2015-12-18T23:46:15.306000Z</time>
      </trkpt>
      <trkpt lat="41.748837" lon="123.36587">
        <ele>0</ele>
        <time>2015-12-18T23:46:20.234000Z</time>
      </trkpt>
      <trkpt lat="41.74882" lon="123.36599">
        <ele>0</ele>
        <time>2015-12-18T23:46:25.162000Z</time>
      </trkpt>
      <trkpt lat="41.7488" lon="123.36613">
        <ele>0</ele>
        <time>2015-12-18T23:46:30.090000Z</time>
      </trkpt>
      <trkpt lat="41.74877" lon="123.36625">
        <ele>0</ele>
        <time>2015-12-18T23:46:35.018000Z</time>
      </trkpt>
      <trkpt lat="41.748753" lon="123.36637">
        <ele>0</ele>
        <time>2015-12-18T23:46:39.946000Z</time>
      </trkpt>
      <trkpt lat="41.748745" lon="123.3665">
        <ele>0</ele>
        <time>2015-12-18T23:46:44.874000Z</time>
      </trkpt>
      <trkpt lat="41.748745" lon="123.36662">
        <ele>0</ele>
        <time>2015-12-18T23:46:49.802000Z</time>
      </trkpt>
      <trkpt lat="41.74874" lon="123.36676">
        <ele>0</ele>
        <time>2015-12-18T23:46:54.730000Z</time>
      </trkpt>
      <trkpt lat="41.74873" lon="123.3669">
        <ele>0</ele>
        <time>2015-12-18T23:46:59.658000Z</time>
      </trkpt>
      <trkpt lat="41.748722" lon="123.36703">
        <ele>0</ele>
        <time>2015-12-18T23:47:04.586000Z</time>
      </trkpt>
      <trkpt lat="41.748737" lon="123.36716">
        <ele>0</ele>
        <time>2015-12-18T23:47:09.514000Z</time>
      </trkpt>
      <trkpt lat="41.748745" lon="123.367294">
        <ele>0</ele>
        <time>2015-12-18T23:47:14.442000Z</time>
      </trkpt>
      <trkpt lat="41.748737" lon="123.36746">
        <ele>0</ele>
        <time>2015-12-18T23:47:19.370000Z</time>
      </trkpt>
      <trkpt lat="41.74874" lon="123.36759">
        <ele>0</ele>
        <time>2015-12-18T23:47:24.298000Z</time>
      </trkpt>
      <trkpt lat="41.74875" lon="123.367744">
        <ele>0</ele>
        <time>2015-12-18T23:47:29.226000Z</time>
      </trkpt>
      <trkpt lat="41.748745" lon="123.36788">
        <ele>0</ele>
        <time>2015-12-18T23:47:34.154000Z</time>
      </trkpt>
      <trkpt lat="41.748753" lon="123.368004">
        <ele>0</ele>
        <time>2015-12-18T23:47:39.082000Z</time>
      </trkpt>
      <trkpt lat="41.74875" lon="123.368126">
        <ele>0</ele>
        <time>2015-12-18T23:47:44.010000Z</time>
      </trkpt>
      <trkpt lat="41.74875" lon="123.368126">
        <ele>0</ele>
        <time>2015-12-18T23:47:48.938000Z</time>
      </trkpt>
      <trkpt lat="41.74875" lon="123.368126">
        <ele>0</ele>
        <time>2015-12-18T23:47:53.866000Z</time>
      </trkpt>
      <trkpt lat="41.7488" lon="123.36824">
        <ele>0</ele>
        <time>2015-12-18T23:47:58.794000Z</time>
      </trkpt>
      <trkpt lat="41.7488" lon="123.36824">
        <ele>0</ele>
        <time>2015-12-18T23:48:03.722000Z</time>
      </trkpt>
      <trkpt lat="41.74881" lon="123.36836">
        <ele>0</ele>
        <time>2015-12-18T23:48:08.650000Z</time>
      </trkpt>
      <trkpt lat="41.748806" lon="123.3685">
        <ele>0</ele>
        <time>2015-12-18T23:48:13.578000Z</time>
      </trkpt>
      <trkpt lat="41.748783" lon="123.36863">
        <ele>0</ele>
        <time>2015-12-18T23:48:18.506000Z</time>
      </trkpt>
      <trkpt lat="41.748783" lon="123.36863">
        <ele>0</ele>
        <time>2015-12-18T23:48:23.434000Z</time>
      </trkpt>
      <trkpt lat="41.74882" lon="123.368744">
        <ele>0</ele>
        <time>2015-12-18T23:48:28.362000Z</time>
      </trkpt>
      <trkpt lat="41.748848" lon="123.36887">
        <ele>0</ele>
        <time>2015-12-18T23:48:33.290000Z</time>
      </trkpt>
      <trkpt lat="41.74887" lon="123.368996">
        <ele>0</ele>
        <time>2015-12-18T23:48:38.218000Z</time>
      </trkpt>
      <trkpt lat="41.748886" lon="123.36912">
        <ele>0</ele>
        <time>2015-12-18T23:48:43.146000Z</time>
      </trkpt>
      <trkpt lat="41.748917" lon="123.369255">
        <ele>0</ele>
        <time>2015-12-18T23:48:48.074000Z</time>
      </trkpt>
      <trkpt lat="41.7489" lon="123.369385">
        <ele>0</ele>
        <time>2015-12-18T23:48:53.002000Z</time>
      </trkpt>
      <trkpt lat="41.748898" lon="123.36953">
        <ele>0</ele>
        <time>2015-12-18T23:48:57.930000Z</time>
      </trkpt>
      <trkpt lat="41.74887" lon="123.36967">
        <ele>0</ele>
        <time>2015-12-18T23:49:02.858000Z</time>
      </trkpt>
      <trkpt lat="41.748814" lon="123.369774">
        <ele>0</ele>
        <time>2015-12-18T23:49:07.786000Z</time>
      </trkpt>
      <trkpt lat="41.74875" lon="123.36989">
        <ele>0</ele>
        <time>2015-12-18T23:49:12.714000Z</time>
      </trkpt>
      <trkpt lat="41.748734" lon="123.37002">
        <ele>0</ele>
        <time>2015-12-18T23:49:17.642000Z</time>
      </trkpt>
      <trkpt lat="41.748726" lon="123.37014">
        <ele>0</ele>
        <time>2015-12-18T23:49:22.570000Z</time>
      </trkpt>
      <trkpt lat="41.74873" lon="123.37028">
        <ele>0</ele>
        <time>2015-12-18T23:49:27.498000Z</time>
      </trkpt>
      <trkpt lat="41.74874" lon="123.37044">
        <ele>0</ele>
        <time>2015-12-18T23:49:32.426000Z</time>
      </trkpt>
      <trkpt lat="41.74877" lon="123.370575">
        <ele>0</ele>
        <time>2015-12-18T23:49:37.354000Z</time>
      </trkpt>
      <trkpt lat="41.7488" lon="123.37071">
        <ele>0</ele>
        <time>2015-12-18T23:49:42.282000Z</time>
      </trkpt>
      <trkpt lat="41.748825" lon="123.37085">
        <ele>0</ele>
        <time>2015-12-18T23:49:47.210000Z</time>
      </trkpt>
      <trkpt lat="41.74885" lon="123.37099">
        <ele>0</ele>
        <time>2015-12-18T23:49:52.138000Z</time>
      </trkpt>
      <trkpt lat="41.74887" lon="123.37111">
        <ele>0</ele>
        <time>2015-12-18T23:49:57.066000Z</time>
      </trkpt>
      <trkpt lat="41.74888" lon="123.37124">
        <ele>0</ele>
        <time>2015-12-18T23:50:01.994000Z</time>
      </trkpt>
      <trkpt lat="41.7489" lon="123.37136">
        <ele>0</ele>
        <time>2015-12-18T23:50:06.922000Z</time>
      </trkpt>
      <trkpt lat="41.748913" lon="123.37149">
        <ele>0</ele>
        <time>2015-12-18T23:50:11.850000Z</time>
      </trkpt>
      <trkpt lat="41.74894" lon="123.37162">
        <ele>0</ele>
        <time>2015-12-18T23:50:16.778000Z</time>
      </trkpt>
      <trkpt lat="41.74898" lon="123.37173">
        <ele>0</ele>
        <time>2015-12-18T23:50:21.706000Z</time>
      </trkpt>
      <trkpt lat="41.749035" lon="123.371864">
        <ele>0</ele>
        <time>2015-12-18T23:50:26.634000Z</time>
      </trkpt>
      <trkpt lat="41.749077" lon="123.37199">
        <ele>0</ele>
        <time>2015-12-18T23:50:31.562000Z</time>
      </trkpt>
      <trkpt lat="41.749096" lon="123.372116">
        <ele>0</ele>
        <time>2015-12-18T23:50:36.490000Z</time>
      </trkpt>
      <trkpt lat="41.749138" lon="123.37225">
        <ele>0</ele>
        <time>2015-12-18T23:50:41.418000Z</time>
      </trkpt>
      <trkpt lat="41.74919" lon="123.37238">
        <ele>0</ele>
        <time>2015-12-18T23:50:46.346000Z</time>
      </trkpt>
      <trkpt lat="41.749233" lon="123.37252">
        <ele>0</ele>
        <time>2015-12-18T23:50:51.274000Z</time>
      </trkpt>
      <trkpt lat="41.74926" lon="123.37266">
        <ele>0</ele>
        <time>2015-12-18T23:50:56.202000Z</time>
      </trkpt>
      <trkpt lat="41.749275" lon="123.37278">
        <ele>0</ele>
        <time>2015-12-18T23:51:01.130000Z</time>
      </trkpt>
      <trkpt lat="41.749317" lon="123.37292">
        <ele>0</ele>
        <time>2015-12-18T23:51:06.058000Z</time>
      </trkpt>
      <trkpt lat="41.749317" lon="123.37292">
        <ele>0</ele>
        <time>2015-12-18T23:51:10.986000Z</time>
      </trkpt>
      <trkpt lat="41.74935" lon="123.373024">
        <ele>0</ele>
        <time>2015-12-18T23:51:15.914000Z</time>
      </trkpt>
      <trkpt lat="41.749405" lon="123.37313">
        <ele>0</ele>
        <time>2015-12-18T23:51:20.842000Z</time>
      </trkpt>
      <trkpt lat="41.749405" lon="123.37313">
        <ele>0</ele>
        <time>2015-12-18T23:51:25.770000Z</time>
      </trkpt>
      <trkpt lat="41.749447" lon="123.37326">
        <ele>0</ele>
        <time>2015-12-18T23:51:30.698000Z</time>
      </trkpt>
      <trkpt lat="41.749477" lon="123.373405">
        <ele>0</ele>
        <time>2015-12-18T23:51:35.626000Z</time>
      </trkpt>
      <trkpt lat="41.749527" lon="123.37354">
        <ele>0</ele>
        <time>2015-12-18T23:51:40.554000Z</time>
      </trkpt>
      <trkpt lat="41.749577" lon="123.373665">
        <ele>0</ele>
        <time>2015-12-18T23:51:45.482000Z</time>
      </trkpt>
      <trkpt lat="41.749626" lon="123.37378">
        <ele>0</ele>
        <time>2015-12-18T23:51:50.410000Z</time>
      </trkpt>
      <trkpt lat="41.749676" lon="123.37389">
        <ele>0</ele>
        <time>2015-12-18T23:51:55.338000Z</time>
      </trkpt>
      <trkpt lat="41.749718" lon="123.374">
        <ele>0</ele>
        <time>2015-12-18T23:52:00.266000Z</time>
      </trkpt>
      <trkpt lat="41.74976" lon="123.37413">
        <ele>0</ele>
        <time>2015-12-18T23:52:05.194000Z</time>
      </trkpt>
      <trkpt lat="41.7498" lon="123.37426">
        <ele>0</ele>
        <time>2015-12-18T23:52:10.122000Z</time>
      </trkpt>
      <trkpt lat="41.74985" lon="123.37438">
        <ele>0</ele>
        <time>2015-12-18T23:52:15.050000Z</time>
      </trkpt>
      <trkpt lat="41.749924" lon="123.3745">
        <ele>0</ele>
        <time>2015-12-18T23:52:19.978000Z</time>
      </trkpt>
      <trkpt lat="41.750008" lon="123.374596">
        <ele>0</ele>
        <time>2015-12-18T23:52:24.906000Z</time>
      </trkpt>
      <trkpt lat="41.7501" lon="123.37467">
        <ele>0</ele>
        <time>2015-12-18T23:52:29.834000Z</time>
      </trkpt>
      <trkpt lat="41.750164" lon="123.37476">
        <ele>0</ele>
        <time>2015-12-18T23:52:34.762000Z</time>
      </trkpt>
      <trkpt lat="41.750217" lon="123.37487">
        <ele>0</ele>
        <time>2015-12-18T23:52:39.690000Z</time>
      </trkpt>
      <trkpt lat="41.750217" lon="123.37487">
        <ele>0</ele>
        <time>2015-12-18T23:52:44.618000Z</time>
      </trkpt>
      <trkpt lat="41.750217" lon="123.37487">
        <ele>0</ele>
        <time>2015-12-18T23:52:49.546000Z</time>
      </trkpt>
      <trkpt lat="41.750244" lon="123.374985">
        <ele>0</ele>
        <time>2015-12-18T23:52:54.474000Z</time>
      </trkpt>
      <trkpt lat="41.750244" lon="123.374985">
        <ele>0</ele>
        <time>2015-12-18T23:52:59.402000Z</time>
      </trkpt>
      <trkpt lat="41.750244" lon="123.374985">
        <ele>0</ele>
        <time>2015-12-18T23:53:04.330000Z</time>
      </trkpt>
      <trkpt lat="41.750317" lon="123.37506">
        <ele>0</ele>
        <time>2015-12-18T23:53:09.258000Z</time>
      </trkpt>
      <trkpt lat="41.750385" lon="123.375145">
        <ele>0</ele>
        <time>2015-12-18T23:53:14.186000Z</time>
      </trkpt>
      <trkpt lat="41.750465" lon="123.37521">
        <ele>0</ele>
        <time>2015-12-18T23:53:19.114000Z</time>
      </trkpt>
      <trkpt lat="41.750565" lon="123.37525">
        <ele>0</ele>
        <time>2015-12-18T23:53:24.042000Z</time>
      </trkpt>
      <trkpt lat="41.75059" lon="123.37537">
        <ele>0</ele>
        <time>2015-12-18T23:53:28.970000Z</time>
      </trkpt>
      <trkpt lat="41.75064" lon="123.37547">
        <ele>0</ele>
        <time>2015-12-18T23:53:33.898000Z</time>
      </trkpt>
      <trkpt lat="41.750687" lon="123.37559">
        <ele>0</ele>
        <time>2015-12-18T23:53:38.826000Z</time>
      </trkpt>
      <trkpt lat="41.750763" lon="123.37567">
        <ele>0</ele>
        <time>2015-12-18T23:53:43.754000Z</time>
      </trkpt>
      <trkpt lat="41.75082" lon="123.37578">
        <ele>0</ele>
        <time>2015-12-18T23:53:48.682000Z</time>
      </trkpt>
      <trkpt lat="41.750862" lon="123.375885">
        <ele>0</ele>
        <time>2015-12-18T23:53:53.610000Z</time>
      </trkpt>
      <trkpt lat="41.750935" lon="123.37597">
        <ele>0</ele>
        <time>2015-12-18T23:53:58.538000Z</time>
      </trkpt>
      <trkpt lat="41.75097" lon="123.376076">
        <ele>0</ele>
        <time>2015-12-18T23:54:03.466000Z</time>
      </trkpt>
      <trkpt lat="41.75104" lon="123.37615">
        <ele>0</ele>
        <time>2015-12-18T23:54:08.394000Z</time>
      </trkpt>
      <trkpt lat="41.751102" lon="123.37626">
        <ele>0</ele>
        <time>2015-12-18T23:54:13.322000Z</time>
      </trkpt>
      <trkpt lat="41.751167" lon="123.37634">
        <ele>0</ele>
        <time>2015-12-18T23:54:18.250000Z</time>
      </trkpt>
      <trkpt lat="41.751167" lon="123.37634">
        <ele>0</ele>
        <time>2015-12-18T23:54:23.178000Z</time>
      </trkpt>
      <trkpt lat="41.75129" lon="123.37645">
        <ele>0</ele>
        <time>2015-12-18T23:54:28.106000Z</time>
      </trkpt>
      <trkpt lat="41.751366" lon="123.37654">
        <ele>0</ele>
        <time>2015-12-18T23:54:33.034000Z</time>
      </trkpt>
      <trkpt lat="41.751392" lon="123.37666">
        <ele>0</ele>
        <time>2015-12-18T23:54:37.962000Z</time>
      </trkpt>
      <trkpt lat="41.751392" lon="123.37666">
        <ele>0</ele>
        <time>2015-12-18T23:54:42.890000Z</time>
      </trkpt>
      <trkpt lat="41.751457" lon="123.37676">
        <ele>0</ele>
        <time>2015-12-18T23:54:47.818000Z</time>
      </trkpt>
      <trkpt lat="41.75152" lon="123.37686">
        <ele>0</ele>
        <time>2015-12-18T23:54:52.746000Z</time>
      </trkpt>
      <trkpt lat="41.751595" lon="123.37696">
        <ele>0</ele>
        <time>2015-12-18T23:54:57.674000Z</time>
      </trkpt>
      <trkpt lat="41.75166" lon="123.377045">
        <ele>0</ele>
        <time>2015-12-18T23:55:02.602000Z</time>
      </trkpt>
      <trkpt lat="41.75171" lon="123.37715">
        <ele>0</ele>
        <time>2015-12-18T23:55:07.530000Z</time>
      </trkpt>
      <trkpt lat="41.751778" lon="123.37725">
        <ele>0</ele>
        <time>2015-12-18T23:55:12.458000Z</time>
      </trkpt>
      <trkpt lat="41.751858" lon="123.37735">
        <ele>0</ele>
        <time>2015-12-18T23:55:17.386000Z</time>
      </trkpt>
      <trkpt lat="41.75192" lon="123.37746">
        <ele>0</ele>
        <time>2015-12-18T23:55:22.314000Z</time>
      </trkpt>
      <trkpt lat="41.752" lon="123.37755">
        <ele>0</ele>
        <time>2015-12-18T23:55:27.242000Z</time>
      </trkpt>
      <trkpt lat="41.752068" lon="123.377655">
        <ele>0</ele>
        <time>2015-12-18T23:55:32.170000Z</time>
      </trkpt>
      <trkpt lat="41.75214" lon="123.37775">
        <ele>0</ele>
        <time>2015-12-18T23:55:37.098000Z</time>
      </trkpt>
      <trkpt lat="41.752213" lon="123.37783">
        <ele>0</ele>
        <time>2015-12-18T23:55:42.026000Z</time>
      </trkpt>
      <trkpt lat="41.752277" lon="123.37795">
        <ele>0</ele>
        <time>2015-12-18T23:55:46.954000Z</time>
      </trkpt>
      <trkpt lat="41.752335" lon="123.37805">
        <ele>0</ele>
        <time>2015-12-18T23:55:51.882000Z</time>
      </trkpt>
      <trkpt lat="41.752396" lon="123.37815">
        <ele>0</ele>
        <time>2015-12-18T23:55:56.810000Z</time>
      </trkpt>
      <trkpt lat="41.752453" lon="123.37827">
        <ele>0</ele>
        <time>2015-12-18T23:56:01.738000Z</time>
      </trkpt>
      <trkpt lat="41.75252" lon="123.378365">
        <ele>0</ele>
        <time>2015-12-18T23:56:06.666000Z</time>
      </trkpt>
      <trkpt lat="41.7526" lon="123.37844">
        <ele>0</ele>
        <time>2015-12-18T23:56:11.594000Z</time>
      </trkpt>
      <trkpt lat="41.752686" lon="123.37853">
        <ele>0</ele>
        <time>2015-12-18T23:56:16.522000Z</time>
      </trkpt>
      <trkpt lat="41.752777" lon="123.37862">
        <ele>0</ele>
        <time>2015-12-18T23:56:21.450000Z</time>
      </trkpt>
      <trkpt lat="41.75285" lon="123.37869">
        <ele>0</ele>
        <time>2015-12-18T23:56:26.378000Z</time>
      </trkpt>
      <trkpt lat="41.75291" lon="123.3788">
        <ele>0</ele>
        <time>2015-12-18T23:56:31.306000Z</time>
      </trkpt>
      <trkpt lat="41.752953" lon="123.37891">
        <ele>0</ele>
        <time>2015-12-18T23:56:36.234000Z</time>
      </trkpt>
      <trkpt lat="41.753" lon="123.37902">
        <ele>0</ele>
        <time>2015-12-18T23:56:41.162000Z</time>
      </trkpt>
      <trkpt lat="41.753044" lon="123.37914">
        <ele>0</ele>
        <time>2015-12-18T23:56:46.090000Z</time>
      </trkpt>
      <trkpt lat="41.753105" lon="123.37926">
        <ele>0</ele>
        <time>2015-12-18T23:56:51.018000Z</time>
      </trkpt>
      <trkpt lat="41.753178" lon="123.37936">
        <ele>0</ele>
        <time>2015-12-18T23:56:55.946000Z</time>
      </trkpt>
      <trkpt lat="41.75322" lon="123.37947">
        <ele>0</ele>
        <time>2015-12-18T23:57:00.874000Z</time>
      </trkpt>
      <trkpt lat="41.753273" lon="123.379585">
        <ele>0</ele>
        <time>2015-12-18T23:57:05.802000Z</time>
      </trkpt>
      <trkpt lat="41.753338" lon="123.37969">
        <ele>0</ele>
        <time>2015-12-18T23:57:10.730000Z</time>
      </trkpt>
      <trkpt lat="41.753387" lon="123.3798">
        <ele>0</ele>
        <time>2015-12-18T23:57:15.658000Z</time>
      </trkpt>
      <trkpt lat="41.753387" lon="123.3798">
        <ele>0</ele>
        <time>2015-12-18T23:57:20.586000Z</time>
      </trkpt>
      <trkpt lat="41.753445" lon="123.37991">
        <ele>0</ele>
        <time>2015-12-18T23:57:25.514000Z</time>
      </trkpt>
      <trkpt lat="41.753445" lon="123.37991">
        <ele>0</ele>
        <time>2015-12-18T23:57:30.442000Z</time>
      </trkpt>
      <trkpt lat="41.753517" lon="123.38002">
        <ele>0</ele>
        <time>2015-12-18T23:57:35.370000Z</time>
      </trkpt>
      <trkpt lat="41.75357" lon="123.380135">
        <ele>0</ele>
        <time>2015-12-18T23:57:40.298000Z</time>
      </trkpt>
      <trkpt lat="41.753616" lon="123.38024">
        <ele>0</ele>
        <time>2015-12-18T23:57:45.226000Z</time>
      </trkpt>
      <trkpt lat="41.75367" lon="123.38034">
        <ele>0</ele>
        <time>2015-12-18T23:57:50.154000Z</time>
      </trkpt>
      <trkpt lat="41.75373" lon="123.38045">
        <ele>0</ele>
        <time>2015-12-18T23:57:55.082000Z</time>
      </trkpt>
      <trkpt lat="41.753803" lon="123.38054">
        <ele>0</ele>
        <time>2015-12-18T23:58:00.010000Z</time>
      </trkpt>
      <trkpt lat="41.753872" lon="123.38062">
        <ele>0</ele>
        <time>2015-12-18T23:58:04.938000Z</time>
      </trkpt>
      <trkpt lat="41.753925" lon="123.380745">
        <ele>0</ele>
        <time>2015-12-18T23:58:09.866000Z</time>
      </trkpt>
      <trkpt lat="41.75399" lon="123.38085">
        <ele>0</ele>
        <time>2015-12-18T23:58:14.794000Z</time>
      </trkpt>
      <trkpt lat="41.75407" lon="123.38094">
        <ele>0</ele>
        <time>2015-12-18T23:58:19.722000Z</time>
      </trkpt>
      <trkpt lat="41.754128" lon="123.381035">
        <ele>0</ele>
        <time>2015-12-18T23:58:24.650000Z</time>
      </trkpt>
      <trkpt lat="41.75418" lon="123.38115">
        <ele>0</ele>
        <time>2015-12-18T23:58:29.578000Z</time>
      </trkpt>
      <trkpt lat="41.754234" lon="123.38125">
        <ele>0</ele>
        <time>2015-12-18T23:58:34.506000Z</time>
      </trkpt>
      <trkpt lat="41.754307" lon="123.38135">
        <ele>0</ele>
        <time>2015-12-18T23:58:39.434000Z</time>
      </trkpt>
      <trkpt lat="41.75438" lon="123.381454">
        <ele>0</ele>
        <time>2015-12-18T23:58:44.362000Z</time>
      </trkpt>
      <trkpt lat="41.754436" lon="123.38155">
        <ele>0</ele>
        <time>2015-12-18T23:58:49.290000Z</time>
      </trkpt>
      <trkpt lat="41.75451" lon="123.38167">
        <ele>0</ele>
        <time>2015-12-18T23:58:54.218000Z</time>
      </trkpt>
      <trkpt lat="41.75457" lon="123.381775">
        <ele>0</ele>
        <time>2015-12-18T23:58:59.146000Z</time>
      </trkpt>
      <trkpt lat="41.75463" lon="123.381874">
        <ele>0</ele>
        <time>2015-12-18T23:59:04.074000Z</time>
      </trkpt>
      <trkpt lat="41.754692" lon="123.381966">
        <ele>0</ele>
        <time>2015-12-18T23:59:09.002000Z</time>
      </trkpt>
      <trkpt lat="41.754753" lon="123.382065">
        <ele>0</ele>
        <time>2015-12-18T23:59:13.930000Z</time>
      </trkpt>
      <trkpt lat="41.75482" lon="123.38216">
        <ele>0</ele>
        <time>2015-12-18T23:59:18.858000Z</time>
      </trkpt>
      <trkpt lat="41.75489" lon="123.38225">
        <ele>0</ele>
        <time>2015-12-18T23:59:23.786000Z</time>
      </trkpt>
      <trkpt lat="41.75489" lon="123.38225">
        <ele>0</ele>
        <time>2015-12-18T23:59:28.714000Z</time>
      </trkpt>
      <trkpt lat="41.754932" lon="123.38236">
        <ele>0</ele>
        <time>2015-12-18T23:59:33.642000Z</time>
      </trkpt>
      <trkpt lat="41.754997" lon="123.38246">
        <ele>0</ele>
        <time>2015-12-18T23:59:38.570000Z</time>
      </trkpt>
      <trkpt lat="41.755062" lon="123.38256">
        <ele>0</ele>
        <time>2015-12-18T23:59:43.498000Z</time>
      </trkpt>
      <trkpt lat="41.755127" lon="123.382675">
        <ele>0</ele>
        <time>2015-12-18T23:59:48.426000Z</time>
      </trkpt>
      <trkpt lat="41.755184" lon="123.3828">
        <ele>0</ele>
        <time>2015-12-18T23:59:53.354000Z</time>
      </trkpt>
      <trkpt lat="41.755253" lon="123.382904">
        <ele>0</ele>
        <time>2015-12-18T23:59:58.282000Z</time>
      </trkpt>
      <trkpt lat="41.755337" lon="123.38299">
        <ele>0</ele>
        <time>2015-12-19T00:00:03.210000Z</time>
      </trkpt>
      <trkpt lat="41.75541" lon="123.38309">
        <ele>0</ele>
        <time>2015-12-19T00:00:08.138000Z</time>
      </trkpt>
      <trkpt lat="41.75548" lon="123.38317">
        <ele>0</ele>
        <time>2015-12-19T00:00:13.066000Z</time>
      </trkpt>
      <trkpt lat="41.755547" lon="123.383286">
        <ele>0</ele>
        <time>2015-12-19T00:00:17.994000Z</time>
      </trkpt>
      <trkpt lat="41.7556" lon="123.3834">
        <ele>0</ele>
        <time>2015-12-19T00:00:22.922000Z</time>
      </trkpt>
      <trkpt lat="41.75567" lon="123.38351">
        <ele>0</ele>
        <time>2015-12-19T00:00:27.850000Z</time>
      </trkpt>
      <trkpt lat="41.75574" lon="123.38362">
        <ele>0</ele>
        <time>2015-12-19T00:00:32.778000Z</time>
      </trkpt>
      <trkpt lat="41.755806" lon="123.38373">
        <ele>0</ele>
        <time>2015-12-19T00:00:37.706000Z</time>
      </trkpt>
      <trkpt lat="41.755863" lon="123.383835">
        <ele>0</ele>
        <time>2015-12-19T00:00:42.634000Z</time>
      </trkpt>
      <trkpt lat="41.755863" lon="123.383835">
        <ele>0</ele>
        <time>2015-12-19T00:00:47.562000Z</time>
      </trkpt>
      <trkpt lat="41.755947" lon="123.38397">
        <ele>0</ele>
        <time>2015-12-19T00:00:52.490000Z</time>
      </trkpt>
      <trkpt lat="41.755993" lon="123.38407">
        <ele>0</ele>
        <time>2015-12-19T00:00:57.418000Z</time>
      </trkpt>
      <trkpt lat="41.756046" lon="123.38418">
        <ele>0</ele>
        <time>2015-12-19T00:01:02.346000Z</time>
      </trkpt>
      <trkpt lat="41.756096" lon="123.38428">
        <ele>0</ele>
        <time>2015-12-19T00:01:07.274000Z</time>
      </trkpt>
      <trkpt lat="41.756157" lon="123.38437">
        <ele>0</ele>
        <time>2015-12-19T00:01:12.202000Z</time>
      </trkpt>
      <trkpt lat="41.756157" lon="123.38437">
        <ele>0</ele>
        <time>2015-12-19T00:01:17.130000Z</time>
      </trkpt>
      <trkpt lat="41.756214" lon="123.38447">
        <ele>0</ele>
        <time>2015-12-19T00:01:22.058000Z</time>
      </trkpt>
      <trkpt lat="41.75627" lon="123.38458">
        <ele>0</ele>
        <time>2015-12-19T00:01:26.986000Z</time>
      </trkpt>
      <trkpt lat="41.75627" lon="123.38458">
        <ele>0</ele>
        <time>2015-12-19T00:01:31.914000Z</time>
      </trkpt>
      <trkpt lat="41.756332" lon="123.38468">
        <ele>0</ele>
        <time>2015-12-19T00:01:36.842000Z</time>
      </trkpt>
      <trkpt lat="41.756393" lon="123.38479">
        <ele>0</ele>
        <time>2015-12-19T00:01:41.770000Z</time>
      </trkpt>
      <trkpt lat="41.756466" lon="123.38487">
        <ele>0</ele>
        <time>2015-12-19T00:01:46.698000Z</time>
      </trkpt>
      <trkpt lat="41.756516" lon="123.38498">
        <ele>0</ele>
        <time>2015-12-19T00:01:51.626000Z</time>
      </trkpt>
      <trkpt lat="41.756577" lon="123.385086">
        <ele>0</ele>
        <time>2015-12-19T00:01:56.554000Z</time>
      </trkpt>
      <trkpt lat="41.756622" lon="123.38519">
        <ele>0</ele>
        <time>2015-12-19T00:02:01.482000Z</time>
      </trkpt>
      <trkpt lat="41.756622" lon="123.38519">
        <ele>0</ele>
        <time>2015-12-19T00:02:06.410000Z</time>
      </trkpt>
      <trkpt lat="41.756622" lon="123.38519">
        <ele>0</ele>
        <time>2015-12-19T00:02:11.338000Z</time>
      </trkpt>
      <trkpt lat="41.756634" lon="123.38532">
        <ele>0</ele>
        <time>2015-12-19T00:02:16.266000Z</time>
      </trkpt>
      <trkpt lat="41.7567" lon="123.38544">
        <ele>0</ele>
        <time>2015-12-19T00:02:21.194000Z</time>
      </trkpt>
      <trkpt lat="41.75676" lon="123.38554">
        <ele>0</ele>
        <time>2015-12-19T00:02:26.122000Z</time>
      </trkpt>
      <trkpt lat="41.75684" lon="123.385635">
        <ele>0</ele>
        <time>2015-12-19T00:02:31.050000Z</time>
      </trkpt>
      <trkpt lat="41.756897" lon="123.38574">
        <ele>0</ele>
        <time>2015-12-19T00:02:35.978000Z</time>
      </trkpt>
      <trkpt lat="41.75695" lon="123.38586">
        <ele>0</ele>
        <time>2015-12-19T00:02:40.906000Z</time>
      </trkpt>
      <trkpt lat="41.75702" lon="123.38596">
        <ele>0</ele>
        <time>2015-12-19T00:02:45.834000Z</time>
      </trkpt>
      <trkpt lat="41.757072" lon="123.38607">
        <ele>0</ele>
        <time>2015-12-19T00:02:50.762000Z</time>
      </trkpt>
      <trkpt lat="41.75713" lon="123.38618">
        <ele>0</ele>
        <time>2015-12-19T00:02:55.690000Z</time>
      </trkpt>
      <trkpt lat="41.75719" lon="123.38628">
        <ele>0</ele>
        <time>2015-12-19T00:03:00.618000Z</time>
      </trkpt>
      <trkpt lat="41.757183" lon="123.3864">
        <ele>0</ele>
        <time>2015-12-19T00:03:05.546000Z</time>
      </trkpt>
      <trkpt lat="41.757263" lon="123.38648">
        <ele>0</ele>
        <time>2015-12-19T00:03:10.474000Z</time>
      </trkpt>
      <trkpt lat="41.75731" lon="123.386604">
        <ele>0</ele>
        <time>2015-12-19T00:03:15.402000Z</time>
      </trkpt>
      <trkpt lat="41.757347" lon="123.38672">
        <ele>0</ele>
        <time>2015-12-19T00:03:20.330000Z</time>
      </trkpt>
      <trkpt lat="41.75738" lon="123.38684">
        <ele>0</ele>
        <time>2015-12-19T00:03:25.258000Z</time>
      </trkpt>
      <trkpt lat="41.757404" lon="123.38697">
        <ele>0</ele>
        <time>2015-12-19T00:03:30.186000Z</time>
      </trkpt>
      <trkpt lat="41.75743" lon="123.387115">
        <ele>0</ele>
        <time>2015-12-19T00:03:35.114000Z</time>
      </trkpt>
      <trkpt lat="41.75746" lon="123.38724">
        <ele>0</ele>
        <time>2015-12-19T00:03:40.042000Z</time>
      </trkpt>
      <trkpt lat="41.7575" lon="123.38735">
        <ele>0</ele>
        <time>2015-12-19T00:03:44.970000Z</time>
      </trkpt>
      <trkpt lat="41.757557" lon="123.387474">
        <ele>0</ele>
        <time>2015-12-19T00:03:49.898000Z</time>
      </trkpt>
      <trkpt lat="41.75761" lon="123.38759">
        <ele>0</ele>
        <time>2015-12-19T00:03:54.826000Z</time>
      </trkpt>
      <trkpt lat="41.75765" lon="123.38771">
        <ele>0</ele>
        <time>2015-12-19T00:03:59.754000Z</time>
      </trkpt>
      <trkpt lat="41.757687" lon="123.38784">
        <ele>0</ele>
        <time>2015-12-19T00:04:04.682000Z</time>
      </trkpt>
      <trkpt lat="41.757725" lon="123.387985">
        <ele>0</ele>
        <time>2015-12-19T00:04:09.610000Z</time>
      </trkpt>
      <trkpt lat="41.75775" lon="123.3881">
        <ele>0</ele>
        <time>2015-12-19T00:04:14.538000Z</time>
      </trkpt>
      <trkpt lat="41.757797" lon="123.38823">
        <ele>0</ele>
        <time>2015-12-19T00:04:19.466000Z</time>
      </trkpt>
      <trkpt lat="41.75782" lon="123.38837">
        <ele>0</ele>
        <time>2015-12-19T00:04:24.394000Z</time>
      </trkpt>
      <trkpt lat="41.757854" lon="123.388504">
        <ele>0</ele>
        <time>2015-12-19T00:04:29.322000Z</time>
      </trkpt>
      <trkpt lat="41.757854" lon="123.38881">
        <ele>0</ele>
        <time>2015-12-19T00:04:34.250000Z</time>
      </trkpt>
      <trkpt lat="41.758083" lon="123.388916">
        <ele>0</ele>
        <time>2015-12-19T00:04:39.178000Z</time>
      </trkpt>
      <trkpt lat="41.758083" lon="123.388916">
        <ele>0</ele>
        <time>2015-12-19T00:04:44.106000Z</time>
      </trkpt>
      <trkpt lat="41.758125" lon="123.38903">
        <ele>0</ele>
        <time>2015-12-19T00:04:49.034000Z</time>
      </trkpt>
      <trkpt lat="41.758175" lon="123.38915">
        <ele>0</ele>
        <time>2015-12-19T00:04:53.962000Z</time>
      </trkpt>
      <trkpt lat="41.758213" lon="123.38928">
        <ele>0</ele>
        <time>2015-12-19T00:04:58.890000Z</time>
      </trkpt>
      <trkpt lat="41.758263" lon="123.38939">
        <ele>0</ele>
        <time>2015-12-19T00:05:03.818000Z</time>
      </trkpt>
      <trkpt lat="41.758263" lon="123.38939">
        <ele>0</ele>
        <time>2015-12-19T00:05:08.746000Z</time>
      </trkpt>
      <trkpt lat="41.75837" lon="123.38959">
        <ele>0</ele>
        <time>2015-12-19T00:05:13.674000Z</time>
      </trkpt>
      <trkpt lat="41.758385" lon="123.38971">
        <ele>0</ele>
        <time>2015-12-19T00:05:18.602000Z</time>
      </trkpt>
      <trkpt lat="41.758385" lon="123.38971">
        <ele>0</ele>
        <time>2015-12-19T00:05:23.530000Z</time>
      </trkpt>
      <trkpt lat="41.758385" lon="123.38971">
        <ele>0</ele>
        <time>2015-12-19T00:05:28.458000Z</time>
      </trkpt>
      <trkpt lat="41.758183" lon="123.3891">
        <ele>49.210957</ele>
        <time>2015-12-19T00:05:33.386000Z</time>
      </trkpt>
      <trkpt lat="41.75819" lon="123.38909">
        <ele>49.196793</ele>
        <time>2015-12-19T00:05:38.314000Z</time>
      </trkpt>
      <trkpt lat="41.758186" lon="123.38896">
        <ele>49.080807</ele>
        <time>2015-12-19T00:05:43.242000Z</time>
      </trkpt>
      <trkpt lat="41.758186" lon="123.38896">
        <ele>49.080807</ele>
        <time>2015-12-19T00:05:48.170000Z</time>
      </trkpt>
      <trkpt lat="41.758205" lon="123.38885">
        <ele>48.965717</ele>
        <time>2015-12-19T00:05:53.098000Z</time>
      </trkpt>
      <trkpt lat="41.758144" lon="123.38874">
        <ele>48.84186</ele>
        <time>2015-12-19T00:05:58.026000Z</time>
      </trkpt>
      <trkpt lat="41.758045" lon="123.38864">
        <ele>48.6844</ele>
        <time>2015-12-19T00:06:02.954000Z</time>
      </trkpt>
      <trkpt lat="41.75797" lon="123.38855">
        <ele>48.56268</ele>
        <time>2015-12-19T00:06:07.882000Z</time>
      </trkpt>
      <trkpt lat="41.757908" lon="123.38846">
        <ele>48.445343</ele>
        <time>2015-12-19T00:06:12.810000Z</time>
      </trkpt>
      <trkpt lat="41.757866" lon="123.388336">
        <ele>48.321712</ele>
        <time>2015-12-19T00:06:17.738000Z</time>
      </trkpt>
      <trkpt lat="41.75783" lon="123.38823">
        <ele>48.207973</ele>
        <time>2015-12-19T00:06:22.666000Z</time>
      </trkpt>
      <trkpt lat="41.75779" lon="123.388115">
        <ele>48.091984</ele>
        <time>2015-12-19T00:06:27.594000Z</time>
      </trkpt>
      <trkpt lat="41.757725" lon="123.38801">
        <ele>47.96588</ele>
        <time>2015-12-19T00:06:32.522000Z</time>
      </trkpt>
      <trkpt lat="41.757668" lon="123.387886">
        <ele>47.830338</ele>
        <time>2015-12-19T00:06:37.450000Z</time>
      </trkpt>
      <trkpt lat="41.75762" lon="123.38777">
        <ele>47.709965</ele>
        <time>2015-12-19T00:06:42.378000Z</time>
      </trkpt>
      <trkpt lat="41.757576" lon="123.387665">
        <ele>47.594204</ele>
        <time>2015-12-19T00:06:47.306000Z</time>
      </trkpt>
      <trkpt lat="41.757526" lon="123.38755">
        <ele>47.47226</ele>
        <time>2015-12-19T00:06:52.234000Z</time>
      </trkpt>
      <trkpt lat="41.757496" lon="123.38743">
        <ele>47.346718</ele>
        <time>2015-12-19T00:06:57.162000Z</time>
      </trkpt>
      <trkpt lat="41.75747" lon="123.38729">
        <ele>47.21949</ele>
        <time>2015-12-19T00:07:02.090000Z</time>
      </trkpt>
      <trkpt lat="41.75744" lon="123.38717">
        <ele>47.096756</ele>
        <time>2015-12-19T00:07:07.018000Z</time>
      </trkpt>
      <trkpt lat="41.75743" lon="123.38705">
        <ele>46.98043</ele>
        <time>2015-12-19T00:07:11.946000Z</time>
      </trkpt>
      <trkpt lat="41.75741" lon="123.3869">
        <ele>46.8441</ele>
        <time>2015-12-19T00:07:16.874000Z</time>
      </trkpt>
      <trkpt lat="41.75737" lon="123.38678">
        <ele>46.722607</ele>
        <time>2015-12-19T00:07:21.802000Z</time>
      </trkpt>
      <trkpt lat="41.75737" lon="123.38678">
        <ele>46.722607</ele>
        <time>2015-12-19T00:07:26.730000Z</time>
      </trkpt>
      <trkpt lat="41.75729" lon="123.38664">
        <ele>46.560425</ele>
        <time>2015-12-19T00:07:31.658000Z</time>
      </trkpt>
      <trkpt lat="41.757267" lon="123.386505">
        <ele>46.42623</ele>
        <time>2015-12-19T00:07:36.586000Z</time>
      </trkpt>
      <trkpt lat="41.75721" lon="123.386375">
        <ele>46.28619</ele>
        <time>2015-12-19T00:07:41.514000Z</time>
      </trkpt>
      <trkpt lat="41.757156" lon="123.38625">
        <ele>46.15649</ele>
        <time>2015-12-19T00:07:46.442000Z</time>
      </trkpt>
      <trkpt lat="41.757107" lon="123.386154">
        <ele>46.042076</ele>
        <time>2015-12-19T00:07:51.370000Z</time>
      </trkpt>
      <trkpt lat="41.75707" lon="123.38604">
        <ele>45.92474</ele>
        <time>2015-12-19T00:07:56.298000Z</time>
      </trkpt>
      <trkpt lat="41.75704" lon="123.385925">
        <ele>45.810436</ele>
        <time>2015-12-19T00:08:01.226000Z</time>
      </trkpt>
      <trkpt lat="41.75699" lon="123.38581">
        <ele>45.688717</ele>
        <time>2015-12-19T00:08:06.154000Z</time>
      </trkpt>
      <trkpt lat="41.75693" lon="123.38571">
        <ele>45.572052</ele>
        <time>2015-12-19T00:08:11.082000Z</time>
      </trkpt>
      <trkpt lat="41.756863" lon="123.38562">
        <ele>45.451344</ele>
        <time>2015-12-19T00:08:16.010000Z</time>
      </trkpt>
      <trkpt lat="41.75681" lon="123.38552">
        <ele>45.33592</ele>
        <time>2015-12-19T00:08:20.938000Z</time>
      </trkpt>
      <trkpt lat="41.75675" lon="123.38542">
        <ele>45.21757</ele>
        <time>2015-12-19T00:08:25.866000Z</time>
      </trkpt>
      <trkpt lat="41.7567" lon="123.38532">
        <ele>45.10113</ele>
        <time>2015-12-19T00:08:30.794000Z</time>
      </trkpt>
      <trkpt lat="41.756634" lon="123.38523">
        <ele>44.987057</ele>
        <time>2015-12-19T00:08:35.722000Z</time>
      </trkpt>
      <trkpt lat="41.756573" lon="123.38513">
        <ele>44.867695</ele>
        <time>2015-12-19T00:08:40.650000Z</time>
      </trkpt>
      <trkpt lat="41.756504" lon="123.38502">
        <ele>44.7317</ele>
        <time>2015-12-19T00:08:45.578000Z</time>
      </trkpt>
      <trkpt lat="41.75646" lon="123.38491">
        <ele>44.617737</ele>
        <time>2015-12-19T00:08:50.506000Z</time>
      </trkpt>
      <trkpt lat="41.756405" lon="123.384796">
        <ele>44.489273</ele>
        <time>2015-12-19T00:08:55.434000Z</time>
      </trkpt>
      <trkpt lat="41.756355" lon="123.38468">
        <ele>44.368454</ele>
        <time>2015-12-19T00:09:00.362000Z</time>
      </trkpt>
      <trkpt lat="41.75631" lon="123.384575">
        <ele>44.251904</ele>
        <time>2015-12-19T00:09:05.290000Z</time>
      </trkpt>
      <trkpt lat="41.756264" lon="123.38446">
        <ele>44.132656</ele>
        <time>2015-12-19T00:09:10.218000Z</time>
      </trkpt>
      <trkpt lat="41.756214" lon="123.38435">
        <ele>44.014645</ele>
        <time>2015-12-19T00:09:15.146000Z</time>
      </trkpt>
      <trkpt lat="41.75616" lon="123.384254">
        <ele>44.008804</ele>
        <time>2015-12-19T00:09:20.074000Z</time>
      </trkpt>
      <trkpt lat="41.75609" lon="123.38416">
        <ele>44.72761</ele>
        <time>2015-12-19T00:09:25.002000Z</time>
      </trkpt>
      <trkpt lat="41.756023" lon="123.38407">
        <ele>45.429947</ele>
        <time>2015-12-19T00:09:29.930000Z</time>
      </trkpt>
      <trkpt lat="41.755947" lon="123.38397">
        <ele>46.194218</ele>
        <time>2015-12-19T00:09:34.858000Z</time>
      </trkpt>
      <trkpt lat="41.755898" lon="123.38385">
        <ele>46.959145</ele>
        <time>2015-12-19T00:09:39.786000Z</time>
      </trkpt>
      <trkpt lat="41.755848" lon="123.38375">
        <ele>47.62327</ele>
        <time>2015-12-19T00:09:44.714000Z</time>
      </trkpt>
      <trkpt lat="41.755775" lon="123.38365">
        <ele>48.36448</ele>
        <time>2015-12-19T00:09:49.642000Z</time>
      </trkpt>
      <trkpt lat="41.755726" lon="123.383545">
        <ele>49.07538</ele>
        <time>2015-12-19T00:09:54.570000Z</time>
      </trkpt>
      <trkpt lat="41.755672" lon="123.383415">
        <ele>49.630543</ele>
        <time>2015-12-19T00:09:59.498000Z</time>
      </trkpt>
      <trkpt lat="41.75561" lon="123.38331">
        <ele>49.954967</ele>
        <time>2015-12-19T00:10:04.426000Z</time>
      </trkpt>
      <trkpt lat="41.755547" lon="123.38322">
        <ele>50.04074</ele>
        <time>2015-12-19T00:10:09.354000Z</time>
      </trkpt>
      <trkpt lat="41.755478" lon="123.38313">
        <ele>50.28916</ele>
        <time>2015-12-19T00:10:14.282000Z</time>
      </trkpt>
      <trkpt lat="41.755405" lon="123.38303">
        <ele>50.9635</ele>
        <time>2015-12-19T00:10:19.210000Z</time>
      </trkpt>
      <trkpt lat="41.755344" lon="123.382935">
        <ele>51.676155</ele>
        <time>2015-12-19T00:10:24.138000Z</time>
      </trkpt>
      <trkpt lat="41.75529" lon="123.382835">
        <ele>52.019913</ele>
        <time>2015-12-19T00:10:29.066000Z</time>
      </trkpt>
      <trkpt lat="41.755215" lon="123.38274">
        <ele>51.858463</ele>
        <time>2015-12-19T00:10:33.994000Z</time>
      </trkpt>
      <trkpt lat="41.755146" lon="123.382645">
        <ele>51.71706</ele>
        <time>2015-12-19T00:10:38.922000Z</time>
      </trkpt>
      <trkpt lat="41.755077" lon="123.38255">
        <ele>51.570816</ele>
        <time>2015-12-19T00:10:43.850000Z</time>
      </trkpt>
      <trkpt lat="41.75502" lon="123.38246">
        <ele>51.435062</ele>
        <time>2015-12-19T00:10:48.778000Z</time>
      </trkpt>
      <trkpt lat="41.754963" lon="123.382355">
        <ele>51.29016</ele>
        <time>2015-12-19T00:10:53.706000Z</time>
      </trkpt>
      <trkpt lat="41.754894" lon="123.38226">
        <ele>51.14755</ele>
        <time>2015-12-19T00:10:58.634000Z</time>
      </trkpt>
      <trkpt lat="41.754814" lon="123.38217">
        <ele>50.986233</ele>
        <time>2015-12-19T00:11:03.562000Z</time>
      </trkpt>
      <trkpt lat="41.75475" lon="123.382065">
        <ele>50.832855</ele>
        <time>2015-12-19T00:11:08.490000Z</time>
      </trkpt>
      <trkpt lat="41.754692" lon="123.38196">
        <ele>50.686478</ele>
        <time>2015-12-19T00:11:13.418000Z</time>
      </trkpt>
      <trkpt lat="41.754623" lon="123.38185">
        <ele>50.532562</ele>
        <time>2015-12-19T00:11:18.346000Z</time>
      </trkpt>
      <trkpt lat="41.754562" lon="123.38174">
        <ele>50.37138</ele>
        <time>2015-12-19T00:11:23.274000Z</time>
      </trkpt>
      <trkpt lat="41.754486" lon="123.38163">
        <ele>50.20724</ele>
        <time>2015-12-19T00:11:28.202000Z</time>
      </trkpt>
      <trkpt lat="41.75441" lon="123.38153">
        <ele>50.05198</ele>
        <time>2015-12-19T00:11:33.130000Z</time>
      </trkpt>
      <trkpt lat="41.754337" lon="123.38144">
        <ele>49.896854</ele>
        <time>2015-12-19T00:11:38.058000Z</time>
      </trkpt>
      <trkpt lat="41.754284" lon="123.38133">
        <ele>49.760025</ele>
        <time>2015-12-19T00:11:42.986000Z</time>
      </trkpt>
      <trkpt lat="41.754223" lon="123.38125">
        <ele>49.624676</ele>
        <time>2015-12-19T00:11:47.914000Z</time>
      </trkpt>
      <trkpt lat="41.754158" lon="123.38116">
        <ele>49.483814</ele>
        <time>2015-12-19T00:11:52.842000Z</time>
      </trkpt>
      <trkpt lat="41.754097" lon="123.38106">
        <ele>49.341873</ele>
        <time>2015-12-19T00:11:57.770000Z</time>
      </trkpt>
      <trkpt lat="41.75403" lon="123.38097">
        <ele>49.197777</ele>
        <time>2015-12-19T00:12:02.698000Z</time>
      </trkpt>
      <trkpt lat="41.753963" lon="123.380875">
        <ele>49.051937</ele>
        <time>2015-12-19T00:12:07.626000Z</time>
      </trkpt>
      <trkpt lat="41.753914" lon="123.38076">
        <ele>48.905285</ele>
        <time>2015-12-19T00:12:12.554000Z</time>
      </trkpt>
      <trkpt lat="41.75385" lon="123.380646">
        <ele>48.744644</ele>
        <time>2015-12-19T00:12:17.482000Z</time>
      </trkpt>
      <trkpt lat="41.753784" lon="123.38052">
        <ele>48.582657</ele>
        <time>2015-12-19T00:12:22.410000Z</time>
      </trkpt>
      <trkpt lat="41.753723" lon="123.38041">
        <ele>48.42013</ele>
        <time>2015-12-19T00:12:27.338000Z</time>
      </trkpt>
      <trkpt lat="41.75366" lon="123.3803">
        <ele>48.272537</ele>
        <time>2015-12-19T00:12:32.266000Z</time>
      </trkpt>
      <trkpt lat="41.7536" lon="123.38021">
        <ele>48.13477</ele>
        <time>2015-12-19T00:12:37.194000Z</time>
      </trkpt>
      <trkpt lat="41.753548" lon="123.38009">
        <ele>47.97668</ele>
        <time>2015-12-19T00:12:42.122000Z</time>
      </trkpt>
      <trkpt lat="41.753483" lon="123.37997">
        <ele>47.810253</ele>
        <time>2015-12-19T00:12:47.050000Z</time>
      </trkpt>
      <trkpt lat="41.75342" lon="123.37985">
        <ele>47.64948</ele>
        <time>2015-12-19T00:12:51.978000Z</time>
      </trkpt>
      <trkpt lat="41.753372" lon="123.379745">
        <ele>47.50996</ele>
        <time>2015-12-19T00:12:56.906000Z</time>
      </trkpt>
      <trkpt lat="41.753315" lon="123.37962">
        <ele>47.34972</ele>
        <time>2015-12-19T00:13:01.834000Z</time>
      </trkpt>
      <trkpt lat="41.753273" lon="123.37949">
        <ele>47.19123</ele>
        <time>2015-12-19T00:13:06.762000Z</time>
      </trkpt>
      <trkpt lat="41.75323" lon="123.37939">
        <ele>47.05588</ele>
        <time>2015-12-19T00:13:11.690000Z</time>
      </trkpt>
      <trkpt lat="41.753178" lon="123.37927">
        <ele>46.909637</ele>
        <time>2015-12-19T00:13:16.618000Z</time>
      </trkpt>
      <trkpt lat="41.753117" lon="123.37917">
        <ele>46.76366</ele>
        <time>2015-12-19T00:13:21.546000Z</time>
      </trkpt>
      <trkpt lat="41.753056" lon="123.37906">
        <ele>46.604496</ele>
        <time>2015-12-19T00:13:26.474000Z</time>
      </trkpt>
      <trkpt lat="41.753056" lon="123.37906">
        <ele>46.604496</ele>
        <time>2015-12-19T00:13:31.402000Z</time>
      </trkpt>
      <trkpt lat="41.753056" lon="123.37906">
        <ele>46.604496</ele>
        <time>2015-12-19T00:13:36.330000Z</time>
      </trkpt>
      <trkpt lat="41.753006" lon="123.37891">
        <ele>46.42421</ele>
        <time>2015-12-19T00:13:41.258000Z</time>
      </trkpt>
      <trkpt lat="41.753006" lon="123.37891">
        <ele>46.42421</ele>
        <time>2015-12-19T00:13:46.186000Z</time>
      </trkpt>
      <trkpt lat="41.752937" lon="123.37882">
        <ele>46.287247</ele>
        <time>2015-12-19T00:13:51.114000Z</time>
      </trkpt>
      <trkpt lat="41.752857" lon="123.37873">
        <ele>46.1262</ele>
        <time>2015-12-19T00:13:56.042000Z</time>
      </trkpt>
      <trkpt lat="41.752785" lon="123.37863">
        <ele>44.511654</ele>
        <time>2015-12-19T00:14:00.970000Z</time>
      </trkpt>
      <trkpt lat="41.75271" lon="123.37853">
        <ele>43.61378</ele>
        <time>2015-12-19T00:14:05.898000Z</time>
      </trkpt>
      <trkpt lat="41.75266" lon="123.37842">
        <ele>43.142647</ele>
        <time>2015-12-19T00:14:10.826000Z</time>
      </trkpt>
      <trkpt lat="41.75259" lon="123.378334">
        <ele>42.906017</ele>
        <time>2015-12-19T00:14:15.754000Z</time>
      </trkpt>
      <trkpt lat="41.75251" lon="123.378265">
        <ele>42.862316</ele>
        <time>2015-12-19T00:14:20.682000Z</time>
      </trkpt>
      <trkpt lat="41.752438" lon="123.37819">
        <ele>43.190655</ele>
        <time>2015-12-19T00:14:25.610000Z</time>
      </trkpt>
      <trkpt lat="41.752365" lon="123.3781">
        <ele>43.529827</ele>
        <time>2015-12-19T00:14:30.538000Z</time>
      </trkpt>
      <trkpt lat="41.7523" lon="123.37799">
        <ele>43.876118</ele>
        <time>2015-12-19T00:14:35.466000Z</time>
      </trkpt>
      <trkpt lat="41.75223" lon="123.37789">
        <ele>44.218075</ele>
        <time>2015-12-19T00:14:40.394000Z</time>
      </trkpt>
      <trkpt lat="41.752167" lon="123.377785">
        <ele>44.58169</ele>
        <time>2015-12-19T00:14:45.322000Z</time>
      </trkpt>
      <trkpt lat="41.7521" lon="123.37769">
        <ele>44.902916</ele>
        <time>2015-12-19T00:14:50.250000Z</time>
      </trkpt>
      <trkpt lat="41.75204" lon="123.3776">
        <ele>45.22321</ele>
        <time>2015-12-19T00:14:55.178000Z</time>
      </trkpt>
      <trkpt lat="41.75198" lon="123.37751">
        <ele>45.533913</ele>
        <time>2015-12-19T00:15:00.106000Z</time>
      </trkpt>
      <trkpt lat="41.75192" lon="123.37742">
        <ele>45.85142</ele>
        <time>2015-12-19T00:15:05.034000Z</time>
      </trkpt>
      <trkpt lat="41.75186" lon="123.377304">
        <ele>46.199875</ele>
        <time>2015-12-19T00:15:09.962000Z</time>
      </trkpt>
      <trkpt lat="41.75181" lon="123.3772">
        <ele>46.535645</ele>
        <time>2015-12-19T00:15:14.890000Z</time>
      </trkpt>
      <trkpt lat="41.75174" lon="123.37711">
        <ele>46.8482</ele>
        <time>2015-12-19T00:15:19.818000Z</time>
      </trkpt>
      <trkpt lat="41.75167" lon="123.37704">
        <ele>47.15921</ele>
        <time>2015-12-19T00:15:24.746000Z</time>
      </trkpt>
      <trkpt lat="41.7516" lon="123.376945">
        <ele>47.499004</ele>
        <time>2015-12-19T00:15:29.674000Z</time>
      </trkpt>
      <trkpt lat="41.75153" lon="123.37683">
        <ele>47.887688</ele>
        <time>2015-12-19T00:15:34.602000Z</time>
      </trkpt>
      <trkpt lat="41.75147" lon="123.37672">
        <ele>48.040363</ele>
        <time>2015-12-19T00:15:39.530000Z</time>
      </trkpt>
      <trkpt lat="41.751396" lon="123.37661">
        <ele>48.102325</ele>
        <time>2015-12-19T00:15:44.458000Z</time>
      </trkpt>
      <trkpt lat="41.751328" lon="123.37652">
        <ele>48.157627</ele>
        <time>2015-12-19T00:15:49.386000Z</time>
      </trkpt>
      <trkpt lat="41.751263" lon="123.37643">
        <ele>48.21277</ele>
        <time>2015-12-19T00:15:54.314000Z</time>
      </trkpt>
      <trkpt lat="41.751198" lon="123.37634">
        <ele>48.267017</ele>
        <time>2015-12-19T00:15:59.242000Z</time>
      </trkpt>
      <trkpt lat="41.751137" lon="123.376236">
        <ele>48.32531</ele>
        <time>2015-12-19T00:16:04.170000Z</time>
      </trkpt>
      <trkpt lat="41.751064" lon="123.37615">
        <ele>48.381184</ele>
        <time>2015-12-19T00:16:09.098000Z</time>
      </trkpt>
      <trkpt lat="41.750996" lon="123.37605">
        <ele>48.440155</ele>
        <time>2015-12-19T00:16:14.026000Z</time>
      </trkpt>
      <trkpt lat="41.75093" lon="123.375946">
        <ele>48.498447</ele>
        <time>2015-12-19T00:16:18.954000Z</time>
      </trkpt>
      <trkpt lat="41.750866" lon="123.37585">
        <ele>48.55637</ele>
        <time>2015-12-19T00:16:23.882000Z</time>
      </trkpt>
      <trkpt lat="41.7508" lon="123.37576">
        <ele>48.610043</ele>
        <time>2015-12-19T00:16:28.810000Z</time>
      </trkpt>
      <trkpt lat="41.750736" lon="123.37566">
        <ele>48.99087</ele>
        <time>2015-12-19T00:16:33.738000Z</time>
      </trkpt>
      <trkpt lat="41.750675" lon="123.37556">
        <ele>49.074196</ele>
        <time>2015-12-19T00:16:38.666000Z</time>
      </trkpt>
      <trkpt lat="41.750603" lon="123.375465">
        <ele>49.075626</ele>
        <time>2015-12-19T00:16:43.594000Z</time>
      </trkpt>
      <trkpt lat="41.75055" lon="123.37537">
        <ele>49.076935</ele>
        <time>2015-12-19T00:16:48.522000Z</time>
      </trkpt>
      <trkpt lat="41.75055" lon="123.37537">
        <ele>49.076935</ele>
        <time>2015-12-19T00:16:53.450000Z</time>
      </trkpt>
      <trkpt lat="41.75048" lon="123.375275">
        <ele>49.078335</ele>
        <time>2015-12-19T00:16:58.378000Z</time>
      </trkpt>
      <trkpt lat="41.750416" lon="123.37518">
        <ele>49.0797</ele>
        <time>2015-12-19T00:17:03.306000Z</time>
      </trkpt>
      <trkpt lat="41.750416" lon="123.37518">
        <ele>49.0797</ele>
        <time>2015-12-19T00:17:08.234000Z</time>
      </trkpt>
      <trkpt lat="41.750347" lon="123.37508">
        <ele>49.08121</ele>
        <time>2015-12-19T00:17:13.162000Z</time>
      </trkpt>
      <trkpt lat="41.750275" lon="123.37498">
        <ele>49.082676</ele>
        <time>2015-12-19T00:17:18.090000Z</time>
      </trkpt>
      <trkpt lat="41.750225" lon="123.37488">
        <ele>49.442245</ele>
        <time>2015-12-19T00:17:23.018000Z</time>
      </trkpt>
      <trkpt lat="41.750168" lon="123.37476">
        <ele>49.94947</ele>
        <time>2015-12-19T00:17:27.946000Z</time>
      </trkpt>
      <trkpt lat="41.750122" lon="123.37465">
        <ele>50.6226</ele>
        <time>2015-12-19T00:17:32.874000Z</time>
      </trkpt>
      <trkpt lat="41.75008" lon="123.37453">
        <ele>51.378418</ele>
        <time>2015-12-19T00:17:37.802000Z</time>
      </trkpt>
      <trkpt lat="41.75005" lon="123.37436">
        <ele>51.893154</ele>
        <time>2015-12-19T00:17:42.730000Z</time>
      </trkpt>
      <trkpt lat="41.749985" lon="123.374245">
        <ele>52.064873</ele>
        <time>2015-12-19T00:17:47.658000Z</time>
      </trkpt>
      <trkpt lat="41.7499" lon="123.374146">
        <ele>51.73594</ele>
        <time>2015-12-19T00:17:52.586000Z</time>
      </trkpt>
      <trkpt lat="41.74982" lon="123.37402">
        <ele>51.383606</ele>
        <time>2015-12-19T00:17:57.514000Z</time>
      </trkpt>
      <trkpt lat="41.749756" lon="123.373924">
        <ele>51.085697</ele>
        <time>2015-12-19T00:18:02.442000Z</time>
      </trkpt>
      <trkpt lat="41.749706" lon="123.37381">
        <ele>50.810143</ele>
        <time>2015-12-19T00:18:07.370000Z</time>
      </trkpt>
      <trkpt lat="41.749657" lon="123.373695">
        <ele>50.50987</ele>
        <time>2015-12-19T00:18:12.298000Z</time>
      </trkpt>
      <trkpt lat="41.749607" lon="123.37358">
        <ele>50.222744</ele>
        <time>2015-12-19T00:18:17.226000Z</time>
      </trkpt>
      <trkpt lat="41.74957" lon="123.37345">
        <ele>49.926414</ele>
        <time>2015-12-19T00:18:22.154000Z</time>
      </trkpt>
      <trkpt lat="41.749523" lon="123.37334">
        <ele>49.6456</ele>
        <time>2015-12-19T00:18:27.081000Z</time>
      </trkpt>
      <trkpt lat="41.74948" lon="123.37322">
        <ele>49.35637</ele>
        <time>2015-12-19T00:18:32.008000Z</time>
      </trkpt>
      <trkpt lat="41.74944" lon="123.37311">
        <ele>49.078445</ele>
        <time>2015-12-19T00:18:36.935000Z</time>
      </trkpt>
      <trkpt lat="41.749393" lon="123.37298">
        <ele>48.765026</ele>
        <time>2015-12-19T00:18:41.862000Z</time>
      </trkpt>
      <trkpt lat="41.749348" lon="123.372856">
        <ele>48.475006</ele>
        <time>2015-12-19T00:18:46.789000Z</time>
      </trkpt>
      <trkpt lat="41.749306" lon="123.37274">
        <ele>48.18762</ele>
        <time>2015-12-19T00:18:51.716000Z</time>
      </trkpt>
      <trkpt lat="41.749256" lon="123.37262">
        <ele>47.891815</ele>
        <time>2015-12-19T00:18:56.643000Z</time>
      </trkpt>
      <trkpt lat="41.74921" lon="123.372505">
        <ele>47.607582</ele>
        <time>2015-12-19T00:19:01.570000Z</time>
      </trkpt>
      <trkpt lat="41.749184" lon="123.37238">
        <ele>47.33623</ele>
        <time>2015-12-19T00:19:06.497000Z</time>
      </trkpt>
      <trkpt lat="41.74915" lon="123.37226">
        <ele>47.04937</ele>
        <time>2015-12-19T00:19:11.424000Z</time>
      </trkpt>
      <trkpt lat="41.74913" lon="123.37214">
        <ele>46.864933</ele>
        <time>2015-12-19T00:19:16.351000Z</time>
      </trkpt>
      <trkpt lat="41.7491" lon="123.37202">
        <ele>46.670757</ele>
        <time>2015-12-19T00:19:21.278000Z</time>
      </trkpt>
      <trkpt lat="41.749073" lon="123.371895">
        <ele>46.483253</ele>
        <time>2015-12-19T00:19:26.205000Z</time>
      </trkpt>
      <trkpt lat="41.749035" lon="123.37178">
        <ele>45.692055</ele>
        <time>2015-12-19T00:19:31.132000Z</time>
      </trkpt>
      <trkpt lat="41.749004" lon="123.37165">
        <ele>45.90898</ele>
        <time>2015-12-19T00:19:36.059000Z</time>
      </trkpt>
      <trkpt lat="41.748962" lon="123.37152">
        <ele>46.148056</ele>
        <time>2015-12-19T00:19:40.986000Z</time>
      </trkpt>
      <trkpt lat="41.748924" lon="123.37139">
        <ele>46.37705</ele>
        <time>2015-12-19T00:19:45.913000Z</time>
      </trkpt>
      <trkpt lat="41.74889" lon="123.37126">
        <ele>46.60149</ele>
        <time>2015-12-19T00:19:50.840000Z</time>
      </trkpt>
      <trkpt lat="41.748867" lon="123.371124">
        <ele>46.8289</ele>
        <time>2015-12-19T00:19:55.767000Z</time>
      </trkpt>
      <trkpt lat="41.748844" lon="123.371">
        <ele>47.033566</ele>
        <time>2015-12-19T00:20:00.694000Z</time>
      </trkpt>
      <trkpt lat="41.7488" lon="123.370865">
        <ele>47.279366</ele>
        <time>2015-12-19T00:20:05.621000Z</time>
      </trkpt>
      <trkpt lat="41.748753" lon="123.37076">
        <ele>47.49036</ele>
        <time>2015-12-19T00:20:10.548000Z</time>
      </trkpt>
      <trkpt lat="41.748753" lon="123.37076">
        <ele>47.49036</ele>
        <time>2015-12-19T00:20:15.475000Z</time>
      </trkpt>
      <trkpt lat="41.748734" lon="123.370636">
        <ele>47.68949</ele>
        <time>2015-12-19T00:20:20.402000Z</time>
      </trkpt>
      <trkpt lat="41.748734" lon="123.370636">
        <ele>47.68949</ele>
        <time>2015-12-19T00:20:25.329000Z</time>
      </trkpt>
      <trkpt lat="41.748703" lon="123.37051">
        <ele>47.909977</ele>
        <time>2015-12-19T00:20:30.256000Z</time>
      </trkpt>
      <trkpt lat="41.748676" lon="123.37038">
        <ele>48.129673</ele>
        <time>2015-12-19T00:20:35.183000Z</time>
      </trkpt>
      <trkpt lat="41.7487" lon="123.37026">
        <ele>48.327816</ele>
        <time>2015-12-19T00:20:40.110000Z</time>
      </trkpt>
      <trkpt lat="41.748726" lon="123.37014">
        <ele>48.54138</ele>
        <time>2015-12-19T00:20:45.037000Z</time>
      </trkpt>
      <trkpt lat="41.748764" lon="123.37">
        <ele>48.775314</ele>
        <time>2015-12-19T00:20:49.964000Z</time>
      </trkpt>
      <trkpt lat="41.748806" lon="123.36989">
        <ele>48.98809</ele>
        <time>2015-12-19T00:20:54.891000Z</time>
      </trkpt>
      <trkpt lat="41.748844" lon="123.36976">
        <ele>49.219257</ele>
        <time>2015-12-19T00:20:59.818000Z</time>
      </trkpt>
      <trkpt lat="41.748856" lon="123.36963">
        <ele>49.42689</ele>
        <time>2015-12-19T00:21:04.745000Z</time>
      </trkpt>
      <trkpt lat="41.74888" lon="123.36949">
        <ele>49.65588</ele>
        <time>2015-12-19T00:21:09.672000Z</time>
      </trkpt>
      <trkpt lat="41.74888" lon="123.36936">
        <ele>49.872017</ele>
        <time>2015-12-19T00:21:14.599000Z</time>
      </trkpt>
      <trkpt lat="41.748867" lon="123.36923">
        <ele>50.08341</ele>
        <time>2015-12-19T00:21:19.526000Z</time>
      </trkpt>
      <trkpt lat="41.74884" lon="123.3691">
        <ele>50.303104</ele>
        <time>2015-12-19T00:21:24.453000Z</time>
      </trkpt>
      <trkpt lat="41.74882" lon="123.368965">
        <ele>50.533085</ele>
        <time>2015-12-19T00:21:29.380000Z</time>
      </trkpt>
      <trkpt lat="41.74881" lon="123.368835">
        <ele>50.7508</ele>
        <time>2015-12-19T00:21:34.307000Z</time>
      </trkpt>
      <trkpt lat="41.748806" lon="123.36869">
        <ele>50.984936</ele>
        <time>2015-12-19T00:21:39.234000Z</time>
      </trkpt>
      <trkpt lat="41.748768" lon="123.368546">
        <ele>51.23627</ele>
        <time>2015-12-19T00:21:44.161000Z</time>
      </trkpt>
      <trkpt lat="41.74875" lon="123.368416">
        <ele>51.96635</ele>
        <time>2015-12-19T00:21:49.088000Z</time>
      </trkpt>
      <trkpt lat="41.74872" lon="123.3683">
        <ele>52.16041</ele>
        <time>2015-12-19T00:21:54.015000Z</time>
      </trkpt>
      <trkpt lat="41.748688" lon="123.36819">
        <ele>51.663246</ele>
        <time>2015-12-19T00:21:58.942000Z</time>
      </trkpt>
      <trkpt lat="41.74867" lon="123.368065">
        <ele>51.168488</ele>
        <time>2015-12-19T00:22:03.869000Z</time>
      </trkpt>
      <trkpt lat="41.748672" lon="123.36792">
        <ele>50.612663</ele>
        <time>2015-12-19T00:22:08.796000Z</time>
      </trkpt>
      <trkpt lat="41.748672" lon="123.3678">
        <ele>50.10444</ele>
        <time>2015-12-19T00:22:13.723000Z</time>
      </trkpt>
      <trkpt lat="41.748665" lon="123.367676">
        <ele>49.618813</ele>
        <time>2015-12-19T00:22:18.650000Z</time>
      </trkpt>
      <trkpt lat="41.74866" lon="123.367546">
        <ele>49.11588</ele>
        <time>2015-12-19T00:22:23.577000Z</time>
      </trkpt>
      <trkpt lat="41.74865" lon="123.367424">
        <ele>48.625927</ele>
        <time>2015-12-19T00:22:28.504000Z</time>
      </trkpt>
      <trkpt lat="41.748653" lon="123.3673">
        <ele>48.109047</ele>
        <time>2015-12-19T00:22:33.431000Z</time>
      </trkpt>
      <trkpt lat="41.748657" lon="123.36716">
        <ele>47.546974</ele>
        <time>2015-12-19T00:22:38.358000Z</time>
      </trkpt>
      <trkpt lat="41.748665" lon="123.367035">
        <ele>47.049328</ele>
        <time>2015-12-19T00:22:43.285000Z</time>
      </trkpt>
      <trkpt lat="41.748688" lon="123.366905">
        <ele>46.519947</ele>
        <time>2015-12-19T00:22:48.212000Z</time>
      </trkpt>
      <trkpt lat="41.7487" lon="123.366776">
        <ele>46.011208</ele>
        <time>2015-12-19T00:22:53.139000Z</time>
      </trkpt>
      <trkpt lat="41.748707" lon="123.36665">
        <ele>45.832073</ele>
        <time>2015-12-19T00:22:58.066000Z</time>
      </trkpt>
      <trkpt lat="41.748737" lon="123.36653">
        <ele>45.798386</ele>
        <time>2015-12-19T00:23:02.993000Z</time>
      </trkpt>
      <trkpt lat="41.748756" lon="123.3664">
        <ele>45.76289</ele>
        <time>2015-12-19T00:23:07.920000Z</time>
      </trkpt>
      <trkpt lat="41.748783" lon="123.36627">
        <ele>45.444256</ele>
        <time>2015-12-19T00:23:12.847000Z</time>
      </trkpt>
      <trkpt lat="41.748806" lon="123.36614">
        <ele>44.950924</ele>
        <time>2015-12-19T00:23:17.774000Z</time>
      </trkpt>
      <trkpt lat="41.748814" lon="123.36602">
        <ele>44.41476</ele>
        <time>2015-12-19T00:23:22.701000Z</time>
      </trkpt>
      <trkpt lat="41.748825" lon="123.36588">
        <ele>44.01396</ele>
        <time>2015-12-19T00:23:27.628000Z</time>
      </trkpt>
      <trkpt lat="41.748837" lon="123.36576">
        <ele>43.727165</ele>
        <time>2015-12-19T00:23:32.555000Z</time>
      </trkpt>
      <trkpt lat="41.748863" lon="123.365616">
        <ele>43.50789</ele>
        <time>2015-12-19T00:23:37.482000Z</time>
      </trkpt>
      <trkpt lat="41.748863" lon="123.365616">
        <ele>43.474525</ele>
        <time>2015-12-19T00:23:42.409000Z</time>
      </trkpt>
      <trkpt lat="41.748882" lon="123.36547">
        <ele>43.474</ele>
        <time>2015-12-19T00:23:47.336000Z</time>
      </trkpt>
      <trkpt lat="41.748898" lon="123.36533">
        <ele>43.473488</ele>
        <time>2015-12-19T00:23:52.263000Z</time>
      </trkpt>
      <trkpt lat="41.748898" lon="123.36533">
        <ele>43.473488</ele>
        <time>2015-12-19T00:23:57.190000Z</time>
      </trkpt>
      <trkpt lat="41.748928" lon="123.365204">
        <ele>43.472984</ele>
        <time>2015-12-19T00:24:02.117000Z</time>
      </trkpt>
      <trkpt lat="41.74894" lon="123.36507">
        <ele>43.472473</ele>
        <time>2015-12-19T00:24:07.044000Z</time>
      </trkpt>
      <trkpt lat="41.74896" lon="123.364944">
        <ele>43.471996</ele>
        <time>2015-12-19T00:24:11.971000Z</time>
      </trkpt>
      <trkpt lat="41.74896" lon="123.36478">
        <ele>43.471394</ele>
        <time>2015-12-19T00:24:16.898000Z</time>
      </trkpt>
      <trkpt lat="41.74896" lon="123.36464">
        <ele>43.47087</ele>
        <time>2015-12-19T00:24:21.825000Z</time>
      </trkpt>
      <trkpt lat="41.74897" lon="123.364494">
        <ele>43.47034</ele>
        <time>2015-12-19T00:24:26.752000Z</time>
      </trkpt>
      <trkpt lat="41.748985" lon="123.36436">
        <ele>43.469845</ele>
        <time>2015-12-19T00:24:31.679000Z</time>
      </trkpt>
      <trkpt lat="41.74899" lon="123.36422">
        <ele>43.46932</ele>
        <time>2015-12-19T00:24:36.606000Z</time>
      </trkpt>
      <trkpt lat="41.74899" lon="123.364075">
        <ele>43.468784</ele>
        <time>2015-12-19T00:24:41.533000Z</time>
      </trkpt>
      <trkpt lat="41.748985" lon="123.36393">
        <ele>43.46825</ele>
        <time>2015-12-19T00:24:46.460000Z</time>
      </trkpt>
      <trkpt lat="41.748978" lon="123.36379">
        <ele>43.46776</ele>
        <time>2015-12-19T00:24:51.387000Z</time>
      </trkpt>
      <trkpt lat="41.74897" lon="123.36366">
        <ele>42.8438</ele>
        <time>2015-12-19T00:24:56.314000Z</time>
      </trkpt>
      <trkpt lat="41.748974" lon="123.3635">
        <ele>42.328735</ele>
        <time>2015-12-19T00:25:01.241000Z</time>
      </trkpt>
      <trkpt lat="41.748978" lon="123.363365">
        <ele>41.98102</ele>
        <time>2015-12-19T00:25:06.168000Z</time>
      </trkpt>
      <trkpt lat="41.748978" lon="123.363365">
        <ele>41.86631</ele>
        <time>2015-12-19T00:25:11.095000Z</time>
      </trkpt>
      <trkpt lat="41.748966" lon="123.363235">
        <ele>41.86631</ele>
        <time>2015-12-19T00:25:16.022000Z</time>
      </trkpt>
      <trkpt lat="41.74897" lon="123.36309">
        <ele>41.86631</ele>
        <time>2015-12-19T00:25:20.949000Z</time>
      </trkpt>
      <trkpt lat="41.748947" lon="123.36297">
        <time>2015-12-19T00:25:25.876000Z</time>
      </trkpt>
    </trkseg>
  </trk>
</gpx>