<?xml version="1.0" encoding="UTF-8"?>
<gpx xmlns="http://www.topografix.com/GPX/1/1" xmlns:gpxtpx="http://www.garmin.com/xmlschemas/TrackPointExtension/v1" xmlns:xsi="http://www.w3.org/2001/XMLSchema-instance" xsi:schemaLocation="http://www.topografix.com/GPX/1/1 http://www.topografix.com/GPX/1/1/gpx.xsd" version="1.1" creator="gpx.py -- https://github.com/tkrajina/gpxpy">
  <trk>
    <trkseg>
      <trkpt lat="39.87688" lon="116.35308">
        <ele>79.649</ele>
        <time>2016-04-21T22:10:11.862000Z</time>
      </trkpt>
      <trkpt lat="39.8768" lon="116.35302">
        <ele>78.098206</ele>
        <time>2016-04-21T22:10:15.427000Z</time>
      </trkpt>
      <trkpt lat="39.8768" lon="116.35302">
        <ele>78.098206</ele>
        <time>2016-04-21T22:10:18.992000Z</time>
      </trkpt>
      <trkpt lat="39.876736" lon="116.352905">
        <ele>76.316826</ele>
        <time>2016-04-21T22:10:22.557000Z</time>
      </trkpt>
      <trkpt lat="39.876694" lon="116.35279">
        <ele>74.63641</ele>
        <time>2016-04-21T22:10:26.122000Z</time>
      </trkpt>
      <trkpt lat="39.87666" lon="116.35267">
        <ele>68.71308</ele>
        <time>2016-04-21T22:10:29.687000Z</time>
      </trkpt>
      <trkpt lat="39.87666" lon="116.352516">
        <ele>62.086224</ele>
        <time>2016-04-21T22:10:33.252000Z</time>
      </trkpt>
      <trkpt lat="39.876663" lon="116.35236">
        <ele>56.391823</ele>
        <time>2016-04-21T22:10:36.817000Z</time>
      </trkpt>
      <trkpt lat="39.876667" lon="116.35224">
        <ele>52.812702</ele>
        <time>2016-04-21T22:10:40.382000Z</time>
      </trkpt>
      <trkpt lat="39.87667" lon="116.35209">
        <ele>51.1926</ele>
        <time>2016-04-21T22:10:43.947000Z</time>
      </trkpt>
      <trkpt lat="39.87662" lon="116.35198">
        <ele>50.919277</ele>
        <time>2016-04-21T22:10:47.512000Z</time>
      </trkpt>
      <trkpt lat="39.87662" lon="116.35198">
        <ele>50.919277</ele>
        <time>2016-04-21T22:10:51.077000Z</time>
      </trkpt>
      <trkpt lat="39.87656" lon="116.35136">
        <ele>53.94567</ele>
        <time>2016-04-21T22:10:54.642000Z</time>
      </trkpt>
      <trkpt lat="39.87659" lon="116.351204">
        <ele>54.70665</ele>
        <time>2016-04-21T22:10:58.207000Z</time>
      </trkpt>
      <trkpt lat="39.876633" lon="116.35108">
        <ele>55.379997</ele>
        <time>2016-04-21T22:11:01.772000Z</time>
      </trkpt>
      <trkpt lat="39.876602" lon="116.35094">
        <ele>56.104794</ele>
        <time>2016-04-21T22:11:05.337000Z</time>
      </trkpt>
      <trkpt lat="39.87657" lon="116.350815">
        <ele>56.728954</ele>
        <time>2016-04-21T22:11:08.902000Z</time>
      </trkpt>
      <trkpt lat="39.876575" lon="116.35067">
        <ele>58.059616</ele>
        <time>2016-04-21T22:11:12.467000Z</time>
      </trkpt>
      <trkpt lat="39.87659" lon="116.35052">
        <ele>58.69058</ele>
        <time>2016-04-21T22:11:16.032000Z</time>
      </trkpt>
      <trkpt lat="39.876606" lon="116.35036">
        <ele>59.01176</ele>
        <time>2016-04-21T22:11:19.597000Z</time>
      </trkpt>
      <trkpt lat="39.8766" lon="116.35023">
        <ele>59.47489</ele>
        <time>2016-04-21T22:11:23.162000Z</time>
      </trkpt>
      <trkpt lat="39.876568" lon="116.35011">
        <ele>59.86213</ele>
        <time>2016-04-21T22:11:26.727000Z</time>
      </trkpt>
      <trkpt lat="39.876526" lon="116.350006">
        <ele>59.87871</ele>
        <time>2016-04-21T22:11:30.292000Z</time>
      </trkpt>
      <trkpt lat="39.87649" lon="116.34988">
        <ele>59.897907</ele>
        <time>2016-04-21T22:11:33.857000Z</time>
      </trkpt>
      <trkpt lat="39.8765" lon="116.34973">
        <ele>59.918213</ele>
        <time>2016-04-21T22:11:37.422000Z</time>
      </trkpt>
      <trkpt lat="39.876484" lon="116.34959">
        <ele>59.937714</ele>
        <time>2016-04-21T22:11:40.987000Z</time>
      </trkpt>
      <trkpt lat="39.87648" lon="116.34944">
        <ele>59.958256</ele>
        <time>2016-04-21T22:11:44.552000Z</time>
      </trkpt>
      <trkpt lat="39.87648" lon="116.3493">
        <ele>59.97782</ele>
        <time>2016-04-21T22:11:48.117000Z</time>
      </trkpt>
      <trkpt lat="39.87646" lon="116.34917">
        <ele>59.99628</ele>
        <time>2016-04-21T22:11:51.682000Z</time>
      </trkpt>
      <trkpt lat="39.87647" lon="116.349014">
        <ele>60.017128</ele>
        <time>2016-04-21T22:11:55.247000Z</time>
      </trkpt>
      <trkpt lat="39.876472" lon="116.348885">
        <ele>60.03403</ele>
        <time>2016-04-21T22:11:58.812000Z</time>
      </trkpt>
      <trkpt lat="39.876476" lon="116.34876">
        <ele>60.051</ele>
        <time>2016-04-21T22:12:02.377000Z</time>
      </trkpt>
      <trkpt lat="39.876472" lon="116.34863">
        <ele>60.069042</ele>
        <time>2016-04-21T22:12:05.942000Z</time>
      </trkpt>
      <trkpt lat="39.87648" lon="116.348495">
        <ele>60.088127</ele>
        <time>2016-04-21T22:12:09.507000Z</time>
      </trkpt>
      <trkpt lat="39.87646" lon="116.34835">
        <ele>60.107483</ele>
        <time>2016-04-21T22:12:13.072000Z</time>
      </trkpt>
      <trkpt lat="39.87642" lon="116.348236">
        <ele>60.125076</ele>
        <time>2016-04-21T22:12:16.637000Z</time>
      </trkpt>
      <trkpt lat="39.87635" lon="116.348145">
        <ele>60.14283</ele>
        <time>2016-04-21T22:12:20.202000Z</time>
      </trkpt>
      <trkpt lat="39.87635" lon="116.348145">
        <ele>60.14283</ele>
        <time>2016-04-21T22:12:23.767000Z</time>
      </trkpt>
      <trkpt lat="39.87644" lon="116.34749">
        <ele>60.23358</ele>
        <time>2016-04-21T22:12:27.332000Z</time>
      </trkpt>
      <trkpt lat="39.87651" lon="116.34682">
        <ele>60.326164</ele>
        <time>2016-04-21T22:12:30.897000Z</time>
      </trkpt>
      <trkpt lat="39.87651" lon="116.34667">
        <ele>60.346645</ele>
        <time>2016-04-21T22:12:34.462000Z</time>
      </trkpt>
      <trkpt lat="39.876495" lon="116.34653">
        <ele>60.366177</ele>
        <time>2016-04-21T22:12:38.027000Z</time>
      </trkpt>
      <trkpt lat="39.87648" lon="116.3464">
        <ele>60.76282</ele>
        <time>2016-04-21T22:12:41.592000Z</time>
      </trkpt>
      <trkpt lat="39.87646" lon="116.346245">
        <ele>60.23058</ele>
        <time>2016-04-21T22:12:45.157000Z</time>
      </trkpt>
      <trkpt lat="39.876453" lon="116.34609">
        <ele>59.694626</ele>
        <time>2016-04-21T22:12:48.722000Z</time>
      </trkpt>
      <trkpt lat="39.876453" lon="116.34594">
        <ele>59.15414</ele>
        <time>2016-04-21T22:12:52.287000Z</time>
      </trkpt>
      <trkpt lat="39.876453" lon="116.34581">
        <ele>58.690693</ele>
        <time>2016-04-21T22:12:55.852000Z</time>
      </trkpt>
      <trkpt lat="39.876457" lon="116.345695">
        <ele>58.275856</ele>
        <time>2016-04-21T22:12:59.417000Z</time>
      </trkpt>
      <trkpt lat="39.87646" lon="116.34557">
        <ele>57.854427</ele>
        <time>2016-04-21T22:13:02.982000Z</time>
      </trkpt>
      <trkpt lat="39.876476" lon="116.345436">
        <ele>57.362965</ele>
        <time>2016-04-21T22:13:06.547000Z</time>
      </trkpt>
      <trkpt lat="39.87645" lon="116.34531">
        <ele>56.897457</ele>
        <time>2016-04-21T22:13:10.112000Z</time>
      </trkpt>
      <trkpt lat="39.87643" lon="116.345184">
        <ele>56.464493</ele>
        <time>2016-04-21T22:13:13.677000Z</time>
      </trkpt>
      <trkpt lat="39.87642" lon="116.34505">
        <ele>55.977974</ele>
        <time>2016-04-21T22:13:17.242000Z</time>
      </trkpt>
      <trkpt lat="39.876396" lon="116.34491">
        <ele>55.4688</ele>
        <time>2016-04-21T22:13:20.807000Z</time>
      </trkpt>
      <trkpt lat="39.876396" lon="116.34479">
        <ele>53.740143</ele>
        <time>2016-04-21T22:13:24.372000Z</time>
      </trkpt>
      <trkpt lat="39.87639" lon="116.344635">
        <ele>51.996666</ele>
        <time>2016-04-21T22:13:27.937000Z</time>
      </trkpt>
      <trkpt lat="39.876404" lon="116.34451">
        <ele>50.628613</ele>
        <time>2016-04-21T22:13:31.502000Z</time>
      </trkpt>
      <trkpt lat="39.876404" lon="116.34451">
        <ele>49.56791</ele>
        <time>2016-04-21T22:13:35.067000Z</time>
      </trkpt>
      <trkpt lat="39.87639" lon="116.34439">
        <ele>48.52535</ele>
        <time>2016-04-21T22:13:38.632000Z</time>
      </trkpt>
      <trkpt lat="39.87639" lon="116.34439">
        <ele>47.452847</ele>
        <time>2016-04-21T22:13:42.197000Z</time>
      </trkpt>
      <trkpt lat="39.876434" lon="116.344215">
        <ele>47.11054</ele>
        <time>2016-04-21T22:13:45.762000Z</time>
      </trkpt>
      <trkpt lat="39.876446" lon="116.344086">
        <ele>46.878784</ele>
        <time>2016-04-21T22:13:49.327000Z</time>
      </trkpt>
      <trkpt lat="39.87654" lon="116.34406">
        <ele>44.83557</ele>
        <time>2016-04-21T22:13:52.892000Z</time>
      </trkpt>
      <trkpt lat="39.87654" lon="116.34406">
        <ele>42.711395</ele>
        <time>2016-04-21T22:13:56.457000Z</time>
      </trkpt>
      <trkpt lat="39.87665" lon="116.344055">
        <ele>41.36102</ele>
        <time>2016-04-21T22:14:00.022000Z</time>
      </trkpt>
      <trkpt lat="39.876762" lon="116.34403">
        <ele>40.28454</ele>
        <time>2016-04-21T22:14:03.587000Z</time>
      </trkpt>
      <trkpt lat="39.876865" lon="116.34399">
        <ele>39.42499</ele>
        <time>2016-04-21T22:14:07.152000Z</time>
      </trkpt>
      <trkpt lat="39.876957" lon="116.34398">
        <ele>38.88719</ele>
        <time>2016-04-21T22:14:10.717000Z</time>
      </trkpt>
      <trkpt lat="39.877068" lon="116.34397">
        <ele>38.43714</ele>
        <time>2016-04-21T22:14:14.282000Z</time>
      </trkpt>
      <trkpt lat="39.877182" lon="116.34396">
        <ele>37.961243</ele>
        <time>2016-04-21T22:14:17.847000Z</time>
      </trkpt>
      <trkpt lat="39.877296" lon="116.34396">
        <ele>37.462997</ele>
        <time>2016-04-21T22:14:21.412000Z</time>
      </trkpt>
      <trkpt lat="39.877407" lon="116.34395">
        <ele>36.870213</ele>
        <time>2016-04-21T22:14:24.977000Z</time>
      </trkpt>
      <trkpt lat="39.87751" lon="116.343956">
        <ele>36.073734</ele>
        <time>2016-04-21T22:14:28.542000Z</time>
      </trkpt>
      <trkpt lat="39.877632" lon="116.34394">
        <ele>35.153374</ele>
        <time>2016-04-21T22:14:32.107000Z</time>
      </trkpt>
      <trkpt lat="39.877735" lon="116.34394">
        <ele>34.429176</ele>
        <time>2016-04-21T22:14:35.672000Z</time>
      </trkpt>
      <trkpt lat="39.87784" lon="116.34394">
        <ele>34.102486</ele>
        <time>2016-04-21T22:14:39.237000Z</time>
      </trkpt>
      <trkpt lat="39.877934" lon="116.34393">
        <ele>34.090694</ele>
        <time>2016-04-21T22:14:42.802000Z</time>
      </trkpt>
      <trkpt lat="39.87805" lon="116.34392">
        <ele>34.088657</ele>
        <time>2016-04-21T22:14:46.367000Z</time>
      </trkpt>
      <trkpt lat="39.878147" lon="116.34392">
        <ele>33.82103</ele>
        <time>2016-04-21T22:14:49.932000Z</time>
      </trkpt>
      <trkpt lat="39.878254" lon="116.34391">
        <ele>33.333336</ele>
        <time>2016-04-21T22:14:53.497000Z</time>
      </trkpt>
      <trkpt lat="39.87835" lon="116.343895">
        <ele>32.87841</ele>
        <time>2016-04-21T22:14:57.062000Z</time>
      </trkpt>
      <trkpt lat="39.87845" lon="116.34389">
        <ele>32.57563</ele>
        <time>2016-04-21T22:15:00.627000Z</time>
      </trkpt>
      <trkpt lat="39.87854" lon="116.34387">
        <ele>32.403614</ele>
        <time>2016-04-21T22:15:04.192000Z</time>
      </trkpt>
      <trkpt lat="39.878643" lon="116.343864">
        <ele>32.401962</ele>
        <time>2016-04-21T22:15:07.757000Z</time>
      </trkpt>
      <trkpt lat="39.878735" lon="116.343864">
        <ele>32.400455</ele>
        <time>2016-04-21T22:15:11.322000Z</time>
      </trkpt>
      <trkpt lat="39.87883" lon="116.34387">
        <ele>32.398907</ele>
        <time>2016-04-21T22:15:14.887000Z</time>
      </trkpt>
      <trkpt lat="39.878937" lon="116.343864">
        <ele>32.397182</ele>
        <time>2016-04-21T22:15:18.452000Z</time>
      </trkpt>
      <trkpt lat="39.879044" lon="116.34385">
        <ele>32.395412</ele>
        <time>2016-04-21T22:15:22.017000Z</time>
      </trkpt>
      <trkpt lat="39.879147" lon="116.34384">
        <ele>32.39374</ele>
        <time>2016-04-21T22:15:25.582000Z</time>
      </trkpt>
      <trkpt lat="39.87924" lon="116.343834">
        <ele>32.392235</ele>
        <time>2016-04-21T22:15:29.147000Z</time>
      </trkpt>
      <trkpt lat="39.87933" lon="116.343834">
        <ele>32.390743</ele>
        <time>2016-04-21T22:15:32.712000Z</time>
      </trkpt>
      <trkpt lat="39.879436" lon="116.34381">
        <ele>32.388927</ele>
        <time>2016-04-21T22:15:36.277000Z</time>
      </trkpt>
      <trkpt lat="39.879543" lon="116.343796">
        <ele>32.387226</ele>
        <time>2016-04-21T22:15:39.842000Z</time>
      </trkpt>
      <trkpt lat="39.87963" lon="116.34378">
        <ele>32.385723</ele>
        <time>2016-04-21T22:15:43.407000Z</time>
      </trkpt>
      <trkpt lat="39.87973" lon="116.34377">
        <ele>32.384148</ele>
        <time>2016-04-21T22:15:46.972000Z</time>
      </trkpt>
      <trkpt lat="39.879826" lon="116.34378">
        <ele>32.38257</ele>
        <time>2016-04-21T22:15:50.537000Z</time>
      </trkpt>
      <trkpt lat="39.879932" lon="116.343765">
        <ele>32.38081</ele>
        <time>2016-04-21T22:15:54.102000Z</time>
      </trkpt>
      <trkpt lat="39.880043" lon="116.34374">
        <ele>32.379</ele>
        <time>2016-04-21T22:15:57.667000Z</time>
      </trkpt>
      <trkpt lat="39.880146" lon="116.343735">
        <ele>32.377285</ele>
        <time>2016-04-21T22:16:01.232000Z</time>
      </trkpt>
      <trkpt lat="39.880257" lon="116.34374">
        <ele>32.375477</ele>
        <time>2016-04-21T22:16:04.797000Z</time>
      </trkpt>
      <trkpt lat="39.88037" lon="116.343735">
        <ele>32.373646</ele>
        <time>2016-04-21T22:16:08.362000Z</time>
      </trkpt>
      <trkpt lat="39.88048" lon="116.34372">
        <ele>32.371788</ele>
        <time>2016-04-21T22:16:11.927000Z</time>
      </trkpt>
      <trkpt lat="39.880596" lon="116.34372">
        <ele>32.36994</ele>
        <time>2016-04-21T22:16:15.492000Z</time>
      </trkpt>
      <trkpt lat="39.8807" lon="116.34373">
        <ele>32.36824</ele>
        <time>2016-04-21T22:16:19.057000Z</time>
      </trkpt>
      <trkpt lat="39.88079" lon="116.34373">
        <ele>32.36675</ele>
        <time>2016-04-21T22:16:22.622000Z</time>
      </trkpt>
      <trkpt lat="39.880894" lon="116.34374">
        <ele>32.365067</ele>
        <time>2016-04-21T22:16:26.187000Z</time>
      </trkpt>
      <trkpt lat="39.881012" lon="116.34373">
        <ele>32.36311</ele>
        <time>2016-04-21T22:16:29.752000Z</time>
      </trkpt>
      <trkpt lat="39.88111" lon="116.34372">
        <ele>32.36153</ele>
        <time>2016-04-21T22:16:33.317000Z</time>
      </trkpt>
      <trkpt lat="39.88111" lon="116.34372">
        <ele>32.36153</ele>
        <time>2016-04-21T22:16:36.882000Z</time>
      </trkpt>
      <trkpt lat="39.881298" lon="116.343765">
        <ele>32.358368</ele>
        <time>2016-04-21T22:16:40.447000Z</time>
      </trkpt>
      <trkpt lat="39.88141" lon="116.343765">
        <ele>32.356606</ele>
        <time>2016-04-21T22:16:44.012000Z</time>
      </trkpt>
      <trkpt lat="39.88151" lon="116.343765">
        <ele>32.354908</ele>
        <time>2016-04-21T22:16:47.577000Z</time>
      </trkpt>
      <trkpt lat="39.88163" lon="116.343735">
        <ele>32.352947</ele>
        <time>2016-04-21T22:16:51.142000Z</time>
      </trkpt>
      <trkpt lat="39.881744" lon="116.34373">
        <ele>32.35108</ele>
        <time>2016-04-21T22:16:54.707000Z</time>
      </trkpt>
      <trkpt lat="39.881866" lon="116.34371">
        <ele>32.349075</ele>
        <time>2016-04-21T22:16:58.272000Z</time>
      </trkpt>
      <trkpt lat="39.881977" lon="116.34369">
        <ele>32.34722</ele>
        <time>2016-04-21T22:17:01.837000Z</time>
      </trkpt>
      <trkpt lat="39.882076" lon="116.34367">
        <ele>32.34559</ele>
        <time>2016-04-21T22:17:05.402000Z</time>
      </trkpt>
      <trkpt lat="39.882183" lon="116.34368">
        <ele>32.343853</ele>
        <time>2016-04-21T22:17:08.967000Z</time>
      </trkpt>
      <trkpt lat="39.882294" lon="116.343666">
        <ele>32.34206</ele>
        <time>2016-04-21T22:17:12.532000Z</time>
      </trkpt>
      <trkpt lat="39.882404" lon="116.343666">
        <ele>32.340275</ele>
        <time>2016-04-21T22:17:16.097000Z</time>
      </trkpt>
      <trkpt lat="39.88251" lon="116.343666">
        <ele>32.033535</ele>
        <time>2016-04-21T22:17:19.662000Z</time>
      </trkpt>
      <trkpt lat="39.882618" lon="116.34367">
        <ele>31.963459</ele>
        <time>2016-04-21T22:17:23.227000Z</time>
      </trkpt>
      <trkpt lat="39.88274" lon="116.34366">
        <ele>31.884918</ele>
        <time>2016-04-21T22:17:26.792000Z</time>
      </trkpt>
      <trkpt lat="39.88284" lon="116.34366">
        <ele>31.822731</ele>
        <time>2016-04-21T22:17:30.357000Z</time>
      </trkpt>
      <trkpt lat="39.882946" lon="116.343666">
        <ele>31.754095</ele>
        <time>2016-04-21T22:17:33.922000Z</time>
      </trkpt>
      <trkpt lat="39.88304" lon="116.34367">
        <ele>31.199377</ele>
        <time>2016-04-21T22:17:37.487000Z</time>
      </trkpt>
      <trkpt lat="39.883133" lon="116.34369">
        <ele>30.741076</ele>
        <time>2016-04-21T22:17:41.052000Z</time>
      </trkpt>
      <trkpt lat="39.883247" lon="116.343704">
        <ele>30.360903</ele>
        <time>2016-04-21T22:17:44.617000Z</time>
      </trkpt>
      <trkpt lat="39.883358" lon="116.343704">
        <ele>30.0148</ele>
        <time>2016-04-21T22:17:48.182000Z</time>
      </trkpt>
      <trkpt lat="39.88347" lon="116.34372">
        <ele>29.86966</ele>
        <time>2016-04-21T22:17:51.747000Z</time>
      </trkpt>
      <trkpt lat="39.883587" lon="116.34371">
        <ele>29.859037</ele>
        <time>2016-04-21T22:17:55.312000Z</time>
      </trkpt>
      <trkpt lat="39.88369" lon="116.34371">
        <ele>29.849548</ele>
        <time>2016-04-21T22:17:58.877000Z</time>
      </trkpt>
      <trkpt lat="39.88381" lon="116.34372">
        <ele>29.838936</ele>
        <time>2016-04-21T22:18:02.442000Z</time>
      </trkpt>
      <trkpt lat="39.883926" lon="116.34372">
        <ele>29.828241</ele>
        <time>2016-04-21T22:18:06.007000Z</time>
      </trkpt>
      <trkpt lat="39.884018" lon="116.34371">
        <ele>29.820015</ele>
        <time>2016-04-21T22:18:09.572000Z</time>
      </trkpt>
      <trkpt lat="39.884106" lon="116.34371">
        <ele>29.811844</ele>
        <time>2016-04-21T22:18:13.137000Z</time>
      </trkpt>
      <trkpt lat="39.884216" lon="116.34371">
        <ele>29.80189</ele>
        <time>2016-04-21T22:18:16.702000Z</time>
      </trkpt>
      <trkpt lat="39.884335" lon="116.343704">
        <ele>29.791327</ele>
        <time>2016-04-21T22:18:20.267000Z</time>
      </trkpt>
      <trkpt lat="39.88445" lon="116.34369">
        <ele>29.780804</ele>
        <time>2016-04-21T22:18:23.832000Z</time>
      </trkpt>
      <trkpt lat="39.884575" lon="116.34369">
        <ele>29.76928</ele>
        <time>2016-04-21T22:18:27.397000Z</time>
      </trkpt>
      <trkpt lat="39.88468" lon="116.34369">
        <ele>29.759562</ele>
        <time>2016-04-21T22:18:30.962000Z</time>
      </trkpt>
      <trkpt lat="39.884808" lon="116.34369">
        <ele>29.748453</ele>
        <time>2016-04-21T22:18:34.527000Z</time>
      </trkpt>
      <trkpt lat="39.884907" lon="116.3437">
        <ele>29.739338</ele>
        <time>2016-04-21T22:18:38.092000Z</time>
      </trkpt>
      <trkpt lat="39.885014" lon="116.3437">
        <ele>29.729782</ele>
        <time>2016-04-21T22:18:41.657000Z</time>
      </trkpt>
      <trkpt lat="39.885105" lon="116.3437">
        <ele>29.721277</ele>
        <time>2016-04-21T22:18:45.222000Z</time>
      </trkpt>
      <trkpt lat="39.885212" lon="116.34369">
        <ele>29.711609</ele>
        <time>2016-04-21T22:18:48.787000Z</time>
      </trkpt>
      <trkpt lat="39.885326" lon="116.34368">
        <ele>29.701372</ele>
        <time>2016-04-21T22:18:52.352000Z</time>
      </trkpt>
      <trkpt lat="39.88544" lon="116.34369">
        <ele>29.690783</ele>
        <time>2016-04-21T22:18:55.917000Z</time>
      </trkpt>
      <trkpt lat="39.88555" lon="116.34369">
        <ele>29.680912</ele>
        <time>2016-04-21T22:18:59.482000Z</time>
      </trkpt>
      <trkpt lat="39.885666" lon="116.34369">
        <ele>29.670656</ele>
        <time>2016-04-21T22:19:03.047000Z</time>
      </trkpt>
      <trkpt lat="39.88578" lon="116.34368">
        <ele>29.660141</ele>
        <time>2016-04-21T22:19:06.612000Z</time>
      </trkpt>
      <trkpt lat="39.88588" lon="116.343666">
        <ele>29.651035</ele>
        <time>2016-04-21T22:19:10.177000Z</time>
      </trkpt>
      <trkpt lat="39.885998" lon="116.34366">
        <ele>29.64038</ele>
        <time>2016-04-21T22:19:13.742000Z</time>
      </trkpt>
      <trkpt lat="39.886105" lon="116.34367">
        <ele>29.630632</ele>
        <time>2016-04-21T22:19:17.307000Z</time>
      </trkpt>
      <trkpt lat="39.8862" lon="116.34369">
        <ele>29.622086</ele>
        <time>2016-04-21T22:19:20.872000Z</time>
      </trkpt>
      <trkpt lat="39.88632" lon="116.34369">
        <ele>29.611351</ele>
        <time>2016-04-21T22:19:24.437000Z</time>
      </trkpt>
      <trkpt lat="39.886433" lon="116.34367">
        <ele>29.600836</ele>
        <time>2016-04-21T22:19:28.002000Z</time>
      </trkpt>
      <trkpt lat="39.886528" lon="116.343666">
        <ele>29.592104</ele>
        <time>2016-04-21T22:19:31.567000Z</time>
      </trkpt>
      <trkpt lat="39.886635" lon="116.343666">
        <ele>29.582623</ele>
        <time>2016-04-21T22:19:35.132000Z</time>
      </trkpt>
      <trkpt lat="39.886726" lon="116.34366">
        <ele>29.574078</ele>
        <time>2016-04-21T22:19:38.697000Z</time>
      </trkpt>
      <trkpt lat="39.88683" lon="116.34366">
        <ele>29.565027</ele>
        <time>2016-04-21T22:19:42.262000Z</time>
      </trkpt>
      <trkpt lat="39.88692" lon="116.34366">
        <ele>29.556482</ele>
        <time>2016-04-21T22:19:45.827000Z</time>
      </trkpt>
      <trkpt lat="39.887012" lon="116.34365">
        <ele>29.548344</ele>
        <time>2016-04-21T22:19:49.392000Z</time>
      </trkpt>
      <trkpt lat="39.88711" lon="116.34366">
        <ele>29.53935</ele>
        <time>2016-04-21T22:19:52.957000Z</time>
      </trkpt>
      <trkpt lat="39.88722" lon="116.343666">
        <ele>29.529665</ele>
        <time>2016-04-21T22:19:56.522000Z</time>
      </trkpt>
      <trkpt lat="39.887318" lon="116.34367">
        <ele>29.520672</ele>
        <time>2016-04-21T22:20:00.087000Z</time>
      </trkpt>
      <trkpt lat="39.887432" lon="116.34368">
        <ele>28.89029</ele>
        <time>2016-04-21T22:20:03.652000Z</time>
      </trkpt>
      <trkpt lat="39.887535" lon="116.34368">
        <ele>28.664156</ele>
        <time>2016-04-21T22:20:07.217000Z</time>
      </trkpt>
      <trkpt lat="39.88763" lon="116.343666">
        <ele>28.655596</ele>
        <time>2016-04-21T22:20:10.782000Z</time>
      </trkpt>
      <trkpt lat="39.88773" lon="116.34366">
        <ele>28.646465</ele>
        <time>2016-04-21T22:20:14.347000Z</time>
      </trkpt>
      <trkpt lat="39.887836" lon="116.34365">
        <ele>28.636467</ele>
        <time>2016-04-21T22:20:17.911000Z</time>
      </trkpt>
      <trkpt lat="39.887955" lon="116.34365">
        <ele>28.625412</ele>
        <time>2016-04-21T22:20:21.475000Z</time>
      </trkpt>
      <trkpt lat="39.88805" lon="116.34364">
        <ele>28.616737</ele>
        <time>2016-04-21T22:20:25.039000Z</time>
      </trkpt>
      <trkpt lat="39.88805" lon="116.34364">
        <ele>28.616737</ele>
        <time>2016-04-21T22:20:28.603000Z</time>
      </trkpt>
      <trkpt lat="39.88857" lon="116.34367">
        <ele>28.568947</ele>
        <time>2016-04-21T22:20:32.167000Z</time>
      </trkpt>
      <trkpt lat="39.888676" lon="116.343666">
        <ele>28.55905</ele>
        <time>2016-04-21T22:20:35.731000Z</time>
      </trkpt>
      <trkpt lat="39.888775" lon="116.343666">
        <ele>28.550018</ele>
        <time>2016-04-21T22:20:39.295000Z</time>
      </trkpt>
      <trkpt lat="39.88887" lon="116.343666">
        <ele>28.541292</ele>
        <time>2016-04-21T22:20:42.859000Z</time>
      </trkpt>
      <trkpt lat="39.88899" lon="116.34367">
        <ele>28.530594</ele>
        <time>2016-04-21T22:20:46.423000Z</time>
      </trkpt>
      <trkpt lat="39.889084" lon="116.34368">
        <ele>28.52176</ele>
        <time>2016-04-21T22:20:49.987000Z</time>
      </trkpt>
      <trkpt lat="39.889187" lon="116.34368">
        <ele>28.51235</ele>
        <time>2016-04-21T22:20:53.551000Z</time>
      </trkpt>
      <trkpt lat="39.889294" lon="116.34368">
        <ele>28.502468</ele>
        <time>2016-04-21T22:20:57.115000Z</time>
      </trkpt>
      <trkpt lat="39.889393" lon="116.3437">
        <ele>28.49314</ele>
        <time>2016-04-21T22:21:00.679000Z</time>
      </trkpt>
      <trkpt lat="39.8895" lon="116.3437">
        <ele>28.48353</ele>
        <time>2016-04-21T22:21:04.243000Z</time>
      </trkpt>
      <trkpt lat="39.889595" lon="116.34369">
        <ele>28.474771</ele>
        <time>2016-04-21T22:21:07.807000Z</time>
      </trkpt>
      <trkpt lat="39.889706" lon="116.3437">
        <ele>28.464378</ele>
        <time>2016-04-21T22:21:11.371000Z</time>
      </trkpt>
      <trkpt lat="39.889824" lon="116.34369">
        <ele>28.453487</ele>
        <time>2016-04-21T22:21:14.935000Z</time>
      </trkpt>
      <trkpt lat="39.889942" lon="116.3437">
        <ele>28.442532</ele>
        <time>2016-04-21T22:21:18.499000Z</time>
      </trkpt>
      <trkpt lat="39.890045" lon="116.34371">
        <ele>28.433046</ele>
        <time>2016-04-21T22:21:22.063000Z</time>
      </trkpt>
      <trkpt lat="39.89016" lon="116.34371">
        <ele>28.422693</ele>
        <time>2016-04-21T22:21:25.627000Z</time>
      </trkpt>
      <trkpt lat="39.890255" lon="116.34372">
        <ele>28.413813</ele>
        <time>2016-04-21T22:21:29.191000Z</time>
      </trkpt>
      <trkpt lat="39.89036" lon="116.34372">
        <ele>28.40403</ele>
        <time>2016-04-21T22:21:32.755000Z</time>
      </trkpt>
      <trkpt lat="39.890453" lon="116.34371">
        <ele>28.39565</ele>
        <time>2016-04-21T22:21:36.319000Z</time>
      </trkpt>
      <trkpt lat="39.89056" lon="116.34371">
        <ele>28.38596</ele>
        <time>2016-04-21T22:21:39.883000Z</time>
      </trkpt>
      <trkpt lat="39.89066" lon="116.3437">
        <ele>28.376606</ele>
        <time>2016-04-21T22:21:43.447000Z</time>
      </trkpt>
      <trkpt lat="39.890755" lon="116.34369">
        <ele>28.367865</ele>
        <time>2016-04-21T22:21:47.011000Z</time>
      </trkpt>
      <trkpt lat="39.890873" lon="116.3437">
        <ele>28.356941</ele>
        <time>2016-04-21T22:21:50.575000Z</time>
      </trkpt>
      <trkpt lat="39.89097" lon="116.343704">
        <ele>28.347994</ele>
        <time>2016-04-21T22:21:54.139000Z</time>
      </trkpt>
      <trkpt lat="39.891083" lon="116.34371">
        <ele>28.337633</ele>
        <time>2016-04-21T22:21:57.703000Z</time>
      </trkpt>
      <trkpt lat="39.891174" lon="116.34371">
        <ele>28.329212</ele>
        <time>2016-04-21T22:22:01.267000Z</time>
      </trkpt>
      <trkpt lat="39.891266" lon="116.34372">
        <ele>28.320934</ele>
        <time>2016-04-21T22:22:04.831000Z</time>
      </trkpt>
      <trkpt lat="39.89136" lon="116.34372">
        <ele>28.312094</ele>
        <time>2016-04-21T22:22:08.395000Z</time>
      </trkpt>
      <trkpt lat="39.89148" lon="116.343735">
        <ele>28.301064</ele>
        <time>2016-04-21T22:22:11.959000Z</time>
      </trkpt>
      <trkpt lat="39.89158" lon="116.34374">
        <ele>28.291925</ele>
        <time>2016-04-21T22:22:15.523000Z</time>
      </trkpt>
      <trkpt lat="39.891674" lon="116.343735">
        <ele>28.28305</ele>
        <time>2016-04-21T22:22:19.087000Z</time>
      </trkpt>
      <trkpt lat="39.89179" lon="116.34372">
        <ele>28.272434</ele>
        <time>2016-04-21T22:22:22.651000Z</time>
      </trkpt>
      <trkpt lat="39.89189" lon="116.34373">
        <ele>28.262999</ele>
        <time>2016-04-21T22:22:26.215000Z</time>
      </trkpt>
      <trkpt lat="39.892014" lon="116.34372">
        <ele>28.25176</ele>
        <time>2016-04-21T22:22:29.779000Z</time>
      </trkpt>
      <trkpt lat="39.892124" lon="116.34371">
        <ele>28.241772</ele>
        <time>2016-04-21T22:22:33.343000Z</time>
      </trkpt>
      <trkpt lat="39.892223" lon="116.34371">
        <ele>28.232592</ele>
        <time>2016-04-21T22:22:36.907000Z</time>
      </trkpt>
      <trkpt lat="39.892334" lon="116.343704">
        <ele>28.222263</ele>
        <time>2016-04-21T22:22:40.471000Z</time>
      </trkpt>
      <trkpt lat="39.892426" lon="116.34369">
        <ele>28.214003</ele>
        <time>2016-04-21T22:22:44.035000Z</time>
      </trkpt>
      <trkpt lat="39.89254" lon="116.34368">
        <ele>28.203278</ele>
        <time>2016-04-21T22:22:47.599000Z</time>
      </trkpt>
      <trkpt lat="39.892643" lon="116.34368">
        <ele>28.193768</ele>
        <time>2016-04-21T22:22:51.163000Z</time>
      </trkpt>
      <trkpt lat="39.89275" lon="116.34367">
        <ele>28.18401</ele>
        <time>2016-04-21T22:22:54.727000Z</time>
      </trkpt>
      <trkpt lat="39.89285" lon="116.34367">
        <ele>28.174822</ele>
        <time>2016-04-21T22:22:58.291000Z</time>
      </trkpt>
      <trkpt lat="39.892967" lon="116.343666">
        <ele>26.973555</ele>
        <time>2016-04-21T22:23:01.855000Z</time>
      </trkpt>
      <trkpt lat="39.893074" lon="116.34366">
        <ele>26.181648</ele>
        <time>2016-04-21T22:23:05.419000Z</time>
      </trkpt>
      <trkpt lat="39.89317" lon="116.34366">
        <ele>25.599081</ele>
        <time>2016-04-21T22:23:08.983000Z</time>
      </trkpt>
      <trkpt lat="39.89327" lon="116.34365">
        <ele>25.265467</ele>
        <time>2016-04-21T22:23:12.547000Z</time>
      </trkpt>
      <trkpt lat="39.893383" lon="116.34365">
        <ele>25.399027</ele>
        <time>2016-04-21T22:23:16.111000Z</time>
      </trkpt>
      <trkpt lat="39.89348" lon="116.34365">
        <ele>25.50834</ele>
        <time>2016-04-21T22:23:19.675000Z</time>
      </trkpt>
      <trkpt lat="39.893578" lon="116.343636">
        <ele>25.62514</ele>
        <time>2016-04-21T22:23:23.239000Z</time>
      </trkpt>
      <trkpt lat="39.893665" lon="116.343636">
        <ele>25.731398</ele>
        <time>2016-04-21T22:23:26.803000Z</time>
      </trkpt>
      <trkpt lat="39.89377" lon="116.343636">
        <ele>25.851147</ele>
        <time>2016-04-21T22:23:30.367000Z</time>
      </trkpt>
      <trkpt lat="39.893887" lon="116.34364">
        <ele>25.991032</ele>
        <time>2016-04-21T22:23:33.931000Z</time>
      </trkpt>
      <trkpt lat="39.893982" lon="116.34363">
        <ele>26.102982</ele>
        <time>2016-04-21T22:23:37.495000Z</time>
      </trkpt>
      <trkpt lat="39.894077" lon="116.34362">
        <ele>26.211452</ele>
        <time>2016-04-21T22:23:41.059000Z</time>
      </trkpt>
      <trkpt lat="39.894176" lon="116.34361">
        <ele>26.33057</ele>
        <time>2016-04-21T22:23:44.623000Z</time>
      </trkpt>
      <trkpt lat="39.89429" lon="116.34361">
        <ele>26.466131</ele>
        <time>2016-04-21T22:23:48.187000Z</time>
      </trkpt>
      <trkpt lat="39.894413" lon="116.343605">
        <ele>26.607176</ele>
        <time>2016-04-21T22:23:51.751000Z</time>
      </trkpt>
      <trkpt lat="39.894505" lon="116.343605">
        <ele>26.714382</ele>
        <time>2016-04-21T22:23:55.315000Z</time>
      </trkpt>
      <trkpt lat="39.894604" lon="116.3436">
        <ele>26.83076</ele>
        <time>2016-04-21T22:23:58.879000Z</time>
      </trkpt>
      <trkpt lat="39.894714" lon="116.34359">
        <ele>26.962843</ele>
        <time>2016-04-21T22:24:02.443000Z</time>
      </trkpt>
      <trkpt lat="39.89482" lon="116.34359">
        <ele>27.087019</ele>
        <time>2016-04-21T22:24:06.007000Z</time>
      </trkpt>
      <trkpt lat="39.894917" lon="116.34358">
        <ele>27.200867</ele>
        <time>2016-04-21T22:24:09.571000Z</time>
      </trkpt>
      <trkpt lat="39.895027" lon="116.34358">
        <ele>27.329893</ele>
        <time>2016-04-21T22:24:13.135000Z</time>
      </trkpt>
      <trkpt lat="39.895123" lon="116.34357">
        <ele>27.440578</ele>
        <time>2016-04-21T22:24:16.699000Z</time>
      </trkpt>
      <trkpt lat="39.89523" lon="116.34355">
        <ele>27.565493</ele>
        <time>2016-04-21T22:24:20.263000Z</time>
      </trkpt>
      <trkpt lat="39.89536" lon="116.343544">
        <ele>27.717289</ele>
        <time>2016-04-21T22:24:23.827000Z</time>
      </trkpt>
      <trkpt lat="39.895473" lon="116.343544">
        <ele>27.854855</ele>
        <time>2016-04-21T22:24:27.391000Z</time>
      </trkpt>
      <trkpt lat="39.895588" lon="116.34355">
        <ele>27.9901</ele>
        <time>2016-04-21T22:24:30.955000Z</time>
      </trkpt>
      <trkpt lat="39.895687" lon="116.343544">
        <ele>28.10458</ele>
        <time>2016-04-21T22:24:34.519000Z</time>
      </trkpt>
      <trkpt lat="39.895805" lon="116.34354">
        <ele>28.245203</ele>
        <time>2016-04-21T22:24:38.083000Z</time>
      </trkpt>
      <trkpt lat="39.895916" lon="116.343506">
        <ele>28.377075</ele>
        <time>2016-04-21T22:24:41.647000Z</time>
      </trkpt>
      <trkpt lat="39.896008" lon="116.34348">
        <ele>28.484386</ele>
        <time>2016-04-21T22:24:45.211000Z</time>
      </trkpt>
      <trkpt lat="39.8961" lon="116.343475">
        <ele>28.593174</ele>
        <time>2016-04-21T22:24:48.775000Z</time>
      </trkpt>
      <trkpt lat="39.89619" lon="116.343445">
        <ele>28.702276</ele>
        <time>2016-04-21T22:24:52.339000Z</time>
      </trkpt>
      <trkpt lat="39.896282" lon="116.34345">
        <ele>28.812014</ele>
        <time>2016-04-21T22:24:55.903000Z</time>
      </trkpt>
      <trkpt lat="39.896282" lon="116.34345">
        <ele>28.812014</ele>
        <time>2016-04-21T22:24:59.467000Z</time>
      </trkpt>
      <trkpt lat="39.89676" lon="116.34351">
        <ele>29.37271</ele>
        <time>2016-04-21T22:25:03.031000Z</time>
      </trkpt>
      <trkpt lat="39.897285" lon="116.3434">
        <ele>30.000238</ele>
        <time>2016-04-21T22:25:06.595000Z</time>
      </trkpt>
      <trkpt lat="39.89738" lon="116.34339">
        <ele>30.110712</ele>
        <time>2016-04-21T22:25:10.159000Z</time>
      </trkpt>
      <trkpt lat="39.897476" lon="116.34341">
        <ele>30.222979</ele>
        <time>2016-04-21T22:25:13.723000Z</time>
      </trkpt>
      <trkpt lat="39.897594" lon="116.34341">
        <ele>30.3636</ele>
        <time>2016-04-21T22:25:17.287000Z</time>
      </trkpt>
      <trkpt lat="39.897694" lon="116.3434">
        <ele>30.47829</ele>
        <time>2016-04-21T22:25:20.851000Z</time>
      </trkpt>
      <trkpt lat="39.897797" lon="116.3434">
        <ele>31.045454</ele>
        <time>2016-04-21T22:25:24.415000Z</time>
      </trkpt>
      <trkpt lat="39.897896" lon="116.34338">
        <ele>31.557384</ele>
        <time>2016-04-21T22:25:27.979000Z</time>
      </trkpt>
      <trkpt lat="39.897995" lon="116.34337">
        <ele>31.781332</ele>
        <time>2016-04-21T22:25:31.543000Z</time>
      </trkpt>
      <trkpt lat="39.898098" lon="116.34335">
        <ele>31.82447</ele>
        <time>2016-04-21T22:25:35.107000Z</time>
      </trkpt>
      <trkpt lat="39.898212" lon="116.34335">
        <ele>31.873028</ele>
        <time>2016-04-21T22:25:38.671000Z</time>
      </trkpt>
      <trkpt lat="39.898308" lon="116.34336">
        <ele>31.912054</ele>
        <time>2016-04-21T22:25:42.235000Z</time>
      </trkpt>
      <trkpt lat="39.898396" lon="116.34339">
        <ele>31.95078</ele>
        <time>2016-04-21T22:25:45.799000Z</time>
      </trkpt>
      <trkpt lat="39.89849" lon="116.34345">
        <ele>32.466927</ele>
        <time>2016-04-21T22:25:49.363000Z</time>
      </trkpt>
      <trkpt lat="39.89858" lon="116.343544">
        <ele>32.92608</ele>
        <time>2016-04-21T22:25:52.927000Z</time>
      </trkpt>
      <trkpt lat="39.898643" lon="116.34363">
        <ele>33.496025</ele>
        <time>2016-04-21T22:25:56.491000Z</time>
      </trkpt>
      <trkpt lat="39.898724" lon="116.34369">
        <ele>34.408882</ele>
        <time>2016-04-21T22:26:00.055000Z</time>
      </trkpt>
      <trkpt lat="39.898827" lon="116.34368">
        <ele>35.773098</ele>
        <time>2016-04-21T22:26:03.619000Z</time>
      </trkpt>
      <trkpt lat="39.898933" lon="116.34363">
        <ele>37.284885</ele>
        <time>2016-04-21T22:26:07.183000Z</time>
      </trkpt>
      <trkpt lat="39.89902" lon="116.34359">
        <ele>38.408955</ele>
        <time>2016-04-21T22:26:10.747000Z</time>
      </trkpt>
      <trkpt lat="39.89913" lon="116.34356">
        <ele>38.996326</ele>
        <time>2016-04-21T22:26:14.311000Z</time>
      </trkpt>
      <trkpt lat="39.89921" lon="116.343506">
        <ele>39.21891</ele>
        <time>2016-04-21T22:26:17.875000Z</time>
      </trkpt>
      <trkpt lat="39.899307" lon="116.34343">
        <ele>39.228535</ele>
        <time>2016-04-21T22:26:21.439000Z</time>
      </trkpt>
      <trkpt lat="39.899433" lon="116.34338">
        <ele>39.252914</ele>
        <time>2016-04-21T22:26:25.003000Z</time>
      </trkpt>
      <trkpt lat="39.89952" lon="116.34332">
        <ele>39.27116</ele>
        <time>2016-04-21T22:26:28.567000Z</time>
      </trkpt>
      <trkpt lat="39.899563" lon="116.34321">
        <ele>39.616333</ele>
        <time>2016-04-21T22:26:32.131000Z</time>
      </trkpt>
      <trkpt lat="39.899494" lon="116.343124">
        <ele>39.752277</ele>
        <time>2016-04-21T22:26:35.695000Z</time>
      </trkpt>
      <trkpt lat="39.899403" lon="116.343056">
        <ele>39.758087</ele>
        <time>2016-04-21T22:26:39.259000Z</time>
      </trkpt>
      <trkpt lat="39.899338" lon="116.34297">
        <ele>39.763153</ele>
        <time>2016-04-21T22:26:42.823000Z</time>
      </trkpt>
      <trkpt lat="39.899235" lon="116.342865">
        <ele>39.77046</ele>
        <time>2016-04-21T22:26:46.387000Z</time>
      </trkpt>
      <trkpt lat="39.89916" lon="116.34276">
        <ele>39.77672</ele>
        <time>2016-04-21T22:26:49.951000Z</time>
      </trkpt>
      <trkpt lat="39.899086" lon="116.34266">
        <ele>39.782692</ele>
        <time>2016-04-21T22:26:53.515000Z</time>
      </trkpt>
      <trkpt lat="39.89902" lon="116.34255">
        <ele>39.788414</ele>
        <time>2016-04-21T22:26:57.079000Z</time>
      </trkpt>
      <trkpt lat="39.898937" lon="116.34248">
        <ele>39.79411</ele>
        <time>2016-04-21T22:27:00.643000Z</time>
      </trkpt>
      <trkpt lat="39.89884" lon="116.342545">
        <ele>39.799904</ele>
        <time>2016-04-21T22:27:04.207000Z</time>
      </trkpt>
      <trkpt lat="39.898766" lon="116.34266">
        <ele>39.80654</ele>
        <time>2016-04-21T22:27:07.771000Z</time>
      </trkpt>
      <trkpt lat="39.89867" lon="116.34275">
        <ele>39.813156</ele>
        <time>2016-04-21T22:27:11.335000Z</time>
      </trkpt>
      <trkpt lat="39.898575" lon="116.34281">
        <ele>39.819065</ele>
        <time>2016-04-21T22:27:14.899000Z</time>
      </trkpt>
      <trkpt lat="39.898476" lon="116.34283">
        <ele>39.824768</ele>
        <time>2016-04-21T22:27:18.463000Z</time>
      </trkpt>
      <trkpt lat="39.898354" lon="116.34284">
        <ele>39.85086</ele>
        <time>2016-04-21T22:27:22.027000Z</time>
      </trkpt>
      <trkpt lat="39.898247" lon="116.34284">
        <ele>39.873817</ele>
        <time>2016-04-21T22:27:25.591000Z</time>
      </trkpt>
      <trkpt lat="39.89816" lon="116.34286">
        <ele>39.893074</ele>
        <time>2016-04-21T22:27:29.155000Z</time>
      </trkpt>
      <trkpt lat="39.898064" lon="116.34289">
        <ele>39.914314</ele>
        <time>2016-04-21T22:27:32.719000Z</time>
      </trkpt>
      <trkpt lat="39.89794" lon="116.34292">
        <ele>39.94016</ele>
        <time>2016-04-21T22:27:36.283000Z</time>
      </trkpt>
      <trkpt lat="39.897835" lon="116.3429">
        <ele>39.963596</ele>
        <time>2016-04-21T22:27:39.847000Z</time>
      </trkpt>
      <trkpt lat="39.897736" lon="116.34286">
        <ele>39.98601</ele>
        <time>2016-04-21T22:27:43.411000Z</time>
      </trkpt>
      <trkpt lat="39.897644" lon="116.342865">
        <ele>40.16528</ele>
        <time>2016-04-21T22:27:46.975000Z</time>
      </trkpt>
      <trkpt lat="39.89752" lon="116.34285">
        <ele>40.187634</ele>
        <time>2016-04-21T22:27:50.539000Z</time>
      </trkpt>
      <trkpt lat="39.8974" lon="116.342865">
        <ele>40.208313</ele>
        <time>2016-04-21T22:27:54.103000Z</time>
      </trkpt>
      <trkpt lat="39.8973" lon="116.34289">
        <ele>40.22589</ele>
        <time>2016-04-21T22:27:57.667000Z</time>
      </trkpt>
      <trkpt lat="39.89719" lon="116.3429">
        <ele>40.244995</ele>
        <time>2016-04-21T22:28:01.231000Z</time>
      </trkpt>
      <trkpt lat="39.897064" lon="116.34292">
        <ele>40.26649</ele>
        <time>2016-04-21T22:28:04.795000Z</time>
      </trkpt>
      <trkpt lat="39.896965" lon="116.34292">
        <ele>40.941097</ele>
        <time>2016-04-21T22:28:08.359000Z</time>
      </trkpt>
      <trkpt lat="39.896862" lon="116.34291">
        <ele>41.611267</ele>
        <time>2016-04-21T22:28:11.923000Z</time>
      </trkpt>
      <trkpt lat="39.89672" lon="116.34292">
        <ele>42.186993</ele>
        <time>2016-04-21T22:28:15.487000Z</time>
      </trkpt>
      <trkpt lat="39.89659" lon="116.342926">
        <ele>42.237293</ele>
        <time>2016-04-21T22:28:19.051000Z</time>
      </trkpt>
      <trkpt lat="39.896477" lon="116.34293">
        <ele>41.662056</ele>
        <time>2016-04-21T22:28:22.615000Z</time>
      </trkpt>
      <trkpt lat="39.896477" lon="116.34293">
        <ele>41.662056</ele>
        <time>2016-04-21T22:28:26.179000Z</time>
      </trkpt>
      <trkpt lat="39.89596" lon="116.342896">
        <ele>39.07843</ele>
        <time>2016-04-21T22:28:29.743000Z</time>
      </trkpt>
      <trkpt lat="39.89549" lon="116.34289">
        <ele>36.711872</ele>
        <time>2016-04-21T22:28:33.307000Z</time>
      </trkpt>
      <trkpt lat="39.89538" lon="116.34291">
        <ele>36.160454</ele>
        <time>2016-04-21T22:28:36.871000Z</time>
      </trkpt>
      <trkpt lat="39.895264" lon="116.34294">
        <ele>35.56589</ele>
        <time>2016-04-21T22:28:40.435000Z</time>
      </trkpt>
      <trkpt lat="39.89516" lon="116.34297">
        <ele>33.56664</ele>
        <time>2016-04-21T22:28:43.999000Z</time>
      </trkpt>
      <trkpt lat="39.895042" lon="116.34299">
        <ele>32.762318</ele>
        <time>2016-04-21T22:28:47.563000Z</time>
      </trkpt>
      <trkpt lat="39.894924" lon="116.34301">
        <ele>33.10104</ele>
        <time>2016-04-21T22:28:51.127000Z</time>
      </trkpt>
      <trkpt lat="39.894817" lon="116.34302">
        <ele>33.410908</ele>
        <time>2016-04-21T22:28:54.691000Z</time>
      </trkpt>
      <trkpt lat="39.894722" lon="116.34302">
        <ele>33.692177</ele>
        <time>2016-04-21T22:28:58.255000Z</time>
      </trkpt>
      <trkpt lat="39.89462" lon="116.343056">
        <ele>34.002567</ele>
        <time>2016-04-21T22:29:01.819000Z</time>
      </trkpt>
      <trkpt lat="39.894527" lon="116.34307">
        <ele>34.266163</ele>
        <time>2016-04-21T22:29:05.383000Z</time>
      </trkpt>
      <trkpt lat="39.894436" lon="116.34308">
        <ele>34.535477</ele>
        <time>2016-04-21T22:29:08.947000Z</time>
      </trkpt>
      <trkpt lat="39.894436" lon="116.34308">
        <ele>34.535477</ele>
        <time>2016-04-21T22:29:12.511000Z</time>
      </trkpt>
      <trkpt lat="39.893963" lon="116.34309">
        <ele>35.902065</ele>
        <time>2016-04-21T22:29:16.075000Z</time>
      </trkpt>
      <trkpt lat="39.89387" lon="116.343124">
        <ele>36.180477</ele>
        <time>2016-04-21T22:29:19.639000Z</time>
      </trkpt>
      <trkpt lat="39.89378" lon="116.34313">
        <ele>36.442513</ele>
        <time>2016-04-21T22:29:23.203000Z</time>
      </trkpt>
      <trkpt lat="39.89368" lon="116.34314">
        <ele>36.73366</ele>
        <time>2016-04-21T22:29:26.767000Z</time>
      </trkpt>
      <trkpt lat="39.893547" lon="116.34314">
        <ele>37.121517</ele>
        <time>2016-04-21T22:29:30.331000Z</time>
      </trkpt>
      <trkpt lat="39.89344" lon="116.34315">
        <ele>37.434765</ele>
        <time>2016-04-21T22:29:33.895000Z</time>
      </trkpt>
      <trkpt lat="39.89334" lon="116.34315">
        <ele>37.717594</ele>
        <time>2016-04-21T22:29:37.459000Z</time>
      </trkpt>
      <trkpt lat="39.893246" lon="116.34313">
        <ele>37.996788</ele>
        <time>2016-04-21T22:29:41.023000Z</time>
      </trkpt>
      <trkpt lat="39.893135" lon="116.343155">
        <ele>38.316013</ele>
        <time>2016-04-21T22:29:44.587000Z</time>
      </trkpt>
      <trkpt lat="39.893044" lon="116.34317">
        <ele>38.587406</ele>
        <time>2016-04-21T22:29:48.151000Z</time>
      </trkpt>
      <trkpt lat="39.89291" lon="116.34318">
        <ele>39.299217</ele>
        <time>2016-04-21T22:29:51.715000Z</time>
      </trkpt>
      <trkpt lat="39.892822" lon="116.3432">
        <ele>39.649666</ele>
        <time>2016-04-21T22:29:55.279000Z</time>
      </trkpt>
      <trkpt lat="39.89272" lon="116.34321">
        <ele>39.770287</ele>
        <time>2016-04-21T22:29:58.843000Z</time>
      </trkpt>
      <trkpt lat="39.892586" lon="116.34323">
        <ele>39.946587</ele>
        <time>2016-04-21T22:30:02.407000Z</time>
      </trkpt>
      <trkpt lat="39.892464" lon="116.34326">
        <ele>40.47456</ele>
        <time>2016-04-21T22:30:05.971000Z</time>
      </trkpt>
      <trkpt lat="39.892353" lon="116.34327">
        <ele>41.40032</ele>
        <time>2016-04-21T22:30:09.535000Z</time>
      </trkpt>
      <trkpt lat="39.892246" lon="116.34328">
        <ele>42.334263</ele>
        <time>2016-04-21T22:30:13.099000Z</time>
      </trkpt>
      <trkpt lat="39.892143" lon="116.343285">
        <ele>42.886562</ele>
        <time>2016-04-21T22:30:16.663000Z</time>
      </trkpt>
      <trkpt lat="39.892036" lon="116.34331">
        <ele>43.138565</ele>
        <time>2016-04-21T22:30:20.227000Z</time>
      </trkpt>
      <trkpt lat="39.891922" lon="116.34332">
        <ele>43.39626</ele>
        <time>2016-04-21T22:30:23.791000Z</time>
      </trkpt>
      <trkpt lat="39.89183" lon="116.343315">
        <ele>43.79146</ele>
        <time>2016-04-21T22:30:27.355000Z</time>
      </trkpt>
      <trkpt lat="39.89172" lon="116.34331">
        <ele>44.21231</ele>
        <time>2016-04-21T22:30:30.919000Z</time>
      </trkpt>
      <trkpt lat="39.891598" lon="116.34331">
        <ele>44.51594</ele>
        <time>2016-04-21T22:30:34.483000Z</time>
      </trkpt>
      <trkpt lat="39.891495" lon="116.34329">
        <ele>44.60483</ele>
        <time>2016-04-21T22:30:38.047000Z</time>
      </trkpt>
      <trkpt lat="39.8914" lon="116.34328">
        <ele>44.707108</ele>
        <time>2016-04-21T22:30:41.611000Z</time>
      </trkpt>
      <trkpt lat="39.891296" lon="116.34326">
        <ele>44.817482</ele>
        <time>2016-04-21T22:30:45.175000Z</time>
      </trkpt>
      <trkpt lat="39.891174" lon="116.343254">
        <ele>44.943867</ele>
        <time>2016-04-21T22:30:48.739000Z</time>
      </trkpt>
      <trkpt lat="39.891068" lon="116.34326">
        <ele>45.566616</ele>
        <time>2016-04-21T22:30:52.303000Z</time>
      </trkpt>
      <trkpt lat="39.890965" lon="116.34326">
        <ele>45.783596</ele>
        <time>2016-04-21T22:30:55.867000Z</time>
      </trkpt>
      <trkpt lat="39.89084" lon="116.34326">
        <ele>45.13101</ele>
        <time>2016-04-21T22:30:59.431000Z</time>
      </trkpt>
      <trkpt lat="39.890717" lon="116.34326">
        <ele>44.499924</ele>
        <time>2016-04-21T22:31:02.995000Z</time>
      </trkpt>
      <trkpt lat="39.89061" lon="116.343254">
        <ele>43.93709</ele>
        <time>2016-04-21T22:31:06.559000Z</time>
      </trkpt>
      <trkpt lat="39.89051" lon="116.34325">
        <ele>43.415394</ele>
        <time>2016-04-21T22:31:10.123000Z</time>
      </trkpt>
      <trkpt lat="39.890408" lon="116.34324">
        <ele>42.88949</ele>
        <time>2016-04-21T22:31:13.687000Z</time>
      </trkpt>
      <trkpt lat="39.890305" lon="116.34319">
        <ele>42.319645</ele>
        <time>2016-04-21T22:31:17.251000Z</time>
      </trkpt>
      <trkpt lat="39.890186" lon="116.34316">
        <ele>41.685753</ele>
        <time>2016-04-21T22:31:20.815000Z</time>
      </trkpt>
      <trkpt lat="39.890022" lon="116.34317">
        <ele>40.84571</ele>
        <time>2016-04-21T22:31:24.379000Z</time>
      </trkpt>
      <trkpt lat="39.889908" lon="116.34319">
        <ele>40.24174</ele>
        <time>2016-04-21T22:31:27.943000Z</time>
      </trkpt>
      <trkpt lat="39.889805" lon="116.34321">
        <ele>37.499905</ele>
        <time>2016-04-21T22:31:31.507000Z</time>
      </trkpt>
      <trkpt lat="39.88971" lon="116.34323">
        <ele>34.81039</ele>
        <time>2016-04-21T22:31:35.071000Z</time>
      </trkpt>
      <trkpt lat="39.889587" lon="116.34325">
        <ele>32.92513</ele>
        <time>2016-04-21T22:31:38.635000Z</time>
      </trkpt>
      <trkpt lat="39.889492" lon="116.34325">
        <ele>31.544138</ele>
        <time>2016-04-21T22:31:42.199000Z</time>
      </trkpt>
      <trkpt lat="39.88939" lon="116.34325">
        <ele>30.690205</ele>
        <time>2016-04-21T22:31:45.763000Z</time>
      </trkpt>
      <trkpt lat="39.889267" lon="116.34324">
        <ele>30.360018</ele>
        <time>2016-04-21T22:31:49.327000Z</time>
      </trkpt>
      <trkpt lat="39.889175" lon="116.34322">
        <ele>30.1387</ele>
        <time>2016-04-21T22:31:52.891000Z</time>
      </trkpt>
      <trkpt lat="39.889072" lon="116.34322">
        <ele>29.691662</ele>
        <time>2016-04-21T22:31:56.455000Z</time>
      </trkpt>
      <trkpt lat="39.888977" lon="116.343216">
        <ele>29.202839</ele>
        <time>2016-04-21T22:32:00.019000Z</time>
      </trkpt>
      <trkpt lat="39.888863" lon="116.343185">
        <ele>29.036972</ele>
        <time>2016-04-21T22:32:03.583000Z</time>
      </trkpt>
      <trkpt lat="39.888756" lon="116.34318">
        <ele>29.180887</ele>
        <time>2016-04-21T22:32:07.147000Z</time>
      </trkpt>
      <trkpt lat="39.888645" lon="116.34318">
        <ele>29.327713</ele>
        <time>2016-04-21T22:32:10.711000Z</time>
      </trkpt>
      <trkpt lat="39.888542" lon="116.34317">
        <ele>29.469444</ele>
        <time>2016-04-21T22:32:14.275000Z</time>
      </trkpt>
      <trkpt lat="39.88842" lon="116.34315">
        <ele>29.633121</ele>
        <time>2016-04-21T22:32:17.839000Z</time>
      </trkpt>
      <trkpt lat="39.88842" lon="116.34315">
        <ele>29.633121</ele>
        <time>2016-04-21T22:32:21.403000Z</time>
      </trkpt>
      <trkpt lat="39.887966" lon="116.34315">
        <ele>30.248308</ele>
        <time>2016-04-21T22:32:24.967000Z</time>
      </trkpt>
      <trkpt lat="39.887848" lon="116.34318">
        <ele>30.409075</ele>
        <time>2016-04-21T22:32:28.531000Z</time>
      </trkpt>
      <trkpt lat="39.887745" lon="116.34318">
        <ele>30.547049</ele>
        <time>2016-04-21T22:32:32.095000Z</time>
      </trkpt>
      <trkpt lat="39.887638" lon="116.34318">
        <ele>30.69254</ele>
        <time>2016-04-21T22:32:35.659000Z</time>
      </trkpt>
      <trkpt lat="39.88752" lon="116.34319">
        <ele>30.85149</ele>
        <time>2016-04-21T22:32:39.223000Z</time>
      </trkpt>
      <trkpt lat="39.887417" lon="116.343185">
        <ele>30.991282</ele>
        <time>2016-04-21T22:32:42.787000Z</time>
      </trkpt>
      <trkpt lat="39.887283" lon="116.34317">
        <ele>31.172539</ele>
        <time>2016-04-21T22:32:46.351000Z</time>
      </trkpt>
      <trkpt lat="39.887165" lon="116.34316">
        <ele>31.328337</ele>
        <time>2016-04-21T22:32:49.915000Z</time>
      </trkpt>
      <trkpt lat="39.887062" lon="116.34316">
        <ele>31.470797</ele>
        <time>2016-04-21T22:32:53.479000Z</time>
      </trkpt>
      <trkpt lat="39.886967" lon="116.34317">
        <ele>31.60089</ele>
        <time>2016-04-21T22:32:57.043000Z</time>
      </trkpt>
      <trkpt lat="39.886856" lon="116.343185">
        <ele>31.748442</ele>
        <time>2016-04-21T22:33:00.607000Z</time>
      </trkpt>
      <trkpt lat="39.886757" lon="116.3432">
        <ele>31.882174</ele>
        <time>2016-04-21T22:33:04.171000Z</time>
      </trkpt>
      <trkpt lat="39.886646" lon="116.34321">
        <ele>32.03288</ele>
        <time>2016-04-21T22:33:07.735000Z</time>
      </trkpt>
      <trkpt lat="39.88655" lon="116.34321">
        <ele>32.15994</ele>
        <time>2016-04-21T22:33:11.299000Z</time>
      </trkpt>
      <trkpt lat="39.88645" lon="116.343185">
        <ele>32.294884</ele>
        <time>2016-04-21T22:33:14.863000Z</time>
      </trkpt>
      <trkpt lat="39.886333" lon="116.343185">
        <ele>32.459045</ele>
        <time>2016-04-21T22:33:18.427000Z</time>
      </trkpt>
      <trkpt lat="39.886234" lon="116.34317">
        <ele>32.589745</ele>
        <time>2016-04-21T22:33:21.991000Z</time>
      </trkpt>
      <trkpt lat="39.886127" lon="116.343155">
        <ele>32.735237</ele>
        <time>2016-04-21T22:33:25.555000Z</time>
      </trkpt>
      <trkpt lat="39.88603" lon="116.34316">
        <ele>32.870663</ele>
        <time>2016-04-21T22:33:29.119000Z</time>
      </trkpt>
      <trkpt lat="39.885937" lon="116.34318">
        <ele>32.995907</ele>
        <time>2016-04-21T22:33:32.683000Z</time>
      </trkpt>
      <trkpt lat="39.885834" lon="116.34317">
        <ele>33.13352</ele>
        <time>2016-04-21T22:33:36.247000Z</time>
      </trkpt>
      <trkpt lat="39.88574" lon="116.34317">
        <ele>33.262882</ele>
        <time>2016-04-21T22:33:39.811000Z</time>
      </trkpt>
      <trkpt lat="39.885605" lon="116.34317">
        <ele>33.44487</ele>
        <time>2016-04-21T22:33:43.375000Z</time>
      </trkpt>
      <trkpt lat="39.885475" lon="116.34317">
        <ele>33.617275</ele>
        <time>2016-04-21T22:33:46.939000Z</time>
      </trkpt>
      <trkpt lat="39.88537" lon="116.34317">
        <ele>33.760704</ele>
        <time>2016-04-21T22:33:50.503000Z</time>
      </trkpt>
      <trkpt lat="39.885265" lon="116.3432">
        <ele>33.907894</ele>
        <time>2016-04-21T22:33:54.067000Z</time>
      </trkpt>
      <trkpt lat="39.88515" lon="116.343216">
        <ele>34.058598</ele>
        <time>2016-04-21T22:33:57.631000Z</time>
      </trkpt>
      <trkpt lat="39.885048" lon="116.343216">
        <ele>34.202515</ele>
        <time>2016-04-21T22:34:01.195000Z</time>
      </trkpt>
      <trkpt lat="39.884953" lon="116.34321">
        <ele>34.327515</ele>
        <time>2016-04-21T22:34:04.759000Z</time>
      </trkpt>
      <trkpt lat="39.884846" lon="116.3432">
        <ele>34.942028</ele>
        <time>2016-04-21T22:34:08.323000Z</time>
      </trkpt>
      <trkpt lat="39.884754" lon="116.3432">
        <ele>35.511024</ele>
        <time>2016-04-21T22:34:11.887000Z</time>
      </trkpt>
      <trkpt lat="39.884644" lon="116.3432">
        <ele>36.09857</ele>
        <time>2016-04-21T22:34:15.451000Z</time>
      </trkpt>
      <trkpt lat="39.884525" lon="116.3432">
        <ele>36.856567</ele>
        <time>2016-04-21T22:34:19.015000Z</time>
      </trkpt>
      <trkpt lat="39.88441" lon="116.34322">
        <ele>37.628643</ele>
        <time>2016-04-21T22:34:22.579000Z</time>
      </trkpt>
      <trkpt lat="39.884296" lon="116.34323">
        <ele>38.11295</ele>
        <time>2016-04-21T22:34:26.143000Z</time>
      </trkpt>
      <trkpt lat="39.884296" lon="116.34323">
        <ele>38.24947</ele>
        <time>2016-04-21T22:34:29.707000Z</time>
      </trkpt>
      <trkpt lat="39.8838" lon="116.34322">
        <ele>38.25625</ele>
        <time>2016-04-21T22:34:33.271000Z</time>
      </trkpt>
      <trkpt lat="39.883686" lon="116.34322">
        <ele>38.55102</ele>
        <time>2016-04-21T22:34:36.835000Z</time>
      </trkpt>
      <trkpt lat="39.883686" lon="116.34322">
        <ele>39.805042</ele>
        <time>2016-04-21T22:34:40.399000Z</time>
      </trkpt>
      <trkpt lat="39.88352" lon="116.34319">
        <ele>39.967045</ele>
        <time>2016-04-21T22:34:43.963000Z</time>
      </trkpt>
      <trkpt lat="39.883423" lon="116.343185">
        <ele>40.059116</ele>
        <time>2016-04-21T22:34:47.527000Z</time>
      </trkpt>
      <trkpt lat="39.8833" lon="116.34319">
        <ele>40.172817</ele>
        <time>2016-04-21T22:34:51.091000Z</time>
      </trkpt>
      <trkpt lat="39.883186" lon="116.3432">
        <ele>41.00521</ele>
        <time>2016-04-21T22:34:54.655000Z</time>
      </trkpt>
      <trkpt lat="39.88308" lon="116.34321">
        <ele>41.702755</ele>
        <time>2016-04-21T22:34:58.219000Z</time>
      </trkpt>
      <trkpt lat="39.88296" lon="116.34321">
        <ele>42.159767</ele>
        <time>2016-04-21T22:35:01.783000Z</time>
      </trkpt>
      <trkpt lat="39.88285" lon="116.34321">
        <ele>42.50883</ele>
        <time>2016-04-21T22:35:05.347000Z</time>
      </trkpt>
      <trkpt lat="39.88274" lon="116.343216">
        <ele>42.831264</ele>
        <time>2016-04-21T22:35:08.911000Z</time>
      </trkpt>
      <trkpt lat="39.882637" lon="116.34319">
        <ele>43.165684</ele>
        <time>2016-04-21T22:35:12.475000Z</time>
      </trkpt>
      <trkpt lat="39.88254" lon="116.34319">
        <ele>43.50595</ele>
        <time>2016-04-21T22:35:16.039000Z</time>
      </trkpt>
      <trkpt lat="39.882442" lon="116.343185">
        <ele>43.636757</ele>
        <time>2016-04-21T22:35:19.603000Z</time>
      </trkpt>
      <trkpt lat="39.882343" lon="116.343185">
        <ele>43.675262</ele>
        <time>2016-04-21T22:35:23.167000Z</time>
      </trkpt>
      <trkpt lat="39.88224" lon="116.34318">
        <ele>43.71602</ele>
        <time>2016-04-21T22:35:26.731000Z</time>
      </trkpt>
      <trkpt lat="39.882122" lon="116.34316">
        <ele>43.761772</ele>
        <time>2016-04-21T22:35:30.295000Z</time>
      </trkpt>
      <trkpt lat="39.88203" lon="116.34315">
        <ele>43.79796</ele>
        <time>2016-04-21T22:35:33.859000Z</time>
      </trkpt>
      <trkpt lat="39.881886" lon="116.34316">
        <ele>43.85549</ele>
        <time>2016-04-21T22:35:37.423000Z</time>
      </trkpt>
      <trkpt lat="39.88176" lon="116.3432">
        <ele>43.906235</ele>
        <time>2016-04-21T22:35:40.987000Z</time>
      </trkpt>
      <trkpt lat="39.88163" lon="116.34322">
        <ele>43.957226</ele>
        <time>2016-04-21T22:35:44.551000Z</time>
      </trkpt>
      <trkpt lat="39.88154" lon="116.34324">
        <ele>43.99271</ele>
        <time>2016-04-21T22:35:48.115000Z</time>
      </trkpt>
      <trkpt lat="39.881447" lon="116.34323">
        <ele>44.028896</ele>
        <time>2016-04-21T22:35:51.679000Z</time>
      </trkpt>
      <trkpt lat="39.88134" lon="116.34322">
        <ele>44.07113</ele>
        <time>2016-04-21T22:35:55.243000Z</time>
      </trkpt>
      <trkpt lat="39.881237" lon="116.34321">
        <ele>44.111465</ele>
        <time>2016-04-21T22:35:58.807000Z</time>
      </trkpt>
      <trkpt lat="39.881126" lon="116.34322">
        <ele>44.155422</ele>
        <time>2016-04-21T22:36:02.371000Z</time>
      </trkpt>
      <trkpt lat="39.881016" lon="116.34324">
        <ele>44.19857</ele>
        <time>2016-04-21T22:36:05.935000Z</time>
      </trkpt>
      <trkpt lat="39.88092" lon="116.343254">
        <ele>44.236374</ele>
        <time>2016-04-21T22:36:09.499000Z</time>
      </trkpt>
      <trkpt lat="39.88081" lon="116.34328">
        <ele>44.722847</ele>
        <time>2016-04-21T22:36:13.063000Z</time>
      </trkpt>
      <trkpt lat="39.880722" lon="116.34331">
        <ele>44.852604</ele>
        <time>2016-04-21T22:36:16.627000Z</time>
      </trkpt>
      <trkpt lat="39.880623" lon="116.34332">
        <ele>44.91453</ele>
        <time>2016-04-21T22:36:20.191000Z</time>
      </trkpt>
      <trkpt lat="39.880527" lon="116.34333">
        <ele>44.973297</ele>
        <time>2016-04-21T22:36:23.755000Z</time>
      </trkpt>
      <trkpt lat="39.88043" lon="116.34335">
        <ele>45.033783</ele>
        <time>2016-04-21T22:36:27.319000Z</time>
      </trkpt>
      <trkpt lat="39.88033" lon="116.343376">
        <ele>45.09715</ele>
        <time>2016-04-21T22:36:30.883000Z</time>
      </trkpt>
      <trkpt lat="39.880222" lon="116.34337">
        <ele>45.16212</ele>
        <time>2016-04-21T22:36:34.447000Z</time>
      </trkpt>
      <trkpt lat="39.88009" lon="116.34337">
        <ele>45.334286</ele>
        <time>2016-04-21T22:36:38.011000Z</time>
      </trkpt>
      <trkpt lat="39.87996" lon="116.34336">
        <ele>45.39571</ele>
        <time>2016-04-21T22:36:41.575000Z</time>
      </trkpt>
      <trkpt lat="39.879837" lon="116.34337">
        <ele>45.45394</ele>
        <time>2016-04-21T22:36:45.139000Z</time>
      </trkpt>
      <trkpt lat="39.87974" lon="116.343376">
        <ele>45.498295</ele>
        <time>2016-04-21T22:36:48.703000Z</time>
      </trkpt>
      <trkpt lat="39.87963" lon="116.34337">
        <ele>45.550865</ele>
        <time>2016-04-21T22:36:52.267000Z</time>
      </trkpt>
      <trkpt lat="39.87953" lon="116.343376">
        <ele>45.597775</ele>
        <time>2016-04-21T22:36:55.831000Z</time>
      </trkpt>
      <trkpt lat="39.879414" lon="116.34338">
        <ele>45.65452</ele>
        <time>2016-04-21T22:36:59.395000Z</time>
      </trkpt>
      <trkpt lat="39.87931" lon="116.34338">
        <ele>45.70313</ele>
        <time>2016-04-21T22:37:02.959000Z</time>
      </trkpt>
      <trkpt lat="39.879185" lon="116.34339">
        <ele>45.761955</ele>
        <time>2016-04-21T22:37:06.523000Z</time>
      </trkpt>
      <trkpt lat="39.87907" lon="116.34341">
        <ele>45.817677</ele>
        <time>2016-04-21T22:37:10.087000Z</time>
      </trkpt>
      <trkpt lat="39.878967" lon="116.34343">
        <ele>45.866543</ele>
        <time>2016-04-21T22:37:13.651000Z</time>
      </trkpt>
      <trkpt lat="39.878857" lon="116.34344">
        <ele>45.918003</ele>
        <time>2016-04-21T22:37:17.215000Z</time>
      </trkpt>
      <trkpt lat="39.87876" lon="116.34345">
        <ele>45.9644</ele>
        <time>2016-04-21T22:37:20.779000Z</time>
      </trkpt>
      <trkpt lat="39.87865" lon="116.34346">
        <ele>46.01706</ele>
        <time>2016-04-21T22:37:24.343000Z</time>
      </trkpt>
      <trkpt lat="39.878548" lon="116.34346">
        <ele>46.84342</ele>
        <time>2016-04-21T22:37:27.907000Z</time>
      </trkpt>
      <trkpt lat="39.878452" lon="116.34347">
        <ele>47.32673</ele>
        <time>2016-04-21T22:37:31.471000Z</time>
      </trkpt>
      <trkpt lat="39.878345" lon="116.34348">
        <ele>47.593357</ele>
        <time>2016-04-21T22:37:35.035000Z</time>
      </trkpt>
      <trkpt lat="39.878246" lon="116.34349">
        <ele>47.75515</ele>
        <time>2016-04-21T22:37:38.599000Z</time>
      </trkpt>
      <trkpt lat="39.878143" lon="116.34349">
        <ele>47.900097</ele>
        <time>2016-04-21T22:37:42.163000Z</time>
      </trkpt>
      <trkpt lat="39.878044" lon="116.34349">
        <ele>48.18486</ele>
        <time>2016-04-21T22:37:45.727000Z</time>
      </trkpt>
      <trkpt lat="39.877945" lon="116.34349">
        <ele>48.70302</ele>
        <time>2016-04-21T22:37:49.291000Z</time>
      </trkpt>
      <trkpt lat="39.877827" lon="116.34349">
        <ele>49.259792</ele>
        <time>2016-04-21T22:37:52.855000Z</time>
      </trkpt>
      <trkpt lat="39.877712" lon="116.34349">
        <ele>49.604443</ele>
        <time>2016-04-21T22:37:56.419000Z</time>
      </trkpt>
      <trkpt lat="39.877605" lon="116.343506">
        <ele>49.722057</ele>
        <time>2016-04-21T22:37:59.983000Z</time>
      </trkpt>
      <trkpt lat="39.877487" lon="116.34351">
        <ele>49.73187</ele>
        <time>2016-04-21T22:38:03.547000Z</time>
      </trkpt>
      <trkpt lat="39.877396" lon="116.34352">
        <ele>49.789413</ele>
        <time>2016-04-21T22:38:07.111000Z</time>
      </trkpt>
      <trkpt lat="39.87729" lon="116.34352">
        <ele>49.952187</ele>
        <time>2016-04-21T22:38:10.675000Z</time>
      </trkpt>
      <trkpt lat="39.877182" lon="116.34353">
        <ele>50.152206</ele>
        <time>2016-04-21T22:38:14.239000Z</time>
      </trkpt>
      <trkpt lat="39.877087" lon="116.34352">
        <ele>50.30639</ele>
        <time>2016-04-21T22:38:17.803000Z</time>
      </trkpt>
      <trkpt lat="39.87698" lon="116.343544">
        <ele>50.38439</ele>
        <time>2016-04-21T22:38:21.367000Z</time>
      </trkpt>
      <trkpt lat="39.876877" lon="116.34353">
        <ele>50.441254</ele>
        <time>2016-04-21T22:38:24.931000Z</time>
      </trkpt>
      <trkpt lat="39.876774" lon="116.34349">
        <ele>50.539845</ele>
        <time>2016-04-21T22:38:28.495000Z</time>
      </trkpt>
      <trkpt lat="39.876667" lon="116.34346">
        <ele>50.23937</ele>
        <time>2016-04-21T22:38:32.059000Z</time>
      </trkpt>
      <trkpt lat="39.876587" lon="116.3434">
        <ele>49.98529</ele>
        <time>2016-04-21T22:38:35.623000Z</time>
      </trkpt>
      <trkpt lat="39.876476" lon="116.34339">
        <ele>49.683834</ele>
        <time>2016-04-21T22:38:39.187000Z</time>
      </trkpt>
      <trkpt lat="39.87643" lon="116.3435">
        <ele>49.428776</ele>
        <time>2016-04-21T22:38:42.751000Z</time>
      </trkpt>
      <trkpt lat="39.87642" lon="116.343636">
        <ele>49.142048</ele>
        <time>2016-04-21T22:38:46.315000Z</time>
      </trkpt>
      <trkpt lat="39.876423" lon="116.34377">
        <ele>48.86293</ele>
        <time>2016-04-21T22:38:49.879000Z</time>
      </trkpt>
      <trkpt lat="39.876434" lon="116.34392">
        <ele>48.5573</ele>
        <time>2016-04-21T22:38:53.443000Z</time>
      </trkpt>
      <trkpt lat="39.876453" lon="116.34404">
        <ele>48.29316</ele>
        <time>2016-04-21T22:38:57.007000Z</time>
      </trkpt>
      <trkpt lat="39.876556" lon="116.34409">
        <ele>47.988514</ele>
        <time>2016-04-21T22:39:00.571000Z</time>
      </trkpt>
      <trkpt lat="39.87665" lon="116.34408">
        <ele>47.720444</ele>
        <time>2016-04-21T22:39:04.135000Z</time>
      </trkpt>
      <trkpt lat="39.87676" lon="116.34407">
        <ele>47.43396</ele>
        <time>2016-04-21T22:39:07.699000Z</time>
      </trkpt>
      <trkpt lat="39.876846" lon="116.34406">
        <ele>47.188477</ele>
        <time>2016-04-21T22:39:11.263000Z</time>
      </trkpt>
      <trkpt lat="39.876938" lon="116.34405">
        <ele>46.939796</ele>
        <time>2016-04-21T22:39:14.827000Z</time>
      </trkpt>
      <trkpt lat="39.877052" lon="116.344025">
        <ele>46.624104</ele>
        <time>2016-04-21T22:39:18.391000Z</time>
      </trkpt>
      <trkpt lat="39.877144" lon="116.34402">
        <ele>46.37297</ele>
        <time>2016-04-21T22:39:21.955000Z</time>
      </trkpt>
      <trkpt lat="39.87726" lon="116.34402">
        <ele>46.05335</ele>
        <time>2016-04-21T22:39:25.519000Z</time>
      </trkpt>
      <trkpt lat="39.87736" lon="116.34401">
        <ele>45.77546</ele>
        <time>2016-04-21T22:39:29.083000Z</time>
      </trkpt>
      <trkpt lat="39.877472" lon="116.34401">
        <ele>45.473022</ele>
        <time>2016-04-21T22:39:32.647000Z</time>
      </trkpt>
      <trkpt lat="39.87756" lon="116.343994">
        <ele>44.899105</ele>
        <time>2016-04-21T22:39:36.211000Z</time>
      </trkpt>
      <trkpt lat="39.87765" lon="116.34398">
        <ele>44.721237</ele>
        <time>2016-04-21T22:39:39.775000Z</time>
      </trkpt>
      <trkpt lat="39.87775" lon="116.34397">
        <ele>44.59374</ele>
        <time>2016-04-21T22:39:43.339000Z</time>
      </trkpt>
      <trkpt lat="39.877857" lon="116.34397">
        <ele>44.456135</ele>
        <time>2016-04-21T22:39:46.903000Z</time>
      </trkpt>
      <trkpt lat="39.877987" lon="116.34398">
        <ele>44.29004</ele>
        <time>2016-04-21T22:39:50.467000Z</time>
      </trkpt>
      <trkpt lat="39.878082" lon="116.34397">
        <ele>44.16817</ele>
        <time>2016-04-21T22:39:54.031000Z</time>
      </trkpt>
      <trkpt lat="39.878185" lon="116.34397">
        <ele>44.03964</ele>
        <time>2016-04-21T22:39:57.595000Z</time>
      </trkpt>
      <trkpt lat="39.878284" lon="116.34396">
        <ele>43.177322</ele>
        <time>2016-04-21T22:40:01.159000Z</time>
      </trkpt>
      <trkpt lat="39.878384" lon="116.343956">
        <ele>42.651848</ele>
        <time>2016-04-21T22:40:04.723000Z</time>
      </trkpt>
      <trkpt lat="39.87849" lon="116.343956">
        <ele>42.37535</ele>
        <time>2016-04-21T22:40:08.287000Z</time>
      </trkpt>
      <trkpt lat="39.8786" lon="116.34397">
        <ele>42.090622</ele>
        <time>2016-04-21T22:40:11.851000Z</time>
      </trkpt>
      <trkpt lat="39.878693" lon="116.34397">
        <ele>41.803318</ele>
        <time>2016-04-21T22:40:15.415000Z</time>
      </trkpt>
      <trkpt lat="39.87879" lon="116.34396">
        <ele>41.511604</ele>
        <time>2016-04-21T22:40:18.979000Z</time>
      </trkpt>
      <trkpt lat="39.878906" lon="116.34396">
        <ele>41.15961</ele>
        <time>2016-04-21T22:40:22.543000Z</time>
      </trkpt>
      <trkpt lat="39.87901" lon="116.34395">
        <ele>40.95449</ele>
        <time>2016-04-21T22:40:26.107000Z</time>
      </trkpt>
      <trkpt lat="39.879116" lon="116.34393">
        <ele>40.801594</ele>
        <time>2016-04-21T22:40:29.671000Z</time>
      </trkpt>
      <trkpt lat="39.879208" lon="116.343925">
        <ele>40.671127</ele>
        <time>2016-04-21T22:40:33.235000Z</time>
      </trkpt>
      <trkpt lat="39.879303" lon="116.34394">
        <ele>40.53515</ele>
        <time>2016-04-21T22:40:36.799000Z</time>
      </trkpt>
      <trkpt lat="39.879402" lon="116.34394">
        <ele>40.391865</ele>
        <time>2016-04-21T22:40:40.363000Z</time>
      </trkpt>
      <trkpt lat="39.879494" lon="116.34394">
        <ele>39.528404</ele>
        <time>2016-04-21T22:40:43.927000Z</time>
      </trkpt>
      <trkpt lat="39.879593" lon="116.343925">
        <ele>38.857437</ele>
        <time>2016-04-21T22:40:47.491000Z</time>
      </trkpt>
      <trkpt lat="39.879593" lon="116.343925">
        <ele>38.612213</ele>
        <time>2016-04-21T22:40:51.055000Z</time>
      </trkpt>
      <trkpt lat="39.879524" lon="116.34388">
        <ele>38.554127</ele>
        <time>2016-04-21T22:40:54.619000Z</time>
      </trkpt>
      <trkpt lat="39.879524" lon="116.34388">
        <ele>38.554127</ele>
        <time>2016-04-21T22:40:58.183000Z</time>
      </trkpt>
      <trkpt lat="39.879524" lon="116.34388">
        <ele>38.554127</ele>
        <time>2016-04-21T22:41:01.747000Z</time>
      </trkpt>
      <trkpt lat="39.87944" lon="116.3439">
        <ele>41.061565</ele>
        <time>2016-04-21T22:41:05.311000Z</time>
      </trkpt>
      <trkpt lat="39.87935" lon="116.34389">
        <ele>43.72378</ele>
        <time>2016-04-21T22:41:08.875000Z</time>
      </trkpt>
      <trkpt lat="39.879253" lon="116.343895">
        <ele>46.478867</ele>
        <time>2016-04-21T22:41:12.439000Z</time>
      </trkpt>
      <trkpt lat="39.879154" lon="116.34392">
        <ele>52.722755</ele>
        <time>2016-04-21T22:41:16.003000Z</time>
      </trkpt>
      <trkpt lat="39.87906" lon="116.34391">
        <ele>55.868755</ele>
        <time>2016-04-21T22:41:19.567000Z</time>
      </trkpt>
      <trkpt lat="39.87892" lon="116.343925">
        <ele>56.122707</ele>
        <time>2016-04-21T22:41:23.131000Z</time>
      </trkpt>
      <trkpt lat="39.878815" lon="116.34393">
        <ele>55.834023</ele>
        <time>2016-04-21T22:41:26.695000Z</time>
      </trkpt>
      <trkpt lat="39.87872" lon="116.34393">
        <ele>55.569656</ele>
        <time>2016-04-21T22:41:30.259000Z</time>
      </trkpt>
      <trkpt lat="39.878628" lon="116.34395">
        <ele>55.324993</ele>
        <time>2016-04-21T22:41:33.823000Z</time>
      </trkpt>
      <trkpt lat="39.878513" lon="116.34394">
        <ele>55.012474</ele>
        <time>2016-04-21T22:41:37.387000Z</time>
      </trkpt>
      <trkpt lat="39.878407" lon="116.34395">
        <ele>54.726948</ele>
        <time>2016-04-21T22:41:40.951000Z</time>
      </trkpt>
      <trkpt lat="39.87832" lon="116.343956">
        <ele>54.483257</ele>
        <time>2016-04-21T22:41:44.515000Z</time>
      </trkpt>
      <trkpt lat="39.878212" lon="116.34397">
        <ele>54.197002</ele>
        <time>2016-04-21T22:41:48.079000Z</time>
      </trkpt>
      <trkpt lat="39.8781" lon="116.34398">
        <ele>53.895916</ele>
        <time>2016-04-21T22:41:51.643000Z</time>
      </trkpt>
      <trkpt lat="39.877983" lon="116.34399">
        <ele>53.5761</ele>
        <time>2016-04-21T22:41:55.207000Z</time>
      </trkpt>
      <trkpt lat="39.87788" lon="116.343994">
        <ele>53.297142</ele>
        <time>2016-04-21T22:41:58.771000Z</time>
      </trkpt>
      <trkpt lat="39.877785" lon="116.34402">
        <ele>53.03253</ele>
        <time>2016-04-21T22:42:02.335000Z</time>
      </trkpt>
      <trkpt lat="39.87767" lon="116.34402">
        <ele>52.727554</ele>
        <time>2016-04-21T22:42:05.899000Z</time>
      </trkpt>
      <trkpt lat="39.87755" lon="116.34401">
        <ele>52.39801</ele>
        <time>2016-04-21T22:42:09.463000Z</time>
      </trkpt>
      <trkpt lat="39.877422" lon="116.34401">
        <ele>52.053387</ele>
        <time>2016-04-21T22:42:13.027000Z</time>
      </trkpt>
      <trkpt lat="39.8773" lon="116.34401">
        <ele>51.727005</ele>
        <time>2016-04-21T22:42:16.591000Z</time>
      </trkpt>
      <trkpt lat="39.877186" lon="116.34402">
        <ele>51.412052</ele>
        <time>2016-04-21T22:42:20.155000Z</time>
      </trkpt>
      <trkpt lat="39.877075" lon="116.34404">
        <ele>51.112423</ele>
        <time>2016-04-21T22:42:23.719000Z</time>
      </trkpt>
      <trkpt lat="39.87694" lon="116.344055">
        <ele>50.550743</ele>
        <time>2016-04-21T22:42:27.283000Z</time>
      </trkpt>
      <trkpt lat="39.876846" lon="116.344055">
        <ele>50.39805</ele>
        <time>2016-04-21T22:42:30.847000Z</time>
      </trkpt>
      <trkpt lat="39.87671" lon="116.34406">
        <ele>50.6832</ele>
        <time>2016-04-21T22:42:34.411000Z</time>
      </trkpt>
      <trkpt lat="39.876587" lon="116.34408">
        <ele>50.937244</ele>
        <time>2016-04-21T22:42:37.975000Z</time>
      </trkpt>
      <trkpt lat="39.87649" lon="116.3441">
        <ele>51.13616</ele>
        <time>2016-04-21T22:42:41.539000Z</time>
      </trkpt>
      <trkpt lat="39.87649" lon="116.3441">
        <ele>51.13616</ele>
        <time>2016-04-21T22:42:45.103000Z</time>
      </trkpt>
      <trkpt lat="39.87649" lon="116.3441">
        <ele>51.13616</ele>
        <time>2016-04-21T22:42:48.667000Z</time>
      </trkpt>
      <trkpt lat="39.87646" lon="116.34424">
        <ele>51.36823</ele>
        <time>2016-04-21T22:42:52.231000Z</time>
      </trkpt>
      <trkpt lat="39.876495" lon="116.344376">
        <ele>51.596947</ele>
        <time>2016-04-21T22:42:55.795000Z</time>
      </trkpt>
      <trkpt lat="39.876465" lon="116.34453">
        <ele>51.845963</ele>
        <time>2016-04-21T22:42:59.359000Z</time>
      </trkpt>
      <trkpt lat="39.87645" lon="116.34468">
        <ele>52.093678</ele>
        <time>2016-04-21T22:43:02.923000Z</time>
      </trkpt>
      <trkpt lat="39.87645" lon="116.34484">
        <ele>52.339344</ele>
        <time>2016-04-21T22:43:06.487000Z</time>
      </trkpt>
      <trkpt lat="39.876453" lon="116.34499">
        <ele>52.5824</ele>
        <time>2016-04-21T22:43:10.051000Z</time>
      </trkpt>
      <trkpt lat="39.876453" lon="116.345116">
        <ele>52.77778</ele>
        <time>2016-04-21T22:43:13.615000Z</time>
      </trkpt>
      <trkpt lat="39.876457" lon="116.34525">
        <ele>52.99755</ele>
        <time>2016-04-21T22:43:17.179000Z</time>
      </trkpt>
      <trkpt lat="39.876465" lon="116.345406">
        <ele>53.246758</ele>
        <time>2016-04-21T22:43:20.743000Z</time>
      </trkpt>
      <trkpt lat="39.87647" lon="116.34556">
        <ele>53.48199</ele>
        <time>2016-04-21T22:43:24.307000Z</time>
      </trkpt>
      <trkpt lat="39.87647" lon="116.34568">
        <ele>53.679977</ele>
        <time>2016-04-21T22:43:27.871000Z</time>
      </trkpt>
      <trkpt lat="39.87646" lon="116.345825">
        <ele>53.909252</ele>
        <time>2016-04-21T22:43:31.435000Z</time>
      </trkpt>
      <trkpt lat="39.876476" lon="116.34597">
        <ele>54.1402</ele>
        <time>2016-04-21T22:43:34.999000Z</time>
      </trkpt>
      <trkpt lat="39.87648" lon="116.34609">
        <ele>54.344704</ele>
        <time>2016-04-21T22:43:38.563000Z</time>
      </trkpt>
      <trkpt lat="39.876488" lon="116.346245">
        <ele>54.585712</ele>
        <time>2016-04-21T22:43:42.127000Z</time>
      </trkpt>
      <trkpt lat="39.87647" lon="116.346405">
        <ele>54.83678</ele>
        <time>2016-04-21T22:43:45.691000Z</time>
      </trkpt>
      <trkpt lat="39.876457" lon="116.34655">
        <ele>55.067173</ele>
        <time>2016-04-21T22:43:49.255000Z</time>
      </trkpt>
      <trkpt lat="39.87644" lon="116.34672">
        <ele>55.33854</ele>
        <time>2016-04-21T22:43:52.819000Z</time>
      </trkpt>
      <trkpt lat="39.876442" lon="116.34685">
        <ele>55.547142</ele>
        <time>2016-04-21T22:43:56.383000Z</time>
      </trkpt>
      <trkpt lat="39.876457" lon="116.347015">
        <ele>55.81497</ele>
        <time>2016-04-21T22:43:59.947000Z</time>
      </trkpt>
      <trkpt lat="39.87647" lon="116.34717">
        <ele>55.997158</ele>
        <time>2016-04-21T22:44:03.511000Z</time>
      </trkpt>
      <trkpt lat="39.876495" lon="116.347305">
        <ele>56.006004</ele>
        <time>2016-04-21T22:44:07.075000Z</time>
      </trkpt>
      <trkpt lat="39.876522" lon="116.347435">
        <ele>56.013897</ele>
        <time>2016-04-21T22:44:10.639000Z</time>
      </trkpt>
      <trkpt lat="39.876522" lon="116.347435">
        <ele>56.013897</ele>
        <time>2016-04-21T22:44:14.203000Z</time>
      </trkpt>
      <trkpt lat="39.876526" lon="116.3477">
        <ele>56.02991</ele>
        <time>2016-04-21T22:44:17.767000Z</time>
      </trkpt>
      <trkpt lat="39.876514" lon="116.34783">
        <ele>56.038105</ele>
        <time>2016-04-21T22:44:21.331000Z</time>
      </trkpt>
      <trkpt lat="39.876514" lon="116.347984">
        <ele>56.047123</ele>
        <time>2016-04-21T22:44:24.895000Z</time>
      </trkpt>
      <trkpt lat="39.876514" lon="116.347984">
        <ele>56.047123</ele>
        <time>2016-04-21T22:44:28.459000Z</time>
      </trkpt>
      <trkpt lat="39.87651" lon="116.34813">
        <ele>56.055782</ele>
        <time>2016-04-21T22:44:32.023000Z</time>
      </trkpt>
      <trkpt lat="39.876514" lon="116.34825">
        <ele>56.063053</ele>
        <time>2016-04-21T22:44:35.587000Z</time>
      </trkpt>
      <trkpt lat="39.876488" lon="116.3484">
        <ele>56.072094</ele>
        <time>2016-04-21T22:44:39.151000Z</time>
      </trkpt>
      <trkpt lat="39.876484" lon="116.34852">
        <ele>56.079655</ele>
        <time>2016-04-21T22:44:42.715000Z</time>
      </trkpt>
      <trkpt lat="39.876507" lon="116.348656">
        <ele>56.08809</ele>
        <time>2016-04-21T22:44:46.279000Z</time>
      </trkpt>
      <trkpt lat="39.87651" lon="116.34881">
        <ele>56.097347</ele>
        <time>2016-04-21T22:44:49.843000Z</time>
      </trkpt>
      <trkpt lat="39.876503" lon="116.34898">
        <ele>56.107838</ele>
        <time>2016-04-21T22:44:53.407000Z</time>
      </trkpt>
      <trkpt lat="39.876522" lon="116.34911">
        <ele>56.11599</ele>
        <time>2016-04-21T22:44:56.971000Z</time>
      </trkpt>
      <trkpt lat="39.876537" lon="116.349266">
        <ele>56.1254</ele>
        <time>2016-04-21T22:45:00.535000Z</time>
      </trkpt>
      <trkpt lat="39.876553" lon="116.349396">
        <ele>56.13288</ele>
        <time>2016-04-21T22:45:04.099000Z</time>
      </trkpt>
      <trkpt lat="39.87658" lon="116.34954">
        <ele>56.141926</ele>
        <time>2016-04-21T22:45:07.663000Z</time>
      </trkpt>
      <trkpt lat="39.87659" lon="116.34966">
        <ele>56.14935</ele>
        <time>2016-04-21T22:45:11.227000Z</time>
      </trkpt>
      <trkpt lat="39.876602" lon="116.34981">
        <ele>56.158436</ele>
        <time>2016-04-21T22:45:14.791000Z</time>
      </trkpt>
      <trkpt lat="39.876617" lon="116.34995">
        <ele>56.16704</ele>
        <time>2016-04-21T22:45:18.355000Z</time>
      </trkpt>
      <trkpt lat="39.87663" lon="116.35008">
        <ele>56.17493</ele>
        <time>2016-04-21T22:45:21.919000Z</time>
      </trkpt>
      <trkpt lat="39.87663" lon="116.35022">
        <ele>56.18329</ele>
        <time>2016-04-21T22:45:25.483000Z</time>
      </trkpt>
      <trkpt lat="39.87662" lon="116.35039">
        <ele>56.193394</ele>
        <time>2016-04-21T22:45:29.047000Z</time>
      </trkpt>
      <trkpt lat="39.87662" lon="116.35056">
        <ele>56.20418</ele>
        <time>2016-04-21T22:45:32.611000Z</time>
      </trkpt>
      <trkpt lat="39.87662" lon="116.35071">
        <ele>56.212517</ele>
        <time>2016-04-21T22:45:36.175000Z</time>
      </trkpt>
      <trkpt lat="39.876625" lon="116.35083">
        <ele>56.21998</ele>
        <time>2016-04-21T22:45:39.739000Z</time>
      </trkpt>
      <trkpt lat="39.87665" lon="116.35095">
        <ele>56.22772</ele>
        <time>2016-04-21T22:45:43.303000Z</time>
      </trkpt>
      <trkpt lat="39.876663" lon="116.35112">
        <ele>56.23783</ele>
        <time>2016-04-21T22:45:46.867000Z</time>
      </trkpt>
      <trkpt lat="39.87667" lon="116.35127">
        <ele>56.247143</ele>
        <time>2016-04-21T22:45:50.431000Z</time>
      </trkpt>
      <trkpt lat="39.876656" lon="116.35145">
        <ele>56.25785</ele>
        <time>2016-04-21T22:45:53.995000Z</time>
      </trkpt>
      <trkpt lat="39.876667" lon="116.35165">
        <ele>56.26979</ele>
        <time>2016-04-21T22:45:57.559000Z</time>
      </trkpt>
      <trkpt lat="39.876675" lon="116.35181">
        <ele>56.279358</ele>
        <time>2016-04-21T22:46:01.123000Z</time>
      </trkpt>
      <trkpt lat="39.87668" lon="116.35194">
        <ele>56.287327</ele>
        <time>2016-04-21T22:46:04.687000Z</time>
      </trkpt>
      <trkpt lat="39.876675" lon="116.35207">
        <ele>56.29547</ele>
        <time>2016-04-21T22:46:08.251000Z</time>
      </trkpt>
      <trkpt lat="39.876686" lon="116.352196">
        <ele>56.851555</ele>
        <time>2016-04-21T22:46:11.815000Z</time>
      </trkpt>
      <trkpt lat="39.876694" lon="116.35233">
        <ele>57.25336</ele>
        <time>2016-04-21T22:46:15.379000Z</time>
      </trkpt>
      <trkpt lat="39.876698" lon="116.35246">
        <ele>57.382095</ele>
        <time>2016-04-21T22:46:18.943000Z</time>
      </trkpt>
      <trkpt lat="39.876705" lon="116.352585">
        <ele>57.382095</ele>
        <time>2016-04-21T22:46:22.507000Z</time>
      </trkpt>
      <trkpt lat="39.87675" lon="116.3527">
        <ele>57.382095</ele>
        <time>2016-04-21T22:46:26.071000Z</time>
      </trkpt>
      <trkpt lat="39.87675" lon="116.3527">
        <ele>57.382095</ele>
        <time>2016-04-21T22:46:29.635000Z</time>
      </trkpt>
      <trkpt lat="39.876827" lon="116.35277">
        <ele>57.382095</ele>
        <time>2016-04-21T22:46:33.199000Z</time>
      </trkpt>
      <trkpt lat="39.87693" lon="116.35279">
        <time>2016-04-21T22:46:36.763000Z</time>
      </trkpt>
    </trkseg>
  </trk>
</gpx>