<?xml version="1.0" encoding="UTF-8"?>
<gpx xmlns="http://www.topografix.com/GPX/1/1" xmlns:gpxtpx="http://www.garmin.com/xmlschemas/TrackPointExtension/v1" xmlns:xsi="http://www.w3.org/2001/XMLSchema-instance" xsi:schemaLocation="http://www.topografix.com/GPX/1/1 http://www.topografix.com/GPX/1/1/gpx.xsd" version="1.1" creator="gpx.py -- https://github.com/tkrajina/gpxpy">
  <trk>
    <trkseg>
      <trkpt lat="41.760796" lon="123.35959">
        <ele>67.62336</ele>
        <time>2016-05-07T10:58:16.216000Z</time>
      </trkpt>
      <trkpt lat="41.76072" lon="123.35949">
        <ele>69.263824</ele>
        <time>2016-05-07T10:58:20.645000Z</time>
      </trkpt>
      <trkpt lat="41.7606" lon="123.359474">
        <ele>71.22367</ele>
        <time>2016-05-07T10:58:25.074000Z</time>
      </trkpt>
      <trkpt lat="41.760548" lon="123.35957">
        <ele>72.716064</ele>
        <time>2016-05-07T10:58:29.503000Z</time>
      </trkpt>
      <trkpt lat="41.760544" lon="123.3597">
        <ele>75.28156</ele>
        <time>2016-05-07T10:58:33.932000Z</time>
      </trkpt>
      <trkpt lat="41.760548" lon="123.35983">
        <ele>71.685295</ele>
        <time>2016-05-07T10:58:38.361000Z</time>
      </trkpt>
      <trkpt lat="41.76054" lon="123.359985">
        <ele>67.32011</ele>
        <time>2016-05-07T10:58:42.790000Z</time>
      </trkpt>
      <trkpt lat="41.760536" lon="123.36015">
        <ele>60.500153</ele>
        <time>2016-05-07T10:58:47.219000Z</time>
      </trkpt>
      <trkpt lat="41.760506" lon="123.36027">
        <ele>55.050144</ele>
        <time>2016-05-07T10:58:51.648000Z</time>
      </trkpt>
      <trkpt lat="41.76049" lon="123.36042">
        <ele>51.530094</ele>
        <time>2016-05-07T10:58:56.077000Z</time>
      </trkpt>
      <trkpt lat="41.760487" lon="123.36054">
        <ele>48.78093</ele>
        <time>2016-05-07T10:59:00.506000Z</time>
      </trkpt>
      <trkpt lat="41.760468" lon="123.36068">
        <ele>46.4738</ele>
        <time>2016-05-07T10:59:04.935000Z</time>
      </trkpt>
      <trkpt lat="41.76039" lon="123.36077">
        <ele>45.18171</ele>
        <time>2016-05-07T10:59:09.364000Z</time>
      </trkpt>
      <trkpt lat="41.76033" lon="123.3609">
        <ele>44.864532</ele>
        <time>2016-05-07T10:59:13.793000Z</time>
      </trkpt>
      <trkpt lat="41.760307" lon="123.361046">
        <ele>44.737343</ele>
        <time>2016-05-07T10:59:18.222000Z</time>
      </trkpt>
      <trkpt lat="41.7602" lon="123.36105">
        <ele>43.39449</ele>
        <time>2016-05-07T10:59:22.651000Z</time>
      </trkpt>
      <trkpt lat="41.760113" lon="123.36102">
        <ele>42.285183</ele>
        <time>2016-05-07T10:59:27.080000Z</time>
      </trkpt>
      <trkpt lat="41.760113" lon="123.36102">
        <ele>41.38331</ele>
        <time>2016-05-07T10:59:31.509000Z</time>
      </trkpt>
      <trkpt lat="41.76001" lon="123.361">
        <ele>41.010162</ele>
        <time>2016-05-07T10:59:35.938000Z</time>
      </trkpt>
      <trkpt lat="41.759914" lon="123.36097">
        <ele>41.430466</ele>
        <time>2016-05-07T10:59:40.367000Z</time>
      </trkpt>
      <trkpt lat="41.75981" lon="123.36095">
        <ele>41.86337</ele>
        <time>2016-05-07T10:59:44.796000Z</time>
      </trkpt>
      <trkpt lat="41.759712" lon="123.36093">
        <ele>42.29169</ele>
        <time>2016-05-07T10:59:49.225000Z</time>
      </trkpt>
      <trkpt lat="41.759624" lon="123.36086">
        <ele>42.726883</ele>
        <time>2016-05-07T10:59:53.654000Z</time>
      </trkpt>
      <trkpt lat="41.759537" lon="123.360825">
        <ele>43.11092</ele>
        <time>2016-05-07T10:59:58.083000Z</time>
      </trkpt>
      <trkpt lat="41.759457" lon="123.36077">
        <ele>43.498775</ele>
        <time>2016-05-07T11:00:02.512000Z</time>
      </trkpt>
      <trkpt lat="41.75936" lon="123.36073">
        <ele>43.922134</ele>
        <time>2016-05-07T11:00:06.941000Z</time>
      </trkpt>
      <trkpt lat="41.75926" lon="123.3607">
        <ele>44.372215</ele>
        <time>2016-05-07T11:00:11.370000Z</time>
      </trkpt>
      <trkpt lat="41.759148" lon="123.36067">
        <ele>44.851307</ele>
        <time>2016-05-07T11:00:15.799000Z</time>
      </trkpt>
      <trkpt lat="41.759052" lon="123.360634">
        <ele>45.267033</ele>
        <time>2016-05-07T11:00:20.228000Z</time>
      </trkpt>
      <trkpt lat="41.75895" lon="123.36061">
        <ele>45.720165</ele>
        <time>2016-05-07T11:00:24.657000Z</time>
      </trkpt>
      <trkpt lat="41.758854" lon="123.36059">
        <ele>46.11451</ele>
        <time>2016-05-07T11:00:29.086000Z</time>
      </trkpt>
      <trkpt lat="41.758854" lon="123.36059">
        <ele>46.11451</ele>
        <time>2016-05-07T11:00:33.515000Z</time>
      </trkpt>
      <trkpt lat="41.758804" lon="123.3607">
        <ele>46.211987</ele>
        <time>2016-05-07T11:00:37.944000Z</time>
      </trkpt>
      <trkpt lat="41.758682" lon="123.36073">
        <ele>46.23729</ele>
        <time>2016-05-07T11:00:42.373000Z</time>
      </trkpt>
      <trkpt lat="41.75856" lon="123.3607">
        <ele>46.26167</ele>
        <time>2016-05-07T11:00:46.802000Z</time>
      </trkpt>
      <trkpt lat="41.758453" lon="123.360664">
        <ele>46.284443</ele>
        <time>2016-05-07T11:00:51.231000Z</time>
      </trkpt>
      <trkpt lat="41.758453" lon="123.360664">
        <ele>46.284443</ele>
        <time>2016-05-07T11:00:55.660000Z</time>
      </trkpt>
      <trkpt lat="41.75835" lon="123.3606">
        <ele>46.307365</ele>
        <time>2016-05-07T11:01:00.089000Z</time>
      </trkpt>
      <trkpt lat="41.75825" lon="123.36055">
        <ele>46.329197</ele>
        <time>2016-05-07T11:01:04.518000Z</time>
      </trkpt>
      <trkpt lat="41.758144" lon="123.36048">
        <ele>46.353085</ele>
        <time>2016-05-07T11:01:08.947000Z</time>
      </trkpt>
      <trkpt lat="41.758064" lon="123.36041">
        <ele>46.372112</ele>
        <time>2016-05-07T11:01:13.376000Z</time>
      </trkpt>
      <trkpt lat="41.757977" lon="123.36035">
        <ele>46.39187</ele>
        <time>2016-05-07T11:01:17.805000Z</time>
      </trkpt>
      <trkpt lat="41.757896" lon="123.360275">
        <ele>46.412025</ele>
        <time>2016-05-07T11:01:22.234000Z</time>
      </trkpt>
      <trkpt lat="41.757797" lon="123.36018">
        <ele>46.43615</ele>
        <time>2016-05-07T11:01:26.663000Z</time>
      </trkpt>
      <trkpt lat="41.7577" lon="123.360085">
        <ele>46.460217</ele>
        <time>2016-05-07T11:01:31.092000Z</time>
      </trkpt>
      <trkpt lat="41.75762" lon="123.35999">
        <ele>46.48232</ele>
        <time>2016-05-07T11:01:35.521000Z</time>
      </trkpt>
      <trkpt lat="41.75753" lon="123.35989">
        <ele>46.506496</ele>
        <time>2016-05-07T11:01:39.950000Z</time>
      </trkpt>
      <trkpt lat="41.757446" lon="123.35982">
        <ele>46.52651</ele>
        <time>2016-05-07T11:01:44.379000Z</time>
      </trkpt>
      <trkpt lat="41.757374" lon="123.35974">
        <ele>46.54532</ele>
        <time>2016-05-07T11:01:48.808000Z</time>
      </trkpt>
      <trkpt lat="41.75729" lon="123.35965">
        <ele>46.566475</ele>
        <time>2016-05-07T11:01:53.237000Z</time>
      </trkpt>
      <trkpt lat="41.757225" lon="123.35955">
        <ele>46.58696</ele>
        <time>2016-05-07T11:01:57.666000Z</time>
      </trkpt>
      <trkpt lat="41.75714" lon="123.35943">
        <ele>46.612465</ele>
        <time>2016-05-07T11:02:02.095000Z</time>
      </trkpt>
      <trkpt lat="41.75705" lon="123.35933">
        <ele>46.63588</ele>
        <time>2016-05-07T11:02:06.524000Z</time>
      </trkpt>
      <trkpt lat="41.756973" lon="123.35923">
        <ele>46.65789</ele>
        <time>2016-05-07T11:02:10.953000Z</time>
      </trkpt>
      <trkpt lat="41.75691" lon="123.35911">
        <ele>46.680378</ele>
        <time>2016-05-07T11:02:15.382000Z</time>
      </trkpt>
      <trkpt lat="41.756844" lon="123.359">
        <ele>46.7007</ele>
        <time>2016-05-07T11:02:19.811000Z</time>
      </trkpt>
      <trkpt lat="41.75678" lon="123.3589">
        <ele>46.720764</ele>
        <time>2016-05-07T11:02:24.240000Z</time>
      </trkpt>
      <trkpt lat="41.756702" lon="123.35881">
        <ele>46.741776</ele>
        <time>2016-05-07T11:02:28.669000Z</time>
      </trkpt>
      <trkpt lat="41.756622" lon="123.35867">
        <ele>46.76828</ele>
        <time>2016-05-07T11:02:33.098000Z</time>
      </trkpt>
      <trkpt lat="41.756565" lon="123.35855">
        <ele>46.78902</ele>
        <time>2016-05-07T11:02:37.527000Z</time>
      </trkpt>
      <trkpt lat="41.756523" lon="123.358444">
        <ele>46.80776</ele>
        <time>2016-05-07T11:02:41.956000Z</time>
      </trkpt>
      <trkpt lat="41.75648" lon="123.35834">
        <ele>46.82615</ele>
        <time>2016-05-07T11:02:46.385000Z</time>
      </trkpt>
      <trkpt lat="41.75648" lon="123.35834">
        <ele>46.82615</ele>
        <time>2016-05-07T11:02:50.814000Z</time>
      </trkpt>
      <trkpt lat="41.756435" lon="123.35821">
        <ele>46.84778</ele>
        <time>2016-05-07T11:02:55.243000Z</time>
      </trkpt>
      <trkpt lat="41.75639" lon="123.35809">
        <ele>46.86781</ele>
        <time>2016-05-07T11:02:59.672000Z</time>
      </trkpt>
      <trkpt lat="41.756336" lon="123.35799">
        <ele>46.886692</ele>
        <time>2016-05-07T11:03:04.101000Z</time>
      </trkpt>
      <trkpt lat="41.75627" lon="123.35786">
        <ele>46.910652</ele>
        <time>2016-05-07T11:03:08.530000Z</time>
      </trkpt>
      <trkpt lat="41.75621" lon="123.35776">
        <ele>46.92937</ele>
        <time>2016-05-07T11:03:12.959000Z</time>
      </trkpt>
      <trkpt lat="41.75614" lon="123.35768">
        <ele>46.947872</ele>
        <time>2016-05-07T11:03:17.388000Z</time>
      </trkpt>
      <trkpt lat="41.755913" lon="123.35752">
        <ele>46.967556</ele>
        <time>2016-05-07T11:03:21.817000Z</time>
      </trkpt>
      <trkpt lat="41.755833" lon="123.35741">
        <ele>46.991005</ele>
        <time>2016-05-07T11:03:26.246000Z</time>
      </trkpt>
      <trkpt lat="41.75578" lon="123.35729">
        <ele>47.011635</ele>
        <time>2016-05-07T11:03:30.675000Z</time>
      </trkpt>
      <trkpt lat="41.755726" lon="123.357185">
        <ele>47.8149</ele>
        <time>2016-05-07T11:03:35.104000Z</time>
      </trkpt>
      <trkpt lat="41.755676" lon="123.35705">
        <ele>48.18416</ele>
        <time>2016-05-07T11:03:39.533000Z</time>
      </trkpt>
      <trkpt lat="41.755627" lon="123.35694">
        <ele>48.553455</ele>
        <time>2016-05-07T11:03:43.962000Z</time>
      </trkpt>
      <trkpt lat="41.755596" lon="123.35681">
        <ele>49.12598</ele>
        <time>2016-05-07T11:03:48.391000Z</time>
      </trkpt>
      <trkpt lat="41.755573" lon="123.35666">
        <ele>49.65464</ele>
        <time>2016-05-07T11:03:52.820000Z</time>
      </trkpt>
      <trkpt lat="41.755466" lon="123.35663">
        <ele>50.010014</ele>
        <time>2016-05-07T11:03:57.249000Z</time>
      </trkpt>
      <trkpt lat="41.75539" lon="123.356705">
        <ele>50.3076</ele>
        <time>2016-05-07T11:04:01.678000Z</time>
      </trkpt>
      <trkpt lat="41.755344" lon="123.35683">
        <ele>50.506054</ele>
        <time>2016-05-07T11:04:06.107000Z</time>
      </trkpt>
      <trkpt lat="41.75528" lon="123.35692">
        <ele>50.56989</ele>
        <time>2016-05-07T11:04:10.536000Z</time>
      </trkpt>
      <trkpt lat="41.755215" lon="123.35701">
        <ele>50.632187</ele>
        <time>2016-05-07T11:04:14.965000Z</time>
      </trkpt>
      <trkpt lat="41.75514" lon="123.35714">
        <ele>50.716232</ele>
        <time>2016-05-07T11:04:19.394000Z</time>
      </trkpt>
      <trkpt lat="41.755077" lon="123.35725">
        <ele>50.78707</ele>
        <time>2016-05-07T11:04:23.823000Z</time>
      </trkpt>
      <trkpt lat="41.75502" lon="123.357346">
        <ele>52.340137</ele>
        <time>2016-05-07T11:04:28.252000Z</time>
      </trkpt>
      <trkpt lat="41.754955" lon="123.35747">
        <ele>53.61979</ele>
        <time>2016-05-07T11:04:32.681000Z</time>
      </trkpt>
      <trkpt lat="41.754913" lon="123.357605">
        <ele>53.973194</ele>
        <time>2016-05-07T11:04:37.110000Z</time>
      </trkpt>
      <trkpt lat="41.754856" lon="123.35772">
        <ele>53.439342</ele>
        <time>2016-05-07T11:04:41.539000Z</time>
      </trkpt>
      <trkpt lat="41.754795" lon="123.35782">
        <ele>52.94403</ele>
        <time>2016-05-07T11:04:45.968000Z</time>
      </trkpt>
      <trkpt lat="41.75471" lon="123.35791">
        <ele>52.357838</ele>
        <time>2016-05-07T11:04:50.397000Z</time>
      </trkpt>
      <trkpt lat="41.754673" lon="123.35803">
        <ele>51.827793</ele>
        <time>2016-05-07T11:04:54.826000Z</time>
      </trkpt>
      <trkpt lat="41.75468" lon="123.35816">
        <ele>51.329624</ele>
        <time>2016-05-07T11:04:59.255000Z</time>
      </trkpt>
      <trkpt lat="41.754654" lon="123.35831">
        <ele>50.73487</ele>
        <time>2016-05-07T11:05:03.684000Z</time>
      </trkpt>
      <trkpt lat="41.754635" lon="123.35846">
        <ele>50.116325</ele>
        <time>2016-05-07T11:05:08.113000Z</time>
      </trkpt>
      <trkpt lat="41.75463" lon="123.358604">
        <ele>49.567722</ele>
        <time>2016-05-07T11:05:12.542000Z</time>
      </trkpt>
      <trkpt lat="41.754635" lon="123.35877">
        <ele>48.9035</ele>
        <time>2016-05-07T11:05:16.971000Z</time>
      </trkpt>
      <trkpt lat="41.754654" lon="123.35894">
        <ele>48.513683</ele>
        <time>2016-05-07T11:05:21.400000Z</time>
      </trkpt>
      <trkpt lat="41.754658" lon="123.3591">
        <ele>48.34933</ele>
        <time>2016-05-07T11:05:25.829000Z</time>
      </trkpt>
      <trkpt lat="41.754642" lon="123.35924">
        <ele>47.93288</ele>
        <time>2016-05-07T11:05:30.258000Z</time>
      </trkpt>
      <trkpt lat="41.754616" lon="123.359375">
        <ele>47.090477</ele>
        <time>2016-05-07T11:05:34.687000Z</time>
      </trkpt>
      <trkpt lat="41.754612" lon="123.35949">
        <ele>46.16553</ele>
        <time>2016-05-07T11:05:39.116000Z</time>
      </trkpt>
      <trkpt lat="41.754593" lon="123.35964">
        <ele>45.51396</ele>
        <time>2016-05-07T11:05:43.545000Z</time>
      </trkpt>
      <trkpt lat="41.75454" lon="123.35974">
        <ele>45.30351</ele>
        <time>2016-05-07T11:05:47.974000Z</time>
      </trkpt>
      <trkpt lat="41.75452" lon="123.35986">
        <ele>45.166058</ele>
        <time>2016-05-07T11:05:52.403000Z</time>
      </trkpt>
      <trkpt lat="41.754536" lon="123.360016">
        <ele>44.998547</ele>
        <time>2016-05-07T11:05:56.832000Z</time>
      </trkpt>
      <trkpt lat="41.754555" lon="123.360176">
        <ele>44.817413</ele>
        <time>2016-05-07T11:06:01.261000Z</time>
      </trkpt>
      <trkpt lat="41.754574" lon="123.360344">
        <ele>44.631336</ele>
        <time>2016-05-07T11:06:05.690000Z</time>
      </trkpt>
      <trkpt lat="41.75457" lon="123.36049">
        <ele>44.470505</ele>
        <time>2016-05-07T11:06:10.119000Z</time>
      </trkpt>
      <trkpt lat="41.75451" lon="123.360596">
        <ele>44.318623</ele>
        <time>2016-05-07T11:06:14.548000Z</time>
      </trkpt>
      <trkpt lat="41.754475" lon="123.36071">
        <ele>42.89397</ele>
        <time>2016-05-07T11:06:18.977000Z</time>
      </trkpt>
      <trkpt lat="41.75438" lon="123.36073">
        <ele>41.669323</ele>
        <time>2016-05-07T11:06:23.406000Z</time>
      </trkpt>
      <trkpt lat="41.75414" lon="123.36074">
        <ele>47.299267</ele>
        <time>2016-05-07T11:06:27.835000Z</time>
      </trkpt>
      <trkpt lat="41.754047" lon="123.36067">
        <ele>47.064194</ele>
        <time>2016-05-07T11:06:32.264000Z</time>
      </trkpt>
      <trkpt lat="41.75394" lon="123.360634">
        <ele>46.81885</ele>
        <time>2016-05-07T11:06:36.693000Z</time>
      </trkpt>
      <trkpt lat="41.75394" lon="123.360634">
        <ele>46.81885</ele>
        <time>2016-05-07T11:06:41.122000Z</time>
      </trkpt>
      <trkpt lat="41.753838" lon="123.3606">
        <ele>46.585754</ele>
        <time>2016-05-07T11:06:45.551000Z</time>
      </trkpt>
      <trkpt lat="41.753746" lon="123.36056">
        <ele>46.379524</ele>
        <time>2016-05-07T11:06:49.980000Z</time>
      </trkpt>
      <trkpt lat="41.753746" lon="123.36056">
        <ele>46.379524</ele>
        <time>2016-05-07T11:06:54.409000Z</time>
      </trkpt>
      <trkpt lat="41.75364" lon="123.36054">
        <ele>46.139908</ele>
        <time>2016-05-07T11:06:58.838000Z</time>
      </trkpt>
      <trkpt lat="41.75355" lon="123.36048">
        <ele>45.91847</ele>
        <time>2016-05-07T11:07:03.267000Z</time>
      </trkpt>
      <trkpt lat="41.75355" lon="123.36048">
        <ele>45.91847</ele>
        <time>2016-05-07T11:07:07.696000Z</time>
      </trkpt>
      <trkpt lat="41.753456" lon="123.360466">
        <ele>45.7073</ele>
        <time>2016-05-07T11:07:12.125000Z</time>
      </trkpt>
      <trkpt lat="41.75336" lon="123.36046">
        <ele>45.502056</ele>
        <time>2016-05-07T11:07:16.554000Z</time>
      </trkpt>
      <trkpt lat="41.753265" lon="123.360405">
        <ele>45.2737</ele>
        <time>2016-05-07T11:07:20.983000Z</time>
      </trkpt>
      <trkpt lat="41.753178" lon="123.36033">
        <ele>45.048504</ele>
        <time>2016-05-07T11:07:25.412000Z</time>
      </trkpt>
      <trkpt lat="41.753086" lon="123.36028">
        <ele>44.83121</ele>
        <time>2016-05-07T11:07:29.841000Z</time>
      </trkpt>
      <trkpt lat="41.753" lon="123.36025">
        <ele>44.63209</ele>
        <time>2016-05-07T11:07:34.270000Z</time>
      </trkpt>
      <trkpt lat="41.75291" lon="123.3602">
        <ele>44.42053</ele>
        <time>2016-05-07T11:07:38.699000Z</time>
      </trkpt>
      <trkpt lat="41.752815" lon="123.36013">
        <ele>44.18328</ele>
        <time>2016-05-07T11:07:43.128000Z</time>
      </trkpt>
      <trkpt lat="41.75273" lon="123.36008">
        <ele>43.97725</ele>
        <time>2016-05-07T11:07:47.557000Z</time>
      </trkpt>
      <trkpt lat="41.75264" lon="123.36001">
        <ele>43.74435</ele>
        <time>2016-05-07T11:07:51.986000Z</time>
      </trkpt>
      <trkpt lat="41.75254" lon="123.35998">
        <ele>43.52034</ele>
        <time>2016-05-07T11:07:56.415000Z</time>
      </trkpt>
      <trkpt lat="41.752453" lon="123.35993">
        <ele>43.31826</ele>
        <time>2016-05-07T11:08:00.844000Z</time>
      </trkpt>
      <trkpt lat="41.75235" lon="123.35987">
        <ele>43.070545</ele>
        <time>2016-05-07T11:08:05.273000Z</time>
      </trkpt>
      <trkpt lat="41.752243" lon="123.35981">
        <ele>42.816708</ele>
        <time>2016-05-07T11:08:09.702000Z</time>
      </trkpt>
      <trkpt lat="41.752144" lon="123.359764">
        <ele>42.582623</ele>
        <time>2016-05-07T11:08:14.131000Z</time>
      </trkpt>
      <trkpt lat="41.752056" lon="123.359726">
        <ele>42.381134</ele>
        <time>2016-05-07T11:08:18.560000Z</time>
      </trkpt>
      <trkpt lat="41.75197" lon="123.35968">
        <ele>42.170753</ele>
        <time>2016-05-07T11:08:22.989000Z</time>
      </trkpt>
      <trkpt lat="41.75197" lon="123.35968">
        <ele>41.46847</ele>
        <time>2016-05-07T11:08:27.418000Z</time>
      </trkpt>
      <trkpt lat="41.751892" lon="123.359604">
        <ele>40.952076</ele>
        <time>2016-05-07T11:08:31.847000Z</time>
      </trkpt>
      <trkpt lat="41.7518" lon="123.35956">
        <ele>40.198975</ele>
        <time>2016-05-07T11:08:36.276000Z</time>
      </trkpt>
      <trkpt lat="41.751717" lon="123.3595">
        <ele>38.90494</ele>
        <time>2016-05-07T11:08:40.705000Z</time>
      </trkpt>
      <trkpt lat="41.751625" lon="123.35948">
        <ele>37.55519</ele>
        <time>2016-05-07T11:08:45.134000Z</time>
      </trkpt>
      <trkpt lat="41.75152" lon="123.35948">
        <ele>36.946983</ele>
        <time>2016-05-07T11:08:49.563000Z</time>
      </trkpt>
      <trkpt lat="41.75142" lon="123.359436">
        <ele>37.29315</ele>
        <time>2016-05-07T11:08:53.992000Z</time>
      </trkpt>
      <trkpt lat="41.751328" lon="123.35938">
        <ele>37.616734</ele>
        <time>2016-05-07T11:08:58.421000Z</time>
      </trkpt>
      <trkpt lat="41.75123" lon="123.35934">
        <ele>37.95821</ele>
        <time>2016-05-07T11:09:02.850000Z</time>
      </trkpt>
      <trkpt lat="41.751125" lon="123.35929">
        <ele>38.314354</ele>
        <time>2016-05-07T11:09:07.279000Z</time>
      </trkpt>
      <trkpt lat="41.751026" lon="123.35927">
        <ele>38.649082</ele>
        <time>2016-05-07T11:09:11.708000Z</time>
      </trkpt>
      <trkpt lat="41.75092" lon="123.35925">
        <ele>38.989388</ele>
        <time>2016-05-07T11:09:16.137000Z</time>
      </trkpt>
      <trkpt lat="41.750824" lon="123.359215">
        <ele>39.310913</ele>
        <time>2016-05-07T11:09:20.566000Z</time>
      </trkpt>
      <trkpt lat="41.75072" lon="123.35923">
        <ele>39.652977</ele>
        <time>2016-05-07T11:09:24.995000Z</time>
      </trkpt>
      <trkpt lat="41.75064" lon="123.35932">
        <ele>39.99944</ele>
        <time>2016-05-07T11:09:29.424000Z</time>
      </trkpt>
      <trkpt lat="41.750572" lon="123.35941">
        <ele>40.310406</ele>
        <time>2016-05-07T11:09:33.853000Z</time>
      </trkpt>
      <trkpt lat="41.750572" lon="123.35941">
        <ele>40.310406</ele>
        <time>2016-05-07T11:09:38.282000Z</time>
      </trkpt>
      <trkpt lat="41.75048" lon="123.35944">
        <ele>40.624893</ele>
        <time>2016-05-07T11:09:42.711000Z</time>
      </trkpt>
      <trkpt lat="41.75036" lon="123.359406">
        <ele>41.03003</ele>
        <time>2016-05-07T11:09:47.140000Z</time>
      </trkpt>
      <trkpt lat="41.75025" lon="123.359406">
        <ele>41.381477</ele>
        <time>2016-05-07T11:09:51.569000Z</time>
      </trkpt>
      <trkpt lat="41.75025" lon="123.359406">
        <ele>41.381477</ele>
        <time>2016-05-07T11:09:55.998000Z</time>
      </trkpt>
      <trkpt lat="41.750175" lon="123.359505">
        <ele>41.72501</ele>
        <time>2016-05-07T11:10:00.427000Z</time>
      </trkpt>
      <trkpt lat="41.75016" lon="123.35965">
        <ele>42.083206</ele>
        <time>2016-05-07T11:10:04.856000Z</time>
      </trkpt>
      <trkpt lat="41.750164" lon="123.35977">
        <ele>42.39212</ele>
        <time>2016-05-07T11:10:09.285000Z</time>
      </trkpt>
      <trkpt lat="41.75016" lon="123.3599">
        <ele>42.92184</ele>
        <time>2016-05-07T11:10:13.714000Z</time>
      </trkpt>
      <trkpt lat="41.75018" lon="123.36003">
        <ele>43.717663</ele>
        <time>2016-05-07T11:10:18.143000Z</time>
      </trkpt>
      <trkpt lat="41.750153" lon="123.36018">
        <ele>45.108746</ele>
        <time>2016-05-07T11:10:22.572000Z</time>
      </trkpt>
      <trkpt lat="41.750175" lon="123.36031">
        <ele>46.77095</ele>
        <time>2016-05-07T11:10:27.001000Z</time>
      </trkpt>
      <trkpt lat="41.750175" lon="123.36031">
        <ele>47.88463</ele>
        <time>2016-05-07T11:10:31.430000Z</time>
      </trkpt>
      <trkpt lat="41.75014" lon="123.36054">
        <ele>47.95632</ele>
        <time>2016-05-07T11:10:35.859000Z</time>
      </trkpt>
      <trkpt lat="41.750153" lon="123.360664">
        <ele>47.994717</ele>
        <time>2016-05-07T11:10:40.288000Z</time>
      </trkpt>
      <trkpt lat="41.750187" lon="123.36078">
        <ele>48.032585</ele>
        <time>2016-05-07T11:10:44.717000Z</time>
      </trkpt>
      <trkpt lat="41.75019" lon="123.36092">
        <ele>48.078396</ele>
        <time>2016-05-07T11:10:49.146000Z</time>
      </trkpt>
      <trkpt lat="41.75017" lon="123.361046">
        <ele>48.116302</ele>
        <time>2016-05-07T11:10:53.575000Z</time>
      </trkpt>
      <trkpt lat="41.75016" lon="123.361176">
        <ele>48.157806</ele>
        <time>2016-05-07T11:10:58.004000Z</time>
      </trkpt>
      <trkpt lat="41.750187" lon="123.361305">
        <ele>48.19935</ele>
        <time>2016-05-07T11:11:02.433000Z</time>
      </trkpt>
      <trkpt lat="41.750187" lon="123.36143">
        <ele>48.238003</ele>
        <time>2016-05-07T11:11:06.862000Z</time>
      </trkpt>
      <trkpt lat="41.750175" lon="123.36159">
        <ele>48.288685</ele>
        <time>2016-05-07T11:11:11.291000Z</time>
      </trkpt>
      <trkpt lat="41.7502" lon="123.36173">
        <ele>48.334644</ele>
        <time>2016-05-07T11:11:15.720000Z</time>
      </trkpt>
      <trkpt lat="41.750195" lon="123.36188">
        <ele>48.37978</ele>
        <time>2016-05-07T11:11:20.149000Z</time>
      </trkpt>
      <trkpt lat="41.750214" lon="123.36201">
        <ele>48.419674</ele>
        <time>2016-05-07T11:11:24.578000Z</time>
      </trkpt>
      <trkpt lat="41.750206" lon="123.362144">
        <ele>48.462975</ele>
        <time>2016-05-07T11:11:29.007000Z</time>
      </trkpt>
      <trkpt lat="41.7502" lon="123.36227">
        <ele>49.576412</ele>
        <time>2016-05-07T11:11:33.436000Z</time>
      </trkpt>
      <trkpt lat="41.750206" lon="123.3624">
        <ele>50.054543</ele>
        <time>2016-05-07T11:11:37.865000Z</time>
      </trkpt>
      <trkpt lat="41.75019" lon="123.36253">
        <ele>49.654152</ele>
        <time>2016-05-07T11:11:42.294000Z</time>
      </trkpt>
      <trkpt lat="41.750084" lon="123.362526">
        <ele>49.257755</ele>
        <time>2016-05-07T11:11:46.723000Z</time>
      </trkpt>
      <trkpt lat="41.749992" lon="123.36251">
        <ele>48.9139</ele>
        <time>2016-05-07T11:11:51.152000Z</time>
      </trkpt>
      <trkpt lat="41.749954" lon="123.36264">
        <ele>48.528477</ele>
        <time>2016-05-07T11:11:55.581000Z</time>
      </trkpt>
      <trkpt lat="41.749886" lon="123.36275">
        <ele>48.127087</ele>
        <time>2016-05-07T11:12:00.010000Z</time>
      </trkpt>
      <trkpt lat="41.749798" lon="123.3628">
        <ele>47.77259</ele>
        <time>2016-05-07T11:12:04.439000Z</time>
      </trkpt>
      <trkpt lat="41.74973" lon="123.36289">
        <ele>47.419758</ele>
        <time>2016-05-07T11:12:08.868000Z</time>
      </trkpt>
      <trkpt lat="41.74965" lon="123.362946">
        <ele>47.08488</ele>
        <time>2016-05-07T11:12:13.297000Z</time>
      </trkpt>
      <trkpt lat="41.74965" lon="123.362946">
        <ele>47.08488</ele>
        <time>2016-05-07T11:12:17.726000Z</time>
      </trkpt>
      <trkpt lat="41.7496" lon="123.36307">
        <ele>46.696133</ele>
        <time>2016-05-07T11:12:22.155000Z</time>
      </trkpt>
      <trkpt lat="41.7496" lon="123.36307">
        <ele>46.696133</ele>
        <time>2016-05-07T11:12:26.584000Z</time>
      </trkpt>
      <trkpt lat="41.749504" lon="123.363144">
        <ele>46.290752</ele>
        <time>2016-05-07T11:12:31.013000Z</time>
      </trkpt>
      <trkpt lat="41.7494" lon="123.36309">
        <ele>45.88837</ele>
        <time>2016-05-07T11:12:35.442000Z</time>
      </trkpt>
      <trkpt lat="41.74933" lon="123.36302">
        <ele>45.550835</ele>
        <time>2016-05-07T11:12:39.871000Z</time>
      </trkpt>
      <trkpt lat="41.749264" lon="123.36293">
        <ele>45.213295</ele>
        <time>2016-05-07T11:12:44.300000Z</time>
      </trkpt>
      <trkpt lat="41.749176" lon="123.36289">
        <ele>44.86379</ele>
        <time>2016-05-07T11:12:48.729000Z</time>
      </trkpt>
      <trkpt lat="41.749084" lon="123.36283">
        <ele>43.716995</ele>
        <time>2016-05-07T11:12:53.158000Z</time>
      </trkpt>
      <trkpt lat="41.74897" lon="123.36281">
        <ele>42.266575</ele>
        <time>2016-05-07T11:12:57.587000Z</time>
      </trkpt>
      <trkpt lat="41.74896" lon="123.36295">
        <ele>40.691483</ele>
        <time>2016-05-07T11:13:02.016000Z</time>
      </trkpt>
      <trkpt lat="41.748924" lon="123.36309">
        <ele>39.734543</ele>
        <time>2016-05-07T11:13:06.445000Z</time>
      </trkpt>
      <trkpt lat="41.74893" lon="123.36321">
        <ele>39.512405</ele>
        <time>2016-05-07T11:13:10.874000Z</time>
      </trkpt>
      <trkpt lat="41.748928" lon="123.36335">
        <ele>39.34084</ele>
        <time>2016-05-07T11:13:15.303000Z</time>
      </trkpt>
      <trkpt lat="41.74893" lon="123.36349">
        <ele>39.175674</ele>
        <time>2016-05-07T11:13:19.732000Z</time>
      </trkpt>
      <trkpt lat="41.748928" lon="123.3636">
        <ele>39.026447</ele>
        <time>2016-05-07T11:13:24.161000Z</time>
      </trkpt>
      <trkpt lat="41.74894" lon="123.36374">
        <ele>37.9737</ele>
        <time>2016-05-07T11:13:28.590000Z</time>
      </trkpt>
      <trkpt lat="41.748947" lon="123.36386">
        <ele>36.979107</ele>
        <time>2016-05-07T11:13:33.019000Z</time>
      </trkpt>
      <trkpt lat="41.74895" lon="123.36401">
        <ele>36.52574</ele>
        <time>2016-05-07T11:13:37.448000Z</time>
      </trkpt>
      <trkpt lat="41.74892" lon="123.36413">
        <ele>36.51887</ele>
        <time>2016-05-07T11:13:41.877000Z</time>
      </trkpt>
      <trkpt lat="41.74892" lon="123.36413">
        <ele>36.51887</ele>
        <time>2016-05-07T11:13:46.306000Z</time>
      </trkpt>
      <trkpt lat="41.748917" lon="123.364265">
        <ele>36.511353</ele>
        <time>2016-05-07T11:13:50.735000Z</time>
      </trkpt>
      <trkpt lat="41.74893" lon="123.36441">
        <ele>36.503098</ele>
        <time>2016-05-07T11:13:55.164000Z</time>
      </trkpt>
      <trkpt lat="41.748917" lon="123.364555">
        <ele>36.495262</ele>
        <time>2016-05-07T11:13:59.593000Z</time>
      </trkpt>
      <trkpt lat="41.74891" lon="123.36471">
        <ele>36.4864</ele>
        <time>2016-05-07T11:14:04.022000Z</time>
      </trkpt>
      <trkpt lat="41.7489" lon="123.36485">
        <ele>36.478363</ele>
        <time>2016-05-07T11:14:08.451000Z</time>
      </trkpt>
      <trkpt lat="41.748886" lon="123.365">
        <ele>36.470272</ele>
        <time>2016-05-07T11:14:12.880000Z</time>
      </trkpt>
      <trkpt lat="41.748856" lon="123.365135">
        <ele>36.46244</ele>
        <time>2016-05-07T11:14:17.309000Z</time>
      </trkpt>
      <trkpt lat="41.748844" lon="123.36527">
        <ele>36.45475</ele>
        <time>2016-05-07T11:14:21.738000Z</time>
      </trkpt>
      <trkpt lat="41.74884" lon="123.3654">
        <ele>36.44725</ele>
        <time>2016-05-07T11:14:26.167000Z</time>
      </trkpt>
      <trkpt lat="41.748833" lon="123.36553">
        <ele>36.440193</ele>
        <time>2016-05-07T11:14:30.596000Z</time>
      </trkpt>
      <trkpt lat="41.74883" lon="123.36567">
        <ele>36.432724</ele>
        <time>2016-05-07T11:14:35.025000Z</time>
      </trkpt>
      <trkpt lat="41.748806" lon="123.365814">
        <ele>36.42418</ele>
        <time>2016-05-07T11:14:39.454000Z</time>
      </trkpt>
      <trkpt lat="41.748783" lon="123.36597">
        <ele>36.41561</ele>
        <time>2016-05-07T11:14:43.883000Z</time>
      </trkpt>
      <trkpt lat="41.748783" lon="123.36611">
        <ele>36.407406</ele>
        <time>2016-05-07T11:14:48.312000Z</time>
      </trkpt>
      <trkpt lat="41.74877" lon="123.36626">
        <ele>36.399254</ele>
        <time>2016-05-07T11:14:52.741000Z</time>
      </trkpt>
      <trkpt lat="41.74874" lon="123.36637">
        <ele>36.39242</ele>
        <time>2016-05-07T11:14:57.170000Z</time>
      </trkpt>
      <trkpt lat="41.74872" lon="123.366516">
        <ele>36.3844</ele>
        <time>2016-05-07T11:15:01.599000Z</time>
      </trkpt>
      <trkpt lat="41.748714" lon="123.366646">
        <ele>35.9336</ele>
        <time>2016-05-07T11:15:06.028000Z</time>
      </trkpt>
      <trkpt lat="41.748707" lon="123.36677">
        <ele>35.344948</ele>
        <time>2016-05-07T11:15:10.457000Z</time>
      </trkpt>
      <trkpt lat="41.748695" lon="123.3669">
        <ele>34.93201</ele>
        <time>2016-05-07T11:15:14.886000Z</time>
      </trkpt>
      <trkpt lat="41.748688" lon="123.36703">
        <ele>34.925446</ele>
        <time>2016-05-07T11:15:19.315000Z</time>
      </trkpt>
      <trkpt lat="41.748688" lon="123.36718">
        <ele>34.873</ele>
        <time>2016-05-07T11:15:23.744000Z</time>
      </trkpt>
      <trkpt lat="41.748684" lon="123.36732">
        <ele>34.824783</ele>
        <time>2016-05-07T11:15:28.173000Z</time>
      </trkpt>
      <trkpt lat="41.748676" lon="123.36745">
        <ele>34.77983</ele>
        <time>2016-05-07T11:15:32.602000Z</time>
      </trkpt>
      <trkpt lat="41.748672" lon="123.3676">
        <ele>34.726044</ele>
        <time>2016-05-07T11:15:37.031000Z</time>
      </trkpt>
      <trkpt lat="41.748695" lon="123.36774">
        <ele>34.675858</ele>
        <time>2016-05-07T11:15:41.460000Z</time>
      </trkpt>
      <trkpt lat="41.74869" lon="123.36787">
        <ele>34.630695</ele>
        <time>2016-05-07T11:15:45.889000Z</time>
      </trkpt>
      <trkpt lat="41.74871" lon="123.368004">
        <ele>34.58407</ele>
        <time>2016-05-07T11:15:50.318000Z</time>
      </trkpt>
      <trkpt lat="41.748726" lon="123.36815">
        <ele>33.90118</ele>
        <time>2016-05-07T11:15:54.747000Z</time>
      </trkpt>
      <trkpt lat="41.748745" lon="123.36826">
        <ele>33.53861</ele>
        <time>2016-05-07T11:15:59.176000Z</time>
      </trkpt>
      <trkpt lat="41.74877" lon="123.3684">
        <ele>33.53178</ele>
        <time>2016-05-07T11:16:03.605000Z</time>
      </trkpt>
      <trkpt lat="41.748787" lon="123.36852">
        <ele>34.752502</ele>
        <time>2016-05-07T11:16:08.034000Z</time>
      </trkpt>
      <trkpt lat="41.748787" lon="123.368645">
        <ele>35.950985</ele>
        <time>2016-05-07T11:16:12.463000Z</time>
      </trkpt>
      <trkpt lat="41.748783" lon="123.36879">
        <ele>37.33088</ele>
        <time>2016-05-07T11:16:16.892000Z</time>
      </trkpt>
      <trkpt lat="41.748806" lon="123.36891">
        <ele>38.56799</ele>
        <time>2016-05-07T11:16:21.321000Z</time>
      </trkpt>
      <trkpt lat="41.748833" lon="123.36904">
        <ele>39.51431</ele>
        <time>2016-05-07T11:16:25.750000Z</time>
      </trkpt>
      <trkpt lat="41.748848" lon="123.36919">
        <ele>39.72492</ele>
        <time>2016-05-07T11:16:30.179000Z</time>
      </trkpt>
      <trkpt lat="41.748856" lon="123.36931">
        <ele>39.739197</ele>
        <time>2016-05-07T11:16:34.608000Z</time>
      </trkpt>
      <trkpt lat="41.748848" lon="123.36945">
        <ele>39.75532</ele>
        <time>2016-05-07T11:16:39.037000Z</time>
      </trkpt>
      <trkpt lat="41.74884" lon="123.369576">
        <ele>39.76957</ele>
        <time>2016-05-07T11:16:43.466000Z</time>
      </trkpt>
      <trkpt lat="41.748795" lon="123.369705">
        <ele>39.785625</ele>
        <time>2016-05-07T11:16:47.895000Z</time>
      </trkpt>
      <trkpt lat="41.748726" lon="123.36981">
        <ele>39.84039</ele>
        <time>2016-05-07T11:16:52.324000Z</time>
      </trkpt>
      <trkpt lat="41.748703" lon="123.36995">
        <ele>39.84327</ele>
        <time>2016-05-07T11:16:56.753000Z</time>
      </trkpt>
      <trkpt lat="41.74868" lon="123.37008">
        <ele>39.846226</ele>
        <time>2016-05-07T11:17:01.182000Z</time>
      </trkpt>
      <trkpt lat="41.74867" lon="123.37021">
        <ele>39.848896</ele>
        <time>2016-05-07T11:17:05.611000Z</time>
      </trkpt>
      <trkpt lat="41.748676" lon="123.37034">
        <ele>39.85165</ele>
        <time>2016-05-07T11:17:10.040000Z</time>
      </trkpt>
      <trkpt lat="41.748695" lon="123.37047">
        <ele>39.854515</ele>
        <time>2016-05-07T11:17:14.469000Z</time>
      </trkpt>
      <trkpt lat="41.748745" lon="123.37059">
        <ele>39.857426</ele>
        <time>2016-05-07T11:17:18.898000Z</time>
      </trkpt>
      <trkpt lat="41.748775" lon="123.37071">
        <ele>39.860203</ele>
        <time>2016-05-07T11:17:23.327000Z</time>
      </trkpt>
      <trkpt lat="41.748806" lon="123.37085">
        <ele>39.863174</ele>
        <time>2016-05-07T11:17:27.756000Z</time>
      </trkpt>
      <trkpt lat="41.74883" lon="123.370964">
        <ele>39.865746</ele>
        <time>2016-05-07T11:17:32.185000Z</time>
      </trkpt>
      <trkpt lat="41.74883" lon="123.37109">
        <ele>39.86845</ele>
        <time>2016-05-07T11:17:36.614000Z</time>
      </trkpt>
      <trkpt lat="41.74885" lon="123.37123">
        <ele>39.871513</ele>
        <time>2016-05-07T11:17:41.043000Z</time>
      </trkpt>
      <trkpt lat="41.74889" lon="123.37135">
        <ele>39.874302</ele>
        <time>2016-05-07T11:17:45.472000Z</time>
      </trkpt>
      <trkpt lat="41.74892" lon="123.37148">
        <ele>39.87714</ele>
        <time>2016-05-07T11:17:49.901000Z</time>
      </trkpt>
      <trkpt lat="41.748943" lon="123.37162">
        <ele>39.88021</ele>
        <time>2016-05-07T11:17:54.330000Z</time>
      </trkpt>
      <trkpt lat="41.748985" lon="123.37176">
        <ele>39.88336</ele>
        <time>2016-05-07T11:17:58.759000Z</time>
      </trkpt>
      <trkpt lat="41.74902" lon="123.37189">
        <ele>39.886147</ele>
        <time>2016-05-07T11:18:03.188000Z</time>
      </trkpt>
      <trkpt lat="41.749065" lon="123.37199">
        <ele>39.88876</ele>
        <time>2016-05-07T11:18:07.617000Z</time>
      </trkpt>
      <trkpt lat="41.749107" lon="123.3721">
        <ele>40.382217</ele>
        <time>2016-05-07T11:18:12.046000Z</time>
      </trkpt>
      <trkpt lat="41.74912" lon="123.37224">
        <ele>40.972267</ele>
        <time>2016-05-07T11:18:16.475000Z</time>
      </trkpt>
      <trkpt lat="41.74913" lon="123.372375">
        <ele>41.38568</ele>
        <time>2016-05-07T11:18:20.904000Z</time>
      </trkpt>
      <trkpt lat="41.74916" lon="123.37252">
        <ele>41.592678</ele>
        <time>2016-05-07T11:18:25.333000Z</time>
      </trkpt>
      <trkpt lat="41.749195" lon="123.37266">
        <ele>41.620373</ele>
        <time>2016-05-07T11:18:29.762000Z</time>
      </trkpt>
      <trkpt lat="41.749233" lon="123.372765">
        <ele>41.643593</ele>
        <time>2016-05-07T11:18:34.191000Z</time>
      </trkpt>
      <trkpt lat="41.749283" lon="123.3729">
        <ele>41.672283</ele>
        <time>2016-05-07T11:18:38.620000Z</time>
      </trkpt>
      <trkpt lat="41.749348" lon="123.373">
        <ele>41.698215</ele>
        <time>2016-05-07T11:18:43.049000Z</time>
      </trkpt>
      <trkpt lat="41.74941" lon="123.37311">
        <ele>41.72354</ele>
        <time>2016-05-07T11:18:47.478000Z</time>
      </trkpt>
      <trkpt lat="41.749462" lon="123.37323">
        <ele>41.75128</ele>
        <time>2016-05-07T11:18:51.907000Z</time>
      </trkpt>
      <trkpt lat="41.74951" lon="123.373375">
        <ele>41.78127</ele>
        <time>2016-05-07T11:18:56.336000Z</time>
      </trkpt>
      <trkpt lat="41.74956" lon="123.3735">
        <ele>41.80813</ele>
        <time>2016-05-07T11:19:00.765000Z</time>
      </trkpt>
      <trkpt lat="41.74961" lon="123.37361">
        <ele>41.833435</ele>
        <time>2016-05-07T11:19:05.194000Z</time>
      </trkpt>
      <trkpt lat="41.74966" lon="123.373726">
        <ele>41.859226</ele>
        <time>2016-05-07T11:19:09.623000Z</time>
      </trkpt>
      <trkpt lat="41.74971" lon="123.37384">
        <ele>41.885136</ele>
        <time>2016-05-07T11:19:14.052000Z</time>
      </trkpt>
      <trkpt lat="41.749763" lon="123.373955">
        <ele>41.91125</ele>
        <time>2016-05-07T11:19:18.481000Z</time>
      </trkpt>
      <trkpt lat="41.749798" lon="123.37407">
        <ele>41.935074</ele>
        <time>2016-05-07T11:19:22.910000Z</time>
      </trkpt>
      <trkpt lat="41.749855" lon="123.37418">
        <ele>41.960472</ele>
        <time>2016-05-07T11:19:27.339000Z</time>
      </trkpt>
      <trkpt lat="41.74991" lon="123.37432">
        <ele>41.99046</ele>
        <time>2016-05-07T11:19:31.768000Z</time>
      </trkpt>
      <trkpt lat="41.749966" lon="123.37443">
        <ele>42.01646</ele>
        <time>2016-05-07T11:19:36.197000Z</time>
      </trkpt>
      <trkpt lat="41.75001" lon="123.37456">
        <ele>42.73515</ele>
        <time>2016-05-07T11:19:40.626000Z</time>
      </trkpt>
      <trkpt lat="41.750076" lon="123.374664">
        <ele>43.107437</ele>
        <time>2016-05-07T11:19:45.055000Z</time>
      </trkpt>
      <trkpt lat="41.750137" lon="123.37477">
        <ele>43.570347</ele>
        <time>2016-05-07T11:19:49.484000Z</time>
      </trkpt>
      <trkpt lat="41.75021" lon="123.37486">
        <ele>44.213444</ele>
        <time>2016-05-07T11:19:53.913000Z</time>
      </trkpt>
      <trkpt lat="41.750275" lon="123.37498">
        <ele>44.745155</ele>
        <time>2016-05-07T11:19:58.342000Z</time>
      </trkpt>
      <trkpt lat="41.750336" lon="123.37507">
        <ele>45.009632</ele>
        <time>2016-05-07T11:20:02.771000Z</time>
      </trkpt>
      <trkpt lat="41.750412" lon="123.37517">
        <ele>45.11593</ele>
        <time>2016-05-07T11:20:07.200000Z</time>
      </trkpt>
      <trkpt lat="41.750477" lon="123.37527">
        <ele>45.261105</ele>
        <time>2016-05-07T11:20:11.629000Z</time>
      </trkpt>
      <trkpt lat="41.750546" lon="123.37539">
        <ele>45.567852</ele>
        <time>2016-05-07T11:20:16.058000Z</time>
      </trkpt>
      <trkpt lat="41.750618" lon="123.37547">
        <ele>45.958263</ele>
        <time>2016-05-07T11:20:20.487000Z</time>
      </trkpt>
      <trkpt lat="41.7507" lon="123.37557">
        <ele>46.237175</ele>
        <time>2016-05-07T11:20:24.916000Z</time>
      </trkpt>
      <trkpt lat="41.750774" lon="123.37567">
        <ele>46.38096</ele>
        <time>2016-05-07T11:20:29.345000Z</time>
      </trkpt>
      <trkpt lat="41.750835" lon="123.37576">
        <ele>46.546955</ele>
        <time>2016-05-07T11:20:33.774000Z</time>
      </trkpt>
      <trkpt lat="41.750904" lon="123.37586">
        <ele>46.81945</ele>
        <time>2016-05-07T11:20:38.203000Z</time>
      </trkpt>
      <trkpt lat="41.750973" lon="123.37597">
        <ele>47.080055</ele>
        <time>2016-05-07T11:20:42.632000Z</time>
      </trkpt>
      <trkpt lat="41.751053" lon="123.37606">
        <ele>47.20986</ele>
        <time>2016-05-07T11:20:47.061000Z</time>
      </trkpt>
      <trkpt lat="41.751133" lon="123.37617">
        <ele>47.28076</ele>
        <time>2016-05-07T11:20:51.490000Z</time>
      </trkpt>
      <trkpt lat="41.75119" lon="123.37627">
        <ele>47.3971</ele>
        <time>2016-05-07T11:20:55.919000Z</time>
      </trkpt>
      <trkpt lat="41.75124" lon="123.37637">
        <ele>47.534027</ele>
        <time>2016-05-07T11:21:00.348000Z</time>
      </trkpt>
      <trkpt lat="41.75131" lon="123.37646">
        <ele>46.852768</ele>
        <time>2016-05-07T11:21:04.777000Z</time>
      </trkpt>
      <trkpt lat="41.75138" lon="123.37655">
        <ele>46.095367</ele>
        <time>2016-05-07T11:21:09.206000Z</time>
      </trkpt>
      <trkpt lat="41.751434" lon="123.376656">
        <ele>45.37871</ele>
        <time>2016-05-07T11:21:13.635000Z</time>
      </trkpt>
      <trkpt lat="41.751503" lon="123.37677">
        <ele>44.585247</ele>
        <time>2016-05-07T11:21:18.064000Z</time>
      </trkpt>
      <trkpt lat="41.751568" lon="123.376854">
        <ele>43.91668</ele>
        <time>2016-05-07T11:21:22.493000Z</time>
      </trkpt>
      <trkpt lat="41.751633" lon="123.37694">
        <ele>43.21004</ele>
        <time>2016-05-07T11:21:26.922000Z</time>
      </trkpt>
      <trkpt lat="41.751705" lon="123.37705">
        <ele>42.37784</ele>
        <time>2016-05-07T11:21:31.351000Z</time>
      </trkpt>
      <trkpt lat="41.75178" lon="123.377144">
        <ele>41.9454</ele>
        <time>2016-05-07T11:21:35.780000Z</time>
      </trkpt>
      <trkpt lat="41.751842" lon="123.377235">
        <ele>41.0857</ele>
        <time>2016-05-07T11:21:40.209000Z</time>
      </trkpt>
      <trkpt lat="41.751896" lon="123.37736">
        <ele>39.742367</ele>
        <time>2016-05-07T11:21:44.638000Z</time>
      </trkpt>
      <trkpt lat="41.751934" lon="123.377464">
        <ele>38.575</ele>
        <time>2016-05-07T11:21:49.067000Z</time>
      </trkpt>
      <trkpt lat="41.752" lon="123.377556">
        <ele>38.0608</ele>
        <time>2016-05-07T11:21:53.496000Z</time>
      </trkpt>
      <trkpt lat="41.75206" lon="123.37768">
        <ele>37.938686</ele>
        <time>2016-05-07T11:21:57.925000Z</time>
      </trkpt>
      <trkpt lat="41.752132" lon="123.377785">
        <ele>37.867283</ele>
        <time>2016-05-07T11:22:02.354000Z</time>
      </trkpt>
      <trkpt lat="41.75221" lon="123.37787">
        <ele>37.77021</ele>
        <time>2016-05-07T11:22:06.783000Z</time>
      </trkpt>
      <trkpt lat="41.752277" lon="123.37795">
        <ele>37.675987</ele>
        <time>2016-05-07T11:22:11.212000Z</time>
      </trkpt>
      <trkpt lat="41.752346" lon="123.37805">
        <ele>37.579716</ele>
        <time>2016-05-07T11:22:15.641000Z</time>
      </trkpt>
      <trkpt lat="41.752415" lon="123.37813">
        <ele>37.48995</ele>
        <time>2016-05-07T11:22:20.070000Z</time>
      </trkpt>
      <trkpt lat="41.75249" lon="123.37821">
        <ele>37.392876</ele>
        <time>2016-05-07T11:22:24.499000Z</time>
      </trkpt>
      <trkpt lat="41.75256" lon="123.37829">
        <ele>37.30373</ele>
        <time>2016-05-07T11:22:28.928000Z</time>
      </trkpt>
      <trkpt lat="41.752632" lon="123.37837">
        <ele>37.211643</ele>
        <time>2016-05-07T11:22:33.357000Z</time>
      </trkpt>
      <trkpt lat="41.75269" lon="123.37846">
        <ele>37.12214</ele>
        <time>2016-05-07T11:22:37.786000Z</time>
      </trkpt>
      <trkpt lat="41.752735" lon="123.37857">
        <ele>36.599075</ele>
        <time>2016-05-07T11:22:42.215000Z</time>
      </trkpt>
      <trkpt lat="41.752804" lon="123.37867">
        <ele>36.423325</ele>
        <time>2016-05-07T11:22:46.644000Z</time>
      </trkpt>
      <trkpt lat="41.75286" lon="123.37876">
        <ele>36.592373</ele>
        <time>2016-05-07T11:22:51.073000Z</time>
      </trkpt>
      <trkpt lat="41.752914" lon="123.37886">
        <ele>36.765137</ele>
        <time>2016-05-07T11:22:55.502000Z</time>
      </trkpt>
      <trkpt lat="41.752983" lon="123.37897">
        <ele>36.957005</ele>
        <time>2016-05-07T11:22:59.931000Z</time>
      </trkpt>
      <trkpt lat="41.753044" lon="123.37909">
        <ele>37.163918</ele>
        <time>2016-05-07T11:23:04.360000Z</time>
      </trkpt>
      <trkpt lat="41.753098" lon="123.379196">
        <ele>37.34514</ele>
        <time>2016-05-07T11:23:08.789000Z</time>
      </trkpt>
      <trkpt lat="41.75315" lon="123.37932">
        <ele>37.547318</ele>
        <time>2016-05-07T11:23:13.218000Z</time>
      </trkpt>
      <trkpt lat="41.753223" lon="123.37943">
        <ele>37.753555</ele>
        <time>2016-05-07T11:23:17.647000Z</time>
      </trkpt>
      <trkpt lat="41.75329" lon="123.37955">
        <ele>37.953873</ele>
        <time>2016-05-07T11:23:22.076000Z</time>
      </trkpt>
      <trkpt lat="41.75334" lon="123.379654">
        <ele>38.137966</ele>
        <time>2016-05-07T11:23:26.505000Z</time>
      </trkpt>
      <trkpt lat="41.7534" lon="123.379776">
        <ele>38.339638</ele>
        <time>2016-05-07T11:23:30.934000Z</time>
      </trkpt>
      <trkpt lat="41.753456" lon="123.379906">
        <ele>38.55061</ele>
        <time>2016-05-07T11:23:35.363000Z</time>
      </trkpt>
      <trkpt lat="41.753517" lon="123.38002">
        <ele>38.74721</ele>
        <time>2016-05-07T11:23:39.792000Z</time>
      </trkpt>
      <trkpt lat="41.753582" lon="123.380135">
        <ele>38.948544</ele>
        <time>2016-05-07T11:23:44.221000Z</time>
      </trkpt>
      <trkpt lat="41.753647" lon="123.38025">
        <ele>39.148865</ele>
        <time>2016-05-07T11:23:48.650000Z</time>
      </trkpt>
      <trkpt lat="41.7537" lon="123.380356">
        <ele>39.331944</ele>
        <time>2016-05-07T11:23:53.079000Z</time>
      </trkpt>
      <trkpt lat="41.753757" lon="123.38046">
        <ele>39.52043</ele>
        <time>2016-05-07T11:23:57.508000Z</time>
      </trkpt>
      <trkpt lat="41.753815" lon="123.38058">
        <ele>39.705196</ele>
        <time>2016-05-07T11:24:01.937000Z</time>
      </trkpt>
      <trkpt lat="41.753872" lon="123.380684">
        <ele>39.89335</ele>
        <time>2016-05-07T11:24:06.366000Z</time>
      </trkpt>
      <trkpt lat="41.753933" lon="123.380775">
        <ele>40.07186</ele>
        <time>2016-05-07T11:24:10.795000Z</time>
      </trkpt>
      <trkpt lat="41.754005" lon="123.38087">
        <ele>40.25595</ele>
        <time>2016-05-07T11:24:15.224000Z</time>
      </trkpt>
      <trkpt lat="41.754086" lon="123.38097">
        <ele>40.46371</ele>
        <time>2016-05-07T11:24:19.653000Z</time>
      </trkpt>
      <trkpt lat="41.754147" lon="123.381065">
        <ele>40.63614</ele>
        <time>2016-05-07T11:24:24.082000Z</time>
      </trkpt>
      <trkpt lat="41.75421" lon="123.38115">
        <ele>40.80941</ele>
        <time>2016-05-07T11:24:28.511000Z</time>
      </trkpt>
      <trkpt lat="41.754272" lon="123.38125">
        <ele>40.98843</ele>
        <time>2016-05-07T11:24:32.940000Z</time>
      </trkpt>
      <trkpt lat="41.75433" lon="123.38135">
        <ele>41.171</ele>
        <time>2016-05-07T11:24:37.369000Z</time>
      </trkpt>
      <trkpt lat="41.754337" lon="123.38148">
        <ele>41.35391</ele>
        <time>2016-05-07T11:24:41.798000Z</time>
      </trkpt>
      <trkpt lat="41.75442" lon="123.38155">
        <ele>41.546284</ele>
        <time>2016-05-07T11:24:46.227000Z</time>
      </trkpt>
      <trkpt lat="41.754505" lon="123.381645">
        <ele>42.661465</ele>
        <time>2016-05-07T11:24:50.656000Z</time>
      </trkpt>
      <trkpt lat="41.75457" lon="123.381744">
        <ele>44.175724</ele>
        <time>2016-05-07T11:24:55.085000Z</time>
      </trkpt>
      <trkpt lat="41.754635" lon="123.38184">
        <ele>45.54996</ele>
        <time>2016-05-07T11:24:59.514000Z</time>
      </trkpt>
      <trkpt lat="41.754715" lon="123.381935">
        <ele>46.66767</ele>
        <time>2016-05-07T11:25:03.943000Z</time>
      </trkpt>
      <trkpt lat="41.754776" lon="123.382034">
        <ele>47.64306</ele>
        <time>2016-05-07T11:25:08.372000Z</time>
      </trkpt>
      <trkpt lat="41.75483" lon="123.38214">
        <ele>48.3218</ele>
        <time>2016-05-07T11:25:12.801000Z</time>
      </trkpt>
      <trkpt lat="41.75489" lon="123.38223">
        <ele>48.58674</ele>
        <time>2016-05-07T11:25:17.230000Z</time>
      </trkpt>
      <trkpt lat="41.75495" lon="123.38233">
        <ele>48.590378</ele>
        <time>2016-05-07T11:25:21.659000Z</time>
      </trkpt>
      <trkpt lat="41.755016" lon="123.382416">
        <ele>48.593803</ele>
        <time>2016-05-07T11:25:26.088000Z</time>
      </trkpt>
      <trkpt lat="41.755085" lon="123.3825">
        <ele>48.832893</ele>
        <time>2016-05-07T11:25:30.517000Z</time>
      </trkpt>
      <trkpt lat="41.755157" lon="123.38259">
        <ele>49.125084</ele>
        <time>2016-05-07T11:25:34.946000Z</time>
      </trkpt>
      <trkpt lat="41.75523" lon="123.3827">
        <ele>49.181816</ele>
        <time>2016-05-07T11:25:39.375000Z</time>
      </trkpt>
      <trkpt lat="41.755295" lon="123.38281">
        <ele>48.765896</ele>
        <time>2016-05-07T11:25:43.804000Z</time>
      </trkpt>
      <trkpt lat="41.755352" lon="123.38291">
        <ele>48.384544</ele>
        <time>2016-05-07T11:25:48.233000Z</time>
      </trkpt>
      <trkpt lat="41.755417" lon="123.383">
        <ele>47.999954</ele>
        <time>2016-05-07T11:25:52.662000Z</time>
      </trkpt>
      <trkpt lat="41.75548" lon="123.38311">
        <ele>47.585835</ele>
        <time>2016-05-07T11:25:57.091000Z</time>
      </trkpt>
      <trkpt lat="41.755535" lon="123.38324">
        <ele>47.15299</ele>
        <time>2016-05-07T11:26:01.520000Z</time>
      </trkpt>
      <trkpt lat="41.755592" lon="123.38334">
        <ele>46.78316</ele>
        <time>2016-05-07T11:26:05.949000Z</time>
      </trkpt>
      <trkpt lat="41.755653" lon="123.38342">
        <ele>46.421616</ele>
        <time>2016-05-07T11:26:10.378000Z</time>
      </trkpt>
      <trkpt lat="41.75573" lon="123.38354">
        <ele>45.971485</ele>
        <time>2016-05-07T11:26:14.807000Z</time>
      </trkpt>
      <trkpt lat="41.75579" lon="123.38363">
        <ele>45.6067</ele>
        <time>2016-05-07T11:26:19.236000Z</time>
      </trkpt>
      <trkpt lat="41.75585" lon="123.38375">
        <ele>45.173855</ele>
        <time>2016-05-07T11:26:23.665000Z</time>
      </trkpt>
      <trkpt lat="41.75591" lon="123.38384">
        <ele>44.795746</ele>
        <time>2016-05-07T11:26:28.094000Z</time>
      </trkpt>
      <trkpt lat="41.755966" lon="123.383965">
        <ele>44.386665</ele>
        <time>2016-05-07T11:26:32.523000Z</time>
      </trkpt>
      <trkpt lat="41.756023" lon="123.38406">
        <ele>44.002434</ele>
        <time>2016-05-07T11:26:36.952000Z</time>
      </trkpt>
      <trkpt lat="41.756096" lon="123.38418">
        <ele>43.555904</ele>
        <time>2016-05-07T11:26:41.381000Z</time>
      </trkpt>
      <trkpt lat="41.756145" lon="123.38429">
        <ele>43.09655</ele>
        <time>2016-05-07T11:26:45.810000Z</time>
      </trkpt>
      <trkpt lat="41.756207" lon="123.3844">
        <ele>42.74964</ele>
        <time>2016-05-07T11:26:50.239000Z</time>
      </trkpt>
      <trkpt lat="41.756268" lon="123.38452">
        <ele>42.406437</ele>
        <time>2016-05-07T11:26:54.668000Z</time>
      </trkpt>
      <trkpt lat="41.756332" lon="123.384636">
        <ele>41.948875</ele>
        <time>2016-05-07T11:26:59.097000Z</time>
      </trkpt>
      <trkpt lat="41.756397" lon="123.38475">
        <ele>41.37601</ele>
        <time>2016-05-07T11:27:03.526000Z</time>
      </trkpt>
      <trkpt lat="41.75646" lon="123.384865">
        <ele>41.002377</ele>
        <time>2016-05-07T11:27:07.955000Z</time>
      </trkpt>
      <trkpt lat="41.756516" lon="123.38497">
        <ele>40.978233</ele>
        <time>2016-05-07T11:27:12.384000Z</time>
      </trkpt>
      <trkpt lat="41.75658" lon="123.38508">
        <ele>40.952938</ele>
        <time>2016-05-07T11:27:16.813000Z</time>
      </trkpt>
      <trkpt lat="41.756638" lon="123.3852">
        <ele>40.92674</ele>
        <time>2016-05-07T11:27:21.242000Z</time>
      </trkpt>
      <trkpt lat="41.756687" lon="123.385315">
        <ele>40.902504</ele>
        <time>2016-05-07T11:27:25.671000Z</time>
      </trkpt>
      <trkpt lat="41.756744" lon="123.38543">
        <ele>40.877033</ele>
        <time>2016-05-07T11:27:30.100000Z</time>
      </trkpt>
      <trkpt lat="41.75681" lon="123.38554">
        <ele>40.851562</ele>
        <time>2016-05-07T11:27:34.529000Z</time>
      </trkpt>
      <trkpt lat="41.75687" lon="123.385635">
        <ele>40.827618</ele>
        <time>2016-05-07T11:27:38.958000Z</time>
      </trkpt>
      <trkpt lat="41.756924" lon="123.385735">
        <ele>40.805443</ele>
        <time>2016-05-07T11:27:43.387000Z</time>
      </trkpt>
      <trkpt lat="41.756977" lon="123.38586">
        <ele>40.780304</ele>
        <time>2016-05-07T11:27:47.816000Z</time>
      </trkpt>
      <trkpt lat="41.757027" lon="123.385956">
        <ele>40.21844</ele>
        <time>2016-05-07T11:27:52.245000Z</time>
      </trkpt>
      <trkpt lat="41.75708" lon="123.38607">
        <ele>40.21844</ele>
        <time>2016-05-07T11:27:56.674000Z</time>
      </trkpt>
      <trkpt lat="41.75712" lon="123.38618">
        <ele>40.21844</ele>
        <time>2016-05-07T11:28:01.103000Z</time>
      </trkpt>
      <trkpt lat="41.757164" lon="123.38631">
        <ele>40.21844</ele>
        <time>2016-05-07T11:28:05.532000Z</time>
      </trkpt>
      <trkpt lat="41.757217" lon="123.38641">
        <ele>40.21844</ele>
        <time>2016-05-07T11:28:09.961000Z</time>
      </trkpt>
      <trkpt lat="41.75728" lon="123.386536">
        <ele>40.21844</ele>
        <time>2016-05-07T11:28:14.390000Z</time>
      </trkpt>
      <trkpt lat="41.757328" lon="123.38664">
        <ele>40.21844</ele>
        <time>2016-05-07T11:28:18.819000Z</time>
      </trkpt>
      <trkpt lat="41.75736" lon="123.38676">
        <ele>40.21844</ele>
        <time>2016-05-07T11:28:23.248000Z</time>
      </trkpt>
      <trkpt lat="41.757385" lon="123.38689">
        <ele>40.21844</ele>
        <time>2016-05-07T11:28:27.677000Z</time>
      </trkpt>
      <trkpt lat="41.757412" lon="123.38703">
        <ele>40.21844</ele>
        <time>2016-05-07T11:28:32.106000Z</time>
      </trkpt>
      <trkpt lat="41.75745" lon="123.38715">
        <ele>40.21844</ele>
        <time>2016-05-07T11:28:36.535000Z</time>
      </trkpt>
      <trkpt lat="41.757492" lon="123.38728">
        <ele>40.21844</ele>
        <time>2016-05-07T11:28:40.964000Z</time>
      </trkpt>
      <trkpt lat="41.75754" lon="123.38742">
        <ele>40.21844</ele>
        <time>2016-05-07T11:28:45.393000Z</time>
      </trkpt>
      <trkpt lat="41.75758" lon="123.38755">
        <ele>40.21844</ele>
        <time>2016-05-07T11:28:49.822000Z</time>
      </trkpt>
      <trkpt lat="41.757618" lon="123.387665">
        <ele>40.21844</ele>
        <time>2016-05-07T11:28:54.251000Z</time>
      </trkpt>
      <trkpt lat="41.757675" lon="123.38779">
        <ele>40.21844</ele>
        <time>2016-05-07T11:28:58.680000Z</time>
      </trkpt>
      <trkpt lat="41.75773" lon="123.38791">
        <ele>40.21844</ele>
        <time>2016-05-07T11:29:03.109000Z</time>
      </trkpt>
      <trkpt lat="41.757763" lon="123.38803">
        <ele>40.21844</ele>
        <time>2016-05-07T11:29:07.538000Z</time>
      </trkpt>
      <trkpt lat="41.757805" lon="123.38816">
        <ele>40.21844</ele>
        <time>2016-05-07T11:29:11.967000Z</time>
      </trkpt>
      <trkpt lat="41.757847" lon="123.38828">
        <ele>40.21844</ele>
        <time>2016-05-07T11:29:16.396000Z</time>
      </trkpt>
      <trkpt lat="41.757904" lon="123.38841">
        <ele>40.21844</ele>
        <time>2016-05-07T11:29:20.825000Z</time>
      </trkpt>
      <trkpt lat="41.757957" lon="123.38853">
        <ele>40.21844</ele>
        <time>2016-05-07T11:29:25.254000Z</time>
      </trkpt>
      <trkpt lat="41.757957" lon="123.38853">
        <ele>40.21844</ele>
        <time>2016-05-07T11:29:29.683000Z</time>
      </trkpt>
      <trkpt lat="41.758007" lon="123.38863">
        <ele>40.21844</ele>
        <time>2016-05-07T11:29:34.112000Z</time>
      </trkpt>
      <trkpt lat="41.758274" lon="123.3897">
        <ele>33.354546</ele>
        <time>2016-05-07T11:29:38.541000Z</time>
      </trkpt>
      <trkpt lat="41.758274" lon="123.3897">
        <ele>33.354546</ele>
        <time>2016-05-07T11:29:42.970000Z</time>
      </trkpt>
      <trkpt lat="41.758274" lon="123.3897">
        <ele>33.354546</ele>
        <time>2016-05-07T11:29:47.399000Z</time>
      </trkpt>
      <trkpt lat="41.75825" lon="123.38962">
        <ele>33.396587</ele>
        <time>2016-05-07T11:29:51.828000Z</time>
      </trkpt>
      <trkpt lat="41.758205" lon="123.38951">
        <ele>33.458374</ele>
        <time>2016-05-07T11:29:56.257000Z</time>
      </trkpt>
      <trkpt lat="41.758167" lon="123.3894">
        <ele>33.516617</ele>
        <time>2016-05-07T11:30:00.686000Z</time>
      </trkpt>
      <trkpt lat="41.75815" lon="123.389275">
        <ele>33.57637</ele>
        <time>2016-05-07T11:30:05.115000Z</time>
      </trkpt>
      <trkpt lat="41.75807" lon="123.38919">
        <ele>33.638622</ele>
        <time>2016-05-07T11:30:09.544000Z</time>
      </trkpt>
      <trkpt lat="41.758007" lon="123.3891">
        <ele>33.699596</ele>
        <time>2016-05-07T11:30:13.973000Z</time>
      </trkpt>
      <trkpt lat="41.757973" lon="123.38898">
        <ele>33.763645</ele>
        <time>2016-05-07T11:30:18.402000Z</time>
      </trkpt>
      <trkpt lat="41.75795" lon="123.388855">
        <ele>33.82311</ele>
        <time>2016-05-07T11:30:22.831000Z</time>
      </trkpt>
      <trkpt lat="41.75793" lon="123.388725">
        <ele>33.88658</ele>
        <time>2016-05-07T11:30:27.260000Z</time>
      </trkpt>
      <trkpt lat="41.75789" lon="123.388596">
        <ele>33.957367</ele>
        <time>2016-05-07T11:30:31.689000Z</time>
      </trkpt>
      <trkpt lat="41.75784" lon="123.38846">
        <ele>34.029663</ele>
        <time>2016-05-07T11:30:36.118000Z</time>
      </trkpt>
      <trkpt lat="41.757805" lon="123.388336">
        <ele>34.09325</ele>
        <time>2016-05-07T11:30:40.547000Z</time>
      </trkpt>
      <trkpt lat="41.757782" lon="123.38821">
        <ele>34.158695</ele>
        <time>2016-05-07T11:30:44.976000Z</time>
      </trkpt>
      <trkpt lat="41.757736" lon="123.388084">
        <ele>34.222515</ele>
        <time>2016-05-07T11:30:49.405000Z</time>
      </trkpt>
      <trkpt lat="41.757683" lon="123.38797">
        <ele>34.28883</ele>
        <time>2016-05-07T11:30:53.834000Z</time>
      </trkpt>
      <trkpt lat="41.757633" lon="123.38785">
        <ele>34.353172</ele>
        <time>2016-05-07T11:30:58.263000Z</time>
      </trkpt>
      <trkpt lat="41.757587" lon="123.38775">
        <ele>34.411472</ele>
        <time>2016-05-07T11:31:02.692000Z</time>
      </trkpt>
      <trkpt lat="41.75754" lon="123.38762">
        <ele>34.47959</ele>
        <time>2016-05-07T11:31:07.121000Z</time>
      </trkpt>
      <trkpt lat="41.757504" lon="123.38749">
        <ele>34.546543</ele>
        <time>2016-05-07T11:31:11.550000Z</time>
      </trkpt>
      <trkpt lat="41.757477" lon="123.387375">
        <ele>34.604614</ele>
        <time>2016-05-07T11:31:15.979000Z</time>
      </trkpt>
      <trkpt lat="41.75744" lon="123.38727">
        <ele>34.66373</ele>
        <time>2016-05-07T11:31:20.408000Z</time>
      </trkpt>
      <trkpt lat="41.7574" lon="123.38715">
        <ele>34.72203</ele>
        <time>2016-05-07T11:31:24.837000Z</time>
      </trkpt>
      <trkpt lat="41.7574" lon="123.38715">
        <ele>34.72203</ele>
        <time>2016-05-07T11:31:29.266000Z</time>
      </trkpt>
      <trkpt lat="41.7574" lon="123.38715">
        <ele>34.72203</ele>
        <time>2016-05-07T11:31:33.695000Z</time>
      </trkpt>
      <trkpt lat="41.757343" lon="123.387054">
        <ele>34.782597</ele>
        <time>2016-05-07T11:31:38.124000Z</time>
      </trkpt>
      <trkpt lat="41.757317" lon="123.386925">
        <ele>34.848858</ele>
        <time>2016-05-07T11:31:42.553000Z</time>
      </trkpt>
      <trkpt lat="41.757263" lon="123.386826">
        <ele>34.907623</ele>
        <time>2016-05-07T11:31:46.982000Z</time>
      </trkpt>
      <trkpt lat="41.75721" lon="123.38673">
        <ele>34.967957</ele>
        <time>2016-05-07T11:31:51.411000Z</time>
      </trkpt>
      <trkpt lat="41.75717" lon="123.38661">
        <ele>35.026493</ele>
        <time>2016-05-07T11:31:55.840000Z</time>
      </trkpt>
      <trkpt lat="41.757122" lon="123.38648">
        <ele>35.09583</ele>
        <time>2016-05-07T11:32:00.269000Z</time>
      </trkpt>
      <trkpt lat="41.757084" lon="123.386375">
        <ele>35.155464</ele>
        <time>2016-05-07T11:32:04.698000Z</time>
      </trkpt>
      <trkpt lat="41.757084" lon="123.386375">
        <ele>35.155464</ele>
        <time>2016-05-07T11:32:09.127000Z</time>
      </trkpt>
      <trkpt lat="41.75704" lon="123.38626">
        <ele>35.21702</ele>
        <time>2016-05-07T11:32:13.556000Z</time>
      </trkpt>
      <trkpt lat="41.75699" lon="123.38615">
        <ele>35.281536</ele>
        <time>2016-05-07T11:32:17.985000Z</time>
      </trkpt>
      <trkpt lat="41.75699" lon="123.38615">
        <ele>35.281536</ele>
        <time>2016-05-07T11:32:22.414000Z</time>
      </trkpt>
      <trkpt lat="41.756954" lon="123.38603">
        <ele>35.339954</ele>
        <time>2016-05-07T11:32:26.843000Z</time>
      </trkpt>
      <trkpt lat="41.756954" lon="123.38603">
        <ele>35.339954</ele>
        <time>2016-05-07T11:32:31.272000Z</time>
      </trkpt>
      <trkpt lat="41.756954" lon="123.38603">
        <ele>35.339954</ele>
        <time>2016-05-07T11:32:35.701000Z</time>
      </trkpt>
      <trkpt lat="41.757" lon="123.385925">
        <ele>35.400345</ele>
        <time>2016-05-07T11:32:40.130000Z</time>
      </trkpt>
      <trkpt lat="41.75697" lon="123.385796">
        <ele>35.46666</ele>
        <time>2016-05-07T11:32:44.559000Z</time>
      </trkpt>
      <trkpt lat="41.75697" lon="123.385796">
        <ele>35.46666</ele>
        <time>2016-05-07T11:32:48.988000Z</time>
      </trkpt>
      <trkpt lat="41.7569" lon="123.385704">
        <ele>35.528507</ele>
        <time>2016-05-07T11:32:53.417000Z</time>
      </trkpt>
      <trkpt lat="41.75684" lon="123.38559">
        <ele>35.594475</ele>
        <time>2016-05-07T11:32:57.846000Z</time>
      </trkpt>
      <trkpt lat="41.756775" lon="123.38547">
        <ele>35.666187</ele>
        <time>2016-05-07T11:33:02.275000Z</time>
      </trkpt>
      <trkpt lat="41.756714" lon="123.38535">
        <ele>35.73541</ele>
        <time>2016-05-07T11:33:06.704000Z</time>
      </trkpt>
      <trkpt lat="41.756668" lon="123.38525">
        <ele>35.796906</ele>
        <time>2016-05-07T11:33:11.133000Z</time>
      </trkpt>
      <trkpt lat="41.756607" lon="123.38514">
        <ele>35.858864</ele>
        <time>2016-05-07T11:33:15.562000Z</time>
      </trkpt>
      <trkpt lat="41.756546" lon="123.38502">
        <ele>35.929592</ele>
        <time>2016-05-07T11:33:19.991000Z</time>
      </trkpt>
      <trkpt lat="41.756493" lon="123.38492">
        <ele>35.988243</ele>
        <time>2016-05-07T11:33:24.420000Z</time>
      </trkpt>
      <trkpt lat="41.75643" lon="123.38481">
        <ele>36.054676</ele>
        <time>2016-05-07T11:33:28.849000Z</time>
      </trkpt>
      <trkpt lat="41.75638" lon="123.38469">
        <ele>36.121513</ele>
        <time>2016-05-07T11:33:33.278000Z</time>
      </trkpt>
      <trkpt lat="41.756325" lon="123.38458">
        <ele>36.184406</ele>
        <time>2016-05-07T11:33:37.707000Z</time>
      </trkpt>
      <trkpt lat="41.75627" lon="123.38448">
        <ele>36.24259</ele>
        <time>2016-05-07T11:33:42.136000Z</time>
      </trkpt>
      <trkpt lat="41.75621" lon="123.38439">
        <ele>36.303623</ele>
        <time>2016-05-07T11:33:46.565000Z</time>
      </trkpt>
      <trkpt lat="41.756126" lon="123.38431">
        <ele>36.37133</ele>
        <time>2016-05-07T11:33:50.994000Z</time>
      </trkpt>
      <trkpt lat="41.756092" lon="123.38417">
        <ele>36.440086</ele>
        <time>2016-05-07T11:33:55.423000Z</time>
      </trkpt>
      <trkpt lat="41.756046" lon="123.384056">
        <ele>36.503498</ele>
        <time>2016-05-07T11:33:59.852000Z</time>
      </trkpt>
      <trkpt lat="41.755993" lon="123.38396">
        <ele>36.561626</ele>
        <time>2016-05-07T11:34:04.281000Z</time>
      </trkpt>
      <trkpt lat="41.75593" lon="123.383865">
        <ele>36.6215</ele>
        <time>2016-05-07T11:34:08.710000Z</time>
      </trkpt>
      <trkpt lat="41.75593" lon="123.383865">
        <ele>36.6215</ele>
        <time>2016-05-07T11:34:13.139000Z</time>
      </trkpt>
      <trkpt lat="41.75586" lon="123.383766">
        <ele>36.689438</ele>
        <time>2016-05-07T11:34:17.568000Z</time>
      </trkpt>
      <trkpt lat="41.75581" lon="123.38366">
        <ele>36.74809</ele>
        <time>2016-05-07T11:34:21.997000Z</time>
      </trkpt>
      <trkpt lat="41.755756" lon="123.38356">
        <ele>36.808075</ele>
        <time>2016-05-07T11:34:26.426000Z</time>
      </trkpt>
      <trkpt lat="41.755688" lon="123.383446">
        <ele>36.877235</ele>
        <time>2016-05-07T11:34:30.855000Z</time>
      </trkpt>
      <trkpt lat="41.75563" lon="123.383354">
        <ele>36.935654</ele>
        <time>2016-05-07T11:34:35.284000Z</time>
      </trkpt>
      <trkpt lat="41.755558" lon="123.38325">
        <ele>37.004814</ele>
        <time>2016-05-07T11:34:39.713000Z</time>
      </trkpt>
      <trkpt lat="41.75548" lon="123.38316">
        <ele>37.069855</ele>
        <time>2016-05-07T11:34:44.142000Z</time>
      </trkpt>
      <trkpt lat="41.75542" lon="123.38306">
        <ele>37.13396</ele>
        <time>2016-05-07T11:34:48.571000Z</time>
      </trkpt>
      <trkpt lat="41.755367" lon="123.38296">
        <ele>37.192844</ele>
        <time>2016-05-07T11:34:53Z</time>
      </trkpt>
      <trkpt lat="41.755302" lon="123.38285">
        <ele>37.258175</ele>
        <time>2016-05-07T11:34:57.429000Z</time>
      </trkpt>
      <trkpt lat="41.755245" lon="123.38275">
        <ele>37.319786</ele>
        <time>2016-05-07T11:35:01.858000Z</time>
      </trkpt>
      <trkpt lat="41.755184" lon="123.382645">
        <ele>37.38552</ele>
        <time>2016-05-07T11:35:06.287000Z</time>
      </trkpt>
      <trkpt lat="41.75511" lon="123.38252">
        <ele>37.458515</ele>
        <time>2016-05-07T11:35:10.716000Z</time>
      </trkpt>
      <trkpt lat="41.75504" lon="123.38244">
        <ele>37.52175</ele>
        <time>2016-05-07T11:35:15.145000Z</time>
      </trkpt>
      <trkpt lat="41.754963" lon="123.38233">
        <ele>37.592655</ele>
        <time>2016-05-07T11:35:19.574000Z</time>
      </trkpt>
      <trkpt lat="41.75491" lon="123.38221">
        <ele>37.66205</ele>
        <time>2016-05-07T11:35:24.003000Z</time>
      </trkpt>
      <trkpt lat="41.754837" lon="123.38212">
        <ele>37.725346</ele>
        <time>2016-05-07T11:35:28.432000Z</time>
      </trkpt>
      <trkpt lat="41.754765" lon="123.382">
        <ele>37.797005</ele>
        <time>2016-05-07T11:35:32.861000Z</time>
      </trkpt>
      <trkpt lat="41.754696" lon="123.38193">
        <ele>37.855366</ele>
        <time>2016-05-07T11:35:37.290000Z</time>
      </trkpt>
      <trkpt lat="41.75463" lon="123.38183">
        <ele>37.917034</ele>
        <time>2016-05-07T11:35:41.719000Z</time>
      </trkpt>
      <trkpt lat="41.754574" lon="123.38173">
        <ele>37.979053</ele>
        <time>2016-05-07T11:35:46.148000Z</time>
      </trkpt>
      <trkpt lat="41.7545" lon="123.381615">
        <ele>38.050247</ele>
        <time>2016-05-07T11:35:50.577000Z</time>
      </trkpt>
      <trkpt lat="41.754414" lon="123.38153">
        <ele>38.120686</ele>
        <time>2016-05-07T11:35:55.006000Z</time>
      </trkpt>
      <trkpt lat="41.754345" lon="123.38143">
        <ele>38.18491</ele>
        <time>2016-05-07T11:35:59.435000Z</time>
      </trkpt>
      <trkpt lat="41.754272" lon="123.381325">
        <ele>38.25529</ele>
        <time>2016-05-07T11:36:03.864000Z</time>
      </trkpt>
      <trkpt lat="41.754208" lon="123.381226">
        <ele>38.3201</ele>
        <time>2016-05-07T11:36:08.293000Z</time>
      </trkpt>
      <trkpt lat="41.754143" lon="123.38113">
        <ele>38.383335</ele>
        <time>2016-05-07T11:36:12.722000Z</time>
      </trkpt>
      <trkpt lat="41.75407" lon="123.38102">
        <ele>38.452785</ele>
        <time>2016-05-07T11:36:17.151000Z</time>
      </trkpt>
      <trkpt lat="41.754017" lon="123.380905">
        <ele>38.517303</ele>
        <time>2016-05-07T11:36:21.580000Z</time>
      </trkpt>
      <trkpt lat="41.753956" lon="123.38081">
        <ele>38.724316</ele>
        <time>2016-05-07T11:36:26.009000Z</time>
      </trkpt>
      <trkpt lat="41.753883" lon="123.380714">
        <ele>38.73796</ele>
        <time>2016-05-07T11:36:30.438000Z</time>
      </trkpt>
      <trkpt lat="41.753838" lon="123.38059">
        <ele>38.751484</ele>
        <time>2016-05-07T11:36:34.867000Z</time>
      </trkpt>
      <trkpt lat="41.75379" lon="123.38047">
        <ele>38.765396</ele>
        <time>2016-05-07T11:36:39.296000Z</time>
      </trkpt>
      <trkpt lat="41.75374" lon="123.38036">
        <ele>38.777878</ele>
        <time>2016-05-07T11:36:43.725000Z</time>
      </trkpt>
      <trkpt lat="41.753674" lon="123.38025">
        <ele>38.792133</ele>
        <time>2016-05-07T11:36:48.154000Z</time>
      </trkpt>
      <trkpt lat="41.753613" lon="123.380135">
        <ele>38.805923</ele>
        <time>2016-05-07T11:36:52.583000Z</time>
      </trkpt>
      <trkpt lat="41.75355" lon="123.38002">
        <ele>38.820145</ele>
        <time>2016-05-07T11:36:57.012000Z</time>
      </trkpt>
      <trkpt lat="41.753494" lon="123.379906">
        <ele>38.833767</ele>
        <time>2016-05-07T11:37:01.441000Z</time>
      </trkpt>
      <trkpt lat="41.753433" lon="123.37981">
        <ele>38.84686</ele>
        <time>2016-05-07T11:37:05.870000Z</time>
      </trkpt>
      <trkpt lat="41.753387" lon="123.379684">
        <ele>38.860493</ele>
        <time>2016-05-07T11:37:10.299000Z</time>
      </trkpt>
      <trkpt lat="41.753323" lon="123.37958">
        <ele>38.87402</ele>
        <time>2016-05-07T11:37:14.728000Z</time>
      </trkpt>
      <trkpt lat="41.75328" lon="123.37946">
        <ele>38.886406</ele>
        <time>2016-05-07T11:37:19.157000Z</time>
      </trkpt>
      <trkpt lat="41.753227" lon="123.379364">
        <ele>38.899</ele>
        <time>2016-05-07T11:37:23.586000Z</time>
      </trkpt>
      <trkpt lat="41.75317" lon="123.37925">
        <ele>38.91269</ele>
        <time>2016-05-07T11:37:28.015000Z</time>
      </trkpt>
      <trkpt lat="41.753113" lon="123.379135">
        <ele>38.926228</ele>
        <time>2016-05-07T11:37:32.444000Z</time>
      </trkpt>
      <trkpt lat="41.753063" lon="123.37901">
        <ele>38.939945</ele>
        <time>2016-05-07T11:37:36.873000Z</time>
      </trkpt>
      <trkpt lat="41.753" lon="123.3789">
        <ele>38.954586</ele>
        <time>2016-05-07T11:37:41.302000Z</time>
      </trkpt>
      <trkpt lat="41.752922" lon="123.37881">
        <ele>38.968338</ele>
        <time>2016-05-07T11:37:45.731000Z</time>
      </trkpt>
      <trkpt lat="41.75284" lon="123.37871">
        <ele>38.982883</ele>
        <time>2016-05-07T11:37:50.160000Z</time>
      </trkpt>
      <trkpt lat="41.752773" lon="123.3786">
        <ele>38.996433</ele>
        <time>2016-05-07T11:37:54.589000Z</time>
      </trkpt>
      <trkpt lat="41.752712" lon="123.378494">
        <ele>39.009945</ele>
        <time>2016-05-07T11:37:59.018000Z</time>
      </trkpt>
      <trkpt lat="41.75264" lon="123.378395">
        <ele>39.02401</ele>
        <time>2016-05-07T11:38:03.447000Z</time>
      </trkpt>
      <trkpt lat="41.752563" lon="123.378296">
        <ele>39.038124</ele>
        <time>2016-05-07T11:38:07.876000Z</time>
      </trkpt>
      <trkpt lat="41.752483" lon="123.378204">
        <ele>39.051876</ele>
        <time>2016-05-07T11:38:12.305000Z</time>
      </trkpt>
      <trkpt lat="41.752415" lon="123.378105">
        <ele>39.06533</ele>
        <time>2016-05-07T11:38:16.734000Z</time>
      </trkpt>
      <trkpt lat="41.752335" lon="123.37801">
        <ele>39.507942</ele>
        <time>2016-05-07T11:38:21.163000Z</time>
      </trkpt>
      <trkpt lat="41.752274" lon="123.377914">
        <ele>39.822704</ele>
        <time>2016-05-07T11:38:25.592000Z</time>
      </trkpt>
      <trkpt lat="41.75222" lon="123.37781">
        <ele>39.890476</ele>
        <time>2016-05-07T11:38:30.021000Z</time>
      </trkpt>
      <trkpt lat="41.75214" lon="123.37773">
        <ele>39.890476</ele>
        <time>2016-05-07T11:38:34.450000Z</time>
      </trkpt>
      <trkpt lat="41.75209" lon="123.3776">
        <ele>39.890476</ele>
        <time>2016-05-07T11:38:38.879000Z</time>
      </trkpt>
      <trkpt lat="41.752026" lon="123.37751">
        <ele>39.890476</ele>
        <time>2016-05-07T11:38:43.308000Z</time>
      </trkpt>
      <trkpt lat="41.751976" lon="123.3774">
        <ele>39.890476</ele>
        <time>2016-05-07T11:38:47.737000Z</time>
      </trkpt>
      <trkpt lat="41.7519" lon="123.377304">
        <ele>39.890476</ele>
        <time>2016-05-07T11:38:52.166000Z</time>
      </trkpt>
      <trkpt lat="41.75182" lon="123.37722">
        <ele>39.890476</ele>
        <time>2016-05-07T11:38:56.595000Z</time>
      </trkpt>
      <trkpt lat="41.751747" lon="123.37711">
        <ele>39.890476</ele>
        <time>2016-05-07T11:39:01.024000Z</time>
      </trkpt>
      <trkpt lat="41.751675" lon="123.37702">
        <ele>39.890476</ele>
        <time>2016-05-07T11:39:05.453000Z</time>
      </trkpt>
      <trkpt lat="41.75159" lon="123.37695">
        <ele>39.890476</ele>
        <time>2016-05-07T11:39:09.882000Z</time>
      </trkpt>
      <trkpt lat="41.751526" lon="123.37683">
        <ele>39.890476</ele>
        <time>2016-05-07T11:39:14.311000Z</time>
      </trkpt>
      <trkpt lat="41.751472" lon="123.376724">
        <ele>39.890476</ele>
        <time>2016-05-07T11:39:18.740000Z</time>
      </trkpt>
      <trkpt lat="41.751408" lon="123.37664">
        <ele>39.890476</ele>
        <time>2016-05-07T11:39:23.169000Z</time>
      </trkpt>
      <trkpt lat="41.751343" lon="123.37655">
        <ele>39.890476</ele>
        <time>2016-05-07T11:39:27.598000Z</time>
      </trkpt>
      <trkpt lat="41.751278" lon="123.37646">
        <ele>39.890476</ele>
        <time>2016-05-07T11:39:32.027000Z</time>
      </trkpt>
      <trkpt lat="41.751198" lon="123.376366">
        <ele>39.890476</ele>
        <time>2016-05-07T11:39:36.456000Z</time>
      </trkpt>
      <trkpt lat="41.75114" lon="123.37627">
        <ele>39.890476</ele>
        <time>2016-05-07T11:39:40.885000Z</time>
      </trkpt>
      <trkpt lat="41.75109" lon="123.37616">
        <ele>39.890476</ele>
        <time>2016-05-07T11:39:45.314000Z</time>
      </trkpt>
      <trkpt lat="41.751026" lon="123.37607">
        <ele>39.890476</ele>
        <time>2016-05-07T11:39:49.743000Z</time>
      </trkpt>
      <trkpt lat="41.75096" lon="123.37598">
        <ele>39.890476</ele>
        <time>2016-05-07T11:39:54.172000Z</time>
      </trkpt>
      <trkpt lat="41.75092" lon="123.37586">
        <ele>39.890476</ele>
        <time>2016-05-07T11:39:58.601000Z</time>
      </trkpt>
      <trkpt lat="41.75086" lon="123.375755">
        <ele>39.890476</ele>
        <time>2016-05-07T11:40:03.030000Z</time>
      </trkpt>
      <trkpt lat="41.750786" lon="123.37566">
        <ele>39.890476</ele>
        <time>2016-05-07T11:40:07.459000Z</time>
      </trkpt>
      <trkpt lat="41.750725" lon="123.375565">
        <ele>39.890476</ele>
        <time>2016-05-07T11:40:11.888000Z</time>
      </trkpt>
      <trkpt lat="41.750668" lon="123.37546">
        <ele>39.890476</ele>
        <time>2016-05-07T11:40:16.317000Z</time>
      </trkpt>
      <trkpt lat="41.750603" lon="123.37535">
        <ele>39.890476</ele>
        <time>2016-05-07T11:40:20.746000Z</time>
      </trkpt>
      <trkpt lat="41.750546" lon="123.37525">
        <ele>39.890476</ele>
        <time>2016-05-07T11:40:25.175000Z</time>
      </trkpt>
      <trkpt lat="41.750546" lon="123.37525">
        <ele>39.890476</ele>
        <time>2016-05-07T11:40:29.604000Z</time>
      </trkpt>
      <trkpt lat="41.750465" lon="123.37517">
        <ele>39.890476</ele>
        <time>2016-05-07T11:40:34.033000Z</time>
      </trkpt>
      <trkpt lat="41.75039" lon="123.375084">
        <ele>39.890476</ele>
        <time>2016-05-07T11:40:38.462000Z</time>
      </trkpt>
      <trkpt lat="41.75032" lon="123.374985">
        <ele>39.890476</ele>
        <time>2016-05-07T11:40:42.891000Z</time>
      </trkpt>
      <trkpt lat="41.75026" lon="123.37488">
        <ele>39.890476</ele>
        <time>2016-05-07T11:40:47.320000Z</time>
      </trkpt>
      <trkpt lat="41.750206" lon="123.37479">
        <ele>39.890476</ele>
        <time>2016-05-07T11:40:51.749000Z</time>
      </trkpt>
      <trkpt lat="41.75013" lon="123.37468">
        <ele>39.890476</ele>
        <time>2016-05-07T11:40:56.178000Z</time>
      </trkpt>
      <trkpt lat="41.75006" lon="123.374596">
        <ele>39.890476</ele>
        <time>2016-05-07T11:41:00.607000Z</time>
      </trkpt>
      <trkpt lat="41.749973" lon="123.3745">
        <ele>39.890476</ele>
        <time>2016-05-07T11:41:05.036000Z</time>
      </trkpt>
      <trkpt lat="41.74989" lon="123.37442">
        <ele>39.890476</ele>
        <time>2016-05-07T11:41:09.465000Z</time>
      </trkpt>
      <trkpt lat="41.74984" lon="123.37432">
        <ele>39.890476</ele>
        <time>2016-05-07T11:41:13.894000Z</time>
      </trkpt>
      <trkpt lat="41.749825" lon="123.37415">
        <ele>39.890476</ele>
        <time>2016-05-07T11:41:18.323000Z</time>
      </trkpt>
      <trkpt lat="41.74979" lon="123.374016">
        <ele>39.890476</ele>
        <time>2016-05-07T11:41:22.752000Z</time>
      </trkpt>
      <trkpt lat="41.749752" lon="123.37391">
        <ele>39.890476</ele>
        <time>2016-05-07T11:41:27.181000Z</time>
      </trkpt>
      <trkpt lat="41.749702" lon="123.3738">
        <ele>39.890476</ele>
        <time>2016-05-07T11:41:31.610000Z</time>
      </trkpt>
      <trkpt lat="41.74966" lon="123.37369">
        <ele>39.890476</ele>
        <time>2016-05-07T11:41:36.039000Z</time>
      </trkpt>
      <trkpt lat="41.74966" lon="123.37369">
        <ele>39.890476</ele>
        <time>2016-05-07T11:41:40.468000Z</time>
      </trkpt>
      <trkpt lat="41.749607" lon="123.37358">
        <ele>39.890476</ele>
        <time>2016-05-07T11:41:44.897000Z</time>
      </trkpt>
      <trkpt lat="41.749557" lon="123.37345">
        <ele>39.890476</ele>
        <time>2016-05-07T11:41:49.326000Z</time>
      </trkpt>
      <trkpt lat="41.749508" lon="123.37334">
        <ele>39.890476</ele>
        <time>2016-05-07T11:41:53.755000Z</time>
      </trkpt>
      <trkpt lat="41.749466" lon="123.373215">
        <ele>39.890476</ele>
        <time>2016-05-07T11:41:58.184000Z</time>
      </trkpt>
      <trkpt lat="41.74942" lon="123.3731">
        <ele>39.890476</ele>
        <time>2016-05-07T11:42:02.613000Z</time>
      </trkpt>
      <trkpt lat="41.74937" lon="123.37296">
        <ele>39.890476</ele>
        <time>2016-05-07T11:42:07.042000Z</time>
      </trkpt>
      <trkpt lat="41.74932" lon="123.37284">
        <ele>39.890476</ele>
        <time>2016-05-07T11:42:11.471000Z</time>
      </trkpt>
      <trkpt lat="41.749287" lon="123.3727">
        <ele>39.890476</ele>
        <time>2016-05-07T11:42:15.900000Z</time>
      </trkpt>
      <trkpt lat="41.749256" lon="123.37258">
        <ele>39.890476</ele>
        <time>2016-05-07T11:42:20.329000Z</time>
      </trkpt>
      <trkpt lat="41.749226" lon="123.37243">
        <ele>39.890476</ele>
        <time>2016-05-07T11:42:24.758000Z</time>
      </trkpt>
      <trkpt lat="41.749203" lon="123.372314">
        <ele>39.890476</ele>
        <time>2016-05-07T11:42:29.187000Z</time>
      </trkpt>
      <trkpt lat="41.749172" lon="123.37219">
        <ele>39.890476</ele>
        <time>2016-05-07T11:42:33.616000Z</time>
      </trkpt>
      <trkpt lat="41.749146" lon="123.37207">
        <ele>39.890476</ele>
        <time>2016-05-07T11:42:38.045000Z</time>
      </trkpt>
      <trkpt lat="41.749115" lon="123.37195">
        <ele>39.890476</ele>
        <time>2016-05-07T11:42:42.474000Z</time>
      </trkpt>
      <trkpt lat="41.749077" lon="123.3718">
        <ele>39.890476</ele>
        <time>2016-05-07T11:42:46.903000Z</time>
      </trkpt>
      <trkpt lat="41.749035" lon="123.37167">
        <ele>39.890476</ele>
        <time>2016-05-07T11:42:51.332000Z</time>
      </trkpt>
      <trkpt lat="41.74899" lon="123.371544">
        <ele>39.890476</ele>
        <time>2016-05-07T11:42:55.760000Z</time>
      </trkpt>
      <trkpt lat="41.748962" lon="123.37142">
        <ele>39.890476</ele>
        <time>2016-05-07T11:43:00.188000Z</time>
      </trkpt>
      <trkpt lat="41.74893" lon="123.37131">
        <ele>39.890476</ele>
        <time>2016-05-07T11:43:04.616000Z</time>
      </trkpt>
      <trkpt lat="41.74891" lon="123.371185">
        <ele>39.890476</ele>
        <time>2016-05-07T11:43:09.044000Z</time>
      </trkpt>
      <trkpt lat="41.74886" lon="123.37104">
        <ele>39.890476</ele>
        <time>2016-05-07T11:43:13.472000Z</time>
      </trkpt>
      <trkpt lat="41.74886" lon="123.37104">
        <ele>39.890476</ele>
        <time>2016-05-07T11:43:17.900000Z</time>
      </trkpt>
      <trkpt lat="41.748825" lon="123.37092">
        <ele>39.890476</ele>
        <time>2016-05-07T11:43:22.328000Z</time>
      </trkpt>
      <trkpt lat="41.748802" lon="123.3708">
        <time>2016-05-07T11:43:26.756000Z</time>
      </trkpt>
    </trkseg>
  </trk>
</gpx>