<?xml version="1.0" encoding="UTF-8"?>
<gpx xmlns="http://www.topografix.com/GPX/1/1" xmlns:gpxtpx="http://www.garmin.com/xmlschemas/TrackPointExtension/v1" xmlns:xsi="http://www.w3.org/2001/XMLSchema-instance" xsi:schemaLocation="http://www.topografix.com/GPX/1/1 http://www.topografix.com/GPX/1/1/gpx.xsd" version="1.1" creator="gpx.py -- https://github.com/tkrajina/gpxpy">
  <trk>
    <trkseg>
      <trkpt lat="27.840376" lon="113.12128">
        <ele>59.405563</ele>
        <time>2016-05-22T22:51:59.817000Z</time>
      </trkpt>
      <trkpt lat="27.840488" lon="113.12132">
        <ele>57.330574</ele>
        <time>2016-05-22T22:52:03.048000Z</time>
      </trkpt>
      <trkpt lat="27.840567" lon="113.12139">
        <ele>55.58263</ele>
        <time>2016-05-22T22:52:06.279000Z</time>
      </trkpt>
      <trkpt lat="27.84066" lon="113.121445">
        <ele>53.75213</ele>
        <time>2016-05-22T22:52:09.510000Z</time>
      </trkpt>
      <trkpt lat="27.840752" lon="113.12146">
        <ele>52.0788</ele>
        <time>2016-05-22T22:52:12.741000Z</time>
      </trkpt>
      <trkpt lat="27.840816" lon="113.121544">
        <ele>50.396397</ele>
        <time>2016-05-22T22:52:15.972000Z</time>
      </trkpt>
      <trkpt lat="27.840816" lon="113.121544">
        <ele>49.367657</ele>
        <time>2016-05-22T22:52:19.203000Z</time>
      </trkpt>
      <trkpt lat="27.840904" lon="113.12161">
        <ele>48.838486</ele>
        <time>2016-05-22T22:52:22.434000Z</time>
      </trkpt>
      <trkpt lat="27.841011" lon="113.12165">
        <ele>48.509403</ele>
        <time>2016-05-22T22:52:25.665000Z</time>
      </trkpt>
      <trkpt lat="27.841097" lon="113.12169">
        <ele>47.88491</ele>
        <time>2016-05-22T22:52:28.896000Z</time>
      </trkpt>
      <trkpt lat="27.841183" lon="113.121735">
        <ele>46.829792</ele>
        <time>2016-05-22T22:52:32.127000Z</time>
      </trkpt>
      <trkpt lat="27.841293" lon="113.12178">
        <ele>45.729782</ele>
        <time>2016-05-22T22:52:35.358000Z</time>
      </trkpt>
      <trkpt lat="27.841381" lon="113.12183">
        <ele>44.9562</ele>
        <time>2016-05-22T22:52:38.589000Z</time>
      </trkpt>
      <trkpt lat="27.841473" lon="113.12188">
        <ele>44.436577</ele>
        <time>2016-05-22T22:52:41.820000Z</time>
      </trkpt>
      <trkpt lat="27.841568" lon="113.1219">
        <ele>43.87351</ele>
        <time>2016-05-22T22:52:45.051000Z</time>
      </trkpt>
      <trkpt lat="27.841656" lon="113.12193">
        <ele>43.21929</ele>
        <time>2016-05-22T22:52:48.282000Z</time>
      </trkpt>
      <trkpt lat="27.841757" lon="113.12193">
        <ele>42.70249</ele>
        <time>2016-05-22T22:52:51.513000Z</time>
      </trkpt>
      <trkpt lat="27.841871" lon="113.121956">
        <ele>42.1478</ele>
        <time>2016-05-22T22:52:54.744000Z</time>
      </trkpt>
      <trkpt lat="27.84198" lon="113.122">
        <ele>41.179096</ele>
        <time>2016-05-22T22:52:57.975000Z</time>
      </trkpt>
      <trkpt lat="27.84208" lon="113.122055">
        <ele>40.111702</ele>
        <time>2016-05-22T22:53:01.206000Z</time>
      </trkpt>
      <trkpt lat="27.842154" lon="113.122116">
        <ele>39.529564</ele>
        <time>2016-05-22T22:53:04.437000Z</time>
      </trkpt>
      <trkpt lat="27.842247" lon="113.12217">
        <ele>39.46835</ele>
        <time>2016-05-22T22:53:07.668000Z</time>
      </trkpt>
      <trkpt lat="27.84234" lon="113.12221">
        <ele>39.417034</ele>
        <time>2016-05-22T22:53:10.899000Z</time>
      </trkpt>
      <trkpt lat="27.84243" lon="113.122246">
        <ele>39.368607</ele>
        <time>2016-05-22T22:53:14.130000Z</time>
      </trkpt>
      <trkpt lat="27.842524" lon="113.1223">
        <ele>38.87577</ele>
        <time>2016-05-22T22:53:17.361000Z</time>
      </trkpt>
      <trkpt lat="27.842632" lon="113.12235">
        <ele>38.333977</ele>
        <time>2016-05-22T22:53:20.592000Z</time>
      </trkpt>
      <trkpt lat="27.842722" lon="113.122375">
        <ele>37.941765</ele>
        <time>2016-05-22T22:53:23.823000Z</time>
      </trkpt>
      <trkpt lat="27.84282" lon="113.12242">
        <ele>37.636486</ele>
        <time>2016-05-22T22:53:27.054000Z</time>
      </trkpt>
      <trkpt lat="27.842918" lon="113.12249">
        <ele>37.29307</ele>
        <time>2016-05-22T22:53:30.285000Z</time>
      </trkpt>
      <trkpt lat="27.84302" lon="113.12253">
        <ele>36.82636</ele>
        <time>2016-05-22T22:53:33.516000Z</time>
      </trkpt>
      <trkpt lat="27.843132" lon="113.122574">
        <ele>36.15714</ele>
        <time>2016-05-22T22:53:36.747000Z</time>
      </trkpt>
      <trkpt lat="27.843225" lon="113.12261">
        <ele>35.408165</ele>
        <time>2016-05-22T22:53:39.978000Z</time>
      </trkpt>
      <trkpt lat="27.84332" lon="113.12264">
        <ele>34.918915</ele>
        <time>2016-05-22T22:53:43.209000Z</time>
      </trkpt>
      <trkpt lat="27.843407" lon="113.12268">
        <ele>34.797165</ele>
        <time>2016-05-22T22:53:46.440000Z</time>
      </trkpt>
      <trkpt lat="27.843496" lon="113.12272">
        <ele>34.794006</ele>
        <time>2016-05-22T22:53:49.671000Z</time>
      </trkpt>
      <trkpt lat="27.843588" lon="113.12274">
        <ele>34.79082</ele>
        <time>2016-05-22T22:53:52.902000Z</time>
      </trkpt>
      <trkpt lat="27.843689" lon="113.12277">
        <ele>34.787323</ele>
        <time>2016-05-22T22:53:56.133000Z</time>
      </trkpt>
      <trkpt lat="27.843798" lon="113.122795">
        <ele>34.15712</ele>
        <time>2016-05-22T22:53:59.364000Z</time>
      </trkpt>
      <trkpt lat="27.843891" lon="113.122826">
        <ele>33.198692</ele>
        <time>2016-05-22T22:54:02.595000Z</time>
      </trkpt>
      <trkpt lat="27.843983" lon="113.12288">
        <ele>32.35694</ele>
        <time>2016-05-22T22:54:05.826000Z</time>
      </trkpt>
      <trkpt lat="27.844076" lon="113.122925">
        <ele>31.859928</ele>
        <time>2016-05-22T22:54:09.057000Z</time>
      </trkpt>
      <trkpt lat="27.84417" lon="113.12297">
        <ele>31.678205</ele>
        <time>2016-05-22T22:54:12.288000Z</time>
      </trkpt>
      <trkpt lat="27.844273" lon="113.12301">
        <ele>31.614056</ele>
        <time>2016-05-22T22:54:15.519000Z</time>
      </trkpt>
      <trkpt lat="27.844366" lon="113.12306">
        <ele>31.546137</ele>
        <time>2016-05-22T22:54:18.750000Z</time>
      </trkpt>
      <trkpt lat="27.844488" lon="113.123085">
        <ele>31.534199</ele>
        <time>2016-05-22T22:54:21.981000Z</time>
      </trkpt>
      <trkpt lat="27.844606" lon="113.12311">
        <ele>31.522442</ele>
        <time>2016-05-22T22:54:25.212000Z</time>
      </trkpt>
      <trkpt lat="27.84473" lon="113.12313">
        <ele>31.510374</ele>
        <time>2016-05-22T22:54:28.443000Z</time>
      </trkpt>
      <trkpt lat="27.84482" lon="113.12316">
        <ele>31.501297</ele>
        <time>2016-05-22T22:54:31.674000Z</time>
      </trkpt>
      <trkpt lat="27.844904" lon="113.1232">
        <ele>30.932104</ele>
        <time>2016-05-22T22:54:34.905000Z</time>
      </trkpt>
      <trkpt lat="27.844997" lon="113.12325">
        <ele>30.213114</ele>
        <time>2016-05-22T22:54:38.136000Z</time>
      </trkpt>
      <trkpt lat="27.84509" lon="113.123314">
        <ele>29.717379</ele>
        <time>2016-05-22T22:54:41.367000Z</time>
      </trkpt>
      <trkpt lat="27.845198" lon="113.12336">
        <ele>29.512775</ele>
        <time>2016-05-22T22:54:44.598000Z</time>
      </trkpt>
      <trkpt lat="27.845287" lon="113.123405">
        <ele>29.886374</ele>
        <time>2016-05-22T22:54:47.829000Z</time>
      </trkpt>
      <trkpt lat="27.845377" lon="113.12347">
        <ele>30.293901</ele>
        <time>2016-05-22T22:54:51.060000Z</time>
      </trkpt>
      <trkpt lat="27.845457" lon="113.12352">
        <ele>30.646591</ele>
        <time>2016-05-22T22:54:54.291000Z</time>
      </trkpt>
      <trkpt lat="27.845526" lon="113.123604">
        <ele>31.02533</ele>
        <time>2016-05-22T22:54:57.522000Z</time>
      </trkpt>
      <trkpt lat="27.845438" lon="113.12369">
        <ele>31.450682</ele>
        <time>2016-05-22T22:55:00.753000Z</time>
      </trkpt>
      <trkpt lat="27.845438" lon="113.12369">
        <ele>31.450682</ele>
        <time>2016-05-22T22:55:03.984000Z</time>
      </trkpt>
      <trkpt lat="27.845366" lon="113.12376">
        <ele>31.81194</ele>
        <time>2016-05-22T22:55:07.215000Z</time>
      </trkpt>
      <trkpt lat="27.845448" lon="113.1238">
        <ele>32.162914</ele>
        <time>2016-05-22T22:55:10.446000Z</time>
      </trkpt>
      <trkpt lat="27.845448" lon="113.1238">
        <ele>32.162914</ele>
        <time>2016-05-22T22:55:13.677000Z</time>
      </trkpt>
      <trkpt lat="27.845533" lon="113.123856">
        <ele>32.537884</ele>
        <time>2016-05-22T22:55:16.908000Z</time>
      </trkpt>
      <trkpt lat="27.845549" lon="113.12397">
        <ele>32.910793</ele>
        <time>2016-05-22T22:55:20.139000Z</time>
      </trkpt>
      <trkpt lat="27.845495" lon="113.12406">
        <ele>33.293987</ele>
        <time>2016-05-22T22:55:23.370000Z</time>
      </trkpt>
      <trkpt lat="27.845472" lon="113.12417">
        <ele>33.64942</ele>
        <time>2016-05-22T22:55:26.601000Z</time>
      </trkpt>
      <trkpt lat="27.84548" lon="113.12429">
        <ele>34.073402</ele>
        <time>2016-05-22T22:55:29.832000Z</time>
      </trkpt>
      <trkpt lat="27.845482" lon="113.12442">
        <ele>34.521374</ele>
        <time>2016-05-22T22:55:33.063000Z</time>
      </trkpt>
      <trkpt lat="27.845478" lon="113.12455">
        <ele>34.550526</ele>
        <time>2016-05-22T22:55:36.294000Z</time>
      </trkpt>
      <trkpt lat="27.845463" lon="113.12466">
        <ele>34.57708</ele>
        <time>2016-05-22T22:55:39.525000Z</time>
      </trkpt>
      <trkpt lat="27.845404" lon="113.124756">
        <ele>34.605183</ele>
        <time>2016-05-22T22:55:42.756000Z</time>
      </trkpt>
      <trkpt lat="27.84535" lon="113.12485">
        <ele>34.630333</ele>
        <time>2016-05-22T22:55:45.987000Z</time>
      </trkpt>
      <trkpt lat="27.845299" lon="113.12493">
        <ele>34.65468</ele>
        <time>2016-05-22T22:55:49.218000Z</time>
      </trkpt>
      <trkpt lat="27.845242" lon="113.12502">
        <ele>34.680256</ele>
        <time>2016-05-22T22:55:52.449000Z</time>
      </trkpt>
      <trkpt lat="27.845186" lon="113.12512">
        <ele>34.707977</ele>
        <time>2016-05-22T22:55:55.680000Z</time>
      </trkpt>
      <trkpt lat="27.84513" lon="113.12521">
        <ele>34.73344</ele>
        <time>2016-05-22T22:55:58.911000Z</time>
      </trkpt>
      <trkpt lat="27.845076" lon="113.12533">
        <ele>34.763683</ele>
        <time>2016-05-22T22:56:02.142000Z</time>
      </trkpt>
      <trkpt lat="27.84503" lon="113.12541">
        <ele>34.787834</ele>
        <time>2016-05-22T22:56:05.373000Z</time>
      </trkpt>
      <trkpt lat="27.844978" lon="113.125496">
        <ele>34.92928</ele>
        <time>2016-05-22T22:56:08.604000Z</time>
      </trkpt>
      <trkpt lat="27.844915" lon="113.1256">
        <ele>35.06116</ele>
        <time>2016-05-22T22:56:11.835000Z</time>
      </trkpt>
      <trkpt lat="27.844872" lon="113.12572">
        <ele>35.338905</ele>
        <time>2016-05-22T22:56:15.066000Z</time>
      </trkpt>
      <trkpt lat="27.844862" lon="113.12583">
        <ele>35.630245</ele>
        <time>2016-05-22T22:56:18.297000Z</time>
      </trkpt>
      <trkpt lat="27.844826" lon="113.12592">
        <ele>35.744152</ele>
        <time>2016-05-22T22:56:21.528000Z</time>
      </trkpt>
      <trkpt lat="27.844826" lon="113.12592">
        <ele>35.744152</ele>
        <time>2016-05-22T22:56:24.759000Z</time>
      </trkpt>
      <trkpt lat="27.844826" lon="113.12592">
        <ele>35.744152</ele>
        <time>2016-05-22T22:56:27.990000Z</time>
      </trkpt>
      <trkpt lat="27.84472" lon="113.126076">
        <ele>35.46304</ele>
        <time>2016-05-22T22:56:31.221000Z</time>
      </trkpt>
      <trkpt lat="27.844688" lon="113.12618">
        <ele>35.30228</ele>
        <time>2016-05-22T22:56:34.452000Z</time>
      </trkpt>
      <trkpt lat="27.844654" lon="113.12629">
        <ele>35.141956</ele>
        <time>2016-05-22T22:56:37.683000Z</time>
      </trkpt>
      <trkpt lat="27.844599" lon="113.126396">
        <ele>34.962894</ele>
        <time>2016-05-22T22:56:40.914000Z</time>
      </trkpt>
      <trkpt lat="27.844545" lon="113.1265">
        <ele>34.785446</ele>
        <time>2016-05-22T22:56:44.145000Z</time>
      </trkpt>
      <trkpt lat="27.84449" lon="113.12661">
        <ele>34.60931</ele>
        <time>2016-05-22T22:56:47.376000Z</time>
      </trkpt>
      <trkpt lat="27.844427" lon="113.12673">
        <ele>34.402283</ele>
        <time>2016-05-22T22:56:50.607000Z</time>
      </trkpt>
      <trkpt lat="27.84437" lon="113.12684">
        <ele>34.222927</ele>
        <time>2016-05-22T22:56:53.838000Z</time>
      </trkpt>
      <trkpt lat="27.844313" lon="113.12693">
        <ele>34.0588</ele>
        <time>2016-05-22T22:56:57.069000Z</time>
      </trkpt>
      <trkpt lat="27.844254" lon="113.127014">
        <ele>33.908436</ele>
        <time>2016-05-22T22:57:00.300000Z</time>
      </trkpt>
      <trkpt lat="27.844198" lon="113.1271">
        <ele>33.75148</ele>
        <time>2016-05-22T22:57:03.531000Z</time>
      </trkpt>
      <trkpt lat="27.844143" lon="113.12718">
        <ele>33.603313</ele>
        <time>2016-05-22T22:57:06.762000Z</time>
      </trkpt>
      <trkpt lat="27.844088" lon="113.127266">
        <ele>33.451336</ele>
        <time>2016-05-22T22:57:09.993000Z</time>
      </trkpt>
      <trkpt lat="27.844034" lon="113.12736">
        <ele>33.299652</ele>
        <time>2016-05-22T22:57:13.224000Z</time>
      </trkpt>
      <trkpt lat="27.843977" lon="113.12743">
        <ele>33.14929</ele>
        <time>2016-05-22T22:57:16.455000Z</time>
      </trkpt>
      <trkpt lat="27.84392" lon="113.12752">
        <ele>32.99541</ele>
        <time>2016-05-22T22:57:19.686000Z</time>
      </trkpt>
      <trkpt lat="27.843847" lon="113.127625">
        <ele>32.801704</ele>
        <time>2016-05-22T22:57:22.917000Z</time>
      </trkpt>
      <trkpt lat="27.843779" lon="113.12771">
        <ele>32.642555</ele>
        <time>2016-05-22T22:57:26.148000Z</time>
      </trkpt>
      <trkpt lat="27.8437" lon="113.1278">
        <ele>32.45676</ele>
        <time>2016-05-22T22:57:29.379000Z</time>
      </trkpt>
      <trkpt lat="27.843632" lon="113.12789">
        <ele>32.28619</ele>
        <time>2016-05-22T22:57:32.610000Z</time>
      </trkpt>
      <trkpt lat="27.843594" lon="113.12798">
        <ele>32.13626</ele>
        <time>2016-05-22T22:57:35.841000Z</time>
      </trkpt>
      <trkpt lat="27.843561" lon="113.12809">
        <ele>31.979015</ele>
        <time>2016-05-22T22:57:39.072000Z</time>
      </trkpt>
      <trkpt lat="27.843517" lon="113.12819">
        <ele>31.813717</ele>
        <time>2016-05-22T22:57:42.303000Z</time>
      </trkpt>
      <trkpt lat="27.843475" lon="113.12828">
        <ele>31.666134</ele>
        <time>2016-05-22T22:57:45.534000Z</time>
      </trkpt>
      <trkpt lat="27.843426" lon="113.128395">
        <ele>31.480629</ele>
        <time>2016-05-22T22:57:48.765000Z</time>
      </trkpt>
      <trkpt lat="27.843348" lon="113.128494">
        <ele>31.291319</ele>
        <time>2016-05-22T22:57:51.996000Z</time>
      </trkpt>
      <trkpt lat="27.843275" lon="113.12859">
        <ele>31.108156</ele>
        <time>2016-05-22T22:57:55.227000Z</time>
      </trkpt>
      <trkpt lat="27.84322" lon="113.12871">
        <ele>30.922506</ele>
        <time>2016-05-22T22:57:58.458000Z</time>
      </trkpt>
      <trkpt lat="27.843164" lon="113.12882">
        <ele>30.731731</ele>
        <time>2016-05-22T22:58:01.689000Z</time>
      </trkpt>
      <trkpt lat="27.843119" lon="113.128914">
        <ele>30.33387</ele>
        <time>2016-05-22T22:58:04.920000Z</time>
      </trkpt>
      <trkpt lat="27.843119" lon="113.128914">
        <ele>30.33387</ele>
        <time>2016-05-22T22:58:08.151000Z</time>
      </trkpt>
      <trkpt lat="27.843119" lon="113.128914">
        <ele>30.33387</ele>
        <time>2016-05-22T22:58:11.382000Z</time>
      </trkpt>
      <trkpt lat="27.842964" lon="113.12903">
        <ele>30.050268</ele>
        <time>2016-05-22T22:58:14.613000Z</time>
      </trkpt>
      <trkpt lat="27.84289" lon="113.1291">
        <ele>29.895588</ele>
        <time>2016-05-22T22:58:17.844000Z</time>
      </trkpt>
      <trkpt lat="27.842808" lon="113.12916">
        <ele>28.524523</ele>
        <time>2016-05-22T22:58:21.075000Z</time>
      </trkpt>
      <trkpt lat="27.842724" lon="113.12922">
        <ele>27.257563</ele>
        <time>2016-05-22T22:58:24.306000Z</time>
      </trkpt>
      <trkpt lat="27.842634" lon="113.12928">
        <ele>26.911636</ele>
        <time>2016-05-22T22:58:27.537000Z</time>
      </trkpt>
      <trkpt lat="27.842554" lon="113.12933">
        <ele>27.29662</ele>
        <time>2016-05-22T22:58:30.768000Z</time>
      </trkpt>
      <trkpt lat="27.84247" lon="113.12938">
        <ele>27.680508</ele>
        <time>2016-05-22T22:58:33.999000Z</time>
      </trkpt>
      <trkpt lat="27.842398" lon="113.12945">
        <ele>28.055273</ele>
        <time>2016-05-22T22:58:37.230000Z</time>
      </trkpt>
      <trkpt lat="27.842308" lon="113.12953">
        <ele>28.532213</ele>
        <time>2016-05-22T22:58:40.461000Z</time>
      </trkpt>
      <trkpt lat="27.84224" lon="113.12961">
        <ele>28.913912</ele>
        <time>2016-05-22T22:58:43.692000Z</time>
      </trkpt>
      <trkpt lat="27.842169" lon="113.129684">
        <ele>29.304733</ele>
        <time>2016-05-22T22:58:46.923000Z</time>
      </trkpt>
      <trkpt lat="27.8421" lon="113.12975">
        <ele>29.678404</ele>
        <time>2016-05-22T22:58:50.154000Z</time>
      </trkpt>
      <trkpt lat="27.842014" lon="113.12984">
        <ele>30.144033</ele>
        <time>2016-05-22T22:58:53.385000Z</time>
      </trkpt>
      <trkpt lat="27.841932" lon="113.12992">
        <ele>30.605648</ele>
        <time>2016-05-22T22:58:56.616000Z</time>
      </trkpt>
      <trkpt lat="27.841845" lon="113.13001">
        <ele>31.073465</ele>
        <time>2016-05-22T22:58:59.847000Z</time>
      </trkpt>
      <trkpt lat="27.841755" lon="113.1301">
        <ele>31.55734</ele>
        <time>2016-05-22T22:59:03.078000Z</time>
      </trkpt>
      <trkpt lat="27.841671" lon="113.13019">
        <ele>32.031727</ele>
        <time>2016-05-22T22:59:06.309000Z</time>
      </trkpt>
      <trkpt lat="27.841578" lon="113.13026">
        <ele>32.47847</ele>
        <time>2016-05-22T22:59:09.540000Z</time>
      </trkpt>
      <trkpt lat="27.841496" lon="113.13034">
        <ele>32.83808</ele>
        <time>2016-05-22T22:59:12.771000Z</time>
      </trkpt>
      <trkpt lat="27.841404" lon="113.130424">
        <ele>33.26159</ele>
        <time>2016-05-22T22:59:16.002000Z</time>
      </trkpt>
      <trkpt lat="27.841333" lon="113.13051">
        <ele>33.609467</ele>
        <time>2016-05-22T22:59:19.233000Z</time>
      </trkpt>
      <trkpt lat="27.841253" lon="113.13059">
        <ele>33.735607</ele>
        <time>2016-05-22T22:59:22.464000Z</time>
      </trkpt>
      <trkpt lat="27.841188" lon="113.13066">
        <ele>33.74707</ele>
        <time>2016-05-22T22:59:25.695000Z</time>
      </trkpt>
      <trkpt lat="27.841122" lon="113.130745">
        <ele>33.759514</ele>
        <time>2016-05-22T22:59:28.926000Z</time>
      </trkpt>
      <trkpt lat="27.841057" lon="113.13084">
        <ele>33.77208</ele>
        <time>2016-05-22T22:59:32.157000Z</time>
      </trkpt>
      <trkpt lat="27.840973" lon="113.13093">
        <ele>33.786674</ele>
        <time>2016-05-22T22:59:35.388000Z</time>
      </trkpt>
      <trkpt lat="27.840914" lon="113.131004">
        <ele>33.79799</ele>
        <time>2016-05-22T22:59:38.619000Z</time>
      </trkpt>
      <trkpt lat="27.840849" lon="113.1311">
        <ele>33.811695</ele>
        <time>2016-05-22T22:59:41.850000Z</time>
      </trkpt>
      <trkpt lat="27.84079" lon="113.13118">
        <ele>33.82317</ele>
        <time>2016-05-22T22:59:45.081000Z</time>
      </trkpt>
      <trkpt lat="27.840725" lon="113.131256">
        <ele>33.8349</ele>
        <time>2016-05-22T22:59:48.312000Z</time>
      </trkpt>
      <trkpt lat="27.840658" lon="113.13135">
        <ele>33.847984</ele>
        <time>2016-05-22T22:59:51.543000Z</time>
      </trkpt>
      <trkpt lat="27.840597" lon="113.131424">
        <ele>33.968372</ele>
        <time>2016-05-22T22:59:54.774000Z</time>
      </trkpt>
      <trkpt lat="27.840519" lon="113.13153">
        <ele>33.983562</ele>
        <time>2016-05-22T22:59:58.005000Z</time>
      </trkpt>
      <trkpt lat="27.840437" lon="113.13163">
        <ele>33.99896</ele>
        <time>2016-05-22T23:00:01.236000Z</time>
      </trkpt>
      <trkpt lat="27.840376" lon="113.13173">
        <ele>34.012074</ele>
        <time>2016-05-22T23:00:04.467000Z</time>
      </trkpt>
      <trkpt lat="27.840307" lon="113.131805">
        <ele>34.024834</ele>
        <time>2016-05-22T23:00:07.698000Z</time>
      </trkpt>
      <trkpt lat="27.840244" lon="113.1319">
        <ele>34.037746</ele>
        <time>2016-05-22T23:00:10.929000Z</time>
      </trkpt>
      <trkpt lat="27.840181" lon="113.13198">
        <ele>34.05011</ele>
        <time>2016-05-22T23:00:14.160000Z</time>
      </trkpt>
      <trkpt lat="27.840113" lon="113.13207">
        <ele>34.624447</ele>
        <time>2016-05-22T23:00:17.391000Z</time>
      </trkpt>
      <trkpt lat="27.840048" lon="113.132164">
        <ele>34.989285</ele>
        <time>2016-05-22T23:00:20.622000Z</time>
      </trkpt>
      <trkpt lat="27.83998" lon="113.13225">
        <ele>35.336704</ele>
        <time>2016-05-22T23:00:23.853000Z</time>
      </trkpt>
      <trkpt lat="27.83991" lon="113.13233">
        <ele>35.677322</ele>
        <time>2016-05-22T23:00:27.084000Z</time>
      </trkpt>
      <trkpt lat="27.839842" lon="113.132416">
        <ele>35.901623</ele>
        <time>2016-05-22T23:00:30.315000Z</time>
      </trkpt>
      <trkpt lat="27.839775" lon="113.13249">
        <ele>35.983967</ele>
        <time>2016-05-22T23:00:33.546000Z</time>
      </trkpt>
      <trkpt lat="27.839697" lon="113.132576">
        <ele>35.998585</ele>
        <time>2016-05-22T23:00:36.777000Z</time>
      </trkpt>
      <trkpt lat="27.839626" lon="113.132645">
        <ele>36.01218</ele>
        <time>2016-05-22T23:00:40.008000Z</time>
      </trkpt>
      <trkpt lat="27.839544" lon="113.13273">
        <ele>36.027653</ele>
        <time>2016-05-22T23:00:43.239000Z</time>
      </trkpt>
      <trkpt lat="27.839468" lon="113.13281">
        <ele>36.04243</ele>
        <time>2016-05-22T23:00:46.470000Z</time>
      </trkpt>
      <trkpt lat="27.83939" lon="113.132904">
        <ele>36.383232</ele>
        <time>2016-05-22T23:00:49.701000Z</time>
      </trkpt>
      <trkpt lat="27.839308" lon="113.13298">
        <ele>36.83768</ele>
        <time>2016-05-22T23:00:52.932000Z</time>
      </trkpt>
      <trkpt lat="27.839226" lon="113.13306">
        <ele>37.250248</ele>
        <time>2016-05-22T23:00:56.163000Z</time>
      </trkpt>
      <trkpt lat="27.839142" lon="113.133125">
        <ele>37.588444</ele>
        <time>2016-05-22T23:00:59.394000Z</time>
      </trkpt>
      <trkpt lat="27.839071" lon="113.1332">
        <ele>37.830048</ele>
        <time>2016-05-22T23:01:02.625000Z</time>
      </trkpt>
      <trkpt lat="27.838999" lon="113.133286">
        <ele>37.963776</ele>
        <time>2016-05-22T23:01:05.856000Z</time>
      </trkpt>
      <trkpt lat="27.838923" lon="113.13336">
        <ele>38.02931</ele>
        <time>2016-05-22T23:01:09.087000Z</time>
      </trkpt>
      <trkpt lat="27.838852" lon="113.13344">
        <ele>38.102837</ele>
        <time>2016-05-22T23:01:12.318000Z</time>
      </trkpt>
      <trkpt lat="27.838772" lon="113.133514">
        <ele>38.230873</ele>
        <time>2016-05-22T23:01:15.549000Z</time>
      </trkpt>
      <trkpt lat="27.8387" lon="113.1336">
        <ele>38.354618</ele>
        <time>2016-05-22T23:01:18.780000Z</time>
      </trkpt>
      <trkpt lat="27.838625" lon="113.13368">
        <ele>38.481934</ele>
        <time>2016-05-22T23:01:22.011000Z</time>
      </trkpt>
      <trkpt lat="27.838552" lon="113.13376">
        <ele>38.715435</ele>
        <time>2016-05-22T23:01:25.242000Z</time>
      </trkpt>
      <trkpt lat="27.838474" lon="113.13383">
        <ele>39.01651</ele>
        <time>2016-05-22T23:01:28.473000Z</time>
      </trkpt>
      <trkpt lat="27.83839" lon="113.1339">
        <ele>39.25205</ele>
        <time>2016-05-22T23:01:31.704000Z</time>
      </trkpt>
      <trkpt lat="27.838316" lon="113.13399">
        <ele>39.37722</ele>
        <time>2016-05-22T23:01:34.935000Z</time>
      </trkpt>
      <trkpt lat="27.838316" lon="113.13399">
        <ele>39.417255</ele>
        <time>2016-05-22T23:01:38.166000Z</time>
      </trkpt>
      <trkpt lat="27.838215" lon="113.13408">
        <ele>39.42205</ele>
        <time>2016-05-22T23:01:41.397000Z</time>
      </trkpt>
      <trkpt lat="27.838135" lon="113.13415">
        <ele>39.425743</ele>
        <time>2016-05-22T23:01:44.628000Z</time>
      </trkpt>
      <trkpt lat="27.838055" lon="113.134224">
        <ele>39.60501</ele>
        <time>2016-05-22T23:01:47.859000Z</time>
      </trkpt>
      <trkpt lat="27.837982" lon="113.13429">
        <ele>39.900173</ele>
        <time>2016-05-22T23:01:51.090000Z</time>
      </trkpt>
      <trkpt lat="27.837883" lon="113.13436">
        <ele>39.98928</ele>
        <time>2016-05-22T23:01:54.321000Z</time>
      </trkpt>
      <trkpt lat="27.837791" lon="113.134445">
        <ele>40.042522</ele>
        <time>2016-05-22T23:01:57.552000Z</time>
      </trkpt>
      <trkpt lat="27.837711" lon="113.13454">
        <ele>40.093105</ele>
        <time>2016-05-22T23:02:00.783000Z</time>
      </trkpt>
      <trkpt lat="27.837624" lon="113.13461">
        <ele>40.141922</ele>
        <time>2016-05-22T23:02:04.014000Z</time>
      </trkpt>
      <trkpt lat="27.83754" lon="113.134674">
        <ele>40.18748</ele>
        <time>2016-05-22T23:02:07.245000Z</time>
      </trkpt>
      <trkpt lat="27.837461" lon="113.13474">
        <ele>40.232193</ele>
        <time>2016-05-22T23:02:10.476000Z</time>
      </trkpt>
      <trkpt lat="27.837381" lon="113.1348">
        <ele>40.274456</ele>
        <time>2016-05-22T23:02:13.707000Z</time>
      </trkpt>
      <trkpt lat="27.8373" lon="113.134865">
        <ele>40.31913</ele>
        <time>2016-05-22T23:02:16.938000Z</time>
      </trkpt>
      <trkpt lat="27.83722" lon="113.13493">
        <ele>40.3632</ele>
        <time>2016-05-22T23:02:20.169000Z</time>
      </trkpt>
      <trkpt lat="27.837135" lon="113.135">
        <ele>40.410446</ele>
        <time>2016-05-22T23:02:23.400000Z</time>
      </trkpt>
      <trkpt lat="27.837051" lon="113.13507">
        <ele>40.456207</ele>
        <time>2016-05-22T23:02:26.631000Z</time>
      </trkpt>
      <trkpt lat="27.836971" lon="113.13514">
        <ele>40.5008</ele>
        <time>2016-05-22T23:02:29.862000Z</time>
      </trkpt>
      <trkpt lat="27.8369" lon="113.1352">
        <ele>40.541534</ele>
        <time>2016-05-22T23:02:33.093000Z</time>
      </trkpt>
      <trkpt lat="27.836678" lon="113.135345">
        <ele>40.591312</ele>
        <time>2016-05-22T23:02:36.324000Z</time>
      </trkpt>
      <trkpt lat="27.836597" lon="113.1354">
        <ele>40.633053</ele>
        <time>2016-05-22T23:02:39.555000Z</time>
      </trkpt>
      <trkpt lat="27.836514" lon="113.13547">
        <ele>41.26356</ele>
        <time>2016-05-22T23:02:42.786000Z</time>
      </trkpt>
      <trkpt lat="27.836428" lon="113.13553">
        <ele>41.48335</ele>
        <time>2016-05-22T23:02:46.017000Z</time>
      </trkpt>
      <trkpt lat="27.83634" lon="113.13562">
        <ele>41.48374</ele>
        <time>2016-05-22T23:02:49.248000Z</time>
      </trkpt>
      <trkpt lat="27.836254" lon="113.13569">
        <ele>41.484097</ele>
        <time>2016-05-22T23:02:52.479000Z</time>
      </trkpt>
      <trkpt lat="27.836168" lon="113.13574">
        <ele>41.484436</ele>
        <time>2016-05-22T23:02:55.710000Z</time>
      </trkpt>
      <trkpt lat="27.836077" lon="113.135796">
        <ele>41.484787</ele>
        <time>2016-05-22T23:02:58.941000Z</time>
      </trkpt>
      <trkpt lat="27.835989" lon="113.13585">
        <ele>41.632454</ele>
        <time>2016-05-22T23:03:02.172000Z</time>
      </trkpt>
      <trkpt lat="27.835909" lon="113.1359">
        <ele>41.7189</ele>
        <time>2016-05-22T23:03:05.403000Z</time>
      </trkpt>
      <trkpt lat="27.835823" lon="113.135956">
        <ele>41.635456</ele>
        <time>2016-05-22T23:03:08.634000Z</time>
      </trkpt>
      <trkpt lat="27.835733" lon="113.13602">
        <ele>41.546165</ele>
        <time>2016-05-22T23:03:11.865000Z</time>
      </trkpt>
      <trkpt lat="27.835646" lon="113.136086">
        <ele>41.45557</ele>
        <time>2016-05-22T23:03:15.096000Z</time>
      </trkpt>
      <trkpt lat="27.835558" lon="113.136154">
        <ele>41.36628</ele>
        <time>2016-05-22T23:03:18.327000Z</time>
      </trkpt>
      <trkpt lat="27.835466" lon="113.13621">
        <ele>41.276993</ele>
        <time>2016-05-22T23:03:21.558000Z</time>
      </trkpt>
      <trkpt lat="27.835373" lon="113.13626">
        <ele>41.187935</ele>
        <time>2016-05-22T23:03:24.789000Z</time>
      </trkpt>
      <trkpt lat="27.835278" lon="113.136314">
        <ele>41.096645</ele>
        <time>2016-05-22T23:03:28.020000Z</time>
      </trkpt>
      <trkpt lat="27.835184" lon="113.13635">
        <ele>41.01028</ele>
        <time>2016-05-22T23:03:31.251000Z</time>
      </trkpt>
      <trkpt lat="27.835081" lon="113.13642">
        <ele>40.90884</ele>
        <time>2016-05-22T23:03:34.482000Z</time>
      </trkpt>
      <trkpt lat="27.834974" lon="113.13648">
        <ele>40.80686</ele>
        <time>2016-05-22T23:03:37.713000Z</time>
      </trkpt>
      <trkpt lat="27.834873" lon="113.136536">
        <ele>40.71042</ele>
        <time>2016-05-22T23:03:40.944000Z</time>
      </trkpt>
      <trkpt lat="27.834772" lon="113.136604">
        <ele>40.610596</ele>
        <time>2016-05-22T23:03:44.175000Z</time>
      </trkpt>
      <trkpt lat="27.834682" lon="113.13666">
        <ele>40.52446</ele>
        <time>2016-05-22T23:03:47.406000Z</time>
      </trkpt>
      <trkpt lat="27.834585" lon="113.1367">
        <ele>40.43294</ele>
        <time>2016-05-22T23:03:50.637000Z</time>
      </trkpt>
      <trkpt lat="27.834484" lon="113.13676">
        <ele>40.337193</ele>
        <time>2016-05-22T23:03:53.868000Z</time>
      </trkpt>
      <trkpt lat="27.83438" lon="113.13681">
        <ele>40.23929</ele>
        <time>2016-05-22T23:03:57.099000Z</time>
      </trkpt>
      <trkpt lat="27.83428" lon="113.13686">
        <ele>40.145847</ele>
        <time>2016-05-22T23:04:00.330000Z</time>
      </trkpt>
      <trkpt lat="27.83419" lon="113.13691">
        <ele>40.061405</ele>
        <time>2016-05-22T23:04:03.561000Z</time>
      </trkpt>
      <trkpt lat="27.8341" lon="113.136955">
        <ele>39.97596</ele>
        <time>2016-05-22T23:04:06.792000Z</time>
      </trkpt>
      <trkpt lat="27.834003" lon="113.13701">
        <ele>39.885597</ele>
        <time>2016-05-22T23:04:10.023000Z</time>
      </trkpt>
      <trkpt lat="27.833916" lon="113.137054">
        <ele>39.803307</ele>
        <time>2016-05-22T23:04:13.254000Z</time>
      </trkpt>
      <trkpt lat="27.83383" lon="113.13711">
        <ele>39.7194</ele>
        <time>2016-05-22T23:04:16.485000Z</time>
      </trkpt>
      <trkpt lat="27.83373" lon="113.13717">
        <ele>39.620884</ele>
        <time>2016-05-22T23:04:19.716000Z</time>
      </trkpt>
      <trkpt lat="27.83365" lon="113.13724">
        <ele>39.536823</ele>
        <time>2016-05-22T23:04:22.947000Z</time>
      </trkpt>
      <trkpt lat="27.833563" lon="113.1373">
        <ele>39.446995</ele>
        <time>2016-05-22T23:04:26.178000Z</time>
      </trkpt>
      <trkpt lat="27.833475" lon="113.13736">
        <ele>39.36086</ele>
        <time>2016-05-22T23:04:29.409000Z</time>
      </trkpt>
      <trkpt lat="27.833395" lon="113.13742">
        <ele>39.2778</ele>
        <time>2016-05-22T23:04:32.640000Z</time>
      </trkpt>
      <trkpt lat="27.833298" lon="113.137474">
        <ele>39.18405</ele>
        <time>2016-05-22T23:04:35.871000Z</time>
      </trkpt>
      <trkpt lat="27.833197" lon="113.13752">
        <ele>39.0903</ele>
        <time>2016-05-22T23:04:39.102000Z</time>
      </trkpt>
      <trkpt lat="27.8331" lon="113.13757">
        <ele>38.99963</ele>
        <time>2016-05-22T23:04:42.333000Z</time>
      </trkpt>
      <trkpt lat="27.833008" lon="113.13762">
        <ele>38.9118</ele>
        <time>2016-05-22T23:04:45.564000Z</time>
      </trkpt>
      <trkpt lat="27.832901" lon="113.137665">
        <ele>38.816593</ele>
        <time>2016-05-22T23:04:48.795000Z</time>
      </trkpt>
      <trkpt lat="27.832806" lon="113.13769">
        <ele>38.731533</ele>
        <time>2016-05-22T23:04:52.026000Z</time>
      </trkpt>
      <trkpt lat="27.83271" lon="113.13773">
        <ele>38.642937</ele>
        <time>2016-05-22T23:04:55.257000Z</time>
      </trkpt>
      <trkpt lat="27.832617" lon="113.13777">
        <ele>38.557415</ele>
        <time>2016-05-22T23:04:58.488000Z</time>
      </trkpt>
      <trkpt lat="27.832506" lon="113.1378">
        <ele>38.46028</ele>
        <time>2016-05-22T23:05:01.719000Z</time>
      </trkpt>
      <trkpt lat="27.832409" lon="113.13783">
        <ele>38.375607</ele>
        <time>2016-05-22T23:05:04.950000Z</time>
      </trkpt>
      <trkpt lat="27.83232" lon="113.13786">
        <ele>38.29332</ele>
        <time>2016-05-22T23:05:08.181000Z</time>
      </trkpt>
      <trkpt lat="27.83223" lon="113.1379">
        <ele>38.214027</ele>
        <time>2016-05-22T23:05:11.412000Z</time>
      </trkpt>
      <trkpt lat="27.832142" lon="113.13793">
        <ele>38.134274</ele>
        <time>2016-05-22T23:05:14.643000Z</time>
      </trkpt>
      <trkpt lat="27.832052" lon="113.13797">
        <ele>38.05237</ele>
        <time>2016-05-22T23:05:17.874000Z</time>
      </trkpt>
      <trkpt lat="27.831963" lon="113.138">
        <ele>37.972385</ele>
        <time>2016-05-22T23:05:21.105000Z</time>
      </trkpt>
      <trkpt lat="27.83187" lon="113.13802">
        <ele>37.89048</ele>
        <time>2016-05-22T23:05:24.336000Z</time>
      </trkpt>
      <trkpt lat="27.831755" lon="113.138054">
        <ele>37.78835</ele>
        <time>2016-05-22T23:05:27.567000Z</time>
      </trkpt>
      <trkpt lat="27.831642" lon="113.13808">
        <ele>37.6906</ele>
        <time>2016-05-22T23:05:30.798000Z</time>
      </trkpt>
      <trkpt lat="27.831532" lon="113.138115">
        <ele>37.59262</ele>
        <time>2016-05-22T23:05:34.029000Z</time>
      </trkpt>
      <trkpt lat="27.831434" lon="113.13815">
        <ele>37.504177</ele>
        <time>2016-05-22T23:05:37.260000Z</time>
      </trkpt>
      <trkpt lat="27.831352" lon="113.1382">
        <ele>37.42573</ele>
        <time>2016-05-22T23:05:40.491000Z</time>
      </trkpt>
      <trkpt lat="27.831263" lon="113.13824">
        <ele>37.344364</ele>
        <time>2016-05-22T23:05:43.722000Z</time>
      </trkpt>
      <trkpt lat="27.831167" lon="113.138275">
        <ele>37.257538</ele>
        <time>2016-05-22T23:05:46.953000Z</time>
      </trkpt>
      <trkpt lat="27.831078" lon="113.13831">
        <ele>37.17586</ele>
        <time>2016-05-22T23:05:50.184000Z</time>
      </trkpt>
      <trkpt lat="27.830978" lon="113.13836">
        <ele>37.08442</ele>
        <time>2016-05-22T23:05:53.415000Z</time>
      </trkpt>
      <trkpt lat="27.830889" lon="113.13841">
        <ele>36.998592</ele>
        <time>2016-05-22T23:05:56.646000Z</time>
      </trkpt>
      <trkpt lat="27.8308" lon="113.13844">
        <ele>36.91807</ele>
        <time>2016-05-22T23:05:59.877000Z</time>
      </trkpt>
      <trkpt lat="27.83071" lon="113.13846">
        <ele>36.839317</ele>
        <time>2016-05-22T23:06:03.108000Z</time>
      </trkpt>
      <trkpt lat="27.83062" lon="113.1385">
        <ele>36.758106</ele>
        <time>2016-05-22T23:06:06.339000Z</time>
      </trkpt>
      <trkpt lat="27.830526" lon="113.138535">
        <ele>36.673046</ele>
        <time>2016-05-22T23:06:09.570000Z</time>
      </trkpt>
      <trkpt lat="27.830435" lon="113.13857">
        <ele>36.58914</ele>
        <time>2016-05-22T23:06:12.801000Z</time>
      </trkpt>
      <trkpt lat="27.830349" lon="113.13861">
        <ele>36.510773</ele>
        <time>2016-05-22T23:06:16.032000Z</time>
      </trkpt>
      <trkpt lat="27.830238" lon="113.13863">
        <ele>36.414024</ele>
        <time>2016-05-22T23:06:19.263000Z</time>
      </trkpt>
      <trkpt lat="27.830147" lon="113.13866">
        <ele>35.744343</ele>
        <time>2016-05-22T23:06:22.494000Z</time>
      </trkpt>
      <trkpt lat="27.830032" lon="113.13868">
        <ele>35.117523</ele>
        <time>2016-05-22T23:06:25.725000Z</time>
      </trkpt>
      <trkpt lat="27.829947" lon="113.13871">
        <ele>34.32681</ele>
        <time>2016-05-22T23:06:28.956000Z</time>
      </trkpt>
      <trkpt lat="27.830038" lon="113.13872">
        <ele>33.712605</ele>
        <time>2016-05-22T23:06:32.187000Z</time>
      </trkpt>
      <trkpt lat="27.830143" lon="113.138695">
        <ele>34.09777</ele>
        <time>2016-05-22T23:06:35.418000Z</time>
      </trkpt>
      <trkpt lat="27.830244" lon="113.13866">
        <ele>34.468224</ele>
        <time>2016-05-22T23:06:38.649000Z</time>
      </trkpt>
      <trkpt lat="27.830343" lon="113.13864">
        <ele>34.82364</ele>
        <time>2016-05-22T23:06:41.880000Z</time>
      </trkpt>
      <trkpt lat="27.830456" lon="113.1386">
        <ele>35.249115</ele>
        <time>2016-05-22T23:06:45.111000Z</time>
      </trkpt>
      <trkpt lat="27.83055" lon="113.13856">
        <ele>35.602932</ele>
        <time>2016-05-22T23:06:48.342000Z</time>
      </trkpt>
      <trkpt lat="27.830645" lon="113.13852">
        <ele>35.966347</ele>
        <time>2016-05-22T23:06:51.573000Z</time>
      </trkpt>
      <trkpt lat="27.83073" lon="113.13847">
        <ele>36.309925</ele>
        <time>2016-05-22T23:06:54.804000Z</time>
      </trkpt>
      <trkpt lat="27.830841" lon="113.13842">
        <ele>36.734444</ele>
        <time>2016-05-22T23:06:58.035000Z</time>
      </trkpt>
      <trkpt lat="27.830929" lon="113.13838">
        <ele>37.068745</ele>
        <time>2016-05-22T23:07:01.266000Z</time>
      </trkpt>
      <trkpt lat="27.831015" lon="113.13834">
        <ele>37.39857</ele>
        <time>2016-05-22T23:07:04.497000Z</time>
      </trkpt>
      <trkpt lat="27.831099" lon="113.1383">
        <ele>37.732872</ele>
        <time>2016-05-22T23:07:07.728000Z</time>
      </trkpt>
      <trkpt lat="27.831205" lon="113.13824">
        <ele>38.158028</ele>
        <time>2016-05-22T23:07:10.959000Z</time>
      </trkpt>
      <trkpt lat="27.831293" lon="113.1382">
        <ele>38.489452</ele>
        <time>2016-05-22T23:07:14.190000Z</time>
      </trkpt>
      <trkpt lat="27.831404" lon="113.13815">
        <ele>38.90597</ele>
        <time>2016-05-22T23:07:17.421000Z</time>
      </trkpt>
      <trkpt lat="27.831518" lon="113.13812">
        <ele>39.38928</ele>
        <time>2016-05-22T23:07:20.652000Z</time>
      </trkpt>
      <trkpt lat="27.83163" lon="113.138084">
        <ele>39.84659</ele>
        <time>2016-05-22T23:07:23.883000Z</time>
      </trkpt>
      <trkpt lat="27.83173" lon="113.13807">
        <ele>40.078026</ele>
        <time>2016-05-22T23:07:27.114000Z</time>
      </trkpt>
      <trkpt lat="27.83185" lon="113.138084">
        <ele>39.635704</ele>
        <time>2016-05-22T23:07:30.345000Z</time>
      </trkpt>
      <trkpt lat="27.831947" lon="113.13807">
        <ele>39.273685</ele>
        <time>2016-05-22T23:07:33.576000Z</time>
      </trkpt>
      <trkpt lat="27.832037" lon="113.13803">
        <ele>38.925163</ele>
        <time>2016-05-22T23:07:36.807000Z</time>
      </trkpt>
      <trkpt lat="27.832129" lon="113.13797">
        <ele>38.54208</ele>
        <time>2016-05-22T23:07:40.038000Z</time>
      </trkpt>
      <trkpt lat="27.832216" lon="113.13793">
        <ele>38.194214</ele>
        <time>2016-05-22T23:07:43.269000Z</time>
      </trkpt>
      <trkpt lat="27.832308" lon="113.137886">
        <ele>37.8243</ele>
        <time>2016-05-22T23:07:46.500000Z</time>
      </trkpt>
      <trkpt lat="27.832409" lon="113.13787">
        <ele>37.450436</ele>
        <time>2016-05-22T23:07:49.731000Z</time>
      </trkpt>
      <trkpt lat="27.832512" lon="113.13785">
        <ele>37.066364</ele>
        <time>2016-05-22T23:07:52.962000Z</time>
      </trkpt>
      <trkpt lat="27.832602" lon="113.137794">
        <ele>36.694477</ele>
        <time>2016-05-22T23:07:56.193000Z</time>
      </trkpt>
      <trkpt lat="27.832653" lon="113.137695">
        <ele>36.323902</ele>
        <time>2016-05-22T23:07:59.424000Z</time>
      </trkpt>
      <trkpt lat="27.832756" lon="113.137665">
        <ele>35.935883</ele>
        <time>2016-05-22T23:08:02.655000Z</time>
      </trkpt>
      <trkpt lat="27.832886" lon="113.137695">
        <ele>35.457363</ele>
        <time>2016-05-22T23:08:05.886000Z</time>
      </trkpt>
      <trkpt lat="27.83299" lon="113.137695">
        <ele>35.069344</ele>
        <time>2016-05-22T23:08:09.117000Z</time>
      </trkpt>
      <trkpt lat="27.833094" lon="113.13765">
        <ele>34.123196</ele>
        <time>2016-05-22T23:08:12.348000Z</time>
      </trkpt>
      <trkpt lat="27.833202" lon="113.13762">
        <ele>32.98531</ele>
        <time>2016-05-22T23:08:15.579000Z</time>
      </trkpt>
      <trkpt lat="27.833302" lon="113.137566">
        <ele>31.775066</ele>
        <time>2016-05-22T23:08:18.810000Z</time>
      </trkpt>
      <trkpt lat="27.833385" lon="113.1375">
        <ele>30.881157</ele>
        <time>2016-05-22T23:08:22.041000Z</time>
      </trkpt>
      <trkpt lat="27.833448" lon="113.13742">
        <ele>30.479622</ele>
        <time>2016-05-22T23:08:25.272000Z</time>
      </trkpt>
      <trkpt lat="27.83353" lon="113.13734">
        <ele>31.293106</ele>
        <time>2016-05-22T23:08:28.503000Z</time>
      </trkpt>
      <trkpt lat="27.833609" lon="113.13728">
        <ele>31.988264</ele>
        <time>2016-05-22T23:08:31.734000Z</time>
      </trkpt>
      <trkpt lat="27.833696" lon="113.13724">
        <ele>32.717712</ele>
        <time>2016-05-22T23:08:34.965000Z</time>
      </trkpt>
      <trkpt lat="27.833788" lon="113.13718">
        <ele>33.513714</ele>
        <time>2016-05-22T23:08:38.196000Z</time>
      </trkpt>
      <trkpt lat="27.833876" lon="113.13712">
        <ele>34.25795</ele>
        <time>2016-05-22T23:08:41.427000Z</time>
      </trkpt>
      <trkpt lat="27.83397" lon="113.13706">
        <ele>35.053955</ele>
        <time>2016-05-22T23:08:44.658000Z</time>
      </trkpt>
      <trkpt lat="27.834047" lon="113.13699">
        <ele>35.7908</ele>
        <time>2016-05-22T23:08:47.889000Z</time>
      </trkpt>
      <trkpt lat="27.834133" lon="113.13692">
        <ele>36.186615</ele>
        <time>2016-05-22T23:08:51.120000Z</time>
      </trkpt>
      <trkpt lat="27.83424" lon="113.136856">
        <ele>36.560444</ele>
        <time>2016-05-22T23:08:54.351000Z</time>
      </trkpt>
      <trkpt lat="27.834337" lon="113.13682">
        <ele>36.80955</ele>
        <time>2016-05-22T23:08:57.582000Z</time>
      </trkpt>
      <trkpt lat="27.834423" lon="113.13676">
        <ele>36.935753</ele>
        <time>2016-05-22T23:09:00.813000Z</time>
      </trkpt>
      <trkpt lat="27.834522" lon="113.13669">
        <ele>36.93944</ele>
        <time>2016-05-22T23:09:04.044000Z</time>
      </trkpt>
      <trkpt lat="27.834623" lon="113.136635">
        <ele>37.002445</ele>
        <time>2016-05-22T23:09:07.275000Z</time>
      </trkpt>
      <trkpt lat="27.834724" lon="113.13657">
        <ele>37.069218</ele>
        <time>2016-05-22T23:09:10.506000Z</time>
      </trkpt>
      <trkpt lat="27.834806" lon="113.13653">
        <ele>37.12097</ele>
        <time>2016-05-22T23:09:13.737000Z</time>
      </trkpt>
      <trkpt lat="27.834902" lon="113.136444">
        <ele>37.190735</ele>
        <time>2016-05-22T23:09:16.968000Z</time>
      </trkpt>
      <trkpt lat="27.834976" lon="113.13638">
        <ele>37.244194</ele>
        <time>2016-05-22T23:09:20.199000Z</time>
      </trkpt>
      <trkpt lat="27.835093" lon="113.13634">
        <ele>37.31535</ele>
        <time>2016-05-22T23:09:23.430000Z</time>
      </trkpt>
      <trkpt lat="27.835205" lon="113.136284">
        <ele>37.38465</ele>
        <time>2016-05-22T23:09:26.661000Z</time>
      </trkpt>
      <trkpt lat="27.835295" lon="113.13622">
        <ele>37.444664</ele>
        <time>2016-05-22T23:09:29.892000Z</time>
      </trkpt>
      <trkpt lat="27.835403" lon="113.13617">
        <ele>37.512413</ele>
        <time>2016-05-22T23:09:33.123000Z</time>
      </trkpt>
      <trkpt lat="27.835503" lon="113.13611">
        <ele>37.576965</ele>
        <time>2016-05-22T23:09:36.354000Z</time>
      </trkpt>
      <trkpt lat="27.835598" lon="113.13605">
        <ele>37.64028</ele>
        <time>2016-05-22T23:09:39.585000Z</time>
      </trkpt>
      <trkpt lat="27.835688" lon="113.135994">
        <ele>38.49148</ele>
        <time>2016-05-22T23:09:42.816000Z</time>
      </trkpt>
      <trkpt lat="27.83577" lon="113.13594">
        <ele>38.885456</ele>
        <time>2016-05-22T23:09:46.047000Z</time>
      </trkpt>
      <trkpt lat="27.835857" lon="113.13587">
        <ele>39.16132</ele>
        <time>2016-05-22T23:09:49.278000Z</time>
      </trkpt>
      <trkpt lat="27.835941" lon="113.13582">
        <ele>39.63646</ele>
        <time>2016-05-22T23:09:52.509000Z</time>
      </trkpt>
      <trkpt lat="27.836023" lon="113.13577">
        <ele>40.266193</ele>
        <time>2016-05-22T23:09:55.740000Z</time>
      </trkpt>
      <trkpt lat="27.836111" lon="113.13573">
        <ele>40.820908</ele>
        <time>2016-05-22T23:09:58.971000Z</time>
      </trkpt>
      <trkpt lat="27.836191" lon="113.13568">
        <ele>41.179287</ele>
        <time>2016-05-22T23:10:02.202000Z</time>
      </trkpt>
      <trkpt lat="27.836279" lon="113.135635">
        <ele>41.41459</ele>
        <time>2016-05-22T23:10:05.433000Z</time>
      </trkpt>
      <trkpt lat="27.83636" lon="113.13558">
        <ele>41.65421</ele>
        <time>2016-05-22T23:10:08.664000Z</time>
      </trkpt>
      <trkpt lat="27.836445" lon="113.13553">
        <ele>41.88394</ele>
        <time>2016-05-22T23:10:11.895000Z</time>
      </trkpt>
      <trkpt lat="27.836523" lon="113.135475">
        <ele>41.900276</ele>
        <time>2016-05-22T23:10:15.126000Z</time>
      </trkpt>
      <trkpt lat="27.836605" lon="113.13542">
        <ele>41.91675</ele>
        <time>2016-05-22T23:10:18.357000Z</time>
      </trkpt>
      <trkpt lat="27.836704" lon="113.13536">
        <ele>41.93694</ele>
        <time>2016-05-22T23:10:21.588000Z</time>
      </trkpt>
      <trkpt lat="27.836792" lon="113.135284">
        <ele>41.956177</ele>
        <time>2016-05-22T23:10:24.819000Z</time>
      </trkpt>
      <trkpt lat="27.836868" lon="113.13521">
        <ele>41.974194</ele>
        <time>2016-05-22T23:10:28.050000Z</time>
      </trkpt>
      <trkpt lat="27.83694" lon="113.13514">
        <ele>41.99059</ele>
        <time>2016-05-22T23:10:31.281000Z</time>
      </trkpt>
      <trkpt lat="27.83694" lon="113.13514">
        <ele>41.99059</ele>
        <time>2016-05-22T23:10:34.512000Z</time>
      </trkpt>
      <trkpt lat="27.837017" lon="113.135086">
        <ele>42.00667</ele>
        <time>2016-05-22T23:10:37.743000Z</time>
      </trkpt>
      <trkpt lat="27.837105" lon="113.135">
        <ele>42.026638</ele>
        <time>2016-05-22T23:10:40.974000Z</time>
      </trkpt>
      <trkpt lat="27.837196" lon="113.13492">
        <ele>42.047443</ele>
        <time>2016-05-22T23:10:44.205000Z</time>
      </trkpt>
      <trkpt lat="27.837196" lon="113.13492">
        <ele>42.047443</ele>
        <time>2016-05-22T23:10:47.436000Z</time>
      </trkpt>
      <trkpt lat="27.837282" lon="113.134834">
        <ele>42.067204</ele>
        <time>2016-05-22T23:10:50.667000Z</time>
      </trkpt>
      <trkpt lat="27.83737" lon="113.134766">
        <ele>42.292328</ele>
        <time>2016-05-22T23:10:53.898000Z</time>
      </trkpt>
      <trkpt lat="27.83747" lon="113.134705">
        <ele>42.661865</ele>
        <time>2016-05-22T23:10:57.129000Z</time>
      </trkpt>
      <trkpt lat="27.837553" lon="113.13464">
        <ele>43.06249</ele>
        <time>2016-05-22T23:11:00.360000Z</time>
      </trkpt>
      <trkpt lat="27.83763" lon="113.13458">
        <ele>43.41197</ele>
        <time>2016-05-22T23:11:03.591000Z</time>
      </trkpt>
      <trkpt lat="27.837715" lon="113.13452">
        <ele>43.748264</ele>
        <time>2016-05-22T23:11:06.822000Z</time>
      </trkpt>
      <trkpt lat="27.837797" lon="113.13446">
        <ele>44.244656</ele>
        <time>2016-05-22T23:11:10.053000Z</time>
      </trkpt>
      <trkpt lat="27.837881" lon="113.13439">
        <ele>45.09225</ele>
        <time>2016-05-22T23:11:13.284000Z</time>
      </trkpt>
      <trkpt lat="27.837963" lon="113.134315">
        <ele>46.012974</ele>
        <time>2016-05-22T23:11:16.515000Z</time>
      </trkpt>
      <trkpt lat="27.838037" lon="113.13424">
        <ele>46.518414</ele>
        <time>2016-05-22T23:11:19.746000Z</time>
      </trkpt>
      <trkpt lat="27.838129" lon="113.13415">
        <ele>46.53225</ele>
        <time>2016-05-22T23:11:22.977000Z</time>
      </trkpt>
      <trkpt lat="27.838211" lon="113.13406">
        <ele>46.320686</ele>
        <time>2016-05-22T23:11:26.208000Z</time>
      </trkpt>
      <trkpt lat="27.838305" lon="113.13401">
        <ele>46.11124</ele>
        <time>2016-05-22T23:11:29.439000Z</time>
      </trkpt>
      <trkpt lat="27.8384" lon="113.13394">
        <ele>45.887314</ele>
        <time>2016-05-22T23:11:32.670000Z</time>
      </trkpt>
      <trkpt lat="27.838484" lon="113.13387">
        <ele>45.690407</ele>
        <time>2016-05-22T23:11:35.901000Z</time>
      </trkpt>
      <trkpt lat="27.838562" lon="113.13381">
        <ele>45.50339</ele>
        <time>2016-05-22T23:11:39.132000Z</time>
      </trkpt>
      <trkpt lat="27.838625" lon="113.13373">
        <ele>45.312313</ele>
        <time>2016-05-22T23:11:42.363000Z</time>
      </trkpt>
      <trkpt lat="27.83869" lon="113.13366">
        <ele>45.132183</ele>
        <time>2016-05-22T23:11:45.594000Z</time>
      </trkpt>
      <trkpt lat="27.838766" lon="113.13356">
        <ele>44.908962</ele>
        <time>2016-05-22T23:11:48.825000Z</time>
      </trkpt>
      <trkpt lat="27.838848" lon="113.133484">
        <ele>44.700222</ele>
        <time>2016-05-22T23:11:52.056000Z</time>
      </trkpt>
      <trkpt lat="27.838911" lon="113.13338">
        <ele>44.47135</ele>
        <time>2016-05-22T23:11:55.287000Z</time>
      </trkpt>
      <trkpt lat="27.838982" lon="113.1333">
        <ele>44.28398</ele>
        <time>2016-05-22T23:11:58.518000Z</time>
      </trkpt>
      <trkpt lat="27.839075" lon="113.133224">
        <ele>44.05317</ele>
        <time>2016-05-22T23:12:01.749000Z</time>
      </trkpt>
      <trkpt lat="27.839169" lon="113.13314">
        <ele>43.82465</ele>
        <time>2016-05-22T23:12:04.980000Z</time>
      </trkpt>
      <trkpt lat="27.839256" lon="113.13307">
        <ele>43.61044</ele>
        <time>2016-05-22T23:12:08.211000Z</time>
      </trkpt>
      <trkpt lat="27.83935" lon="113.13298">
        <ele>43.36991</ele>
        <time>2016-05-22T23:12:11.442000Z</time>
      </trkpt>
      <trkpt lat="27.839426" lon="113.13291">
        <ele>43.17636</ele>
        <time>2016-05-22T23:12:14.673000Z</time>
      </trkpt>
      <trkpt lat="27.839506" lon="113.13281">
        <ele>42.948196</ele>
        <time>2016-05-22T23:12:17.904000Z</time>
      </trkpt>
      <trkpt lat="27.83958" lon="113.13272">
        <ele>42.73098</ele>
        <time>2016-05-22T23:12:21.135000Z</time>
      </trkpt>
      <trkpt lat="27.839666" lon="113.13265">
        <ele>42.518707</ele>
        <time>2016-05-22T23:12:24.366000Z</time>
      </trkpt>
      <trkpt lat="27.839748" lon="113.13257">
        <ele>42.309265</ele>
        <time>2016-05-22T23:12:27.597000Z</time>
      </trkpt>
      <trkpt lat="27.839832" lon="113.13249">
        <ele>42.096287</ele>
        <time>2016-05-22T23:12:30.828000Z</time>
      </trkpt>
      <trkpt lat="27.839909" lon="113.13241">
        <ele>41.884193</ele>
        <time>2016-05-22T23:12:34.059000Z</time>
      </trkpt>
      <trkpt lat="27.839983" lon="113.13232">
        <ele>41.665035</ele>
        <time>2016-05-22T23:12:37.290000Z</time>
      </trkpt>
      <trkpt lat="27.840055" lon="113.132225">
        <ele>41.45471</ele>
        <time>2016-05-22T23:12:40.521000Z</time>
      </trkpt>
      <trkpt lat="27.840126" lon="113.13214">
        <ele>41.26212</ele>
        <time>2016-05-22T23:12:43.752000Z</time>
      </trkpt>
      <trkpt lat="27.840214" lon="113.13205">
        <ele>41.199474</ele>
        <time>2016-05-22T23:12:46.983000Z</time>
      </trkpt>
      <trkpt lat="27.84029" lon="113.13192">
        <ele>41.130817</ele>
        <time>2016-05-22T23:12:50.214000Z</time>
      </trkpt>
      <trkpt lat="27.84037" lon="113.13181">
        <ele>41.065815</ele>
        <time>2016-05-22T23:12:53.445000Z</time>
      </trkpt>
      <trkpt lat="27.840446" lon="113.13171">
        <ele>41.003033</ele>
        <time>2016-05-22T23:12:56.676000Z</time>
      </trkpt>
      <trkpt lat="27.840527" lon="113.1316">
        <ele>40.940346</ele>
        <time>2016-05-22T23:12:59.907000Z</time>
      </trkpt>
      <trkpt lat="27.840607" lon="113.13151">
        <ele>40.879692</ele>
        <time>2016-05-22T23:13:03.138000Z</time>
      </trkpt>
      <trkpt lat="27.840683" lon="113.13141">
        <ele>40.35307</ele>
        <time>2016-05-22T23:13:06.369000Z</time>
      </trkpt>
      <trkpt lat="27.840763" lon="113.13131">
        <ele>39.57532</ele>
        <time>2016-05-22T23:13:09.600000Z</time>
      </trkpt>
      <trkpt lat="27.840834" lon="113.131226">
        <ele>38.762253</ele>
        <time>2016-05-22T23:13:12.831000Z</time>
      </trkpt>
      <trkpt lat="27.840906" lon="113.131134">
        <ele>38.33993</ele>
        <time>2016-05-22T23:13:16.062000Z</time>
      </trkpt>
      <trkpt lat="27.840975" lon="113.13105">
        <ele>38.791553</ele>
        <time>2016-05-22T23:13:19.293000Z</time>
      </trkpt>
      <trkpt lat="27.841042" lon="113.13095">
        <ele>39.26381</ele>
        <time>2016-05-22T23:13:22.524000Z</time>
      </trkpt>
      <trkpt lat="27.8411" lon="113.130844">
        <ele>39.74424</ele>
        <time>2016-05-22T23:13:25.755000Z</time>
      </trkpt>
      <trkpt lat="27.841175" lon="113.13075">
        <ele>40.22078</ele>
        <time>2016-05-22T23:13:28.986000Z</time>
      </trkpt>
      <trkpt lat="27.841259" lon="113.13069">
        <ele>40.653713</ele>
        <time>2016-05-22T23:13:32.217000Z</time>
      </trkpt>
      <trkpt lat="27.841331" lon="113.13061">
        <ele>41.099495</ele>
        <time>2016-05-22T23:13:35.448000Z</time>
      </trkpt>
      <trkpt lat="27.841415" lon="113.13052">
        <ele>41.582264</ele>
        <time>2016-05-22T23:13:38.679000Z</time>
      </trkpt>
      <trkpt lat="27.841496" lon="113.13045">
        <ele>42.040115</ele>
        <time>2016-05-22T23:13:41.910000Z</time>
      </trkpt>
      <trkpt lat="27.841574" lon="113.130356">
        <ele>42.51665</ele>
        <time>2016-05-22T23:13:45.141000Z</time>
      </trkpt>
      <trkpt lat="27.84164" lon="113.13026">
        <ele>43.0111</ele>
        <time>2016-05-22T23:13:48.372000Z</time>
      </trkpt>
      <trkpt lat="27.84171" lon="113.13015">
        <ele>43.508274</ele>
        <time>2016-05-22T23:13:51.603000Z</time>
      </trkpt>
      <trkpt lat="27.841776" lon="113.13006">
        <ele>44.03932</ele>
        <time>2016-05-22T23:13:54.834000Z</time>
      </trkpt>
      <trkpt lat="27.841845" lon="113.12997">
        <ele>44.383762</ele>
        <time>2016-05-22T23:13:58.065000Z</time>
      </trkpt>
      <trkpt lat="27.841911" lon="113.1299">
        <ele>44.71445</ele>
        <time>2016-05-22T23:14:01.296000Z</time>
      </trkpt>
      <trkpt lat="27.842014" lon="113.12981">
        <ele>44.95086</ele>
        <time>2016-05-22T23:14:04.527000Z</time>
      </trkpt>
      <trkpt lat="27.842089" lon="113.12971">
        <ele>44.990112</ele>
        <time>2016-05-22T23:14:07.758000Z</time>
      </trkpt>
      <trkpt lat="27.842157" lon="113.1296">
        <ele>45.03104</ele>
        <time>2016-05-22T23:14:10.989000Z</time>
      </trkpt>
      <trkpt lat="27.842205" lon="113.12952">
        <ele>45.062904</ele>
        <time>2016-05-22T23:14:14.220000Z</time>
      </trkpt>
      <trkpt lat="27.842266" lon="113.12941">
        <ele>45.102345</ele>
        <time>2016-05-22T23:14:17.451000Z</time>
      </trkpt>
      <trkpt lat="27.842354" lon="113.12932">
        <ele>45.14432</ele>
        <time>2016-05-22T23:14:20.682000Z</time>
      </trkpt>
      <trkpt lat="27.842426" lon="113.129234">
        <ele>45.181446</ele>
        <time>2016-05-22T23:14:23.913000Z</time>
      </trkpt>
      <trkpt lat="27.842497" lon="113.12915">
        <ele>45.218575</ele>
        <time>2016-05-22T23:14:27.144000Z</time>
      </trkpt>
      <trkpt lat="27.842548" lon="113.12905">
        <ele>45.25272</ele>
        <time>2016-05-22T23:14:30.375000Z</time>
      </trkpt>
      <trkpt lat="27.842604" lon="113.12897">
        <ele>45.286358</ele>
        <time>2016-05-22T23:14:33.606000Z</time>
      </trkpt>
      <trkpt lat="27.84266" lon="113.12888">
        <ele>45.85327</ele>
        <time>2016-05-22T23:14:36.837000Z</time>
      </trkpt>
      <trkpt lat="27.84273" lon="113.12879">
        <ele>46.476578</ele>
        <time>2016-05-22T23:14:40.068000Z</time>
      </trkpt>
      <trkpt lat="27.842808" lon="113.12869">
        <ele>46.922108</ele>
        <time>2016-05-22T23:14:43.299000Z</time>
      </trkpt>
      <trkpt lat="27.842886" lon="113.1286">
        <ele>46.975765</ele>
        <time>2016-05-22T23:14:46.530000Z</time>
      </trkpt>
      <trkpt lat="27.842958" lon="113.12852">
        <ele>46.76066</ele>
        <time>2016-05-22T23:14:49.761000Z</time>
      </trkpt>
      <trkpt lat="27.84302" lon="113.12842">
        <ele>46.546104</ele>
        <time>2016-05-22T23:14:52.992000Z</time>
      </trkpt>
      <trkpt lat="27.8431" lon="113.12832">
        <ele>46.30184</ele>
        <time>2016-05-22T23:14:56.223000Z</time>
      </trkpt>
      <trkpt lat="27.843168" lon="113.12822">
        <ele>46.071884</ele>
        <time>2016-05-22T23:14:59.454000Z</time>
      </trkpt>
      <trkpt lat="27.843224" lon="113.12813">
        <ele>45.87365</ele>
        <time>2016-05-22T23:15:02.685000Z</time>
      </trkpt>
      <trkpt lat="27.843288" lon="113.12805">
        <ele>45.685135</ele>
        <time>2016-05-22T23:15:05.916000Z</time>
      </trkpt>
      <trkpt lat="27.843355" lon="113.127975">
        <ele>45.49167</ele>
        <time>2016-05-22T23:15:09.147000Z</time>
      </trkpt>
      <trkpt lat="27.84342" lon="113.1279">
        <ele>45.300034</ele>
        <time>2016-05-22T23:15:12.378000Z</time>
      </trkpt>
      <trkpt lat="27.84349" lon="113.1278">
        <ele>45.06696</ele>
        <time>2016-05-22T23:15:15.609000Z</time>
      </trkpt>
      <trkpt lat="27.84355" lon="113.12769">
        <ele>44.84562</ele>
        <time>2016-05-22T23:15:18.840000Z</time>
      </trkpt>
      <trkpt lat="27.84355" lon="113.12769">
        <ele>44.84562</ele>
        <time>2016-05-22T23:15:22.071000Z</time>
      </trkpt>
      <trkpt lat="27.843616" lon="113.12759">
        <ele>44.60557</ele>
        <time>2016-05-22T23:15:25.301000Z</time>
      </trkpt>
      <trkpt lat="27.843685" lon="113.12747">
        <ele>44.360577</ele>
        <time>2016-05-22T23:15:28.531000Z</time>
      </trkpt>
      <trkpt lat="27.843754" lon="113.127365">
        <ele>44.114662</ele>
        <time>2016-05-22T23:15:31.761000Z</time>
      </trkpt>
      <trkpt lat="27.843822" lon="113.127266">
        <ele>43.88892</ele>
        <time>2016-05-22T23:15:34.991000Z</time>
      </trkpt>
      <trkpt lat="27.843891" lon="113.12718">
        <ele>43.683903</ele>
        <time>2016-05-22T23:15:38.221000Z</time>
      </trkpt>
      <trkpt lat="27.843952" lon="113.1271">
        <ele>43.485302</ele>
        <time>2016-05-22T23:15:41.451000Z</time>
      </trkpt>
      <trkpt lat="27.84402" lon="113.12701">
        <ele>43.267628</ele>
        <time>2016-05-22T23:15:44.681000Z</time>
      </trkpt>
      <trkpt lat="27.84409" lon="113.12691">
        <ele>43.048306</ele>
        <time>2016-05-22T23:15:47.911000Z</time>
      </trkpt>
      <trkpt lat="27.844156" lon="113.126816">
        <ele>42.832832</ele>
        <time>2016-05-22T23:15:51.141000Z</time>
      </trkpt>
      <trkpt lat="27.844221" lon="113.126724">
        <ele>42.614796</ele>
        <time>2016-05-22T23:15:54.371000Z</time>
      </trkpt>
      <trkpt lat="27.844286" lon="113.12663">
        <ele>42.404823</ele>
        <time>2016-05-22T23:15:57.601000Z</time>
      </trkpt>
      <trkpt lat="27.844358" lon="113.12653">
        <ele>42.17835</ele>
        <time>2016-05-22T23:16:00.831000Z</time>
      </trkpt>
      <trkpt lat="27.844429" lon="113.126434">
        <ele>41.942703</ele>
        <time>2016-05-22T23:16:04.061000Z</time>
      </trkpt>
      <trkpt lat="27.844484" lon="113.126335">
        <ele>41.39917</ele>
        <time>2016-05-22T23:16:07.291000Z</time>
      </trkpt>
      <trkpt lat="27.844538" lon="113.12623">
        <ele>41.086884</ele>
        <time>2016-05-22T23:16:10.521000Z</time>
      </trkpt>
      <trkpt lat="27.8446" lon="113.126114">
        <ele>40.805355</ele>
        <time>2016-05-22T23:16:13.751000Z</time>
      </trkpt>
      <trkpt lat="27.844658" lon="113.12601">
        <ele>40.404873</ele>
        <time>2016-05-22T23:16:16.981000Z</time>
      </trkpt>
      <trkpt lat="27.844725" lon="113.12589">
        <ele>40.26316</ele>
        <time>2016-05-22T23:16:20.211000Z</time>
      </trkpt>
      <trkpt lat="27.844788" lon="113.12579">
        <ele>40.20706</ele>
        <time>2016-05-22T23:16:23.441000Z</time>
      </trkpt>
      <trkpt lat="27.84486" lon="113.12569">
        <ele>40.146015</ele>
        <time>2016-05-22T23:16:26.671000Z</time>
      </trkpt>
      <trkpt lat="27.844908" lon="113.125595">
        <ele>40.097645</ele>
        <time>2016-05-22T23:16:29.901000Z</time>
      </trkpt>
      <trkpt lat="27.844955" lon="113.1255">
        <ele>40.048817</ele>
        <time>2016-05-22T23:16:33.131000Z</time>
      </trkpt>
      <trkpt lat="27.844995" lon="113.1254">
        <ele>39.9967</ele>
        <time>2016-05-22T23:16:36.361000Z</time>
      </trkpt>
      <trkpt lat="27.845043" lon="113.125305">
        <ele>39.949257</ele>
        <time>2016-05-22T23:16:39.591000Z</time>
      </trkpt>
      <trkpt lat="27.845118" lon="113.12521">
        <ele>39.89145</ele>
        <time>2016-05-22T23:16:42.821000Z</time>
      </trkpt>
      <trkpt lat="27.845205" lon="113.12513">
        <ele>38.057354</ele>
        <time>2016-05-22T23:16:46.051000Z</time>
      </trkpt>
      <trkpt lat="27.845282" lon="113.125046">
        <ele>36.248695</ele>
        <time>2016-05-22T23:16:49.281000Z</time>
      </trkpt>
      <trkpt lat="27.845337" lon="113.12495">
        <ele>34.799076</ele>
        <time>2016-05-22T23:16:52.511000Z</time>
      </trkpt>
      <trkpt lat="27.84541" lon="113.124855">
        <ele>34.011044</ele>
        <time>2016-05-22T23:16:55.741000Z</time>
      </trkpt>
      <trkpt lat="27.845465" lon="113.12476">
        <ele>34.011044</ele>
        <time>2016-05-22T23:16:58.971000Z</time>
      </trkpt>
      <trkpt lat="27.845495" lon="113.12463">
        <ele>34.011044</ele>
        <time>2016-05-22T23:17:02.201000Z</time>
      </trkpt>
      <trkpt lat="27.845514" lon="113.124504">
        <time>2016-05-22T23:17:05.431000Z</time>
      </trkpt>
    </trkseg>
  </trk>
</gpx>