<?xml version="1.0" encoding="UTF-8"?>
<gpx xmlns="http://www.topografix.com/GPX/1/1" xmlns:gpxtpx="http://www.garmin.com/xmlschemas/TrackPointExtension/v1" xmlns:xsi="http://www.w3.org/2001/XMLSchema-instance" xsi:schemaLocation="http://www.topografix.com/GPX/1/1 http://www.topografix.com/GPX/1/1/gpx.xsd" version="1.1" creator="gpx.py -- https://github.com/tkrajina/gpxpy">
  <trk>
    <trkseg>
      <trkpt lat="41.76095" lon="123.35951">
        <ele>66.9444</ele>
        <time>2016-06-26T21:53:40.464000Z</time>
      </trkpt>
      <trkpt lat="41.76086" lon="123.359436">
        <ele>66.345535</ele>
        <time>2016-06-26T21:53:43.686000Z</time>
      </trkpt>
      <trkpt lat="41.760727" lon="123.359406">
        <ele>65.57416</ele>
        <time>2016-06-26T21:53:46.908000Z</time>
      </trkpt>
      <trkpt lat="41.760612" lon="123.35942">
        <ele>64.89295</ele>
        <time>2016-06-26T21:53:50.130000Z</time>
      </trkpt>
      <trkpt lat="41.760548" lon="123.35955">
        <ele>64.2107</ele>
        <time>2016-06-26T21:53:53.352000Z</time>
      </trkpt>
      <trkpt lat="41.760536" lon="123.3597">
        <ele>63.550858</ele>
        <time>2016-06-26T21:53:56.574000Z</time>
      </trkpt>
      <trkpt lat="41.760517" lon="123.35985">
        <ele>62.905613</ele>
        <time>2016-06-26T21:53:59.796000Z</time>
      </trkpt>
      <trkpt lat="41.760494" lon="123.35997">
        <ele>62.376595</ele>
        <time>2016-06-26T21:54:03.018000Z</time>
      </trkpt>
      <trkpt lat="41.76046" lon="123.3601">
        <ele>61.78816</ele>
        <time>2016-06-26T21:54:06.240000Z</time>
      </trkpt>
      <trkpt lat="41.76045" lon="123.36022">
        <ele>60.65157</ele>
        <time>2016-06-26T21:54:09.462000Z</time>
      </trkpt>
      <trkpt lat="41.760433" lon="123.36035">
        <ele>60.107777</ele>
        <time>2016-06-26T21:54:12.684000Z</time>
      </trkpt>
      <trkpt lat="41.760406" lon="123.36047">
        <ele>59.7874</ele>
        <time>2016-06-26T21:54:15.906000Z</time>
      </trkpt>
      <trkpt lat="41.76038" lon="123.36062">
        <ele>59.460648</ele>
        <time>2016-06-26T21:54:19.128000Z</time>
      </trkpt>
      <trkpt lat="41.76032" lon="123.3607">
        <ele>59.11642</ele>
        <time>2016-06-26T21:54:22.350000Z</time>
      </trkpt>
      <trkpt lat="41.76025" lon="123.3608">
        <ele>58.754986</ele>
        <time>2016-06-26T21:54:25.572000Z</time>
      </trkpt>
      <trkpt lat="41.760216" lon="123.36093">
        <ele>58.406258</ele>
        <time>2016-06-26T21:54:28.794000Z</time>
      </trkpt>
      <trkpt lat="41.760204" lon="123.361046">
        <ele>58.08643</ele>
        <time>2016-06-26T21:54:32.016000Z</time>
      </trkpt>
      <trkpt lat="41.760204" lon="123.361046">
        <ele>58.08643</ele>
        <time>2016-06-26T21:54:35.238000Z</time>
      </trkpt>
      <trkpt lat="41.760326" lon="123.36119">
        <ele>57.51188</ele>
        <time>2016-06-26T21:54:38.460000Z</time>
      </trkpt>
      <trkpt lat="41.76042" lon="123.36127">
        <ele>57.12694</ele>
        <time>2016-06-26T21:54:41.682000Z</time>
      </trkpt>
      <trkpt lat="41.760506" lon="123.36132">
        <ele>56.80394</ele>
        <time>2016-06-26T21:54:44.904000Z</time>
      </trkpt>
      <trkpt lat="41.760506" lon="123.36132">
        <ele>52.88757</ele>
        <time>2016-06-26T21:54:48.126000Z</time>
      </trkpt>
      <trkpt lat="41.760624" lon="123.36131">
        <ele>50.899864</ele>
        <time>2016-06-26T21:54:51.348000Z</time>
      </trkpt>
      <trkpt lat="41.760715" lon="123.36133">
        <ele>50.461845</ele>
        <time>2016-06-26T21:54:54.570000Z</time>
      </trkpt>
      <trkpt lat="41.760815" lon="123.361336">
        <ele>50.36456</ele>
        <time>2016-06-26T21:54:57.792000Z</time>
      </trkpt>
      <trkpt lat="41.760876" lon="123.361244">
        <ele>50.273922</ele>
        <time>2016-06-26T21:55:01.014000Z</time>
      </trkpt>
      <trkpt lat="41.760933" lon="123.36112">
        <ele>50.172874</ele>
        <time>2016-06-26T21:55:04.236000Z</time>
      </trkpt>
      <trkpt lat="41.760933" lon="123.36112">
        <ele>50.172874</ele>
        <time>2016-06-26T21:55:07.458000Z</time>
      </trkpt>
      <trkpt lat="41.761032" lon="123.36105">
        <ele>49.826664</ele>
        <time>2016-06-26T21:55:10.680000Z</time>
      </trkpt>
      <trkpt lat="41.76112" lon="123.36101">
        <ele>50.060593</ele>
        <time>2016-06-26T21:55:13.902000Z</time>
      </trkpt>
      <trkpt lat="41.76112" lon="123.36101">
        <ele>50.060593</ele>
        <time>2016-06-26T21:55:17.124000Z</time>
      </trkpt>
      <trkpt lat="41.761112" lon="123.36086">
        <ele>50.341717</ele>
        <time>2016-06-26T21:55:20.346000Z</time>
      </trkpt>
      <trkpt lat="41.76105" lon="123.36073">
        <ele>50.623962</ele>
        <time>2016-06-26T21:55:23.568000Z</time>
      </trkpt>
      <trkpt lat="41.761032" lon="123.36059">
        <ele>50.897892</ele>
        <time>2016-06-26T21:55:26.790000Z</time>
      </trkpt>
      <trkpt lat="41.761055" lon="123.36045">
        <ele>51.163734</ele>
        <time>2016-06-26T21:55:30.012000Z</time>
      </trkpt>
      <trkpt lat="41.761063" lon="123.360306">
        <ele>51.43317</ele>
        <time>2016-06-26T21:55:33.234000Z</time>
      </trkpt>
      <trkpt lat="41.761066" lon="123.36015">
        <ele>51.712494</ele>
        <time>2016-06-26T21:55:36.456000Z</time>
      </trkpt>
      <trkpt lat="41.761097" lon="123.36003">
        <ele>51.950695</ele>
        <time>2016-06-26T21:55:39.678000Z</time>
      </trkpt>
      <trkpt lat="41.761147" lon="123.35991">
        <ele>52.210472</ele>
        <time>2016-06-26T21:55:42.900000Z</time>
      </trkpt>
      <trkpt lat="41.761196" lon="123.35977">
        <ele>52.497883</ele>
        <time>2016-06-26T21:55:46.122000Z</time>
      </trkpt>
      <trkpt lat="41.76124" lon="123.35963">
        <ele>52.781254</ele>
        <time>2016-06-26T21:55:49.344000Z</time>
      </trkpt>
      <trkpt lat="41.76129" lon="123.35949">
        <ele>53.07024</ele>
        <time>2016-06-26T21:55:52.566000Z</time>
      </trkpt>
      <trkpt lat="41.761337" lon="123.359344">
        <ele>53.365295</ele>
        <time>2016-06-26T21:55:55.788000Z</time>
      </trkpt>
      <trkpt lat="41.76136" lon="123.35923">
        <ele>53.592262</ele>
        <time>2016-06-26T21:55:59.010000Z</time>
      </trkpt>
      <trkpt lat="41.761368" lon="123.35909">
        <ele>53.849113</ele>
        <time>2016-06-26T21:56:02.232000Z</time>
      </trkpt>
      <trkpt lat="41.76137" lon="123.35893">
        <ele>54.14664</ele>
        <time>2016-06-26T21:56:05.454000Z</time>
      </trkpt>
      <trkpt lat="41.761364" lon="123.35881">
        <ele>54.37428</ele>
        <time>2016-06-26T21:56:08.676000Z</time>
      </trkpt>
      <trkpt lat="41.76138" lon="123.35869">
        <ele>54.60529</ele>
        <time>2016-06-26T21:56:11.898000Z</time>
      </trkpt>
      <trkpt lat="41.761402" lon="123.35857">
        <ele>54.84214</ele>
        <time>2016-06-26T21:56:15.120000Z</time>
      </trkpt>
      <trkpt lat="41.761436" lon="123.35841">
        <ele>55.132027</ele>
        <time>2016-06-26T21:56:18.342000Z</time>
      </trkpt>
      <trkpt lat="41.761494" lon="123.358284">
        <ele>55.295563</ele>
        <time>2016-06-26T21:56:21.564000Z</time>
      </trkpt>
      <trkpt lat="41.761524" lon="123.35813">
        <ele>55.312824</ele>
        <time>2016-06-26T21:56:24.786000Z</time>
      </trkpt>
      <trkpt lat="41.76153" lon="123.357994">
        <ele>55.34772</ele>
        <time>2016-06-26T21:56:28.008000Z</time>
      </trkpt>
      <trkpt lat="41.76158" lon="123.35788">
        <ele>55.38096</ele>
        <time>2016-06-26T21:56:31.230000Z</time>
      </trkpt>
      <trkpt lat="41.761623" lon="123.35776">
        <ele>55.414436</ele>
        <time>2016-06-26T21:56:34.452000Z</time>
      </trkpt>
      <trkpt lat="41.761658" lon="123.35761">
        <ele>55.45344</ele>
        <time>2016-06-26T21:56:37.674000Z</time>
      </trkpt>
      <trkpt lat="41.761684" lon="123.35749">
        <ele>55.649166</ele>
        <time>2016-06-26T21:56:40.896000Z</time>
      </trkpt>
      <trkpt lat="41.76171" lon="123.35736">
        <ele>55.75974</ele>
        <time>2016-06-26T21:56:44.118000Z</time>
      </trkpt>
      <trkpt lat="41.761738" lon="123.35723">
        <ele>55.768402</ele>
        <time>2016-06-26T21:56:47.340000Z</time>
      </trkpt>
      <trkpt lat="41.761757" lon="123.35711">
        <ele>55.793686</ele>
        <time>2016-06-26T21:56:50.562000Z</time>
      </trkpt>
      <trkpt lat="41.761772" lon="123.35699">
        <ele>55.819954</ele>
        <time>2016-06-26T21:56:53.784000Z</time>
      </trkpt>
      <trkpt lat="41.76179" lon="123.356865">
        <ele>56.042763</ele>
        <time>2016-06-26T21:56:57.006000Z</time>
      </trkpt>
      <trkpt lat="41.761814" lon="123.35674">
        <ele>56.4096</ele>
        <time>2016-06-26T21:57:00.228000Z</time>
      </trkpt>
      <trkpt lat="41.761837" lon="123.35663">
        <ele>56.725983</ele>
        <time>2016-06-26T21:57:03.450000Z</time>
      </trkpt>
      <trkpt lat="41.761883" lon="123.35649">
        <ele>56.91369</ele>
        <time>2016-06-26T21:57:06.672000Z</time>
      </trkpt>
      <trkpt lat="41.761906" lon="123.35637">
        <ele>57.146137</ele>
        <time>2016-06-26T21:57:09.894000Z</time>
      </trkpt>
      <trkpt lat="41.761898" lon="123.356224">
        <ele>57.57546</ele>
        <time>2016-06-26T21:57:13.116000Z</time>
      </trkpt>
      <trkpt lat="41.76192" lon="123.356094">
        <ele>58.12589</ele>
        <time>2016-06-26T21:57:16.338000Z</time>
      </trkpt>
      <trkpt lat="41.76196" lon="123.35595">
        <ele>58.562347</ele>
        <time>2016-06-26T21:57:19.560000Z</time>
      </trkpt>
      <trkpt lat="41.761997" lon="123.3558">
        <ele>58.781593</ele>
        <time>2016-06-26T21:57:22.782000Z</time>
      </trkpt>
      <trkpt lat="41.76206" lon="123.35567">
        <ele>58.88392</ele>
        <time>2016-06-26T21:57:26.004000Z</time>
      </trkpt>
      <trkpt lat="41.762104" lon="123.35554">
        <ele>58.95438</ele>
        <time>2016-06-26T21:57:29.226000Z</time>
      </trkpt>
      <trkpt lat="41.762135" lon="123.35539">
        <ele>57.72758</ele>
        <time>2016-06-26T21:57:32.448000Z</time>
      </trkpt>
      <trkpt lat="41.76215" lon="123.35526">
        <ele>56.695755</ele>
        <time>2016-06-26T21:57:35.670000Z</time>
      </trkpt>
      <trkpt lat="41.762184" lon="123.3551">
        <ele>55.36182</ele>
        <time>2016-06-26T21:57:38.892000Z</time>
      </trkpt>
      <trkpt lat="41.76221" lon="123.354965">
        <ele>54.235405</ele>
        <time>2016-06-26T21:57:42.114000Z</time>
      </trkpt>
      <trkpt lat="41.762245" lon="123.35482">
        <ele>53.01343</ele>
        <time>2016-06-26T21:57:45.336000Z</time>
      </trkpt>
      <trkpt lat="41.762264" lon="123.35468">
        <ele>52.13167</ele>
        <time>2016-06-26T21:57:48.558000Z</time>
      </trkpt>
      <trkpt lat="41.762295" lon="123.354546">
        <ele>51.931267</ele>
        <time>2016-06-26T21:57:51.780000Z</time>
      </trkpt>
      <trkpt lat="41.76234" lon="123.35441">
        <ele>51.863388</ele>
        <time>2016-06-26T21:57:55.002000Z</time>
      </trkpt>
      <trkpt lat="41.762375" lon="123.354294">
        <ele>51.808247</ele>
        <time>2016-06-26T21:57:58.224000Z</time>
      </trkpt>
      <trkpt lat="41.762417" lon="123.354164">
        <ele>51.741405</ele>
        <time>2016-06-26T21:58:01.446000Z</time>
      </trkpt>
      <trkpt lat="41.762432" lon="123.354">
        <ele>51.666496</ele>
        <time>2016-06-26T21:58:04.668000Z</time>
      </trkpt>
      <trkpt lat="41.762417" lon="123.35387">
        <ele>51.605644</ele>
        <time>2016-06-26T21:58:07.890000Z</time>
      </trkpt>
      <trkpt lat="41.76244" lon="123.353714">
        <ele>51.534904</ele>
        <time>2016-06-26T21:58:11.112000Z</time>
      </trkpt>
      <trkpt lat="41.762455" lon="123.353584">
        <ele>51.474655</ele>
        <time>2016-06-26T21:58:14.334000Z</time>
      </trkpt>
      <trkpt lat="41.762466" lon="123.35346">
        <ele>51.41825</ele>
        <time>2016-06-26T21:58:17.556000Z</time>
      </trkpt>
      <trkpt lat="41.76248" lon="123.35332">
        <ele>51.352676</ele>
        <time>2016-06-26T21:58:20.778000Z</time>
      </trkpt>
      <trkpt lat="41.7625" lon="123.35317">
        <ele>50.877728</ele>
        <time>2016-06-26T21:58:24Z</time>
      </trkpt>
      <trkpt lat="41.762527" lon="123.35305">
        <ele>50.8351</ele>
        <time>2016-06-26T21:58:27.222000Z</time>
      </trkpt>
      <trkpt lat="41.76255" lon="123.35291">
        <ele>50.748253</ele>
        <time>2016-06-26T21:58:30.444000Z</time>
      </trkpt>
      <trkpt lat="41.762585" lon="123.352776">
        <ele>50.65302</ele>
        <time>2016-06-26T21:58:33.666000Z</time>
      </trkpt>
      <trkpt lat="41.762627" lon="123.35264">
        <ele>50.5584</ele>
        <time>2016-06-26T21:58:36.888000Z</time>
      </trkpt>
      <trkpt lat="41.76266" lon="123.352516">
        <ele>50.476254</ele>
        <time>2016-06-26T21:58:40.110000Z</time>
      </trkpt>
      <trkpt lat="41.762684" lon="123.352394">
        <ele>50.14592</ele>
        <time>2016-06-26T21:58:43.332000Z</time>
      </trkpt>
      <trkpt lat="41.762707" lon="123.35227">
        <ele>49.923325</ele>
        <time>2016-06-26T21:58:46.554000Z</time>
      </trkpt>
      <trkpt lat="41.762722" lon="123.35215">
        <ele>49.84274</ele>
        <time>2016-06-26T21:58:49.776000Z</time>
      </trkpt>
      <trkpt lat="41.762764" lon="123.35199">
        <ele>49.80364</ele>
        <time>2016-06-26T21:58:52.998000Z</time>
      </trkpt>
      <trkpt lat="41.762794" lon="123.35184">
        <ele>49.765953</ele>
        <time>2016-06-26T21:58:56.220000Z</time>
      </trkpt>
      <trkpt lat="41.762825" lon="123.351685">
        <ele>49.183353</ele>
        <time>2016-06-26T21:58:59.442000Z</time>
      </trkpt>
      <trkpt lat="41.76284" lon="123.35156">
        <ele>48.357727</ele>
        <time>2016-06-26T21:59:02.664000Z</time>
      </trkpt>
      <trkpt lat="41.762875" lon="123.35141">
        <ele>47.58691</ele>
        <time>2016-06-26T21:59:05.886000Z</time>
      </trkpt>
      <trkpt lat="41.762894" lon="123.35128">
        <ele>46.83727</ele>
        <time>2016-06-26T21:59:09.108000Z</time>
      </trkpt>
      <trkpt lat="41.762928" lon="123.351166">
        <ele>46.049377</ele>
        <time>2016-06-26T21:59:12.330000Z</time>
      </trkpt>
      <trkpt lat="41.76296" lon="123.35102">
        <ele>45.425144</ele>
        <time>2016-06-26T21:59:15.552000Z</time>
      </trkpt>
      <trkpt lat="41.76299" lon="123.35086">
        <ele>45.17253</ele>
        <time>2016-06-26T21:59:18.774000Z</time>
      </trkpt>
      <trkpt lat="41.763023" lon="123.350716">
        <ele>45.136433</ele>
        <time>2016-06-26T21:59:21.996000Z</time>
      </trkpt>
      <trkpt lat="41.763035" lon="123.35058">
        <ele>45.103855</ele>
        <time>2016-06-26T21:59:25.218000Z</time>
      </trkpt>
      <trkpt lat="41.76303" lon="123.35044">
        <ele>45.071274</ele>
        <time>2016-06-26T21:59:28.440000Z</time>
      </trkpt>
      <trkpt lat="41.763042" lon="123.350296">
        <ele>45.038013</ele>
        <time>2016-06-26T21:59:31.662000Z</time>
      </trkpt>
      <trkpt lat="41.763046" lon="123.350174">
        <ele>45.009148</ele>
        <time>2016-06-26T21:59:34.884000Z</time>
      </trkpt>
      <trkpt lat="41.763058" lon="123.35001">
        <ele>44.38772</ele>
        <time>2016-06-26T21:59:38.106000Z</time>
      </trkpt>
      <trkpt lat="41.763065" lon="123.34987">
        <ele>43.60301</ele>
        <time>2016-06-26T21:59:41.328000Z</time>
      </trkpt>
      <trkpt lat="41.763073" lon="123.34972">
        <ele>42.85308</ele>
        <time>2016-06-26T21:59:44.550000Z</time>
      </trkpt>
      <trkpt lat="41.76308" lon="123.34959">
        <ele>42.366154</ele>
        <time>2016-06-26T21:59:47.772000Z</time>
      </trkpt>
      <trkpt lat="41.763096" lon="123.349464">
        <ele>42.21089</ele>
        <time>2016-06-26T21:59:50.994000Z</time>
      </trkpt>
      <trkpt lat="41.76311" lon="123.349335">
        <ele>42.13829</ele>
        <time>2016-06-26T21:59:54.216000Z</time>
      </trkpt>
      <trkpt lat="41.763126" lon="123.349205">
        <ele>41.90855</ele>
        <time>2016-06-26T21:59:57.438000Z</time>
      </trkpt>
      <trkpt lat="41.763138" lon="123.34906">
        <ele>41.529568</ele>
        <time>2016-06-26T22:00:00.660000Z</time>
      </trkpt>
      <trkpt lat="41.763157" lon="123.34892">
        <ele>41.101395</ele>
        <time>2016-06-26T22:00:03.882000Z</time>
      </trkpt>
      <trkpt lat="41.763195" lon="123.348785">
        <ele>40.542274</ele>
        <time>2016-06-26T22:00:07.104000Z</time>
      </trkpt>
      <trkpt lat="41.76322" lon="123.348656">
        <ele>39.861736</ele>
        <time>2016-06-26T22:00:10.326000Z</time>
      </trkpt>
      <trkpt lat="41.763237" lon="123.3485">
        <ele>39.268085</ele>
        <time>2016-06-26T22:00:13.548000Z</time>
      </trkpt>
      <trkpt lat="41.763268" lon="123.34838">
        <ele>38.858936</ele>
        <time>2016-06-26T22:00:16.770000Z</time>
      </trkpt>
      <trkpt lat="41.763298" lon="123.348236">
        <ele>38.527782</ele>
        <time>2016-06-26T22:00:19.992000Z</time>
      </trkpt>
      <trkpt lat="41.763313" lon="123.34811">
        <ele>38.234314</ele>
        <time>2016-06-26T22:00:23.214000Z</time>
      </trkpt>
      <trkpt lat="41.763332" lon="123.34796">
        <ele>38.186295</ele>
        <time>2016-06-26T22:00:26.436000Z</time>
      </trkpt>
      <trkpt lat="41.763355" lon="123.34783">
        <ele>38.47433</ele>
        <time>2016-06-26T22:00:29.658000Z</time>
      </trkpt>
      <trkpt lat="41.76337" lon="123.347694">
        <ele>38.75886</ele>
        <time>2016-06-26T22:00:32.880000Z</time>
      </trkpt>
      <trkpt lat="41.763393" lon="123.34756">
        <ele>39.0474</ele>
        <time>2016-06-26T22:00:36.102000Z</time>
      </trkpt>
      <trkpt lat="41.76342" lon="123.347435">
        <ele>39.31667</ele>
        <time>2016-06-26T22:00:39.324000Z</time>
      </trkpt>
      <trkpt lat="41.76345" lon="123.347305">
        <ele>39.590942</ele>
        <time>2016-06-26T22:00:42.546000Z</time>
      </trkpt>
      <trkpt lat="41.76348" lon="123.34717">
        <ele>39.886734</ele>
        <time>2016-06-26T22:00:45.768000Z</time>
      </trkpt>
      <trkpt lat="41.763515" lon="123.34704">
        <ele>40.177525</ele>
        <time>2016-06-26T22:00:48.990000Z</time>
      </trkpt>
      <trkpt lat="41.76355" lon="123.34692">
        <ele>40.44279</ele>
        <time>2016-06-26T22:00:52.212000Z</time>
      </trkpt>
      <trkpt lat="41.763584" lon="123.34679">
        <ele>40.733578</ele>
        <time>2016-06-26T22:00:55.434000Z</time>
      </trkpt>
      <trkpt lat="41.76362" lon="123.346664">
        <ele>41.0061</ele>
        <time>2016-06-26T22:00:58.656000Z</time>
      </trkpt>
      <trkpt lat="41.763664" lon="123.34654">
        <ele>41.290882</ele>
        <time>2016-06-26T22:01:01.878000Z</time>
      </trkpt>
      <trkpt lat="41.7637" lon="123.34643">
        <ele>41.54138</ele>
        <time>2016-06-26T22:01:05.100000Z</time>
      </trkpt>
      <trkpt lat="41.763744" lon="123.346306">
        <ele>41.82892</ele>
        <time>2016-06-26T22:01:08.322000Z</time>
      </trkpt>
      <trkpt lat="41.76379" lon="123.346176">
        <ele>42.121212</ele>
        <time>2016-06-26T22:01:11.544000Z</time>
      </trkpt>
      <trkpt lat="41.763844" lon="123.346085">
        <ele>42.37246</ele>
        <time>2016-06-26T22:01:14.766000Z</time>
      </trkpt>
      <trkpt lat="41.7639" lon="123.345985">
        <ele>42.627964</ele>
        <time>2016-06-26T22:01:17.988000Z</time>
      </trkpt>
      <trkpt lat="41.763954" lon="123.34585">
        <ele>42.95454</ele>
        <time>2016-06-26T22:01:21.210000Z</time>
      </trkpt>
      <trkpt lat="41.76399" lon="123.34571">
        <ele>43.253086</ele>
        <time>2016-06-26T22:01:24.432000Z</time>
      </trkpt>
      <trkpt lat="41.76402" lon="123.34559">
        <ele>43.68764</ele>
        <time>2016-06-26T22:01:27.654000Z</time>
      </trkpt>
      <trkpt lat="41.76407" lon="123.34544">
        <ele>43.91318</ele>
        <time>2016-06-26T22:01:30.876000Z</time>
      </trkpt>
      <trkpt lat="41.76412" lon="123.34531">
        <ele>43.988518</ele>
        <time>2016-06-26T22:01:34.098000Z</time>
      </trkpt>
      <trkpt lat="41.764164" lon="123.345184">
        <ele>44.159977</ele>
        <time>2016-06-26T22:01:37.320000Z</time>
      </trkpt>
      <trkpt lat="41.76421" lon="123.34508">
        <ele>44.561893</ele>
        <time>2016-06-26T22:01:40.542000Z</time>
      </trkpt>
      <trkpt lat="41.764267" lon="123.34493">
        <ele>44.976395</ele>
        <time>2016-06-26T22:01:43.764000Z</time>
      </trkpt>
      <trkpt lat="41.764313" lon="123.344826">
        <ele>45.18265</ele>
        <time>2016-06-26T22:01:46.986000Z</time>
      </trkpt>
      <trkpt lat="41.76437" lon="123.34471">
        <ele>45.210873</ele>
        <time>2016-06-26T22:01:50.208000Z</time>
      </trkpt>
      <trkpt lat="41.764412" lon="123.3446">
        <ele>45.21971</ele>
        <time>2016-06-26T22:01:53.430000Z</time>
      </trkpt>
      <trkpt lat="41.76446" lon="123.34445">
        <ele>45.23054</ele>
        <time>2016-06-26T22:01:56.652000Z</time>
      </trkpt>
      <trkpt lat="41.764492" lon="123.34433">
        <ele>45.23927</ele>
        <time>2016-06-26T22:01:59.874000Z</time>
      </trkpt>
      <trkpt lat="41.764538" lon="123.344215">
        <ele>45.248272</ele>
        <time>2016-06-26T22:02:03.096000Z</time>
      </trkpt>
      <trkpt lat="41.76458" lon="123.3441">
        <ele>45.257</ele>
        <time>2016-06-26T22:02:06.318000Z</time>
      </trkpt>
      <trkpt lat="41.764626" lon="123.343994">
        <ele>45.2652</ele>
        <time>2016-06-26T22:02:09.540000Z</time>
      </trkpt>
      <trkpt lat="41.764668" lon="123.34389">
        <ele>45.27348</ele>
        <time>2016-06-26T22:02:12.762000Z</time>
      </trkpt>
      <trkpt lat="41.76471" lon="123.34377">
        <ele>45.282116</ele>
        <time>2016-06-26T22:02:15.984000Z</time>
      </trkpt>
      <trkpt lat="41.764755" lon="123.34365">
        <ele>45.2913</ele>
        <time>2016-06-26T22:02:19.206000Z</time>
      </trkpt>
      <trkpt lat="41.76479" lon="123.34354">
        <ele>45.299824</ele>
        <time>2016-06-26T22:02:22.428000Z</time>
      </trkpt>
      <trkpt lat="41.76483" lon="123.343414">
        <ele>45.30864</ele>
        <time>2016-06-26T22:02:25.650000Z</time>
      </trkpt>
      <trkpt lat="41.764885" lon="123.343315">
        <ele>45.31726</ele>
        <time>2016-06-26T22:02:28.872000Z</time>
      </trkpt>
      <trkpt lat="41.76494" lon="123.3432">
        <ele>45.32598</ele>
        <time>2016-06-26T22:02:32.094000Z</time>
      </trkpt>
      <trkpt lat="41.764988" lon="123.34309">
        <ele>45.335083</ele>
        <time>2016-06-26T22:02:35.316000Z</time>
      </trkpt>
      <trkpt lat="41.76503" lon="123.34297">
        <ele>45.34382</ele>
        <time>2016-06-26T22:02:38.538000Z</time>
      </trkpt>
      <trkpt lat="41.765076" lon="123.342865">
        <ele>45.352325</ele>
        <time>2016-06-26T22:02:41.760000Z</time>
      </trkpt>
      <trkpt lat="41.765144" lon="123.34273">
        <ele>45.363514</ele>
        <time>2016-06-26T22:02:44.982000Z</time>
      </trkpt>
      <trkpt lat="41.765182" lon="123.34259">
        <ele>45.37344</ele>
        <time>2016-06-26T22:02:48.204000Z</time>
      </trkpt>
      <trkpt lat="41.765217" lon="123.342476">
        <ele>45.38204</ele>
        <time>2016-06-26T22:02:51.426000Z</time>
      </trkpt>
      <trkpt lat="41.765255" lon="123.342354">
        <ele>45.390896</ele>
        <time>2016-06-26T22:02:54.648000Z</time>
      </trkpt>
      <trkpt lat="41.765297" lon="123.34223">
        <ele>45.399975</ele>
        <time>2016-06-26T22:02:57.870000Z</time>
      </trkpt>
      <trkpt lat="41.76533" lon="123.34212">
        <ele>45.408527</ele>
        <time>2016-06-26T22:03:01.092000Z</time>
      </trkpt>
      <trkpt lat="41.76537" lon="123.34199">
        <ele>45.417713</ele>
        <time>2016-06-26T22:03:04.314000Z</time>
      </trkpt>
      <trkpt lat="41.76541" lon="123.34187">
        <ele>45.42627</ele>
        <time>2016-06-26T22:03:07.536000Z</time>
      </trkpt>
      <trkpt lat="41.76546" lon="123.34176">
        <ele>45.435364</ele>
        <time>2016-06-26T22:03:10.758000Z</time>
      </trkpt>
      <trkpt lat="41.765503" lon="123.34165">
        <ele>45.44355</ele>
        <time>2016-06-26T22:03:13.980000Z</time>
      </trkpt>
      <trkpt lat="41.765545" lon="123.34153">
        <ele>45.452816</ele>
        <time>2016-06-26T22:03:17.202000Z</time>
      </trkpt>
      <trkpt lat="41.76559" lon="123.3414">
        <ele>45.462475</ele>
        <time>2016-06-26T22:03:20.424000Z</time>
      </trkpt>
      <trkpt lat="41.765636" lon="123.34127">
        <ele>45.471897</ele>
        <time>2016-06-26T22:03:23.646000Z</time>
      </trkpt>
      <trkpt lat="41.765686" lon="123.341156">
        <ele>45.481068</ele>
        <time>2016-06-26T22:03:26.868000Z</time>
      </trkpt>
      <trkpt lat="41.765736" lon="123.341034">
        <ele>45.49052</ele>
        <time>2016-06-26T22:03:30.090000Z</time>
      </trkpt>
      <trkpt lat="41.765778" lon="123.340904">
        <ele>45.500072</ele>
        <time>2016-06-26T22:03:33.312000Z</time>
      </trkpt>
      <trkpt lat="41.765823" lon="123.34079">
        <ele>45.509274</ele>
        <time>2016-06-26T22:03:36.534000Z</time>
      </trkpt>
      <trkpt lat="41.76586" lon="123.34067">
        <ele>45.518066</ele>
        <time>2016-06-26T22:03:39.756000Z</time>
      </trkpt>
      <trkpt lat="41.765903" lon="123.340546">
        <ele>45.527195</ele>
        <time>2016-06-26T22:03:42.978000Z</time>
      </trkpt>
      <trkpt lat="41.76595" lon="123.34042">
        <ele>45.536316</ele>
        <time>2016-06-26T22:03:46.200000Z</time>
      </trkpt>
      <trkpt lat="41.76599" lon="123.34031">
        <ele>45.54521</ele>
        <time>2016-06-26T22:03:49.422000Z</time>
      </trkpt>
      <trkpt lat="41.76603" lon="123.340195">
        <ele>45.55385</ele>
        <time>2016-06-26T22:03:52.644000Z</time>
      </trkpt>
      <trkpt lat="41.76607" lon="123.34008">
        <ele>45.562225</ele>
        <time>2016-06-26T22:03:55.866000Z</time>
      </trkpt>
      <trkpt lat="41.76612" lon="123.33997">
        <ele>45.57087</ele>
        <time>2016-06-26T22:03:59.088000Z</time>
      </trkpt>
      <trkpt lat="41.766174" lon="123.33982">
        <ele>45.87533</ele>
        <time>2016-06-26T22:04:02.310000Z</time>
      </trkpt>
      <trkpt lat="41.766228" lon="123.3397">
        <ele>46.11989</ele>
        <time>2016-06-26T22:04:05.532000Z</time>
      </trkpt>
      <trkpt lat="41.76628" lon="123.33957">
        <ele>46.313976</ele>
        <time>2016-06-26T22:04:08.754000Z</time>
      </trkpt>
      <trkpt lat="41.766342" lon="123.339455">
        <ele>46.450916</ele>
        <time>2016-06-26T22:04:11.976000Z</time>
      </trkpt>
      <trkpt lat="41.766407" lon="123.33935">
        <ele>46.64858</ele>
        <time>2016-06-26T22:04:15.198000Z</time>
      </trkpt>
      <trkpt lat="41.766468" lon="123.33924">
        <ele>46.925034</ele>
        <time>2016-06-26T22:04:18.420000Z</time>
      </trkpt>
      <trkpt lat="41.766544" lon="123.33914">
        <ele>47.216503</ele>
        <time>2016-06-26T22:04:21.642000Z</time>
      </trkpt>
      <trkpt lat="41.766613" lon="123.33905">
        <ele>47.532856</ele>
        <time>2016-06-26T22:04:24.864000Z</time>
      </trkpt>
      <trkpt lat="41.76667" lon="123.33891">
        <ele>47.806595</ele>
        <time>2016-06-26T22:04:28.086000Z</time>
      </trkpt>
      <trkpt lat="41.76671" lon="123.3388">
        <ele>48.03286</ele>
        <time>2016-06-26T22:04:31.308000Z</time>
      </trkpt>
      <trkpt lat="41.766735" lon="123.33868">
        <ele>48.306187</ele>
        <time>2016-06-26T22:04:34.530000Z</time>
      </trkpt>
      <trkpt lat="41.766777" lon="123.338524">
        <ele>48.60414</ele>
        <time>2016-06-26T22:04:37.752000Z</time>
      </trkpt>
      <trkpt lat="41.766827" lon="123.33841">
        <ele>48.799324</ele>
        <time>2016-06-26T22:04:40.974000Z</time>
      </trkpt>
      <trkpt lat="41.76688" lon="123.33827">
        <ele>48.887848</ele>
        <time>2016-06-26T22:04:44.196000Z</time>
      </trkpt>
      <trkpt lat="41.766926" lon="123.33813">
        <ele>48.975155</ele>
        <time>2016-06-26T22:04:47.418000Z</time>
      </trkpt>
      <trkpt lat="41.766964" lon="123.338005">
        <ele>49.050358</ele>
        <time>2016-06-26T22:04:50.640000Z</time>
      </trkpt>
      <trkpt lat="41.76701" lon="123.33788">
        <ele>49.1284</ele>
        <time>2016-06-26T22:04:53.862000Z</time>
      </trkpt>
      <trkpt lat="41.76705" lon="123.33774">
        <ele>49.211582</ele>
        <time>2016-06-26T22:04:57.084000Z</time>
      </trkpt>
      <trkpt lat="41.767086" lon="123.3376">
        <ele>49.68344</ele>
        <time>2016-06-26T22:05:00.306000Z</time>
      </trkpt>
      <trkpt lat="41.767128" lon="123.33748">
        <ele>49.96806</ele>
        <time>2016-06-26T22:05:03.528000Z</time>
      </trkpt>
      <trkpt lat="41.76717" lon="123.33734">
        <ele>50.229744</ele>
        <time>2016-06-26T22:05:06.750000Z</time>
      </trkpt>
      <trkpt lat="41.76722" lon="123.33722">
        <ele>50.45483</ele>
        <time>2016-06-26T22:05:09.972000Z</time>
      </trkpt>
      <trkpt lat="41.767258" lon="123.33708">
        <ele>50.502274</ele>
        <time>2016-06-26T22:05:13.194000Z</time>
      </trkpt>
      <trkpt lat="41.76729" lon="123.33695">
        <ele>50.26871</ele>
        <time>2016-06-26T22:05:16.416000Z</time>
      </trkpt>
      <trkpt lat="41.767315" lon="123.336815">
        <ele>50.02278</ele>
        <time>2016-06-26T22:05:19.638000Z</time>
      </trkpt>
      <trkpt lat="41.767345" lon="123.3367">
        <ele>49.81025</ele>
        <time>2016-06-26T22:05:22.860000Z</time>
      </trkpt>
      <trkpt lat="41.7674" lon="123.336555">
        <ele>49.537727</ele>
        <time>2016-06-26T22:05:26.082000Z</time>
      </trkpt>
      <trkpt lat="41.76744" lon="123.33643">
        <ele>49.30623</ele>
        <time>2016-06-26T22:05:29.304000Z</time>
      </trkpt>
      <trkpt lat="41.767483" lon="123.33631">
        <ele>49.077408</ele>
        <time>2016-06-26T22:05:32.526000Z</time>
      </trkpt>
      <trkpt lat="41.76752" lon="123.33619">
        <ele>48.85354</ele>
        <time>2016-06-26T22:05:35.748000Z</time>
      </trkpt>
      <trkpt lat="41.767567" lon="123.33607">
        <ele>48.62245</ele>
        <time>2016-06-26T22:05:38.970000Z</time>
      </trkpt>
      <trkpt lat="41.76761" lon="123.335945">
        <ele>48.393013</ele>
        <time>2016-06-26T22:05:42.192000Z</time>
      </trkpt>
      <trkpt lat="41.767647" lon="123.33583">
        <ele>48.179447</ele>
        <time>2016-06-26T22:05:45.414000Z</time>
      </trkpt>
      <trkpt lat="41.767662" lon="123.33569">
        <ele>47.938053</ele>
        <time>2016-06-26T22:05:48.636000Z</time>
      </trkpt>
      <trkpt lat="41.767696" lon="123.33557">
        <ele>47.7181</ele>
        <time>2016-06-26T22:05:51.858000Z</time>
      </trkpt>
      <trkpt lat="41.76773" lon="123.33546">
        <ele>47.50536</ele>
        <time>2016-06-26T22:05:55.080000Z</time>
      </trkpt>
      <trkpt lat="41.76777" lon="123.33534">
        <ele>47.290764</ele>
        <time>2016-06-26T22:05:58.302000Z</time>
      </trkpt>
      <trkpt lat="41.767815" lon="123.335236">
        <ele>47.075344</ele>
        <time>2016-06-26T22:06:01.524000Z</time>
      </trkpt>
      <trkpt lat="41.76786" lon="123.33512">
        <ele>46.857246</ele>
        <time>2016-06-26T22:06:04.746000Z</time>
      </trkpt>
      <trkpt lat="41.7679" lon="123.33501">
        <ele>46.642033</ele>
        <time>2016-06-26T22:06:07.968000Z</time>
      </trkpt>
      <trkpt lat="41.76795" lon="123.334885">
        <ele>46.40847</ele>
        <time>2016-06-26T22:06:11.190000Z</time>
      </trkpt>
      <trkpt lat="41.767998" lon="123.33477">
        <ele>46.173878</ele>
        <time>2016-06-26T22:06:14.412000Z</time>
      </trkpt>
      <trkpt lat="41.768044" lon="123.33464">
        <ele>45.93166</ele>
        <time>2016-06-26T22:06:17.634000Z</time>
      </trkpt>
      <trkpt lat="41.768085" lon="123.334526">
        <ele>45.719128</ele>
        <time>2016-06-26T22:06:20.856000Z</time>
      </trkpt>
      <trkpt lat="41.768124" lon="123.334404">
        <ele>45.488453</ele>
        <time>2016-06-26T22:06:24.078000Z</time>
      </trkpt>
      <trkpt lat="41.768166" lon="123.33427">
        <ele>45.356792</ele>
        <time>2016-06-26T22:06:27.300000Z</time>
      </trkpt>
      <trkpt lat="41.7682" lon="123.334145">
        <ele>44.974968</ele>
        <time>2016-06-26T22:06:30.522000Z</time>
      </trkpt>
      <trkpt lat="41.76823" lon="123.33401">
        <ele>44.36409</ele>
        <time>2016-06-26T22:06:33.744000Z</time>
      </trkpt>
      <trkpt lat="41.768276" lon="123.333885">
        <ele>43.739693</ele>
        <time>2016-06-26T22:06:36.966000Z</time>
      </trkpt>
      <trkpt lat="41.768345" lon="123.33376">
        <ele>43.16963</ele>
        <time>2016-06-26T22:06:40.188000Z</time>
      </trkpt>
      <trkpt lat="41.768394" lon="123.33362">
        <ele>42.658714</ele>
        <time>2016-06-26T22:06:43.410000Z</time>
      </trkpt>
      <trkpt lat="41.76843" lon="123.333496">
        <ele>42.30964</ele>
        <time>2016-06-26T22:06:46.632000Z</time>
      </trkpt>
      <trkpt lat="41.76847" lon="123.33338">
        <ele>42.143345</ele>
        <time>2016-06-26T22:06:49.854000Z</time>
      </trkpt>
      <trkpt lat="41.768513" lon="123.33325">
        <ele>42.71675</ele>
        <time>2016-06-26T22:06:53.076000Z</time>
      </trkpt>
      <trkpt lat="41.768547" lon="123.33313">
        <ele>43.287632</ele>
        <time>2016-06-26T22:06:56.298000Z</time>
      </trkpt>
      <trkpt lat="41.768597" lon="123.333">
        <ele>43.886322</ele>
        <time>2016-06-26T22:06:59.520000Z</time>
      </trkpt>
      <trkpt lat="41.768635" lon="123.33289">
        <ele>44.400566</ele>
        <time>2016-06-26T22:07:02.742000Z</time>
      </trkpt>
      <trkpt lat="41.768684" lon="123.33275">
        <ele>45.05134</ele>
        <time>2016-06-26T22:07:05.964000Z</time>
      </trkpt>
      <trkpt lat="41.76873" lon="123.332634">
        <ele>45.61261</ele>
        <time>2016-06-26T22:07:09.186000Z</time>
      </trkpt>
      <trkpt lat="41.768784" lon="123.33253">
        <ele>46.153152</ele>
        <time>2016-06-26T22:07:12.408000Z</time>
      </trkpt>
      <trkpt lat="41.768833" lon="123.33241">
        <ele>46.693184</ele>
        <time>2016-06-26T22:07:15.630000Z</time>
      </trkpt>
      <trkpt lat="41.768875" lon="123.3323">
        <ele>47.23423</ele>
        <time>2016-06-26T22:07:18.852000Z</time>
      </trkpt>
      <trkpt lat="41.76892" lon="123.33218">
        <ele>47.811176</ele>
        <time>2016-06-26T22:07:22.074000Z</time>
      </trkpt>
      <trkpt lat="41.76897" lon="123.332054">
        <ele>48.34243</ele>
        <time>2016-06-26T22:07:25.296000Z</time>
      </trkpt>
      <trkpt lat="41.769024" lon="123.33194">
        <ele>48.51886</ele>
        <time>2016-06-26T22:07:28.518000Z</time>
      </trkpt>
      <trkpt lat="41.769066" lon="123.331825">
        <ele>48.525158</ele>
        <time>2016-06-26T22:07:31.740000Z</time>
      </trkpt>
      <trkpt lat="41.769108" lon="123.3317">
        <ele>48.531597</ele>
        <time>2016-06-26T22:07:34.962000Z</time>
      </trkpt>
      <trkpt lat="41.76917" lon="123.33157">
        <ele>48.539345</ele>
        <time>2016-06-26T22:07:38.184000Z</time>
      </trkpt>
      <trkpt lat="41.769215" lon="123.33146">
        <ele>48.545593</ele>
        <time>2016-06-26T22:07:41.406000Z</time>
      </trkpt>
      <trkpt lat="41.769257" lon="123.331345">
        <ele>48.55187</ele>
        <time>2016-06-26T22:07:44.628000Z</time>
      </trkpt>
      <trkpt lat="41.769306" lon="123.33123">
        <ele>48.55848</ele>
        <time>2016-06-26T22:07:47.850000Z</time>
      </trkpt>
      <trkpt lat="41.769352" lon="123.33111">
        <ele>48.565067</ele>
        <time>2016-06-26T22:07:51.072000Z</time>
      </trkpt>
      <trkpt lat="41.769375" lon="123.33097">
        <ele>48.572346</ele>
        <time>2016-06-26T22:07:54.294000Z</time>
      </trkpt>
      <trkpt lat="41.769386" lon="123.33084">
        <ele>48.57854</ele>
        <time>2016-06-26T22:07:57.516000Z</time>
      </trkpt>
      <trkpt lat="41.76942" lon="123.33072">
        <ele>48.58502</ele>
        <time>2016-06-26T22:08:00.738000Z</time>
      </trkpt>
      <trkpt lat="41.769474" lon="123.33058">
        <ele>48.59271</ele>
        <time>2016-06-26T22:08:03.960000Z</time>
      </trkpt>
      <trkpt lat="41.769516" lon="123.33047">
        <ele>48.598923</ele>
        <time>2016-06-26T22:08:07.182000Z</time>
      </trkpt>
      <trkpt lat="41.769573" lon="123.33036">
        <ele>48.605396</ele>
        <time>2016-06-26T22:08:10.404000Z</time>
      </trkpt>
      <trkpt lat="41.769627" lon="123.33022">
        <ele>48.61302</ele>
        <time>2016-06-26T22:08:13.626000Z</time>
      </trkpt>
      <trkpt lat="41.76967" lon="123.33011">
        <ele>48.61945</ele>
        <time>2016-06-26T22:08:16.848000Z</time>
      </trkpt>
      <trkpt lat="41.769714" lon="123.32998">
        <ele>48.626316</ele>
        <time>2016-06-26T22:08:20.070000Z</time>
      </trkpt>
      <trkpt lat="41.76977" lon="123.32985">
        <ele>48.633698</ele>
        <time>2016-06-26T22:08:23.292000Z</time>
      </trkpt>
      <trkpt lat="41.76982" lon="123.329735">
        <ele>48.64016</ele>
        <time>2016-06-26T22:08:26.514000Z</time>
      </trkpt>
      <trkpt lat="41.769875" lon="123.329605">
        <ele>48.647465</ele>
        <time>2016-06-26T22:08:29.736000Z</time>
      </trkpt>
      <trkpt lat="41.76992" lon="123.3295">
        <ele>48.653667</ele>
        <time>2016-06-26T22:08:32.958000Z</time>
      </trkpt>
      <trkpt lat="41.76996" lon="123.32938">
        <ele>48.660023</ele>
        <time>2016-06-26T22:08:36.180000Z</time>
      </trkpt>
      <trkpt lat="41.77001" lon="123.32923">
        <ele>48.668003</ele>
        <time>2016-06-26T22:08:39.402000Z</time>
      </trkpt>
      <trkpt lat="41.77006" lon="123.32913">
        <ele>48.674038</ele>
        <time>2016-06-26T22:08:42.624000Z</time>
      </trkpt>
      <trkpt lat="41.770107" lon="123.32899">
        <ele>48.777294</ele>
        <time>2016-06-26T22:08:45.846000Z</time>
      </trkpt>
      <trkpt lat="41.77012" lon="123.32885">
        <ele>48.78074</ele>
        <time>2016-06-26T22:08:49.068000Z</time>
      </trkpt>
      <trkpt lat="41.770176" lon="123.32871">
        <ele>48.78074</ele>
        <time>2016-06-26T22:08:52.290000Z</time>
      </trkpt>
      <trkpt lat="41.77024" lon="123.32862">
        <ele>48.78074</ele>
        <time>2016-06-26T22:08:55.512000Z</time>
      </trkpt>
      <trkpt lat="41.770306" lon="123.32854">
        <ele>48.78074</ele>
        <time>2016-06-26T22:08:58.734000Z</time>
      </trkpt>
      <trkpt lat="41.770344" lon="123.32842">
        <ele>48.78074</ele>
        <time>2016-06-26T22:09:01.956000Z</time>
      </trkpt>
      <trkpt lat="41.7703" lon="123.328384">
        <ele>47.986958</ele>
        <time>2016-06-26T22:09:05.178000Z</time>
      </trkpt>
      <trkpt lat="41.7703" lon="123.328384">
        <ele>47.986958</ele>
        <time>2016-06-26T22:09:08.400000Z</time>
      </trkpt>
      <trkpt lat="41.77021" lon="123.328514">
        <ele>47.630276</ele>
        <time>2016-06-26T22:09:11.622000Z</time>
      </trkpt>
      <trkpt lat="41.770195" lon="123.32855">
        <ele>47.54123</ele>
        <time>2016-06-26T22:09:14.844000Z</time>
      </trkpt>
      <trkpt lat="41.770138" lon="123.32867">
        <ele>47.259</ele>
        <time>2016-06-26T22:09:18.066000Z</time>
      </trkpt>
      <trkpt lat="41.770084" lon="123.32877">
        <ele>46.988148</ele>
        <time>2016-06-26T22:09:21.288000Z</time>
      </trkpt>
      <trkpt lat="41.770084" lon="123.32877">
        <ele>46.988148</ele>
        <time>2016-06-26T22:09:24.510000Z</time>
      </trkpt>
      <trkpt lat="41.770054" lon="123.328896">
        <ele>46.731644</ele>
        <time>2016-06-26T22:09:27.732000Z</time>
      </trkpt>
      <trkpt lat="41.770008" lon="123.32904">
        <ele>46.398956</ele>
        <time>2016-06-26T22:09:30.954000Z</time>
      </trkpt>
      <trkpt lat="41.76998" lon="123.32917">
        <ele>46.12489</ele>
        <time>2016-06-26T22:09:34.176000Z</time>
      </trkpt>
      <trkpt lat="41.769936" lon="123.32929">
        <ele>45.850826</ele>
        <time>2016-06-26T22:09:37.398000Z</time>
      </trkpt>
      <trkpt lat="41.769882" lon="123.3294">
        <ele>45.580223</ele>
        <time>2016-06-26T22:09:40.620000Z</time>
      </trkpt>
      <trkpt lat="41.769836" lon="123.32951">
        <ele>45.318027</ele>
        <time>2016-06-26T22:09:43.842000Z</time>
      </trkpt>
      <trkpt lat="41.769783" lon="123.32963">
        <ele>45.042973</ele>
        <time>2016-06-26T22:09:47.064000Z</time>
      </trkpt>
      <trkpt lat="41.769737" lon="123.32975">
        <ele>44.759754</ele>
        <time>2016-06-26T22:09:50.286000Z</time>
      </trkpt>
      <trkpt lat="41.76969" lon="123.32989">
        <ele>44.458977</ele>
        <time>2016-06-26T22:09:53.508000Z</time>
      </trkpt>
      <trkpt lat="41.76965" lon="123.33001">
        <ele>44.176746</ele>
        <time>2016-06-26T22:09:56.730000Z</time>
      </trkpt>
      <trkpt lat="41.7696" lon="123.33013">
        <ele>43.889572</ele>
        <time>2016-06-26T22:09:59.952000Z</time>
      </trkpt>
      <trkpt lat="41.769554" lon="123.33026">
        <ele>43.592007</ele>
        <time>2016-06-26T22:10:03.174000Z</time>
      </trkpt>
      <trkpt lat="41.769497" lon="123.33039">
        <ele>43.288754</ele>
        <time>2016-06-26T22:10:06.396000Z</time>
      </trkpt>
      <trkpt lat="41.769436" lon="123.3305">
        <ele>43.00232</ele>
        <time>2016-06-26T22:10:09.618000Z</time>
      </trkpt>
      <trkpt lat="41.769382" lon="123.33062">
        <ele>42.722073</ele>
        <time>2016-06-26T22:10:12.840000Z</time>
      </trkpt>
      <trkpt lat="41.769337" lon="123.33076">
        <ele>42.234184</ele>
        <time>2016-06-26T22:10:16.062000Z</time>
      </trkpt>
      <trkpt lat="41.7693" lon="123.33089">
        <ele>41.8347</ele>
        <time>2016-06-26T22:10:19.284000Z</time>
      </trkpt>
      <trkpt lat="41.769264" lon="123.331">
        <ele>41.46226</ele>
        <time>2016-06-26T22:10:22.506000Z</time>
      </trkpt>
      <trkpt lat="41.769222" lon="123.33112">
        <ele>41.12254</ele>
        <time>2016-06-26T22:10:25.728000Z</time>
      </trkpt>
      <trkpt lat="41.76915" lon="123.331245">
        <ele>40.935978</ele>
        <time>2016-06-26T22:10:28.950000Z</time>
      </trkpt>
      <trkpt lat="41.7691" lon="123.33136">
        <ele>40.903526</ele>
        <time>2016-06-26T22:10:32.172000Z</time>
      </trkpt>
      <trkpt lat="41.769062" lon="123.331474">
        <ele>40.872387</ele>
        <time>2016-06-26T22:10:35.394000Z</time>
      </trkpt>
      <trkpt lat="41.769028" lon="123.33161">
        <ele>40.836258</ele>
        <time>2016-06-26T22:10:38.616000Z</time>
      </trkpt>
      <trkpt lat="41.76898" lon="123.33173">
        <ele>40.801624</ele>
        <time>2016-06-26T22:10:41.838000Z</time>
      </trkpt>
      <trkpt lat="41.76893" lon="123.33186">
        <ele>40.764896</ele>
        <time>2016-06-26T22:10:45.060000Z</time>
      </trkpt>
      <trkpt lat="41.768894" lon="123.332016">
        <ele>40.61856</ele>
        <time>2016-06-26T22:10:48.282000Z</time>
      </trkpt>
      <trkpt lat="41.76886" lon="123.33216">
        <ele>40.564587</ele>
        <time>2016-06-26T22:10:51.504000Z</time>
      </trkpt>
      <trkpt lat="41.768818" lon="123.3323">
        <ele>40.55211</ele>
        <time>2016-06-26T22:10:54.726000Z</time>
      </trkpt>
      <trkpt lat="41.768776" lon="123.33242">
        <ele>40.524517</ele>
        <time>2016-06-26T22:10:57.948000Z</time>
      </trkpt>
      <trkpt lat="41.768723" lon="123.33253">
        <ele>40.46274</ele>
        <time>2016-06-26T22:11:01.170000Z</time>
      </trkpt>
      <trkpt lat="41.768684" lon="123.33265">
        <ele>40.37064</ele>
        <time>2016-06-26T22:11:04.392000Z</time>
      </trkpt>
      <trkpt lat="41.768635" lon="123.332794">
        <ele>40.28934</ele>
        <time>2016-06-26T22:11:07.614000Z</time>
      </trkpt>
      <trkpt lat="41.76857" lon="123.33293">
        <ele>40.44237</ele>
        <time>2016-06-26T22:11:10.836000Z</time>
      </trkpt>
      <trkpt lat="41.76852" lon="123.33305">
        <ele>40.56691</ele>
        <time>2016-06-26T22:11:14.058000Z</time>
      </trkpt>
      <trkpt lat="41.76848" lon="123.33317">
        <ele>40.68533</ele>
        <time>2016-06-26T22:11:17.280000Z</time>
      </trkpt>
      <trkpt lat="41.76843" lon="123.333275">
        <ele>40.80219</ele>
        <time>2016-06-26T22:11:20.502000Z</time>
      </trkpt>
      <trkpt lat="41.768368" lon="123.33339">
        <ele>40.93118</ele>
        <time>2016-06-26T22:11:23.724000Z</time>
      </trkpt>
      <trkpt lat="41.7683" lon="123.333496">
        <ele>41.0605</ele>
        <time>2016-06-26T22:11:26.946000Z</time>
      </trkpt>
      <trkpt lat="41.76825" lon="123.3336">
        <ele>41.175915</ele>
        <time>2016-06-26T22:11:30.168000Z</time>
      </trkpt>
      <trkpt lat="41.768253" lon="123.33374">
        <ele>41.30457</ele>
        <time>2016-06-26T22:11:33.390000Z</time>
      </trkpt>
      <trkpt lat="41.768238" lon="123.33386">
        <ele>41.42288</ele>
        <time>2016-06-26T22:11:36.612000Z</time>
      </trkpt>
      <trkpt lat="41.7682" lon="123.33398">
        <ele>41.536953</ele>
        <time>2016-06-26T22:11:39.834000Z</time>
      </trkpt>
      <trkpt lat="41.768158" lon="123.3341">
        <ele>41.660603</ele>
        <time>2016-06-26T22:11:43.056000Z</time>
      </trkpt>
      <trkpt lat="41.76811" lon="123.33421">
        <ele>41.783916</ele>
        <time>2016-06-26T22:11:46.278000Z</time>
      </trkpt>
      <trkpt lat="41.76805" lon="123.33432">
        <ele>41.900776</ele>
        <time>2016-06-26T22:11:49.500000Z</time>
      </trkpt>
      <trkpt lat="41.768044" lon="123.33445">
        <ele>42.020084</ele>
        <time>2016-06-26T22:11:52.722000Z</time>
      </trkpt>
      <trkpt lat="41.768093" lon="123.33458">
        <ele>42.15998</ele>
        <time>2016-06-26T22:11:55.944000Z</time>
      </trkpt>
      <trkpt lat="41.768127" lon="123.334724">
        <ele>42.29932</ele>
        <time>2016-06-26T22:11:59.166000Z</time>
      </trkpt>
      <trkpt lat="41.76808" lon="123.33484">
        <ele>42.414288</ele>
        <time>2016-06-26T22:12:02.388000Z</time>
      </trkpt>
      <trkpt lat="41.76801" lon="123.33493">
        <ele>42.538826</ele>
        <time>2016-06-26T22:12:05.610000Z</time>
      </trkpt>
      <trkpt lat="41.76796" lon="123.33506">
        <ele>42.672157</ele>
        <time>2016-06-26T22:12:08.832000Z</time>
      </trkpt>
      <trkpt lat="41.767906" lon="123.335205">
        <ele>42.82018</ele>
        <time>2016-06-26T22:12:12.054000Z</time>
      </trkpt>
      <trkpt lat="41.76785" lon="123.335304">
        <ele>42.936146</ele>
        <time>2016-06-26T22:12:15.276000Z</time>
      </trkpt>
      <trkpt lat="41.767784" lon="123.33543">
        <ele>43.07482</ele>
        <time>2016-06-26T22:12:18.498000Z</time>
      </trkpt>
      <trkpt lat="41.767735" lon="123.33555">
        <ele>43.20492</ele>
        <time>2016-06-26T22:12:21.720000Z</time>
      </trkpt>
      <trkpt lat="41.767677" lon="123.335686">
        <ele>43.351723</ele>
        <time>2016-06-26T22:12:24.942000Z</time>
      </trkpt>
      <trkpt lat="41.767647" lon="123.335815">
        <ele>43.4727</ele>
        <time>2016-06-26T22:12:28.164000Z</time>
      </trkpt>
      <trkpt lat="41.767624" lon="123.33594">
        <ele>43.588444</ele>
        <time>2016-06-26T22:12:31.386000Z</time>
      </trkpt>
      <trkpt lat="41.767597" lon="123.33605">
        <ele>43.702522</ele>
        <time>2016-06-26T22:12:34.608000Z</time>
      </trkpt>
      <trkpt lat="41.767563" lon="123.336174">
        <ele>43.82094</ele>
        <time>2016-06-26T22:12:37.830000Z</time>
      </trkpt>
      <trkpt lat="41.767517" lon="123.33629">
        <ele>43.93958</ele>
        <time>2016-06-26T22:12:41.052000Z</time>
      </trkpt>
      <trkpt lat="41.767467" lon="123.3364">
        <ele>44.06334</ele>
        <time>2016-06-26T22:12:44.274000Z</time>
      </trkpt>
      <trkpt lat="41.767403" lon="123.33653">
        <ele>44.205685</ele>
        <time>2016-06-26T22:12:47.496000Z</time>
      </trkpt>
      <trkpt lat="41.767353" lon="123.336655">
        <ele>44.34046</ele>
        <time>2016-06-26T22:12:50.718000Z</time>
      </trkpt>
      <trkpt lat="41.76732" lon="123.33681">
        <ele>44.484478</ele>
        <time>2016-06-26T22:12:53.940000Z</time>
      </trkpt>
      <trkpt lat="41.767296" lon="123.33695">
        <ele>44.621815</ele>
        <time>2016-06-26T22:12:57.162000Z</time>
      </trkpt>
      <trkpt lat="41.767227" lon="123.33707">
        <ele>44.75648</ele>
        <time>2016-06-26T22:13:00.384000Z</time>
      </trkpt>
      <trkpt lat="41.767174" lon="123.33717">
        <ele>44.872784</ele>
        <time>2016-06-26T22:13:03.606000Z</time>
      </trkpt>
      <trkpt lat="41.76713" lon="123.337296">
        <ele>44.999546</ele>
        <time>2016-06-26T22:13:06.828000Z</time>
      </trkpt>
      <trkpt lat="41.76709" lon="123.33742">
        <ele>45.12709</ele>
        <time>2016-06-26T22:13:10.050000Z</time>
      </trkpt>
      <trkpt lat="41.767056" lon="123.33755">
        <ele>45.250404</ele>
        <time>2016-06-26T22:13:13.272000Z</time>
      </trkpt>
      <trkpt lat="41.767006" lon="123.33767">
        <ele>45.37784</ele>
        <time>2016-06-26T22:13:16.494000Z</time>
      </trkpt>
      <trkpt lat="41.766964" lon="123.33779">
        <ele>45.468723</ele>
        <time>2016-06-26T22:13:19.716000Z</time>
      </trkpt>
      <trkpt lat="41.766937" lon="123.337906">
        <ele>45.47916</ele>
        <time>2016-06-26T22:13:22.938000Z</time>
      </trkpt>
      <trkpt lat="41.7669" lon="123.33803">
        <ele>45.49067</ele>
        <time>2016-06-26T22:13:26.160000Z</time>
      </trkpt>
      <trkpt lat="41.766853" lon="123.33816">
        <ele>45.502842</ele>
        <time>2016-06-26T22:13:29.382000Z</time>
      </trkpt>
      <trkpt lat="41.76681" lon="123.33829">
        <ele>45.515232</ele>
        <time>2016-06-26T22:13:32.604000Z</time>
      </trkpt>
      <trkpt lat="41.766766" lon="123.338394">
        <ele>45.525658</ele>
        <time>2016-06-26T22:13:35.826000Z</time>
      </trkpt>
      <trkpt lat="41.766716" lon="123.338524">
        <ele>45.53782</ele>
        <time>2016-06-26T22:13:39.048000Z</time>
      </trkpt>
      <trkpt lat="41.766663" lon="123.33865">
        <ele>45.5506</ele>
        <time>2016-06-26T22:13:42.270000Z</time>
      </trkpt>
      <trkpt lat="41.766613" lon="123.33879">
        <ele>45.563618</ele>
        <time>2016-06-26T22:13:45.492000Z</time>
      </trkpt>
      <trkpt lat="41.76658" lon="123.338905">
        <ele>45.574135</ele>
        <time>2016-06-26T22:13:48.714000Z</time>
      </trkpt>
      <trkpt lat="41.766537" lon="123.33901">
        <ele>45.584965</ele>
        <time>2016-06-26T22:13:51.936000Z</time>
      </trkpt>
      <trkpt lat="41.76649" lon="123.33913">
        <ele>45.59603</ele>
        <time>2016-06-26T22:13:55.158000Z</time>
      </trkpt>
      <trkpt lat="41.766445" lon="123.339264">
        <ele>45.608387</ele>
        <time>2016-06-26T22:13:58.380000Z</time>
      </trkpt>
      <trkpt lat="41.766407" lon="123.339386">
        <ele>45.62027</ele>
        <time>2016-06-26T22:14:01.602000Z</time>
      </trkpt>
      <trkpt lat="41.766357" lon="123.33951">
        <ele>45.632195</ele>
        <time>2016-06-26T22:14:04.824000Z</time>
      </trkpt>
      <trkpt lat="41.766315" lon="123.33963">
        <ele>45.643684</ele>
        <time>2016-06-26T22:14:08.046000Z</time>
      </trkpt>
      <trkpt lat="41.766266" lon="123.339745">
        <ele>45.655083</ele>
        <time>2016-06-26T22:14:11.268000Z</time>
      </trkpt>
      <trkpt lat="41.766224" lon="123.33987">
        <ele>45.666126</ele>
        <time>2016-06-26T22:14:14.490000Z</time>
      </trkpt>
      <trkpt lat="41.766174" lon="123.33997">
        <ele>45.875828</ele>
        <time>2016-06-26T22:14:17.712000Z</time>
      </trkpt>
      <trkpt lat="41.766125" lon="123.34011">
        <ele>46.07466</ele>
        <time>2016-06-26T22:14:20.934000Z</time>
      </trkpt>
      <trkpt lat="41.76607" lon="123.34024">
        <ele>46.2926</ele>
        <time>2016-06-26T22:14:24.156000Z</time>
      </trkpt>
      <trkpt lat="41.76602" lon="123.34036">
        <ele>46.539875</ele>
        <time>2016-06-26T22:14:27.378000Z</time>
      </trkpt>
      <trkpt lat="41.76598" lon="123.34051">
        <ele>46.736187</ele>
        <time>2016-06-26T22:14:30.600000Z</time>
      </trkpt>
      <trkpt lat="41.765926" lon="123.34064">
        <ele>46.74522</ele>
        <time>2016-06-26T22:14:33.822000Z</time>
      </trkpt>
      <trkpt lat="41.76588" lon="123.34076">
        <ele>46.753807</ele>
        <time>2016-06-26T22:14:37.044000Z</time>
      </trkpt>
      <trkpt lat="41.76582" lon="123.340904">
        <ele>46.764187</ele>
        <time>2016-06-26T22:14:40.266000Z</time>
      </trkpt>
      <trkpt lat="41.76576" lon="123.341034">
        <ele>46.773846</ele>
        <time>2016-06-26T22:14:43.488000Z</time>
      </trkpt>
      <trkpt lat="41.765705" lon="123.34116">
        <ele>46.783085</ele>
        <time>2016-06-26T22:14:46.710000Z</time>
      </trkpt>
      <trkpt lat="41.76566" lon="123.34129">
        <ele>46.79221</ele>
        <time>2016-06-26T22:14:49.932000Z</time>
      </trkpt>
      <trkpt lat="41.76561" lon="123.34144">
        <ele>46.801823</ele>
        <time>2016-06-26T22:14:53.154000Z</time>
      </trkpt>
      <trkpt lat="41.76557" lon="123.34157">
        <ele>46.81056</ele>
        <time>2016-06-26T22:14:56.376000Z</time>
      </trkpt>
      <trkpt lat="41.76553" lon="123.3417">
        <ele>46.81948</ele>
        <time>2016-06-26T22:14:59.598000Z</time>
      </trkpt>
      <trkpt lat="41.76549" lon="123.341835">
        <ele>46.828777</ele>
        <time>2016-06-26T22:15:02.820000Z</time>
      </trkpt>
      <trkpt lat="41.765438" lon="123.34198">
        <ele>46.838776</ele>
        <time>2016-06-26T22:15:06.042000Z</time>
      </trkpt>
      <trkpt lat="41.76538" lon="123.342094">
        <ele>46.847404</ele>
        <time>2016-06-26T22:15:09.264000Z</time>
      </trkpt>
      <trkpt lat="41.76531" lon="123.342224">
        <ele>46.85741</ele>
        <time>2016-06-26T22:15:12.486000Z</time>
      </trkpt>
      <trkpt lat="41.765255" lon="123.34233">
        <ele>47.053123</ele>
        <time>2016-06-26T22:15:15.708000Z</time>
      </trkpt>
      <trkpt lat="41.76521" lon="123.34244">
        <ele>46.599045</ele>
        <time>2016-06-26T22:15:18.930000Z</time>
      </trkpt>
      <trkpt lat="41.765163" lon="123.342545">
        <ele>46.12268</ele>
        <time>2016-06-26T22:15:22.152000Z</time>
      </trkpt>
      <trkpt lat="41.765125" lon="123.342674">
        <ele>45.627605</ele>
        <time>2016-06-26T22:15:25.374000Z</time>
      </trkpt>
      <trkpt lat="41.765087" lon="123.34278">
        <ele>45.171295</ele>
        <time>2016-06-26T22:15:28.596000Z</time>
      </trkpt>
      <trkpt lat="41.76505" lon="123.34291">
        <ele>44.65795</ele>
        <time>2016-06-26T22:15:31.818000Z</time>
      </trkpt>
      <trkpt lat="41.765" lon="123.343025">
        <ele>44.16421</ele>
        <time>2016-06-26T22:15:35.040000Z</time>
      </trkpt>
      <trkpt lat="41.76496" lon="123.34315">
        <ele>43.69587</ele>
        <time>2016-06-26T22:15:38.262000Z</time>
      </trkpt>
      <trkpt lat="41.764927" lon="123.34328">
        <ele>43.16648</ele>
        <time>2016-06-26T22:15:41.484000Z</time>
      </trkpt>
      <trkpt lat="41.764885" lon="123.343414">
        <ele>42.626842</ele>
        <time>2016-06-26T22:15:44.706000Z</time>
      </trkpt>
      <trkpt lat="41.764843" lon="123.34355">
        <ele>42.086315</ele>
        <time>2016-06-26T22:15:47.928000Z</time>
      </trkpt>
      <trkpt lat="41.76479" lon="123.343666">
        <ele>41.570293</ele>
        <time>2016-06-26T22:15:51.150000Z</time>
      </trkpt>
      <trkpt lat="41.764736" lon="123.343796">
        <ele>41.030785</ele>
        <time>2016-06-26T22:15:54.372000Z</time>
      </trkpt>
      <trkpt lat="41.764687" lon="123.343925">
        <ele>40.725353</ele>
        <time>2016-06-26T22:15:57.594000Z</time>
      </trkpt>
      <trkpt lat="41.76464" lon="123.34404">
        <ele>40.640007</ele>
        <time>2016-06-26T22:16:00.816000Z</time>
      </trkpt>
      <trkpt lat="41.764587" lon="123.34418">
        <ele>40.632748</ele>
        <time>2016-06-26T22:16:04.038000Z</time>
      </trkpt>
      <trkpt lat="41.764534" lon="123.34431">
        <ele>40.62546</ele>
        <time>2016-06-26T22:16:07.260000Z</time>
      </trkpt>
      <trkpt lat="41.764477" lon="123.34445">
        <ele>40.61774</ele>
        <time>2016-06-26T22:16:10.482000Z</time>
      </trkpt>
      <trkpt lat="41.764423" lon="123.34459">
        <ele>40.61041</ele>
        <time>2016-06-26T22:16:13.704000Z</time>
      </trkpt>
      <trkpt lat="41.764374" lon="123.34472">
        <ele>40.603622</ele>
        <time>2016-06-26T22:16:16.926000Z</time>
      </trkpt>
      <trkpt lat="41.764324" lon="123.34485">
        <ele>40.596653</ele>
        <time>2016-06-26T22:16:20.148000Z</time>
      </trkpt>
      <trkpt lat="41.764275" lon="123.34498">
        <ele>40.58971</ele>
        <time>2016-06-26T22:16:23.370000Z</time>
      </trkpt>
      <trkpt lat="41.76423" lon="123.3451">
        <ele>40.58327</ele>
        <time>2016-06-26T22:16:26.592000Z</time>
      </trkpt>
      <trkpt lat="41.76417" lon="123.34524">
        <ele>40.575928</ele>
        <time>2016-06-26T22:16:29.814000Z</time>
      </trkpt>
      <trkpt lat="41.764122" lon="123.34535">
        <ele>40.56937</ele>
        <time>2016-06-26T22:16:33.036000Z</time>
      </trkpt>
      <trkpt lat="41.764076" lon="123.345474">
        <ele>40.563175</ele>
        <time>2016-06-26T22:16:36.258000Z</time>
      </trkpt>
      <trkpt lat="41.764008" lon="123.34561">
        <ele>40.555275</ele>
        <time>2016-06-26T22:16:39.480000Z</time>
      </trkpt>
      <trkpt lat="41.763958" lon="123.34574">
        <ele>40.548454</ele>
        <time>2016-06-26T22:16:42.702000Z</time>
      </trkpt>
      <trkpt lat="41.763912" lon="123.34585">
        <ele>40.54264</ele>
        <time>2016-06-26T22:16:45.924000Z</time>
      </trkpt>
      <trkpt lat="41.76387" lon="123.345955">
        <ele>40.536858</ele>
        <time>2016-06-26T22:16:49.146000Z</time>
      </trkpt>
      <trkpt lat="41.763832" lon="123.346085">
        <ele>40.530003</ele>
        <time>2016-06-26T22:16:52.368000Z</time>
      </trkpt>
      <trkpt lat="41.763794" lon="123.3462">
        <ele>40.52429</ele>
        <time>2016-06-26T22:16:55.590000Z</time>
      </trkpt>
      <trkpt lat="41.763752" lon="123.346344">
        <ele>40.516903</ele>
        <time>2016-06-26T22:16:58.812000Z</time>
      </trkpt>
      <trkpt lat="41.763706" lon="123.34648">
        <ele>40.509655</ele>
        <time>2016-06-26T22:17:02.034000Z</time>
      </trkpt>
      <trkpt lat="41.763657" lon="123.3466">
        <ele>40.50313</ele>
        <time>2016-06-26T22:17:05.256000Z</time>
      </trkpt>
      <trkpt lat="41.76362" lon="123.34672">
        <ele>40.496994</ele>
        <time>2016-06-26T22:17:08.478000Z</time>
      </trkpt>
      <trkpt lat="41.763584" lon="123.34683">
        <ele>40.49126</ele>
        <time>2016-06-26T22:17:11.700000Z</time>
      </trkpt>
      <trkpt lat="41.76355" lon="123.346954">
        <ele>40.48515</ele>
        <time>2016-06-26T22:17:14.922000Z</time>
      </trkpt>
      <trkpt lat="41.763523" lon="123.34708">
        <ele>40.47895</ele>
        <time>2016-06-26T22:17:18.144000Z</time>
      </trkpt>
      <trkpt lat="41.763496" lon="123.347206">
        <ele>40.472706</ele>
        <time>2016-06-26T22:17:21.366000Z</time>
      </trkpt>
      <trkpt lat="41.763466" lon="123.347336">
        <ele>40.46629</ele>
        <time>2016-06-26T22:17:24.588000Z</time>
      </trkpt>
      <trkpt lat="41.763443" lon="123.347466">
        <ele>40.459805</ele>
        <time>2016-06-26T22:17:27.810000Z</time>
      </trkpt>
      <trkpt lat="41.7634" lon="123.3476">
        <ele>40.452854</ele>
        <time>2016-06-26T22:17:31.032000Z</time>
      </trkpt>
      <trkpt lat="41.76337" lon="123.34775">
        <ele>40.445873</ele>
        <time>2016-06-26T22:17:34.254000Z</time>
      </trkpt>
      <trkpt lat="41.76335" lon="123.347885">
        <ele>40.439075</ele>
        <time>2016-06-26T22:17:37.476000Z</time>
      </trkpt>
      <trkpt lat="41.76333" lon="123.348015">
        <ele>40.432674</ele>
        <time>2016-06-26T22:17:40.698000Z</time>
      </trkpt>
      <trkpt lat="41.76331" lon="123.34815">
        <ele>40.426136</ele>
        <time>2016-06-26T22:17:43.920000Z</time>
      </trkpt>
      <trkpt lat="41.763287" lon="123.34829">
        <ele>40.419357</ele>
        <time>2016-06-26T22:17:47.142000Z</time>
      </trkpt>
      <trkpt lat="41.763264" lon="123.34843">
        <ele>40.412952</ele>
        <time>2016-06-26T22:17:50.364000Z</time>
      </trkpt>
      <trkpt lat="41.763245" lon="123.34857">
        <ele>40.405704</ele>
        <time>2016-06-26T22:17:53.586000Z</time>
      </trkpt>
      <trkpt lat="41.763218" lon="123.34872">
        <ele>40.398693</ele>
        <time>2016-06-26T22:17:56.808000Z</time>
      </trkpt>
      <trkpt lat="41.763195" lon="123.348854">
        <ele>40.391953</ele>
        <time>2016-06-26T22:18:00.030000Z</time>
      </trkpt>
      <trkpt lat="41.76318" lon="123.349014">
        <ele>40.38451</ele>
        <time>2016-06-26T22:18:03.252000Z</time>
      </trkpt>
      <trkpt lat="41.763153" lon="123.349174">
        <ele>40.376656</ele>
        <time>2016-06-26T22:18:06.474000Z</time>
      </trkpt>
      <trkpt lat="41.763126" lon="123.34931">
        <ele>40.369766</ele>
        <time>2016-06-26T22:18:09.696000Z</time>
      </trkpt>
      <trkpt lat="41.7631" lon="123.34945">
        <ele>40.362965</ele>
        <time>2016-06-26T22:18:12.918000Z</time>
      </trkpt>
      <trkpt lat="41.76309" lon="123.34959">
        <ele>40.356564</ele>
        <time>2016-06-26T22:18:16.140000Z</time>
      </trkpt>
      <trkpt lat="41.76309" lon="123.34973">
        <ele>40.349697</ele>
        <time>2016-06-26T22:18:19.362000Z</time>
      </trkpt>
      <trkpt lat="41.763077" lon="123.34987">
        <ele>40.34316</ele>
        <time>2016-06-26T22:18:22.584000Z</time>
      </trkpt>
      <trkpt lat="41.76306" lon="123.35003">
        <ele>40.33561</ele>
        <time>2016-06-26T22:18:25.806000Z</time>
      </trkpt>
      <trkpt lat="41.763065" lon="123.350174">
        <ele>40.32867</ele>
        <time>2016-06-26T22:18:29.028000Z</time>
      </trkpt>
      <trkpt lat="41.763058" lon="123.3503">
        <ele>40.322598</ele>
        <time>2016-06-26T22:18:32.250000Z</time>
      </trkpt>
      <trkpt lat="41.76305" lon="123.35044">
        <ele>40.316082</ele>
        <time>2016-06-26T22:18:35.472000Z</time>
      </trkpt>
      <trkpt lat="41.763042" lon="123.35057">
        <ele>40.30968</ele>
        <time>2016-06-26T22:18:38.694000Z</time>
      </trkpt>
      <trkpt lat="41.76302" lon="123.35072">
        <ele>40.30242</ele>
        <time>2016-06-26T22:18:41.916000Z</time>
      </trkpt>
      <trkpt lat="41.763023" lon="123.35086">
        <ele>40.29592</ele>
        <time>2016-06-26T22:18:45.138000Z</time>
      </trkpt>
      <trkpt lat="41.763016" lon="123.351006">
        <ele>40.288803</ele>
        <time>2016-06-26T22:18:48.360000Z</time>
      </trkpt>
      <trkpt lat="41.763004" lon="123.351166">
        <ele>40.28139</ele>
        <time>2016-06-26T22:18:51.582000Z</time>
      </trkpt>
      <trkpt lat="41.762978" lon="123.35129">
        <ele>40.27513</ele>
        <time>2016-06-26T22:18:54.804000Z</time>
      </trkpt>
      <trkpt lat="41.762943" lon="123.351425">
        <ele>40.268536</ele>
        <time>2016-06-26T22:18:58.026000Z</time>
      </trkpt>
      <trkpt lat="41.76294" lon="123.351585">
        <ele>40.260704</ele>
        <time>2016-06-26T22:19:01.248000Z</time>
      </trkpt>
      <trkpt lat="41.762905" lon="123.35174">
        <ele>40.25318</ele>
        <time>2016-06-26T22:19:04.470000Z</time>
      </trkpt>
      <trkpt lat="41.762886" lon="123.35189">
        <ele>40.246025</ele>
        <time>2016-06-26T22:19:07.692000Z</time>
      </trkpt>
      <trkpt lat="41.762875" lon="123.35201">
        <ele>40.240017</ele>
        <time>2016-06-26T22:19:10.914000Z</time>
      </trkpt>
      <trkpt lat="41.762836" lon="123.35216">
        <ele>40.23268</ele>
        <time>2016-06-26T22:19:14.136000Z</time>
      </trkpt>
      <trkpt lat="41.762814" lon="123.35229">
        <ele>40.226498</ele>
        <time>2016-06-26T22:19:17.358000Z</time>
      </trkpt>
      <trkpt lat="41.76277" lon="123.35245">
        <ele>39.553986</ele>
        <time>2016-06-26T22:19:20.580000Z</time>
      </trkpt>
      <trkpt lat="41.76274" lon="123.35258">
        <ele>39.04678</ele>
        <time>2016-06-26T22:19:23.802000Z</time>
      </trkpt>
      <trkpt lat="41.762707" lon="123.352715">
        <ele>38.828335</ele>
        <time>2016-06-26T22:19:27.024000Z</time>
      </trkpt>
      <trkpt lat="41.762707" lon="123.35285">
        <ele>38.714573</ele>
        <time>2016-06-26T22:19:30.246000Z</time>
      </trkpt>
      <trkpt lat="41.762688" lon="123.35299">
        <ele>38.586803</ele>
        <time>2016-06-26T22:19:33.468000Z</time>
      </trkpt>
      <trkpt lat="41.76267" lon="123.35312">
        <ele>38.56758</ele>
        <time>2016-06-26T22:19:36.690000Z</time>
      </trkpt>
      <trkpt lat="41.762646" lon="123.35327">
        <ele>38.449467</ele>
        <time>2016-06-26T22:19:39.912000Z</time>
      </trkpt>
      <trkpt lat="41.76262" lon="123.35342">
        <ele>38.33257</ele>
        <time>2016-06-26T22:19:43.134000Z</time>
      </trkpt>
      <trkpt lat="41.76261" lon="123.35355">
        <ele>38.225616</ele>
        <time>2016-06-26T22:19:46.356000Z</time>
      </trkpt>
      <trkpt lat="41.762608" lon="123.35371">
        <ele>38.10272</ele>
        <time>2016-06-26T22:19:49.578000Z</time>
      </trkpt>
      <trkpt lat="41.762596" lon="123.35385">
        <ele>37.989197</ele>
        <time>2016-06-26T22:19:52.800000Z</time>
      </trkpt>
      <trkpt lat="41.762577" lon="123.354">
        <ele>37.87812</ele>
        <time>2016-06-26T22:19:56.022000Z</time>
      </trkpt>
      <trkpt lat="41.762547" lon="123.35416">
        <ele>37.7494</ele>
        <time>2016-06-26T22:19:59.244000Z</time>
      </trkpt>
      <trkpt lat="41.762524" lon="123.35429">
        <ele>36.460735</ele>
        <time>2016-06-26T22:20:02.466000Z</time>
      </trkpt>
      <trkpt lat="41.762486" lon="123.35445">
        <ele>35.930622</ele>
        <time>2016-06-26T22:20:05.688000Z</time>
      </trkpt>
      <trkpt lat="41.762444" lon="123.35459">
        <ele>35.904568</ele>
        <time>2016-06-26T22:20:08.910000Z</time>
      </trkpt>
      <trkpt lat="41.76238" lon="123.35474">
        <ele>35.87482</ele>
        <time>2016-06-26T22:20:12.132000Z</time>
      </trkpt>
      <trkpt lat="41.762333" lon="123.35488">
        <ele>35.84794</ele>
        <time>2016-06-26T22:20:15.354000Z</time>
      </trkpt>
      <trkpt lat="41.762257" lon="123.35497">
        <ele>35.824062</ele>
        <time>2016-06-26T22:20:18.576000Z</time>
      </trkpt>
      <trkpt lat="41.762165" lon="123.35506">
        <ele>35.798798</ele>
        <time>2016-06-26T22:20:21.798000Z</time>
      </trkpt>
      <trkpt lat="41.76208" lon="123.35514">
        <ele>35.774776</ele>
        <time>2016-06-26T22:20:25.020000Z</time>
      </trkpt>
      <trkpt lat="41.76204" lon="123.35527">
        <ele>35.749966</ele>
        <time>2016-06-26T22:20:28.242000Z</time>
      </trkpt>
      <trkpt lat="41.762005" lon="123.35542">
        <ele>35.722523</ele>
        <time>2016-06-26T22:20:31.464000Z</time>
      </trkpt>
      <trkpt lat="41.76197" lon="123.35556">
        <ele>35.696964</ele>
        <time>2016-06-26T22:20:34.686000Z</time>
      </trkpt>
      <trkpt lat="41.76192" lon="123.3557">
        <ele>35.671597</ele>
        <time>2016-06-26T22:20:37.908000Z</time>
      </trkpt>
      <trkpt lat="41.76186" lon="123.35583">
        <ele>35.645603</ele>
        <time>2016-06-26T22:20:41.130000Z</time>
      </trkpt>
      <trkpt lat="41.7618" lon="123.355934">
        <ele>35.621376</ele>
        <time>2016-06-26T22:20:44.352000Z</time>
      </trkpt>
      <trkpt lat="41.76174" lon="123.356064">
        <ele>35.595654</ele>
        <time>2016-06-26T22:20:47.574000Z</time>
      </trkpt>
      <trkpt lat="41.7617" lon="123.35619">
        <ele>35.571445</ele>
        <time>2016-06-26T22:20:50.796000Z</time>
      </trkpt>
      <trkpt lat="41.76167" lon="123.35633">
        <ele>35.54703</ele>
        <time>2016-06-26T22:20:54.018000Z</time>
      </trkpt>
      <trkpt lat="41.761635" lon="123.35648">
        <ele>35.51911</ele>
        <time>2016-06-26T22:20:57.240000Z</time>
      </trkpt>
      <trkpt lat="41.761604" lon="123.356606">
        <ele>35.496643</ele>
        <time>2016-06-26T22:21:00.462000Z</time>
      </trkpt>
      <trkpt lat="41.761543" lon="123.35673">
        <ele>35.4714</ele>
        <time>2016-06-26T22:21:03.684000Z</time>
      </trkpt>
      <trkpt lat="41.761463" lon="123.35681">
        <ele>35.448166</ele>
        <time>2016-06-26T22:21:06.906000Z</time>
      </trkpt>
      <trkpt lat="41.761417" lon="123.35693">
        <ele>35.42454</ele>
        <time>2016-06-26T22:21:10.128000Z</time>
      </trkpt>
      <trkpt lat="41.76138" lon="123.35708">
        <ele>35.398132</ele>
        <time>2016-06-26T22:21:13.350000Z</time>
      </trkpt>
      <trkpt lat="41.76135" lon="123.35724">
        <ele>35.369446</ele>
        <time>2016-06-26T22:21:16.572000Z</time>
      </trkpt>
      <trkpt lat="41.761353" lon="123.35739">
        <ele>35.34308</ele>
        <time>2016-06-26T22:21:19.794000Z</time>
      </trkpt>
      <trkpt lat="41.761368" lon="123.35758">
        <ele>35.10769</ele>
        <time>2016-06-26T22:21:23.016000Z</time>
      </trkpt>
      <trkpt lat="41.76137" lon="123.357704">
        <ele>35.785282</ele>
        <time>2016-06-26T22:21:26.238000Z</time>
      </trkpt>
      <trkpt lat="41.761356" lon="123.35784">
        <ele>36.516403</ele>
        <time>2016-06-26T22:21:29.459000Z</time>
      </trkpt>
      <trkpt lat="41.76136" lon="123.35799">
        <ele>37.302357</ele>
        <time>2016-06-26T22:21:32.680000Z</time>
      </trkpt>
      <trkpt lat="41.761353" lon="123.35817">
        <ele>38.328533</ele>
        <time>2016-06-26T22:21:35.901000Z</time>
      </trkpt>
      <trkpt lat="41.76135" lon="123.358376">
        <ele>39.406284</ele>
        <time>2016-06-26T22:21:39.122000Z</time>
      </trkpt>
      <trkpt lat="41.761333" lon="123.35857">
        <ele>40.456615</ele>
        <time>2016-06-26T22:21:42.343000Z</time>
      </trkpt>
      <trkpt lat="41.7613" lon="123.35873">
        <ele>41.382267</ele>
        <time>2016-06-26T22:21:45.564000Z</time>
      </trkpt>
      <trkpt lat="41.761272" lon="123.35888">
        <ele>42.677273</ele>
        <time>2016-06-26T22:21:48.785000Z</time>
      </trkpt>
      <trkpt lat="41.761272" lon="123.35888">
        <ele>43.522655</ele>
        <time>2016-06-26T22:21:52.006000Z</time>
      </trkpt>
      <trkpt lat="41.761215" lon="123.35903">
        <ele>43.856926</ele>
        <time>2016-06-26T22:21:55.227000Z</time>
      </trkpt>
      <trkpt lat="41.76119" lon="123.35917">
        <ele>44.214016</ele>
        <time>2016-06-26T22:21:58.448000Z</time>
      </trkpt>
      <trkpt lat="41.761166" lon="123.359314">
        <ele>44.964493</ele>
        <time>2016-06-26T22:22:01.669000Z</time>
      </trkpt>
      <trkpt lat="41.76114" lon="123.35945">
        <ele>45.829227</ele>
        <time>2016-06-26T22:22:04.890000Z</time>
      </trkpt>
      <trkpt lat="41.76112" lon="123.359604">
        <ele>46.369495</ele>
        <time>2016-06-26T22:22:08.111000Z</time>
      </trkpt>
      <trkpt lat="41.76111" lon="123.35973">
        <ele>46.510468</ele>
        <time>2016-06-26T22:22:11.332000Z</time>
      </trkpt>
      <trkpt lat="41.76109" lon="123.359856">
        <ele>46.578518</ele>
        <time>2016-06-26T22:22:14.553000Z</time>
      </trkpt>
      <trkpt lat="41.761074" lon="123.359985">
        <ele>46.649323</ele>
        <time>2016-06-26T22:22:17.774000Z</time>
      </trkpt>
      <trkpt lat="41.76105" lon="123.36014">
        <ele>46.728912</ele>
        <time>2016-06-26T22:22:20.995000Z</time>
      </trkpt>
      <trkpt lat="41.761044" lon="123.36027">
        <ele>46.800297</ele>
        <time>2016-06-26T22:22:24.216000Z</time>
      </trkpt>
      <trkpt lat="41.76102" lon="123.360405">
        <ele>46.876553</ele>
        <time>2016-06-26T22:22:27.437000Z</time>
      </trkpt>
      <trkpt lat="41.76098" lon="123.36055">
        <ele>46.957363</ele>
        <time>2016-06-26T22:22:30.658000Z</time>
      </trkpt>
      <trkpt lat="41.760933" lon="123.36069">
        <ele>47.035866</ele>
        <time>2016-06-26T22:22:33.879000Z</time>
      </trkpt>
      <trkpt lat="41.76088" lon="123.3608">
        <ele>47.110134</ele>
        <time>2016-06-26T22:22:37.100000Z</time>
      </trkpt>
      <trkpt lat="41.76089" lon="123.36094">
        <ele>47.889595</ele>
        <time>2016-06-26T22:22:40.321000Z</time>
      </trkpt>
      <trkpt lat="41.76087" lon="123.36111">
        <ele>48.415092</ele>
        <time>2016-06-26T22:22:43.542000Z</time>
      </trkpt>
      <trkpt lat="41.760853" lon="123.36125">
        <ele>48.41607</ele>
        <time>2016-06-26T22:22:46.763000Z</time>
      </trkpt>
      <trkpt lat="41.760746" lon="123.361305">
        <ele>48.417114</ele>
        <time>2016-06-26T22:22:49.984000Z</time>
      </trkpt>
      <trkpt lat="41.76067" lon="123.36124">
        <ele>48.41796</ele>
        <time>2016-06-26T22:22:53.205000Z</time>
      </trkpt>
      <trkpt lat="41.76057" lon="123.3612">
        <ele>48.418922</ele>
        <time>2016-06-26T22:22:56.426000Z</time>
      </trkpt>
      <trkpt lat="41.760468" lon="123.36119">
        <ele>48.419876</ele>
        <time>2016-06-26T22:22:59.647000Z</time>
      </trkpt>
      <trkpt lat="41.76037" lon="123.36117">
        <ele>48.420788</ele>
        <time>2016-06-26T22:23:02.868000Z</time>
      </trkpt>
      <trkpt lat="41.760277" lon="123.36114">
        <ele>48.42167</ele>
        <time>2016-06-26T22:23:06.089000Z</time>
      </trkpt>
      <trkpt lat="41.76025" lon="123.361">
        <ele>48.42267</ele>
        <time>2016-06-26T22:23:09.310000Z</time>
      </trkpt>
      <trkpt lat="41.760273" lon="123.36087">
        <ele>48.423542</ele>
        <time>2016-06-26T22:23:12.531000Z</time>
      </trkpt>
      <trkpt lat="41.760292" lon="123.36073">
        <ele>48.424515</ele>
        <time>2016-06-26T22:23:15.752000Z</time>
      </trkpt>
      <trkpt lat="41.760334" lon="123.36061">
        <ele>48.425438</ele>
        <time>2016-06-26T22:23:18.973000Z</time>
      </trkpt>
      <trkpt lat="41.760376" lon="123.36048">
        <ele>48.42645</ele>
        <time>2016-06-26T22:23:22.194000Z</time>
      </trkpt>
      <trkpt lat="41.760445" lon="123.36029">
        <ele>48.4279</ele>
        <time>2016-06-26T22:23:25.415000Z</time>
      </trkpt>
      <trkpt lat="41.760483" lon="123.360176">
        <ele>49.30169</ele>
        <time>2016-06-26T22:23:28.636000Z</time>
      </trkpt>
      <trkpt lat="41.760513" lon="123.36006">
        <ele>49.796177</ele>
        <time>2016-06-26T22:23:31.857000Z</time>
      </trkpt>
      <trkpt lat="41.760567" lon="123.359856">
        <ele>49.959267</ele>
        <time>2016-06-26T22:23:35.078000Z</time>
      </trkpt>
      <trkpt lat="41.760597" lon="123.359695">
        <ele>50.20589</ele>
        <time>2016-06-26T22:23:38.299000Z</time>
      </trkpt>
      <trkpt lat="41.760647" lon="123.359566">
        <ele>50.758636</ele>
        <time>2016-06-26T22:23:41.520000Z</time>
      </trkpt>
      <trkpt lat="41.760742" lon="123.35953">
        <ele>51.23741</ele>
        <time>2016-06-26T22:23:44.741000Z</time>
      </trkpt>
      <trkpt lat="41.76084" lon="123.3596">
        <time>2016-06-26T22:23:47.962000Z</time>
      </trkpt>
    </trkseg>
  </trk>
</gpx>