<?xml version="1.0" encoding="UTF-8"?>
<gpx xmlns="http://www.topografix.com/GPX/1/1" xmlns:gpxtpx="http://www.garmin.com/xmlschemas/TrackPointExtension/v1" xmlns:xsi="http://www.w3.org/2001/XMLSchema-instance" xsi:schemaLocation="http://www.topografix.com/GPX/1/1 http://www.topografix.com/GPX/1/1/gpx.xsd" version="1.1" creator="gpx.py -- https://github.com/tkrajina/gpxpy">
  <trk>
    <name>Wednesday Evening Run</name>
    <trkseg>
      <trkpt lat="41.68344691865303" lon="123.4140451905536">
        <time>2017-03-08T09:53:12.206000Z</time>
      </trkpt>
      <trkpt lat="41.68348065581329" lon="123.4140826576607">
        <ele>57.68722362160938</ele>
        <time>2017-03-08T09:53:25.090000Z</time>
      </trkpt>
      <trkpt lat="41.68348065581329" lon="123.4140826576607">
        <ele>57.67728892095604</ele>
        <time>2017-03-08T09:53:39.197000Z</time>
      </trkpt>
      <trkpt lat="41.68353702411212" lon="123.4142030217903">
        <time>2017-03-08T09:53:39.205000Z</time>
      </trkpt>
      <trkpt lat="41.68353673074551" lon="123.4142309335278">
        <time>2017-03-08T09:53:40.200000Z</time>
      </trkpt>
      <trkpt lat="41.68352755256154" lon="123.4143669718163">
        <ele>60.82678469667351</ele>
        <time>2017-03-08T09:53:46.198000Z</time>
      </trkpt>
      <trkpt lat="41.68350592725135" lon="123.4144948796587">
        <time>2017-03-08T09:53:50.208000Z</time>
      </trkpt>
      <trkpt lat="41.68351497970678" lon="123.4146349412607">
        <ele>64.20344563528293</ele>
        <time>2017-03-08T09:53:55.240000Z</time>
      </trkpt>
      <trkpt lat="41.68354096360661" lon="123.4147622623699">
        <time>2017-03-08T09:53:59.227000Z</time>
      </trkpt>
      <trkpt lat="41.6835287679375" lon="123.4148986359345">
        <ele>64.90748724211541</ele>
        <time>2017-03-08T09:54:06.246000Z</time>
      </trkpt>
      <trkpt lat="41.6835287679375" lon="123.4148986359345">
        <time>2017-03-08T09:54:12.168000Z</time>
      </trkpt>
      <trkpt lat="41.68328456118859" lon="123.4154261929201">
        <ele>66.27435676857215</ele>
        <time>2017-03-08T09:54:31.237000Z</time>
      </trkpt>
      <trkpt lat="41.68319328226305" lon="123.4154671804266">
        <ele>66.57598539802281</ele>
        <time>2017-03-08T09:54:35.239000Z</time>
      </trkpt>
      <trkpt lat="41.68320233471848" lon="123.4156042245435">
        <time>2017-03-08T09:54:41.288000Z</time>
      </trkpt>
      <trkpt lat="41.68318687010713" lon="123.415764151256">
        <ele>61.11933044362004</ele>
        <time>2017-03-08T09:54:45.269000Z</time>
      </trkpt>
      <trkpt lat="41.68313980572082" lon="123.4158809949862">
        <time>2017-03-08T09:54:48.248000Z</time>
      </trkpt>
      <trkpt lat="41.68303922288276" lon="123.4159674962269">
        <time>2017-03-08T09:54:51.230000Z</time>
      </trkpt>
      <trkpt lat="41.68293805331148" lon="123.4160018620299">
        <ele>58.28941414944616</ele>
        <time>2017-03-08T09:54:54.290000Z</time>
      </trkpt>
      <trkpt lat="41.68284061368711" lon="123.4160377365755">
        <time>2017-03-08T09:54:57.239000Z</time>
      </trkpt>
      <trkpt lat="41.6827454371766" lon="123.4160594457047">
        <time>2017-03-08T09:55:01.288000Z</time>
      </trkpt>
      <trkpt lat="41.68264166921534" lon="123.4160546680199">
        <ele>56.33747561316369</ele>
        <time>2017-03-08T09:55:05.247000Z</time>
      </trkpt>
      <trkpt lat="41.68253836225875" lon="123.4160190449314">
        <time>2017-03-08T09:55:11.267000Z</time>
      </trkpt>
      <trkpt lat="41.68245240584172" lon="123.4160853457855">
        <ele>54.58658661703332</ele>
        <time>2017-03-08T09:55:14.245000Z</time>
      </trkpt>
      <trkpt lat="41.68237680107512" lon="123.4162031953441">
        <time>2017-03-08T09:55:17.249000Z</time>
      </trkpt>
      <trkpt lat="41.68232642583705" lon="123.4163057898389">
        <time>2017-03-08T09:55:20.236000Z</time>
      </trkpt>
      <trkpt lat="41.68228828817762" lon="123.4164238908546">
        <ele>51.66384488900177</ele>
        <time>2017-03-08T09:55:23.274000Z</time>
      </trkpt>
      <trkpt lat="41.68228749189682" lon="123.4165616893428">
        <time>2017-03-08T09:55:27.264000Z</time>
      </trkpt>
      <trkpt lat="41.68226238809682" lon="123.4166849033194">
        <time>2017-03-08T09:55:31.270000Z</time>
      </trkpt>
      <trkpt lat="41.6822427744434" lon="123.4168088716673">
        <ele>49.87588754873203</ele>
        <time>2017-03-08T09:55:34.256000Z</time>
      </trkpt>
      <trkpt lat="41.68223778721102" lon="123.4169332591104">
        <time>2017-03-08T09:55:37.328000Z</time>
      </trkpt>
      <trkpt lat="41.68224130761035" lon="123.4170922638135">
        <time>2017-03-08T09:55:41.319000Z</time>
      </trkpt>
      <trkpt lat="41.68224968951352" lon="123.4172135499524">
        <ele>49.73560353356612</ele>
        <time>2017-03-08T09:55:45.267000Z</time>
      </trkpt>
      <trkpt lat="41.68224398981936" lon="123.4173350037294">
        <time>2017-03-08T09:55:48.251000Z</time>
      </trkpt>
      <trkpt lat="41.68223472781636" lon="123.4174668510663">
        <time>2017-03-08T09:55:51.246000Z</time>
      </trkpt>
      <trkpt lat="41.68223426681168" lon="123.417592998709">
        <ele>49.54472985400128</ele>
        <time>2017-03-08T09:55:54.257000Z</time>
      </trkpt>
      <trkpt lat="41.68221209667779" lon="123.417733227949">
        <time>2017-03-08T09:55:57.251000Z</time>
      </trkpt>
      <trkpt lat="41.68218267619766" lon="123.4178671707617">
        <time>2017-03-08T09:56:00.262000Z</time>
      </trkpt>
      <trkpt lat="41.68217291128047" lon="123.4180138540672">
        <ele>50.10165952493502</ele>
        <time>2017-03-08T09:56:04.341000Z</time>
      </trkpt>
      <trkpt lat="41.68215329762705" lon="123.4181425162809">
        <time>2017-03-08T09:56:07.322000Z</time>
      </trkpt>
      <trkpt lat="41.68215141169883" lon="123.41829062451">
        <time>2017-03-08T09:56:11.238000Z</time>
      </trkpt>
      <trkpt lat="41.68213611472554" lon="123.4184180294382">
        <ele>50.68267529814216</ele>
        <time>2017-03-08T09:56:14.243000Z</time>
      </trkpt>
      <trkpt lat="41.68212236840434" lon="123.4185743519323">
        <time>2017-03-08T09:56:18.233000Z</time>
      </trkpt>
      <trkpt lat="41.68211054992087" lon="123.4187065345453">
        <time>2017-03-08T09:56:21.301000Z</time>
      </trkpt>
      <trkpt lat="41.6821021680177" lon="123.418848272528">
        <ele>51.25386000919691</ele>
        <time>2017-03-08T09:56:24.262000Z</time>
      </trkpt>
      <trkpt lat="41.6821151180581" lon="123.4189764318274">
        <time>2017-03-08T09:56:28.264000Z</time>
      </trkpt>
      <trkpt lat="41.68214315552421" lon="123.4191263002562">
        <ele>51.62367179716321</ele>
        <time>2017-03-08T09:56:33.374000Z</time>
      </trkpt>
      <trkpt lat="41.68213645000167" lon="123.4192857240545">
        <time>2017-03-08T09:56:38.279000Z</time>
      </trkpt>
      <trkpt lat="41.68212467342772" lon="123.4194231034475">
        <time>2017-03-08T09:56:40.368000Z</time>
      </trkpt>
      <trkpt lat="41.6821238352374" lon="123.419577749561">
        <ele>52.23975169204727</ele>
        <time>2017-03-08T09:56:44.256000Z</time>
      </trkpt>
      <trkpt lat="41.6821196023763" lon="123.4197078366982">
        <time>2017-03-08T09:56:48.283000Z</time>
      </trkpt>
      <trkpt lat="41.68208083607413" lon="123.4198649973827">
        <time>2017-03-08T09:56:51.297000Z</time>
      </trkpt>
      <trkpt lat="41.68205170896061" lon="123.4200030473279">
        <ele>52.85304611932148</ele>
        <time>2017-03-08T09:56:54.263000Z</time>
      </trkpt>
      <trkpt lat="41.68203008365042" lon="123.4201280215042">
        <time>2017-03-08T09:56:57.260000Z</time>
      </trkpt>
      <trkpt lat="41.68200870979734" lon="123.4202881996738">
        <time>2017-03-08T09:57:01.239000Z</time>
      </trkpt>
      <trkpt lat="41.68200799733557" lon="123.4204223101245">
        <ele>53.44454835882452</ele>
        <time>2017-03-08T09:57:04.270000Z</time>
      </trkpt>
      <trkpt lat="41.68201227210618" lon="123.4205613658982">
        <time>2017-03-08T09:57:08.334000Z</time>
      </trkpt>
      <trkpt lat="41.68202505450852" lon="123.4206881002741">
        <time>2017-03-08T09:57:12.248000Z</time>
      </trkpt>
      <trkpt lat="41.6820123140157" lon="123.4208178521352">
        <ele>53.99099156346237</ele>
        <time>2017-03-08T09:57:15.240000Z</time>
      </trkpt>
      <trkpt lat="41.68199228126712" lon="123.4209408984738">
        <time>2017-03-08T09:57:18.339000Z</time>
      </trkpt>
      <trkpt lat="41.68197166178532" lon="123.4210617655175">
        <time>2017-03-08T09:57:21.324000Z</time>
      </trkpt>
      <trkpt lat="41.68194245085277" lon="123.4211844765799">
        <ele>54.50958009200174</ele>
        <time>2017-03-08T09:57:24.268000Z</time>
      </trkpt>
      <trkpt lat="41.68190049942739" lon="123.4213169944691">
        <time>2017-03-08T09:57:27.243000Z</time>
      </trkpt>
      <trkpt lat="41.68191164735861" lon="123.4214604088323">
        <time>2017-03-08T09:57:31.253000Z</time>
      </trkpt>
      <trkpt lat="41.68194982692756" lon="123.421599716063">
        <ele>55.07716008026727</ele>
        <time>2017-03-08T09:57:35.236000Z</time>
      </trkpt>
      <trkpt lat="41.68196256742038" lon="123.4217220080303">
        <time>2017-03-08T09:57:39.364000Z</time>
      </trkpt>
      <trkpt lat="41.68195556853123" lon="123.4218747263061">
        <ele>56.21433425173674</ele>
        <time>2017-03-08T09:57:43.319000Z</time>
      </trkpt>
      <trkpt lat="41.68195778973557" lon="123.4219951742547">
        <time>2017-03-08T09:57:46.347000Z</time>
      </trkpt>
      <trkpt lat="41.68196361515827" lon="123.4221402649986">
        <time>2017-03-08T09:57:50.428000Z</time>
      </trkpt>
      <trkpt lat="41.68195129376061" lon="123.422262892242">
        <ele>57.69005742151253</ele>
        <time>2017-03-08T09:57:53.231000Z</time>
      </trkpt>
      <trkpt lat="41.68195242531754" lon="123.4224073124336">
        <time>2017-03-08T09:57:57.414000Z</time>
      </trkpt>
      <trkpt lat="41.68195992712088" lon="123.4225362261044">
        <time>2017-03-08T09:58:00.346000Z</time>
      </trkpt>
      <trkpt lat="41.68195871174492" lon="123.4226609488236">
        <ele>57.12419660657856</ele>
        <time>2017-03-08T09:58:03.332000Z</time>
      </trkpt>
      <trkpt lat="41.68195959184475" lon="123.4228088894146">
        <time>2017-03-08T09:58:07.244000Z</time>
      </trkpt>
      <trkpt lat="41.6819494078324" lon="123.422968732308">
        <time>2017-03-08T09:58:11.274000Z</time>
      </trkpt>
      <trkpt lat="41.68193834372021" lon="123.4231276531922">
        <ele>55.86837283602136</ele>
        <time>2017-03-08T09:58:15.270000Z</time>
      </trkpt>
      <trkpt lat="41.68194433678098" lon="123.4232757614212">
        <time>2017-03-08T09:58:19.300000Z</time>
      </trkpt>
      <trkpt lat="41.68193490713991" lon="123.4234036692636">
        <time>2017-03-08T09:58:22.293000Z</time>
      </trkpt>
      <trkpt lat="41.68191629931487" lon="123.4235273023354">
        <ele>54.60277883329533</ele>
        <time>2017-03-08T09:58:25.257000Z</time>
      </trkpt>
      <trkpt lat="41.68187669482239" lon="123.4236799367922">
        <time>2017-03-08T09:58:28.236000Z</time>
      </trkpt>
      <trkpt lat="41.68187694627948" lon="123.4238370974766">
        <time>2017-03-08T09:58:32.240000Z</time>
      </trkpt>
      <trkpt lat="41.68187870647915" lon="123.4239915759521">
        <ele>53.31275925014724</ele>
        <time>2017-03-08T09:58:36.409000Z</time>
      </trkpt>
      <trkpt lat="41.68186265513457" lon="123.4241364152389">
        <time>2017-03-08T09:58:40.232000Z</time>
      </trkpt>
      <trkpt lat="41.68184467595227" lon="123.4242871218579">
        <ele>52.44006815535326</ele>
        <time>2017-03-08T09:58:44.344000Z</time>
      </trkpt>
      <trkpt lat="41.68183805424876" lon="123.4244431090759">
        <time>2017-03-08T09:58:48.429000Z</time>
      </trkpt>
      <trkpt lat="41.68185037564643" lon="123.424604460712">
        <time>2017-03-08T09:58:52.319000Z</time>
      </trkpt>
      <trkpt lat="41.68184576559968" lon="123.424726082127">
        <ele>49.59377163653346</ele>
        <time>2017-03-08T09:58:55.333000Z</time>
      </trkpt>
      <trkpt lat="41.68184371203341" lon="123.4248658084529">
        <time>2017-03-08T09:58:59.256000Z</time>
      </trkpt>
      <trkpt lat="41.68184802871354" lon="123.4250003379988">
        <ele>47.85087806458128</ele>
        <time>2017-03-08T09:59:03.232000Z</time>
      </trkpt>
      <trkpt lat="41.68184798680402" lon="123.425151463713">
        <time>2017-03-08T09:59:07.336000Z</time>
      </trkpt>
      <trkpt lat="41.68185335122205" lon="123.4253003263133">
        <time>2017-03-08T09:59:11.433000Z</time>
      </trkpt>
      <trkpt lat="41.68182979807414" lon="123.4254497756468">
        <ele>46.90534155697421</ele>
        <time>2017-03-08T09:59:15.403000Z</time>
      </trkpt>
      <trkpt lat="41.68181768622406" lon="123.425592938553">
        <time>2017-03-08T09:59:18.263000Z</time>
      </trkpt>
      <trkpt lat="41.68182183526613" lon="123.4257254564421">
        <time>2017-03-08T09:59:21.283000Z</time>
      </trkpt>
      <trkpt lat="41.68181642893858" lon="123.4258559626745">
        <ele>46.89667516539135</ele>
        <time>2017-03-08T09:59:24.368000Z</time>
      </trkpt>
      <trkpt lat="41.68181127406813" lon="123.4259849601643">
        <time>2017-03-08T09:59:27.242000Z</time>
      </trkpt>
      <trkpt lat="41.68182015888549" lon="123.426140025373">
        <time>2017-03-08T09:59:31.273000Z</time>
      </trkpt>
      <trkpt lat="41.68182078752823" lon="123.4262678493964">
        <ele>46.88828809977039</ele>
        <time>2017-03-08T09:59:34.269000Z</time>
      </trkpt>
      <trkpt lat="41.68182007506646" lon="123.4263934103059">
        <time>2017-03-08T09:59:37.460000Z</time>
      </trkpt>
      <trkpt lat="41.68182447556563" lon="123.426544452201">
        <time>2017-03-08T09:59:41.465000Z</time>
      </trkpt>
      <trkpt lat="41.68182594239868" lon="123.4266716894912">
        <ele>46.88012449491893</ele>
        <time>2017-03-08T09:59:44.324000Z</time>
      </trkpt>
      <trkpt lat="41.68182485275127" lon="123.4267951549249">
        <time>2017-03-08T09:59:47.324000Z</time>
      </trkpt>
      <trkpt lat="41.68182422410853" lon="123.4269266669857">
        <time>2017-03-08T09:59:51.309000Z</time>
      </trkpt>
      <trkpt lat="41.68181605175294" lon="123.4270866775172">
        <ele>46.8430254697696</ele>
        <time>2017-03-08T09:59:55.276000Z</time>
      </trkpt>
      <trkpt lat="41.68181730903841" lon="123.4272228834437">
        <time>2017-03-08T09:59:58.259000Z</time>
      </trkpt>
      <trkpt lat="41.68182141617097" lon="123.4273543955045">
        <time>2017-03-08T10:00:01.273000Z</time>
      </trkpt>
      <trkpt lat="41.68182694822706" lon="123.4274885059553">
        <ele>46.38476748588931</ele>
        <time>2017-03-08T10:00:04.461000Z</time>
      </trkpt>
      <trkpt lat="41.68182657104142" lon="123.4276258853482">
        <time>2017-03-08T10:00:07.265000Z</time>
      </trkpt>
      <trkpt lat="41.68182845696963" lon="123.4277533740955">
        <time>2017-03-08T10:00:10.284000Z</time>
      </trkpt>
      <trkpt lat="41.68181961406179" lon="123.4279112891512">
        <ele>46.18086533854091</ele>
        <time>2017-03-08T10:00:14.334000Z</time>
      </trkpt>
      <trkpt lat="41.68181336954392" lon="123.4280627501415">
        <time>2017-03-08T10:00:18.243000Z</time>
      </trkpt>
      <trkpt lat="41.68180599346913" lon="123.4281992075252">
        <time>2017-03-08T10:00:21.249000Z</time>
      </trkpt>
      <trkpt lat="41.68177942283608" lon="123.4283562843906">
        <ele>46.66026234885197</ele>
        <time>2017-03-08T10:00:24.215000Z</time>
      </trkpt>
      <trkpt lat="41.68177007701404" lon="123.4284821805762">
        <time>2017-03-08T10:00:27.220000Z</time>
      </trkpt>
      <trkpt lat="41.68177359741338" lon="123.4286395088988">
        <time>2017-03-08T10:00:31.243000Z</time>
      </trkpt>
      <trkpt lat="41.68178005147882" lon="123.4287602083044">
        <ele>47.13746502712873</ele>
        <time>2017-03-08T10:00:34.233000Z</time>
      </trkpt>
      <trkpt lat="41.68176928073324" lon="123.4288920556413">
        <time>2017-03-08T10:00:38.255000Z</time>
      </trkpt>
      <trkpt lat="41.68176634706713" lon="123.4290239867972">
        <time>2017-03-08T10:00:41.238000Z</time>
      </trkpt>
      <trkpt lat="41.6817696998284" lon="123.4291485418784">
        <ele>47.55116115476657</ele>
        <time>2017-03-08T10:00:44.239000Z</time>
      </trkpt>
      <trkpt lat="41.68177464515127" lon="123.4293023498016">
        <time>2017-03-08T10:00:48.276000Z</time>
      </trkpt>
      <trkpt lat="41.68178566735394" lon="123.4294493683832">
        <time>2017-03-08T10:00:52.256000Z</time>
      </trkpt>
      <trkpt lat="41.68180205397464" lon="123.4295901843565">
        <ele>48.00848576637993</ele>
        <time>2017-03-08T10:00:56.302000Z</time>
      </trkpt>
      <trkpt lat="41.68179899457999" lon="123.429726306464">
        <time>2017-03-08T10:00:59.276000Z</time>
      </trkpt>
      <trkpt lat="41.68180205397464" lon="123.4298519511925">
        <time>2017-03-08T10:01:02.286000Z</time>
      </trkpt>
      <trkpt lat="41.68181818913825" lon="123.4299734887885">
        <ele>48.44231811739108</ele>
        <time>2017-03-08T10:01:06.257000Z</time>
      </trkpt>
      <trkpt lat="41.68181651275761" lon="123.4301089403438">
        <time>2017-03-08T10:01:09.250000Z</time>
      </trkpt>
      <trkpt lat="41.68182363737531" lon="123.4302407038616">
        <ele>48.72009473725898</ele>
        <time>2017-03-08T10:01:12.435000Z</time>
      </trkpt>
      <trkpt lat="41.68181592602439" lon="123.4304014687645">
        <time>2017-03-08T10:01:16.285000Z</time>
      </trkpt>
      <trkpt lat="41.68182460129417" lon="123.4305278678643">
        <time>2017-03-08T10:01:19.360000Z</time>
      </trkpt>
      <trkpt lat="41.68183931153424" lon="123.4306914826142">
        <ele>49.17083635276953</ele>
        <time>2017-03-08T10:01:23.350000Z</time>
      </trkpt>
      <trkpt lat="41.68183717414893" lon="123.4308305383878">
        <time>2017-03-08T10:01:26.233000Z</time>
      </trkpt>
      <trkpt lat="41.68183076199301" lon="123.430978981893">
        <time>2017-03-08T10:01:29.361000Z</time>
      </trkpt>
      <trkpt lat="41.68181856632389" lon="123.4311206360566">
        <time>2017-03-08T10:01:32.426000Z</time>
      </trkpt>
      <trkpt lat="41.68179694101371" lon="123.4312555846976">
        <ele>49.65642912411852</ele>
        <time>2017-03-08T10:01:35.315000Z</time>
      </trkpt>
      <trkpt lat="41.6817889782057" lon="123.4313871805774">
        <time>2017-03-08T10:01:38.241000Z</time>
      </trkpt>
      <trkpt lat="41.68176483832456" lon="123.4315458500045">
        <time>2017-03-08T10:01:41.242000Z</time>
      </trkpt>
      <trkpt lat="41.68173139453091" lon="123.4316939582335">
        <ele>50.27277826903915</ele>
        <time>2017-03-08T10:01:44.338000Z</time>
      </trkpt>
      <trkpt lat="41.68170499153592" lon="123.4318476823377">
        <time>2017-03-08T10:01:47.274000Z</time>
      </trkpt>
      <trkpt lat="41.68172343172289" lon="123.431983301531">
        <time>2017-03-08T10:01:51.236000Z</time>
      </trkpt>
      <trkpt lat="41.68172665875561" lon="123.4321314935791">
        <ele>50.755789473289</ele>
        <time>2017-03-08T10:01:55.288000Z</time>
      </trkpt>
      <trkpt lat="41.68173022106446" lon="123.4322560486602">
        <time>2017-03-08T10:01:58.241000Z</time>
      </trkpt>
      <trkpt lat="41.68173742950119" lon="123.4324152210014">
        <time>2017-03-08T10:02:02.264000Z</time>
      </trkpt>
      <trkpt lat="41.68173986025311" lon="123.4325556178795">
        <ele>51.21956800265022</ele>
        <time>2017-03-08T10:02:05.300000Z</time>
      </trkpt>
      <trkpt lat="41.68173948306747" lon="123.432680927332">
        <time>2017-03-08T10:02:08.324000Z</time>
      </trkpt>
      <trkpt lat="41.68173713613458" lon="123.4328452126341">
        <time>2017-03-08T10:02:12.278000Z</time>
      </trkpt>
      <trkpt lat="41.68172716166981" lon="123.4329834302174">
        <ele>52.25396785923304</ele>
        <time>2017-03-08T10:02:15.234000Z</time>
      </trkpt>
      <trkpt lat="41.68172297071822" lon="123.4331162833827">
        <time>2017-03-08T10:02:18.307000Z</time>
      </trkpt>
      <trkpt lat="41.68172913141705" lon="123.4332384077119">
        <time>2017-03-08T10:02:21.219000Z</time>
      </trkpt>
      <trkpt lat="41.68173072397865" lon="123.433376038562">
        <ele>53.83197679679214</ele>
        <time>2017-03-08T10:02:25.239000Z</time>
      </trkpt>
      <trkpt lat="41.68174623049952" lon="123.4334953968631">
        <time>2017-03-08T10:02:31.490000Z</time>
      </trkpt>
      <trkpt lat="41.68177757881738" lon="123.4336260707336">
        <ele>54.97212166435621</ele>
        <time>2017-03-08T10:02:39.383000Z</time>
      </trkpt>
      <trkpt lat="41.68180268261738" lon="123.4337455128538">
        <ele>55.49416832268273</ele>
        <time>2017-03-08T10:02:46.255000Z</time>
      </trkpt>
      <trkpt lat="41.6818156745673" lon="123.4341314156758">
        <ele>55.57867108297008</ele>
        <time>2017-03-08T10:03:07.214000Z</time>
      </trkpt>
      <trkpt lat="41.68179635428049" lon="123.4342584015088">
        <time>2017-03-08T10:03:11.240000Z</time>
      </trkpt>
      <trkpt lat="41.68179635428049" lon="123.4342584015088">
        <time>2017-03-08T10:03:15.229000Z</time>
      </trkpt>
      <trkpt lat="41.681776572989" lon="123.4348989465492">
        <ele>55.6739114326449</ele>
        <time>2017-03-08T10:03:28.266000Z</time>
      </trkpt>
      <trkpt lat="41.68176156938232" lon="123.4350434505599">
        <time>2017-03-08T10:03:32.219000Z</time>
      </trkpt>
      <trkpt lat="41.68174572758533" lon="123.4351819196003">
        <time>2017-03-08T10:03:35.273000Z</time>
      </trkpt>
      <trkpt lat="41.68174493130453" lon="123.4353156947749">
        <ele>55.99506105813481</ele>
        <time>2017-03-08T10:03:38.314000Z</time>
      </trkpt>
      <trkpt lat="41.68175058908917" lon="123.4354469553786">
        <time>2017-03-08T10:03:41.248000Z</time>
      </trkpt>
      <trkpt lat="41.68176412586279" lon="123.435574863221">
        <time>2017-03-08T10:03:45.254000Z</time>
      </trkpt>
      <trkpt lat="41.68175725270219" lon="123.4357232229071">
        <ele>55.88615643562776</ele>
        <time>2017-03-08T10:03:50.276000Z</time>
      </trkpt>
      <trkpt lat="41.68173730377264" lon="123.4358507116543">
        <time>2017-03-08T10:03:54.303000Z</time>
      </trkpt>
      <trkpt lat="41.68173789050586" lon="123.4360133205759">
        <ele>55.45293672423556</ele>
        <time>2017-03-08T10:03:59.229000Z</time>
      </trkpt>
      <trkpt lat="41.68175830044009" lon="123.4361395520376">
        <time>2017-03-08T10:04:02.233000Z</time>
      </trkpt>
      <trkpt lat="41.68176655661471" lon="123.4362741654026">
        <time>2017-03-08T10:04:05.287000Z</time>
      </trkpt>
      <trkpt lat="41.68175884526379" lon="123.4364081082152">
        <ele>54.78992546113814</ele>
        <time>2017-03-08T10:04:08.259000Z</time>
      </trkpt>
      <trkpt lat="41.6817498766274" lon="123.436534255858">
        <time>2017-03-08T10:04:11.267000Z</time>
      </trkpt>
      <trkpt lat="41.68174610477097" lon="123.4366562963682">
        <time>2017-03-08T10:04:14.251000Z</time>
      </trkpt>
      <trkpt lat="41.68175423521705" lon="123.4367767443167">
        <ele>54.1945989349954</ele>
        <time>2017-03-08T10:04:17.247000Z</time>
      </trkpt>
      <trkpt lat="41.68177544143207" lon="123.4369061609017">
        <time>2017-03-08T10:04:20.269000Z</time>
      </trkpt>
      <trkpt lat="41.68178445197798" lon="123.4370306321638">
        <time>2017-03-08T10:04:23.252000Z</time>
      </trkpt>
      <trkpt lat="41.6817720886708" lon="123.4371648264336">
        <time>2017-03-08T10:04:26.219000Z</time>
      </trkpt>
      <trkpt lat="41.68176576033391" lon="123.4372903873431">
        <ele>53.39640517240011</ele>
        <time>2017-03-08T10:04:29.234000Z</time>
      </trkpt>
      <trkpt lat="41.68175742034025" lon="123.4374348075347">
        <time>2017-03-08T10:04:32.222000Z</time>
      </trkpt>
      <trkpt lat="41.68175075672723" lon="123.4375643079387">
        <time>2017-03-08T10:04:35.243000Z</time>
      </trkpt>
      <trkpt lat="41.68175742034025" lon="123.4376879410105">
        <ele>52.77396735659319</ele>
        <time>2017-03-08T10:04:38.297000Z</time>
      </trkpt>
      <trkpt lat="41.68176366485812" lon="123.4378101491588">
        <time>2017-03-08T10:04:41.229000Z</time>
      </trkpt>
      <trkpt lat="41.68176622133858" lon="123.4379647952723">
        <time>2017-03-08T10:04:45.294000Z</time>
      </trkpt>
      <trkpt lat="41.68177724354126" lon="123.4380916134673">
        <ele>52.15078164314038</ele>
        <time>2017-03-08T10:04:48.249000Z</time>
      </trkpt>
      <trkpt lat="41.68177007701404" lon="123.4382302501457">
        <time>2017-03-08T10:04:51.260000Z</time>
      </trkpt>
      <trkpt lat="41.68175951581605" lon="123.4383667913484">
        <time>2017-03-08T10:04:54.247000Z</time>
      </trkpt>
      <trkpt lat="41.68176613751955" lon="123.4385236167567">
        <ele>51.52310854381211</ele>
        <time>2017-03-08T10:04:58.257000Z</time>
      </trkpt>
      <trkpt lat="41.68177301068015" lon="123.4386477527427">
        <time>2017-03-08T10:05:01.282000Z</time>
      </trkpt>
      <trkpt lat="41.68178868483908" lon="123.4387857188689">
        <time>2017-03-08T10:05:05.255000Z</time>
      </trkpt>
      <trkpt lat="41.68180561628349" lon="123.4389072564649">
        <ele>50.86888507805411</ele>
        <time>2017-03-08T10:05:10.290000Z</time>
      </trkpt>
      <trkpt lat="41.68180276643641" lon="123.4390342422979">
        <time>2017-03-08T10:05:14.282000Z</time>
      </trkpt>
      <trkpt lat="41.68182858269818" lon="123.4391878825831">
        <ele>49.57329604300786</ele>
        <time>2017-03-08T10:05:45.212000Z</time>
      </trkpt>
      <trkpt lat="41.68182937897898" lon="123.4393190593677">
        <ele>48.61907033133981</ele>
        <time>2017-03-08T10:05:48.253000Z</time>
      </trkpt>
      <trkpt lat="41.68181404009618" lon="123.4394669999587">
        <time>2017-03-08T10:05:51.244000Z</time>
      </trkpt>
      <trkpt lat="41.6818024730698" lon="123.4395964165436">
        <time>2017-03-08T10:05:54.252000Z</time>
      </trkpt>
      <trkpt lat="41.68181533929117" lon="123.4397187085109">
        <ele>46.55839408732265</ele>
        <time>2017-03-08T10:05:57.272000Z</time>
      </trkpt>
      <trkpt lat="41.68181051969685" lon="123.4398755339192">
        <time>2017-03-08T10:06:01.268000Z</time>
      </trkpt>
      <trkpt lat="41.68179878503241" lon="123.4399997537243">
        <time>2017-03-08T10:06:04.258000Z</time>
      </trkpt>
      <trkpt lat="41.68179124131955" lon="123.4401255660909">
        <ele>45.92540311080722</ele>
        <time>2017-03-08T10:06:07.252000Z</time>
      </trkpt>
      <trkpt lat="41.68179941367514" lon="123.4402846546131">
        <time>2017-03-08T10:06:11.243000Z</time>
      </trkpt>
      <trkpt lat="41.6818006290511" lon="123.4404069465803">
        <time>2017-03-08T10:06:14.283000Z</time>
      </trkpt>
      <trkpt lat="41.68182464320369" lon="123.4405412246691">
        <ele>44.02207679530045</ele>
        <time>2017-03-08T10:06:18.293000Z</time>
      </trkpt>
      <trkpt lat="41.68184040118165" lon="123.440696708973">
        <time>2017-03-08T10:06:22.304000Z</time>
      </trkpt>
      <trkpt lat="41.68183436621137" lon="123.4408304003286">
        <time>2017-03-08T10:06:25.294000Z</time>
      </trkpt>
      <trkpt lat="41.68182967234559" lon="123.4409917519646">
        <ele>44.64619586679388</ele>
        <time>2017-03-08T10:06:29.488000Z</time>
      </trkpt>
      <trkpt lat="41.68180674784042" lon="123.4411390220033">
        <time>2017-03-08T10:06:32.472000Z</time>
      </trkpt>
      <trkpt lat="41.68179731819935" lon="123.4412634932654">
        <time>2017-03-08T10:06:35.244000Z</time>
      </trkpt>
      <trkpt lat="41.68179635428049" lon="123.4414152895319">
        <ele>45.28222293403971</ele>
        <time>2017-03-08T10:06:39.250000Z</time>
      </trkpt>
      <trkpt lat="41.68181211225845" lon="123.4415622242945">
        <time>2017-03-08T10:06:43.259000Z</time>
      </trkpt>
      <trkpt lat="41.68181596793391" lon="123.4417214804547">
        <ele>45.71931642518663</ele>
        <time>2017-03-08T10:06:47.262000Z</time>
      </trkpt>
      <trkpt lat="41.68181106452055" lon="123.4418495559352">
        <time>2017-03-08T10:06:50.288000Z</time>
      </trkpt>
      <trkpt lat="41.68180393990286" lon="123.4419788887011">
        <time>2017-03-08T10:06:53.299000Z</time>
      </trkpt>
      <trkpt lat="41.68179589327581" lon="123.442134456824">
        <ele>46.32662420855902</ele>
        <time>2017-03-08T10:06:57.367000Z</time>
      </trkpt>
      <trkpt lat="41.68179777920403" lon="123.442269321646">
        <time>2017-03-08T10:07:00.255000Z</time>
      </trkpt>
      <trkpt lat="41.68179396543808" lon="123.4424032644587">
        <time>2017-03-08T10:07:03.366000Z</time>
      </trkpt>
      <trkpt lat="41.68178399097331" lon="123.4425345250624">
        <time>2017-03-08T10:07:06.241000Z</time>
      </trkpt>
      <trkpt lat="41.68177891992189" lon="123.442668384056">
        <ele>47.136893272476</ele>
        <time>2017-03-08T10:07:09.228000Z</time>
      </trkpt>
      <trkpt lat="41.68177917137898" lon="123.4427979682791">
        <time>2017-03-08T10:07:12.249000Z</time>
      </trkpt>
      <trkpt lat="41.68178868483908" lon="123.4429513571071">
        <time>2017-03-08T10:07:16.269000Z</time>
      </trkpt>
      <trkpt lat="41.68179895267047" lon="123.4431136307525">
        <ele>47.74455129101758</ele>
        <time>2017-03-08T10:07:20.276000Z</time>
      </trkpt>
      <trkpt lat="41.68179974895127" lon="123.4432538599926">
        <time>2017-03-08T10:07:24.543000Z</time>
      </trkpt>
      <trkpt lat="41.6818085499496" lon="123.4434094281154">
        <ele>48.18549736902557</ele>
        <time>2017-03-08T10:07:27.262000Z</time>
      </trkpt>
      <trkpt lat="41.68178068012156" lon="123.4435604700106">
        <time>2017-03-08T10:07:31.253000Z</time>
      </trkpt>
      <trkpt lat="41.68175218165077" lon="123.4436982684987">
        <time>2017-03-08T10:07:34.274000Z</time>
      </trkpt>
      <trkpt lat="41.68174660768516" lon="123.4438286909121">
        <ele>48.84709160362214</ele>
        <time>2017-03-08T10:07:37.255000Z</time>
      </trkpt>
      <trkpt lat="41.68174543421872" lon="123.4439559282022">
        <time>2017-03-08T10:07:40.259000Z</time>
      </trkpt>
      <trkpt lat="41.68174480557598" lon="123.4441099875825">
        <time>2017-03-08T10:07:44.293000Z</time>
      </trkpt>
      <trkpt lat="41.68174522467114" lon="123.4442609456586">
        <ele>49.4465190956878</ele>
        <time>2017-03-08T10:07:48.338000Z</time>
      </trkpt>
      <trkpt lat="41.68174836788483" lon="123.4443990794229">
        <time>2017-03-08T10:07:51.291000Z</time>
      </trkpt>
      <trkpt lat="41.68175222356029" lon="123.4445625265347">
        <time>2017-03-08T10:07:55.286000Z</time>
      </trkpt>
      <trkpt lat="41.68175775561638" lon="123.4446940385955">
        <ele>51.93236134060015</ele>
        <time>2017-03-08T10:07:58.378000Z</time>
      </trkpt>
      <trkpt lat="41.68176261712022" lon="123.444817001115">
        <time>2017-03-08T10:08:01.516000Z</time>
      </trkpt>
      <trkpt lat="41.68176299430586" lon="123.4449398798155">
        <time>2017-03-08T10:08:04.379000Z</time>
      </trkpt>
      <trkpt lat="41.681756749788" lon="123.4450673685627">
        <ele>54.2028976768993</ele>
        <time>2017-03-08T10:08:07.321000Z</time>
      </trkpt>
      <trkpt lat="41.68174518276162" lon="123.4452120402115">
        <time>2017-03-08T10:08:11.269000Z</time>
      </trkpt>
      <trkpt lat="41.68174702678032" lon="123.4453737271237">
        <time>2017-03-08T10:08:15.259000Z</time>
      </trkpt>
      <trkpt lat="41.6817636229486" lon="123.4455277026849">
        <ele>54.3380299643226</ele>
        <time>2017-03-08T10:08:19.254000Z</time>
      </trkpt>
      <trkpt lat="41.68176089883007" lon="123.4456669260966">
        <time>2017-03-08T10:08:22.265000Z</time>
      </trkpt>
      <trkpt lat="41.68175721079268" lon="123.4457944986629">
        <time>2017-03-08T10:08:25.242000Z</time>
      </trkpt>
      <trkpt lat="41.68174815833725" lon="123.4459531680899">
        <ele>54.37472262539873</ele>
        <time>2017-03-08T10:08:29.298000Z</time>
      </trkpt>
      <trkpt lat="41.68174664959468" lon="123.4460824170368">
        <time>2017-03-08T10:08:32.281000Z</time>
      </trkpt>
      <trkpt lat="41.68174677532323" lon="123.4462105763363">
        <time>2017-03-08T10:08:35.278000Z</time>
      </trkpt>
      <trkpt lat="41.68174623049952" lon="123.4463487939196">
        <ele>54.41089274786653</ele>
        <time>2017-03-08T10:08:38.294000Z</time>
      </trkpt>
      <trkpt lat="41.68175050527014" lon="123.4464784619617">
        <time>2017-03-08T10:08:41.255000Z</time>
      </trkpt>
      <trkpt lat="41.68175322938867" lon="123.4466251452672">
        <time>2017-03-08T10:08:45.245000Z</time>
      </trkpt>
      <trkpt lat="41.68175628878333" lon="123.4467587528037">
        <ele>54.44691655952401</ele>
        <time>2017-03-08T10:08:48.262000Z</time>
      </trkpt>
      <trkpt lat="41.68176131792523" lon="123.4468917736071">
        <time>2017-03-08T10:08:51.259000Z</time>
      </trkpt>
      <trkpt lat="41.68175205592222" lon="123.447021022554">
        <time>2017-03-08T10:08:54.248000Z</time>
      </trkpt>
      <trkpt lat="41.68175591159768" lon="123.447174495201">
        <ele>54.48137275535655</ele>
        <time>2017-03-08T10:08:58.264000Z</time>
      </trkpt>
      <trkpt lat="41.68175503149785" lon="123.4473002237486">
        <time>2017-03-08T10:09:01.245000Z</time>
      </trkpt>
      <trkpt lat="41.68175884526379" lon="123.4474246111917">
        <time>2017-03-08T10:09:04.237000Z</time>
      </trkpt>
      <trkpt lat="41.68175918053992" lon="123.4475492500918">
        <ele>54.51644554674688</ele>
        <time>2017-03-08T10:09:07.252000Z</time>
      </trkpt>
      <trkpt lat="41.68174782306112" lon="123.4476737213539">
        <time>2017-03-08T10:09:10.269000Z</time>
      </trkpt>
      <trkpt lat="41.68173030488349" lon="123.4477951751309">
        <time>2017-03-08T10:09:13.260000Z</time>
      </trkpt>
      <trkpt lat="41.68172506619401" lon="123.4479337279903">
        <time>2017-03-08T10:09:16.261000Z</time>
      </trkpt>
      <trkpt lat="41.68173721995361" lon="123.4480644856798">
        <ele>54.56095538540346</ele>
        <time>2017-03-08T10:09:19.237000Z</time>
      </trkpt>
      <trkpt lat="41.68175997682072" lon="123.4482192156123">
        <time>2017-03-08T10:09:24.026000Z</time>
      </trkpt>
      <trkpt lat="41.68175846807815" lon="123.4483618756043">
        <ele>54.58609994323574</ele>
        <time>2017-03-08T10:09:27.238000Z</time>
      </trkpt>
      <trkpt lat="41.68174920607515" lon="123.44852758583">
        <time>2017-03-08T10:09:31.250000Z</time>
      </trkpt>
      <trkpt lat="41.68174476366647" lon="123.4486784600871">
        <time>2017-03-08T10:09:34.274000Z</time>
      </trkpt>
      <trkpt lat="41.68174924798466" lon="123.4488220420884">
        <ele>54.62604279445561</ele>
        <time>2017-03-08T10:09:38.300000Z</time>
      </trkpt>
      <trkpt lat="41.68175951581605" lon="123.4489639477091">
        <time>2017-03-08T10:09:42.300000Z</time>
      </trkpt>
      <trkpt lat="41.68175993491121" lon="123.4491246287929">
        <time>2017-03-08T10:09:46.273000Z</time>
      </trkpt>
      <trkpt lat="41.68174648195662" lon="123.4492865671622">
        <ele>54.66485696228152</ele>
        <time>2017-03-08T10:09:50.252000Z</time>
      </trkpt>
      <trkpt lat="41.68173583693959" lon="123.4494198394226">
        <time>2017-03-08T10:09:53.318000Z</time>
      </trkpt>
      <trkpt lat="41.68172963433124" lon="123.4495756590026">
        <ele>54.69064946798812</ele>
        <time>2017-03-08T10:09:57.272000Z</time>
      </trkpt>
      <trkpt lat="41.68173487302072" lon="123.4496966936844">
        <time>2017-03-08T10:10:00.282000Z</time>
      </trkpt>
      <trkpt lat="41.6817324422688" lon="123.4498233442413">
        <time>2017-03-08T10:10:03.253000Z</time>
      </trkpt>
      <trkpt lat="41.68172573674627" lon="123.4499820974874">
        <ele>54.99825510684516</ele>
        <time>2017-03-08T10:10:07.262000Z</time>
      </trkpt>
      <trkpt lat="41.68171697765745" lon="123.4501205665278">
        <time>2017-03-08T10:10:11.249000Z</time>
      </trkpt>
      <trkpt lat="41.68171647474326" lon="123.4502577782827">
        <time>2017-03-08T10:10:15.224000Z</time>
      </trkpt>
      <trkpt lat="41.68171882167615" lon="123.4504236561465">
        <ele>55.3374938733557</ele>
        <time>2017-03-08T10:10:19.282000Z</time>
      </trkpt>
      <trkpt lat="41.68172770649351" lon="123.4505793919074">
        <time>2017-03-08T10:10:23.251000Z</time>
      </trkpt>
      <trkpt lat="41.68173843532957" lon="123.4507021867888">
        <time>2017-03-08T10:10:26.273000Z</time>
      </trkpt>
      <trkpt lat="41.68174417693324" lon="123.4508279153364">
        <ele>53.43292814440005</ele>
        <time>2017-03-08T10:10:29.242000Z</time>
      </trkpt>
      <trkpt lat="41.68174530849017" lon="123.4509884287822">
        <time>2017-03-08T10:10:33.283000Z</time>
      </trkpt>
      <trkpt lat="41.68175306175061" lon="123.451141398515">
        <ele>52.20863791744449</ele>
        <time>2017-03-08T10:10:37.264000Z</time>
      </trkpt>
      <trkpt lat="41.68175075672723" lon="123.4513027501511">
        <time>2017-03-08T10:10:41.294000Z</time>
      </trkpt>
      <trkpt lat="41.68174078226246" lon="123.451432082917">
        <time>2017-03-08T10:10:44.288000Z</time>
      </trkpt>
      <trkpt lat="41.68173550166346" lon="123.4515594878452">
        <ele>50.30869991299224</ele>
        <time>2017-03-08T10:10:47.317000Z</time>
      </trkpt>
      <trkpt lat="41.68174547612823" lon="123.4516995494472">
        <time>2017-03-08T10:10:51.311000Z</time>
      </trkpt>
      <trkpt lat="41.68173789050586" lon="123.4518405330586">
        <time>2017-03-08T10:10:55.263000Z</time>
      </trkpt>
      <trkpt lat="41.68172904759802" lon="123.4519779124516">
        <ele>50.25630614295497</ele>
        <time>2017-03-08T10:10:59.267000Z</time>
      </trkpt>
      <trkpt lat="41.68174861934192" lon="123.4518456460195">
        <ele>50.23866711226675</ele>
        <time>2017-03-08T10:11:08.227000Z</time>
      </trkpt>
      <trkpt lat="41.68175662405945" lon="123.4519668483394">
        <ele>50.22141287718691</ele>
        <time>2017-03-08T10:11:36.247000Z</time>
      </trkpt>
      <trkpt lat="41.68175633069284" lon="123.4520883021163">
        <ele>49.7178474133689</ele>
        <time>2017-03-08T10:11:39.291000Z</time>
      </trkpt>
      <trkpt lat="41.68175901290186" lon="123.4522368294405">
        <time>2017-03-08T10:11:43.348000Z</time>
      </trkpt>
      <trkpt lat="41.68177057992823" lon="123.4523717780816">
        <time>2017-03-08T10:11:46.244000Z</time>
      </trkpt>
      <trkpt lat="41.68177627962239" lon="123.4524964169817">
        <ele>47.19442406966181</ele>
        <time>2017-03-08T10:11:49.267000Z</time>
      </trkpt>
      <trkpt lat="41.68175712697364" lon="123.4526456148582">
        <time>2017-03-08T10:11:53.270000Z</time>
      </trkpt>
      <trkpt lat="41.6817430034668" lon="123.452769415568">
        <time>2017-03-08T10:11:56.265000Z</time>
      </trkpt>
      <trkpt lat="41.68173336427815" lon="123.4529052023994">
        <ele>49.35071262489092</ele>
        <time>2017-03-08T10:11:59.265000Z</time>
      </trkpt>
      <trkpt lat="41.6817324422688" lon="123.4530259856241">
        <time>2017-03-08T10:12:02.248000Z</time>
      </trkpt>
      <trkpt lat="41.68174400929518" lon="123.4531766922431">
        <time>2017-03-08T10:12:06.260000Z</time>
      </trkpt>
      <trkpt lat="41.681751469189" lon="123.4533229564535">
        <ele>51.54577172651312</ele>
        <time>2017-03-08T10:12:10.446000Z</time>
      </trkpt>
      <trkpt lat="41.68173994407214" lon="123.4534495231914">
        <time>2017-03-08T10:12:13.344000Z</time>
      </trkpt>
      <trkpt lat="41.68174308728583" lon="123.4535957874017">
        <ele>52.96109778805219</ele>
        <time>2017-03-08T10:12:17.292000Z</time>
      </trkpt>
      <trkpt lat="41.68173659131087" lon="123.4537386150318">
        <time>2017-03-08T10:12:20.284000Z</time>
      </trkpt>
      <trkpt lat="41.68172037232824" lon="123.45385822479">
        <time>2017-03-08T10:12:23.280000Z</time>
      </trkpt>
      <trkpt lat="41.68171706147648" lon="123.4539976996588">
        <ele>55.61256897386633</ele>
        <time>2017-03-08T10:12:27.329000Z</time>
      </trkpt>
      <trkpt lat="41.68173361573525" lon="123.4541545250671">
        <time>2017-03-08T10:12:31.411000Z</time>
      </trkpt>
      <trkpt lat="41.68172494046546" lon="123.4543082491713">
        <time>2017-03-08T10:12:35.488000Z</time>
      </trkpt>
      <trkpt lat="41.68171463072456" lon="123.4544302896815">
        <ele>57.12479087125204</ele>
        <time>2017-03-08T10:12:38.261000Z</time>
      </trkpt>
      <trkpt lat="41.68169459797598" lon="123.4545714409309">
        <time>2017-03-08T10:12:41.309000Z</time>
      </trkpt>
      <trkpt lat="41.68166987136163" lon="123.4547184595125">
        <time>2017-03-08T10:12:44.483000Z</time>
      </trkpt>
      <trkpt lat="41.6816547420264" lon="123.45486237679">
        <ele>57.64120286880694</ele>
        <time>2017-03-08T10:12:47.241000Z</time>
      </trkpt>
      <trkpt lat="41.68165277227916" lon="123.455015765618">
        <time>2017-03-08T10:12:51.249000Z</time>
      </trkpt>
      <trkpt lat="41.68164774313725" lon="123.4551379737663">
        <time>2017-03-08T10:12:54.316000Z</time>
      </trkpt>
      <trkpt lat="41.68165524494059" lon="123.4552807175773">
        <ele>58.76678077679676</ele>
        <time>2017-03-08T10:12:58.304000Z</time>
      </trkpt>
      <trkpt lat="41.6816589748875" lon="123.4554315918344">
        <time>2017-03-08T10:13:02.274000Z</time>
      </trkpt>
      <trkpt lat="41.68164573148049" lon="123.4555531294303">
        <time>2017-03-08T10:13:05.332000Z</time>
      </trkpt>
      <trkpt lat="41.6816296382264" lon="123.4556805343585">
        <ele>60.26595037782477</ele>
        <time>2017-03-08T10:13:08.238000Z</time>
      </trkpt>
      <trkpt lat="41.68163248807348" lon="123.455813974257">
        <time>2017-03-08T10:13:12.254000Z</time>
      </trkpt>
      <trkpt lat="41.68165931016363" lon="123.4559525271165">
        <time>2017-03-08T10:13:16.335000Z</time>
      </trkpt>
      <trkpt lat="41.68165264655061" lon="123.4560806025969">
        <ele>63.25206994167264</ele>
        <time>2017-03-08T10:13:19.238000Z</time>
      </trkpt>
      <trkpt lat="41.6816391516865" lon="123.4562319797682">
        <time>2017-03-08T10:13:23.425000Z</time>
      </trkpt>
      <trkpt lat="41.68162972204544" lon="123.4563733824747">
        <ele>63.87245649335879</ele>
        <time>2017-03-08T10:13:27.375000Z</time>
      </trkpt>
      <trkpt lat="41.68162984777398" lon="123.4565361590343">
        <time>2017-03-08T10:13:31.233000Z</time>
      </trkpt>
      <trkpt lat="41.6816425882668" lon="123.4566653241622">
        <time>2017-03-08T10:13:34.261000Z</time>
      </trkpt>
      <trkpt lat="41.68165872343041" lon="123.456831453483">
        <ele>63.95431784582207</ele>
        <time>2017-03-08T10:13:38.286000Z</time>
      </trkpt>
      <trkpt lat="41.68166970372356" lon="123.4569702577996">
        <time>2017-03-08T10:13:41.377000Z</time>
      </trkpt>
      <trkpt lat="41.68166601568617" lon="123.4570937232333">
        <time>2017-03-08T10:13:45.429000Z</time>
      </trkpt>
      <trkpt lat="41.6816642554865" lon="123.4572466929662">
        <ele>64.03534156829609</ele>
        <time>2017-03-08T10:13:49.383000Z</time>
      </trkpt>
      <trkpt lat="41.68166392021038" lon="123.4574005847084">
        <time>2017-03-08T10:13:53.455000Z</time>
      </trkpt>
      <trkpt lat="41.68164137289084" lon="123.4575357009875">
        <time>2017-03-08T10:13:56.425000Z</time>
      </trkpt>
      <trkpt lat="41.68162322607048" lon="123.457669057067">
        <ele>64.11912720586982</ele>
        <time>2017-03-08T10:13:59.230000Z</time>
      </trkpt>
      <trkpt lat="41.68160671372123" lon="123.4578026646035">
        <time>2017-03-08T10:14:02.273000Z</time>
      </trkpt>
      <trkpt lat="41.68159217111923" lon="123.4579267167705">
        <time>2017-03-08T10:14:05.317000Z</time>
      </trkpt>
      <trkpt lat="41.68159393131889" lon="123.4580850509214">
        <ele>64.19369891356175</ele>
        <time>2017-03-08T10:14:09.300000Z</time>
      </trkpt>
      <trkpt lat="41.6815852141396" lon="123.4582395293968">
        <time>2017-03-08T10:14:13.260000Z</time>
      </trkpt>
      <trkpt lat="41.68157029435195" lon="123.4583598935264">
        <time>2017-03-08T10:14:16.361000Z</time>
      </trkpt>
      <trkpt lat="41.68158906981505" lon="123.4584862926262">
        <ele>64.27558290467339</ele>
        <time>2017-03-08T10:14:20.297000Z</time>
      </trkpt>
      <trkpt lat="41.68159678116597" lon="123.4586197325247">
        <time>2017-03-08T10:14:23.336000Z</time>
      </trkpt>
      <trkpt lat="41.68158718388684" lon="123.4587514960426">
        <time>2017-03-08T10:14:26.392000Z</time>
      </trkpt>
      <trkpt lat="41.68158223856397" lon="123.4588899650829">
        <ele>64.75068360126099</ele>
        <time>2017-03-08T10:14:29.463000Z</time>
      </trkpt>
      <trkpt lat="41.68156865988083" lon="123.4590418451684">
        <time>2017-03-08T10:14:32.445000Z</time>
      </trkpt>
      <trkpt lat="41.68160834819235" lon="123.4591759556192">
        <time>2017-03-08T10:14:36.358000Z</time>
      </trkpt>
      <trkpt lat="41.68159699071355" lon="123.4593031090903">
        <ele>66.16725855554019</ele>
        <time>2017-03-08T10:14:39.473000Z</time>
      </trkpt>
      <trkpt lat="41.68159761935629" lon="123.4594613594221">
        <time>2017-03-08T10:14:43.453000Z</time>
      </trkpt>
      <trkpt lat="41.68160109784611" lon="123.459616843726">
        <ele>66.9987026596876</ele>
        <time>2017-03-08T10:14:47.400000Z</time>
      </trkpt>
      <trkpt lat="41.68160348668851" lon="123.4597556480425">
        <time>2017-03-08T10:14:51.443000Z</time>
      </trkpt>
      <trkpt lat="41.68161341924377" lon="123.4598771018195">
        <time>2017-03-08T10:14:55.221000Z</time>
      </trkpt>
      <trkpt lat="41.68162666265078" lon="123.4600156546789">
        <ele>68.93344884384933</ele>
        <time>2017-03-08T10:14:59.261000Z</time>
      </trkpt>
      <trkpt lat="41.68166597377665" lon="123.4601526987957">
        <time>2017-03-08T10:15:03.237000Z</time>
      </trkpt>
      <trkpt lat="41.68174287773825" lon="123.4602612444418">
        <ele>65.86892608956427</ele>
        <time>2017-03-08T10:15:07.238000Z</time>
      </trkpt>
      <trkpt lat="41.68182338591821" lon="123.4603275452959">
        <time>2017-03-08T10:15:10.226000Z</time>
      </trkpt>
      <trkpt lat="41.68191235982038" lon="123.4603574686902">
        <time>2017-03-08T10:15:13.283000Z</time>
      </trkpt>
      <trkpt lat="41.68200523130752" lon="123.4603686166214">
        <time>2017-03-08T10:15:16.306000Z</time>
      </trkpt>
      <trkpt lat="41.68210464067914" lon="123.4603730590301">
        <ele>59.22385977954973</ele>
        <time>2017-03-08T10:15:19.355000Z</time>
      </trkpt>
      <trkpt lat="41.68219981718965" lon="123.4603579716044">
        <time>2017-03-08T10:15:22.213000Z</time>
      </trkpt>
      <trkpt lat="41.68229411360033" lon="123.4603633360224">
        <time>2017-03-08T10:15:25.344000Z</time>
      </trkpt>
      <trkpt lat="41.68238648217328" lon="123.4603623301941">
        <ele>54.34410004888876</ele>
        <time>2017-03-08T10:15:28.265000Z</time>
      </trkpt>
      <trkpt lat="41.68248488571651" lon="123.4603588097947">
        <time>2017-03-08T10:15:31.227000Z</time>
      </trkpt>
      <trkpt lat="41.68257415298529" lon="123.4603448120164">
        <time>2017-03-08T10:15:34.436000Z</time>
      </trkpt>
      <trkpt lat="41.68266434226341" lon="123.4603372683036">
        <ele>52.34088417653803</ele>
        <time>2017-03-08T10:15:37.397000Z</time>
      </trkpt>
      <trkpt lat="41.68278135363169" lon="123.4603454825687">
        <time>2017-03-08T10:15:41.259000Z</time>
      </trkpt>
      <trkpt lat="41.68287770360865" lon="123.4603579716044">
        <time>2017-03-08T10:15:44.241000Z</time>
      </trkpt>
      <trkpt lat="41.68296768333919" lon="123.4603666887837">
        <ele>51.85953829943233</ele>
        <time>2017-03-08T10:15:47.208000Z</time>
      </trkpt>
      <trkpt lat="41.6830641590447" lon="123.4603640903937">
        <time>2017-03-08T10:15:51.253000Z</time>
      </trkpt>
      <trkpt lat="41.68294643521465" lon="123.4603558761286">
        <ele>51.56413465719204</ele>
        <time>2017-03-08T10:15:59.242000Z</time>
      </trkpt>
      <trkpt lat="41.68285033669479" lon="123.4603459854829">
        <time>2017-03-08T10:16:02.274000Z</time>
      </trkpt>
      <trkpt lat="41.68273278050281" lon="123.4603303113239">
        <time>2017-03-08T10:16:06.258000Z</time>
      </trkpt>
      <trkpt lat="41.68262721043236" lon="123.4603242763537">
        <ele>51.0382934287768</ele>
        <time>2017-03-08T10:16:10.325000Z</time>
      </trkpt>
      <trkpt lat="41.68253509331651" lon="123.4603178222882">
        <time>2017-03-08T10:16:13.315000Z</time>
      </trkpt>
      <trkpt lat="41.6824423056484" lon="123.4602943529593">
        <ele>49.37874413391542</ele>
        <time>2017-03-08T10:16:23.275000Z</time>
      </trkpt>
      <trkpt lat="41.68220463678397" lon="123.4603433870929">
        <ele>47.84823158414046</ele>
        <time>2017-03-08T10:18:38.276000Z</time>
      </trkpt>
      <trkpt lat="41.6820670059339" lon="123.4603592288899">
        <time>2017-03-08T10:18:38.306000Z</time>
      </trkpt>
      <trkpt lat="41.6819594661162" lon="123.4603545350241">
        <ele>47.63463431822796</ele>
        <time>2017-03-08T10:18:42.248000Z</time>
      </trkpt>
      <trkpt lat="41.68186797764309" lon="123.4602992144632">
        <time>2017-03-08T10:18:46.196000Z</time>
      </trkpt>
      <trkpt lat="41.68179945558466" lon="123.4602132161366">
        <time>2017-03-08T10:18:49.231000Z</time>
      </trkpt>
      <trkpt lat="41.68175461240269" lon="123.4600957856732">
        <ele>47.56757615856542</ele>
        <time>2017-03-08T10:18:52.227000Z</time>
      </trkpt>
      <trkpt lat="41.68173939924844" lon="123.4599641897934">
        <time>2017-03-08T10:18:55.264000Z</time>
      </trkpt>
      <trkpt lat="41.68173214890219" lon="123.4598234576392">
        <time>2017-03-08T10:18:58.278000Z</time>
      </trkpt>
      <trkpt lat="41.68174019552924" lon="123.45969613653">
        <ele>47.28708454713136</ele>
        <time>2017-03-08T10:19:01.236000Z</time>
      </trkpt>
      <trkpt lat="41.68174820024677" lon="123.4595662170308">
        <time>2017-03-08T10:19:04.265000Z</time>
      </trkpt>
      <trkpt lat="41.68176031209685" lon="123.4594285023617">
        <time>2017-03-08T10:19:07.259000Z</time>
      </trkpt>
      <trkpt lat="41.68175402566947" lon="123.4592602775651">
        <time>2017-03-08T10:19:10.236000Z</time>
      </trkpt>
      <trkpt lat="41.68175222356029" lon="123.4591132589834">
        <ele>47.2749575389232</ele>
        <time>2017-03-08T10:19:13.263000Z</time>
      </trkpt>
      <trkpt lat="41.6817551572264" lon="123.4589493089574">
        <time>2017-03-08T10:19:16.296000Z</time>
      </trkpt>
      <trkpt lat="41.68175591159768" lon="123.4587886278736">
        <time>2017-03-08T10:19:19.307000Z</time>
      </trkpt>
      <trkpt lat="41.68175054717965" lon="123.458641609292">
        <ele>47.26483663788509</ele>
        <time>2017-03-08T10:19:22.254000Z</time>
      </trkpt>
      <trkpt lat="41.68173390910186" lon="123.4585030564325">
        <time>2017-03-08T10:19:25.332000Z</time>
      </trkpt>
      <trkpt lat="41.68173470538266" lon="123.4583504219758">
        <time>2017-03-08T10:19:28.236000Z</time>
      </trkpt>
      <trkpt lat="41.68173830960102" lon="123.4582033195751">
        <ele>47.04904408388053</ele>
        <time>2017-03-08T10:19:31.277000Z</time>
      </trkpt>
      <trkpt lat="41.68174375783808" lon="123.4580451530623">
        <time>2017-03-08T10:19:34.272000Z</time>
      </trkpt>
      <trkpt lat="41.68174501512356" lon="123.4578674567151">
        <time>2017-03-08T10:19:37.274000Z</time>
      </trkpt>
      <trkpt lat="41.68175100818433" lon="123.4577297420459">
        <time>2017-03-08T10:19:40.303000Z</time>
      </trkpt>
      <trkpt lat="41.68176144365378" lon="123.4575879202443">
        <ele>46.69760240494489</ele>
        <time>2017-03-08T10:19:43.264000Z</time>
      </trkpt>
      <trkpt lat="41.68176676616229" lon="123.4574453440713">
        <time>2017-03-08T10:19:46.252000Z</time>
      </trkpt>
      <trkpt lat="41.68175746224977" lon="123.4573075455832">
        <time>2017-03-08T10:19:49.289000Z</time>
      </trkpt>
      <trkpt lat="41.68175691742606" lon="123.4571548273074">
        <ele>46.24168380620979</ele>
        <time>2017-03-08T10:19:53.271000Z</time>
      </trkpt>
      <trkpt lat="41.68178072203107" lon="123.4570358881014">
        <time>2017-03-08T10:19:58.290000Z</time>
      </trkpt>
      <trkpt lat="41.68179656382807" lon="123.4568874445962">
        <ele>45.98457873804176</ele>
        <time>2017-03-08T10:20:30.281000Z</time>
      </trkpt>
      <trkpt lat="41.68178537398733" lon="123.4567399231004">
        <ele>45.96998355919621</ele>
        <time>2017-03-08T10:20:33.245000Z</time>
      </trkpt>
      <trkpt lat="41.6817591386304" lon="123.4566104226964">
        <time>2017-03-08T10:20:36.245000Z</time>
      </trkpt>
      <trkpt lat="41.68174903843708" lon="123.456440270062">
        <time>2017-03-08T10:20:39.230000Z</time>
      </trkpt>
      <trkpt lat="41.6817593900875" lon="123.4562814329969">
        <ele>45.95987108243997</ele>
        <time>2017-03-08T10:20:42.251000Z</time>
      </trkpt>
      <trkpt lat="41.6817665147052" lon="123.456115219857">
        <time>2017-03-08T10:20:45.246000Z</time>
      </trkpt>
      <trkpt lat="41.68177812364109" lon="123.4559657705235">
        <time>2017-03-08T10:20:48.212000Z</time>
      </trkpt>
      <trkpt lat="41.68177917137898" lon="123.4558332526343">
        <ele>45.94924304659262</ele>
        <time>2017-03-08T10:20:51.269000Z</time>
      </trkpt>
      <trkpt lat="41.68177992575027" lon="123.4557086975532">
        <time>2017-03-08T10:20:58.253000Z</time>
      </trkpt>
      <trkpt lat="41.68178315278299" lon="123.4555534647065">
        <ele>45.94350745170379</ele>
        <time>2017-03-08T10:21:02.295000Z</time>
      </trkpt>
      <trkpt lat="41.68179388161905" lon="123.4553923645275">
        <time>2017-03-08T10:21:06.299000Z</time>
      </trkpt>
      <trkpt lat="41.68180138342239" lon="123.4552442562985">
        <time>2017-03-08T10:21:09.297000Z</time>
      </trkpt>
      <trkpt lat="41.68180683165945" lon="123.4550963157075">
        <ele>45.9331183989768</ele>
        <time>2017-03-08T10:21:12.227000Z</time>
      </trkpt>
      <trkpt lat="41.68180570010252" lon="123.4549332876908">
        <time>2017-03-08T10:21:15.276000Z</time>
      </trkpt>
      <trkpt lat="41.68180943004943" lon="123.4547967464881">
        <time>2017-03-08T10:21:18.300000Z</time>
      </trkpt>
      <trkpt lat="41.68181098070152" lon="123.4546459560501">
        <ele>45.92312675638256</ele>
        <time>2017-03-08T10:21:21.300000Z</time>
      </trkpt>
      <trkpt lat="41.68180373035528" lon="123.4544986021923">
        <time>2017-03-08T10:21:24.347000Z</time>
      </trkpt>
      <trkpt lat="41.6818014253319" lon="123.4543468897449">
        <time>2017-03-08T10:21:27.256000Z</time>
      </trkpt>
      <trkpt lat="41.68180649638332" lon="123.4541846160995">
        <time>2017-03-08T10:21:30.296000Z</time>
      </trkpt>
      <trkpt lat="41.68180586774059" lon="123.4540116136181">
        <ele>45.9094563848568</ele>
        <time>2017-03-08T10:21:33.249000Z</time>
      </trkpt>
      <trkpt lat="41.68180528100736" lon="123.4538602364468">
        <time>2017-03-08T10:21:36.239000Z</time>
      </trkpt>
      <trkpt lat="41.6818035208077" lon="123.4536934365737">
        <time>2017-03-08T10:21:39.224000Z</time>
      </trkpt>
      <trkpt lat="41.68180373035528" lon="123.4535271396147">
        <ele>45.89849538376309</ele>
        <time>2017-03-08T10:21:42.240000Z</time>
      </trkpt>
      <trkpt lat="41.68180704120703" lon="123.4533628543126">
        <time>2017-03-08T10:21:45.227000Z</time>
      </trkpt>
      <trkpt lat="41.6818051133693" lon="123.4532088787513">
        <time>2017-03-08T10:21:48.279000Z</time>
      </trkpt>
      <trkpt lat="41.68181077115394" lon="123.4530682304161">
        <ele>45.88767938366375</ele>
        <time>2017-03-08T10:21:51.247000Z</time>
      </trkpt>
      <trkpt lat="41.68181043587781" lon="123.452911907922">
        <time>2017-03-08T10:21:54.289000Z</time>
      </trkpt>
      <trkpt lat="41.68181123215862" lon="123.4527584352749">
        <time>2017-03-08T10:21:57.287000Z</time>
      </trkpt>
      <trkpt lat="41.6818278283269" lon="123.452600184943">
        <time>2017-03-08T10:22:00.434000Z</time>
      </trkpt>
      <trkpt lat="41.68185569815494" lon="123.4524381627547">
        <ele>45.8740546605992</ele>
        <time>2017-03-08T10:22:03.364000Z</time>
      </trkpt>
      <trkpt lat="41.68182380501337" lon="123.4523000289904">
        <time>2017-03-08T10:22:06.341000Z</time>
      </trkpt>
      <trkpt lat="41.68180289216496" lon="123.4521649127113">
        <time>2017-03-08T10:22:09.370000Z</time>
      </trkpt>
      <trkpt lat="41.68179635428049" lon="123.4519971070098">
        <ele>45.86403616596895</ele>
        <time>2017-03-08T10:22:12.301000Z</time>
      </trkpt>
      <trkpt lat="41.68181098070152" lon="123.4518329893457">
        <time>2017-03-08T10:22:15.205000Z</time>
      </trkpt>
      <trkpt lat="41.68182820551254" lon="123.4516854678499">
        <time>2017-03-08T10:22:18.229000Z</time>
      </trkpt>
      <trkpt lat="41.68181307617731" lon="123.451537862535">
        <ele>45.85326581433081</ele>
        <time>2017-03-08T10:22:21.337000Z</time>
      </trkpt>
      <trkpt lat="41.68180704120703" lon="123.4513790254699">
        <time>2017-03-08T10:22:24.217000Z</time>
      </trkpt>
      <trkpt lat="41.68180716693558" lon="123.4512150754439">
        <time>2017-03-08T10:22:27.252000Z</time>
      </trkpt>
      <trkpt lat="41.68180901095428" lon="123.4510415700483">
        <time>2017-03-08T10:22:30.281000Z</time>
      </trkpt>
      <trkpt lat="41.6818075022117" lon="123.4509203677284">
        <ele>45.47374782795901</ele>
        <time>2017-03-08T10:22:32.209000Z</time>
      </trkpt>
      <trkpt lat="41.68180720884509" lon="123.4507589322733">
        <time>2017-03-08T10:22:35.328000Z</time>
      </trkpt>
      <trkpt lat="41.68180846613057" lon="123.4505977482753">
        <time>2017-03-08T10:22:38.342000Z</time>
      </trkpt>
      <trkpt lat="41.68180913668282" lon="123.4504296072977">
        <ele>43.85900491494371</ele>
        <time>2017-03-08T10:22:41.431000Z</time>
      </trkpt>
      <trkpt lat="41.68181496210553" lon="123.450282337259">
        <time>2017-03-08T10:22:44.339000Z</time>
      </trkpt>
      <trkpt lat="41.68181722521938" lon="123.4501121008056">
        <time>2017-03-08T10:22:47.289000Z</time>
      </trkpt>
      <trkpt lat="41.68181873396195" lon="123.4499595501678">
        <time>2017-03-08T10:22:50.409000Z</time>
      </trkpt>
      <trkpt lat="41.68181902732857" lon="123.4497917444664">
        <ele>43.26600455281363</ele>
        <time>2017-03-08T10:22:53.324000Z</time>
      </trkpt>
      <trkpt lat="41.68181575838633" lon="123.4496365116196">
        <time>2017-03-08T10:22:56.452000Z</time>
      </trkpt>
      <trkpt lat="41.68181865014292" lon="123.4494810273158">
        <time>2017-03-08T10:22:59.264000Z</time>
      </trkpt>
      <trkpt lat="41.68181010060169" lon="123.4493543767589">
        <ele>43.1045187460311</ele>
        <time>2017-03-08T10:23:02.224000Z</time>
      </trkpt>
      <trkpt lat="41.68179769538499" lon="123.4492194281178">
        <time>2017-03-08T10:23:06.221000Z</time>
      </trkpt>
      <trkpt lat="41.6817958513663" lon="123.4490802885252">
        <time>2017-03-08T10:23:10.241000Z</time>
      </trkpt>
      <trkpt lat="41.68180197015561" lon="123.4489422385799">
        <ele>42.12543810467921</ele>
        <time>2017-03-08T10:23:14.269000Z</time>
      </trkpt>
      <trkpt lat="41.68180461045511" lon="123.4487877601045">
        <time>2017-03-08T10:23:18.235000Z</time>
      </trkpt>
      <trkpt lat="41.68179614473291" lon="123.4486471955883">
        <ele>42.05290239751039</ele>
        <time>2017-03-08T10:23:22.259000Z</time>
      </trkpt>
      <trkpt lat="41.68179668955661" lon="123.4484927171128">
        <time>2017-03-08T10:23:26.225000Z</time>
      </trkpt>
      <trkpt lat="41.68180104814626" lon="123.4483544157105">
        <time>2017-03-08T10:23:30.236000Z</time>
      </trkpt>
      <trkpt lat="41.68181848250486" lon="123.4482155275749">
        <ele>42.04323705842064</ele>
        <time>2017-03-08T10:23:34.456000Z</time>
      </trkpt>
      <trkpt lat="41.68179308533825" lon="123.4480932356077">
        <time>2017-03-08T10:23:40.275000Z</time>
      </trkpt>
      <trkpt lat="41.6817696998284" lon="123.4479696863549">
        <ele>42.71162223596007</ele>
        <time>2017-03-08T10:23:44.209000Z</time>
      </trkpt>
      <trkpt lat="41.68177787218399" lon="123.4478497413205">
        <time>2017-03-08T10:23:47.336000Z</time>
      </trkpt>
      <trkpt lat="41.68178482916363" lon="123.447695095207">
        <ele>43.33044177112016</ele>
        <time>2017-03-08T10:23:51.315000Z</time>
      </trkpt>
      <trkpt lat="41.6818156745673" lon="123.4475559556144">
        <time>2017-03-08T10:23:55.411000Z</time>
      </trkpt>
      <trkpt lat="41.68183323465444" lon="123.4473983758348">
        <time>2017-03-08T10:23:59.469000Z</time>
      </trkpt>
      <trkpt lat="41.68183935344376" lon="123.4472751618581">
        <ele>44.47736069599456</ele>
        <time>2017-03-08T10:24:02.413000Z</time>
      </trkpt>
      <trkpt lat="41.68184178419568" lon="123.447148092206">
        <time>2017-03-08T10:24:05.358000Z</time>
      </trkpt>
      <trkpt lat="41.68185477614559" lon="123.446999900158">
        <time>2017-03-08T10:24:09.457000Z</time>
      </trkpt>
      <trkpt lat="41.68185708116896" lon="123.4468328488278">
        <ele>45.47528229589837</ele>
        <time>2017-03-08T10:24:13.434000Z</time>
      </trkpt>
      <trkpt lat="41.68185762599267" lon="123.4466896021026">
        <time>2017-03-08T10:24:16.448000Z</time>
      </trkpt>
      <trkpt lat="41.6818481963516" lon="123.4465550725567">
        <time>2017-03-08T10:24:19.461000Z</time>
      </trkpt>
      <trkpt lat="41.68184543032356" lon="123.4464333673226">
        <ele>46.58735507219093</ele>
        <time>2017-03-08T10:24:22.227000Z</time>
      </trkpt>
      <trkpt lat="41.68185180056997" lon="123.4462823254275">
        <time>2017-03-08T10:24:27.323000Z</time>
      </trkpt>
      <trkpt lat="41.68186294850118" lon="123.4461576027083">
        <ele>47.26895775436484</ele>
        <time>2017-03-08T10:24:31.223000Z</time>
      </trkpt>
      <trkpt lat="41.68186672035761" lon="123.4460296110468">
        <time>2017-03-08T10:24:35.273000Z</time>
      </trkpt>
      <trkpt lat="41.68185917664476" lon="123.4458994400906">
        <time>2017-03-08T10:24:38.234000Z</time>
      </trkpt>
      <trkpt lat="41.68185779363073" lon="123.4457669222014">
        <ele>49.4650610360114</ele>
        <time>2017-03-08T10:24:41.249000Z</time>
      </trkpt>
      <trkpt lat="41.68185879945911" lon="123.445633566122">
        <time>2017-03-08T10:24:44.244000Z</time>
      </trkpt>
      <trkpt lat="41.68186181694426" lon="123.4454795067417">
        <time>2017-03-08T10:24:48.331000Z</time>
      </trkpt>
      <trkpt lat="41.68185972146846" lon="123.4453436360913">
        <ele>49.94356272148966</ele>
        <time>2017-03-08T10:24:51.468000Z</time>
      </trkpt>
      <trkpt lat="41.68185582388349" lon="123.4452063405173">
        <time>2017-03-08T10:24:54.229000Z</time>
      </trkpt>
      <trkpt lat="41.68185490187414" lon="123.4450686258482">
        <time>2017-03-08T10:24:57.235000Z</time>
      </trkpt>
      <trkpt lat="41.68185511142172" lon="123.4449469206142">
        <time>2017-03-08T10:25:00.446000Z</time>
      </trkpt>
      <trkpt lat="41.68185536287881" lon="123.444801075499">
        <ele>50.30081953761844</ele>
        <time>2017-03-08T10:25:04.212000Z</time>
      </trkpt>
      <trkpt lat="41.68185896709718" lon="123.4446696472573">
        <time>2017-03-08T10:25:08.379000Z</time>
      </trkpt>
      <trkpt lat="41.68186558880068" lon="123.4445036855745">
        <ele>51.00735158901588</ele>
        <time>2017-03-08T10:25:12.432000Z</time>
      </trkpt>
      <trkpt lat="41.68186688799567" lon="123.4443461057948">
        <time>2017-03-08T10:25:15.372000Z</time>
      </trkpt>
      <trkpt lat="41.68186948638566" lon="123.4442096484112">
        <time>2017-03-08T10:25:18.383000Z</time>
      </trkpt>
      <trkpt lat="41.68187916748382" lon="123.4440654796767">
        <ele>51.43862196746331</ele>
        <time>2017-03-08T10:25:22.221000Z</time>
      </trkpt>
      <trkpt lat="41.68187610808916" lon="123.4439170361715">
        <time>2017-03-08T10:25:26.306000Z</time>
      </trkpt>
      <trkpt lat="41.68186709754325" lon="123.4437797405975">
        <time>2017-03-08T10:25:30.444000Z</time>
      </trkpt>
      <trkpt lat="41.68186952829517" lon="123.443640936281">
        <ele>51.77333313007774</ele>
        <time>2017-03-08T10:25:34.261000Z</time>
      </trkpt>
      <trkpt lat="41.68187204286613" lon="123.4434775729882">
        <time>2017-03-08T10:25:38.252000Z</time>
      </trkpt>
      <trkpt lat="41.68187669482239" lon="123.4433540237355">
        <ele>51.0979001771414</ele>
        <time>2017-03-08T10:25:41.302000Z</time>
      </trkpt>
      <trkpt lat="41.68187447361804" lon="123.4432303906637">
        <time>2017-03-08T10:25:45.434000Z</time>
      </trkpt>
      <trkpt lat="41.68186437342472" lon="123.4430861381101">
        <time>2017-03-08T10:25:49.225000Z</time>
      </trkpt>
      <trkpt lat="41.68186416387714" lon="123.4429422208326">
        <ele>50.22134308057592</ele>
        <time>2017-03-08T10:25:53.307000Z</time>
      </trkpt>
      <trkpt lat="41.68186659462906" lon="123.4427986388313">
        <time>2017-03-08T10:25:57.259000Z</time>
      </trkpt>
      <trkpt lat="41.6818463523329" lon="123.4426532966303">
        <ele>49.57871379812454</ele>
        <time>2017-03-08T10:26:01.250000Z</time>
      </trkpt>
      <trkpt lat="41.68182958852656" lon="123.4425245505976">
        <time>2017-03-08T10:26:04.302000Z</time>
      </trkpt>
      <trkpt lat="41.68182740923174" lon="123.442377532016">
        <time>2017-03-08T10:26:08.238000Z</time>
      </trkpt>
      <trkpt lat="41.68183105535962" lon="123.442229591425">
        <ele>48.6276762366055</ele>
        <time>2017-03-08T10:26:12.247000Z</time>
      </trkpt>
      <trkpt lat="41.68182640340336" lon="123.4420839977669">
        <time>2017-03-08T10:26:16.251000Z</time>
      </trkpt>
      <trkpt lat="41.68182904370286" lon="123.4419618734377">
        <time>2017-03-08T10:26:19.243000Z</time>
      </trkpt>
      <trkpt lat="41.68183092963107" lon="123.4418404196607">
        <ele>47.6984181612281</ele>
        <time>2017-03-08T10:26:22.224000Z</time>
      </trkpt>
      <trkpt lat="41.68182988189317" lon="123.4416923952507">
        <time>2017-03-08T10:26:26.230000Z</time>
      </trkpt>
      <trkpt lat="41.68182707395561" lon="123.4415426106411">
        <time>2017-03-08T10:26:30.213000Z</time>
      </trkpt>
      <trkpt lat="41.68182510420836" lon="123.4413965140688">
        <ele>46.76163137459187</ele>
        <time>2017-03-08T10:26:34.517000Z</time>
      </trkpt>
      <trkpt lat="41.68183025907882" lon="123.4412436281549">
        <time>2017-03-08T10:26:38.269000Z</time>
      </trkpt>
      <trkpt lat="41.68183235455461" lon="123.4411229287493">
        <ele>46.54361372581436</ele>
        <time>2017-03-08T10:26:41.237000Z</time>
      </trkpt>
      <trkpt lat="41.68184165846713" lon="123.4409644269603">
        <time>2017-03-08T10:26:45.235000Z</time>
      </trkpt>
      <trkpt lat="41.68184911836095" lon="123.4408392013269">
        <time>2017-03-08T10:26:48.219000Z</time>
      </trkpt>
      <trkpt lat="41.68184643615194" lon="123.4406796937095">
        <ele>46.49362663783489</ele>
        <time>2017-03-08T10:26:52.238000Z</time>
      </trkpt>
      <trkpt lat="41.68185045946546" lon="123.4405272268908">
        <time>2017-03-08T10:26:56.241000Z</time>
      </trkpt>
      <trkpt lat="41.68184861544676" lon="123.4404064436661">
        <time>2017-03-08T10:26:59.254000Z</time>
      </trkpt>
      <trkpt lat="41.68184794489451" lon="123.4402851575272">
        <ele>46.44022594230339</ele>
        <time>2017-03-08T10:27:02.211000Z</time>
      </trkpt>
      <trkpt lat="41.68185226157464" lon="123.4401353729176">
        <time>2017-03-08T10:27:06.231000Z</time>
      </trkpt>
      <trkpt lat="41.6818550695122" lon="123.439983241375">
        <time>2017-03-08T10:27:10.246000Z</time>
      </trkpt>
      <trkpt lat="41.68185825463541" lon="123.439861703779">
        <ele>46.38799774675716</ele>
        <time>2017-03-08T10:27:13.447000Z</time>
      </trkpt>
      <trkpt lat="41.68185045946546" lon="123.4397332092034">
        <time>2017-03-08T10:27:16.427000Z</time>
      </trkpt>
      <trkpt lat="41.68185054328449" lon="123.4395876993643">
        <time>2017-03-08T10:27:20.209000Z</time>
      </trkpt>
      <trkpt lat="41.68185825463541" lon="123.4394302872228">
        <ele>46.33915347521904</ele>
        <time>2017-03-08T10:27:24.268000Z</time>
      </trkpt>
      <trkpt lat="41.68186529543407" lon="123.4393006191807">
        <time>2017-03-08T10:27:27.213000Z</time>
      </trkpt>
      <trkpt lat="41.68186290659167" lon="123.4391727951573">
        <time>2017-03-08T10:27:30.274000Z</time>
      </trkpt>
      <trkpt lat="41.68186651081003" lon="123.4390303866225">
        <ele>46.28788999485056</ele>
        <time>2017-03-08T10:27:33.250000Z</time>
      </trkpt>
      <trkpt lat="41.68186449915327" lon="123.4389088490265">
        <time>2017-03-08T10:27:37.227000Z</time>
      </trkpt>
      <trkpt lat="41.68187564708449" lon="123.4387869761544">
        <ele>46.25532714715847</ele>
        <time>2017-03-08T10:27:41.250000Z</time>
      </trkpt>
      <trkpt lat="41.68186680417664" lon="123.4386508540469">
        <time>2017-03-08T10:27:45.233000Z</time>
      </trkpt>
      <trkpt lat="41.68185008227982" lon="123.4385304060983">
        <time>2017-03-08T10:27:48.286000Z</time>
      </trkpt>
      <trkpt lat="41.68184970509417" lon="123.4383967985617">
        <ele>46.20823420471226</ele>
        <time>2017-03-08T10:27:51.257000Z</time>
      </trkpt>
      <trkpt lat="41.68185272257931" lon="123.4382514563607">
        <time>2017-03-08T10:27:55.209000Z</time>
      </trkpt>
      <trkpt lat="41.68186579834826" lon="123.4381060303407">
        <time>2017-03-08T10:27:59.320000Z</time>
      </trkpt>
      <trkpt lat="41.68188365180202" lon="123.4379606881397">
        <ele>46.15576854081458</ele>
        <time>2017-03-08T10:28:03.353000Z</time>
      </trkpt>
      <trkpt lat="41.6818880942107" lon="123.4378298466312">
        <time>2017-03-08T10:28:07.320000Z</time>
      </trkpt>
      <trkpt lat="41.68189002204843" lon="123.4376899526673">
        <ele>46.12145436403058</ele>
        <time>2017-03-08T10:28:11.266000Z</time>
      </trkpt>
      <trkpt lat="41.68185251303174" lon="123.4375473764943">
        <time>2017-03-08T10:28:16.244000Z</time>
      </trkpt>
      <trkpt lat="41.68182581667013" lon="123.4374287725644">
        <time>2017-03-08T10:28:19.235000Z</time>
      </trkpt>
      <trkpt lat="41.68185125574626" lon="123.4372860287534">
        <ele>46.06203032154329</ele>
        <time>2017-03-08T10:28:23.316000Z</time>
      </trkpt>
      <trkpt lat="41.68184568178065" lon="123.4371375852483">
        <time>2017-03-08T10:28:27.352000Z</time>
      </trkpt>
      <trkpt lat="41.68185854800202" lon="123.4369978589224">
        <ele>46.01971998966792</ele>
        <time>2017-03-08T10:28:31.327000Z</time>
      </trkpt>
      <trkpt lat="41.68187690436996" lon="123.436859306063">
        <time>2017-03-08T10:28:35.313000Z</time>
      </trkpt>
      <trkpt lat="41.68187346778966" lon="123.4367164784329">
        <time>2017-03-08T10:28:38.242000Z</time>
      </trkpt>
      <trkpt lat="41.68187602427013" lon="123.4365946893798">
        <ele>45.95893443344613</ele>
        <time>2017-03-08T10:28:41.206000Z</time>
      </trkpt>
      <trkpt lat="41.68187497653224" lon="123.4364335053819">
        <time>2017-03-08T10:28:45.323000Z</time>
      </trkpt>
      <trkpt lat="41.68187099512823" lon="123.4362900910186">
        <time>2017-03-08T10:28:49.238000Z</time>
      </trkpt>
      <trkpt lat="41.68186408005811" lon="123.4361354449051">
        <ele>45.89783865890511</ele>
        <time>2017-03-08T10:28:53.312000Z</time>
      </trkpt>
      <trkpt lat="41.68186009865411" lon="123.4360038490253">
        <time>2017-03-08T10:28:56.405000Z</time>
      </trkpt>
      <trkpt lat="41.68186345141537" lon="123.4358566628056">
        <time>2017-03-08T10:28:59.373000Z</time>
      </trkpt>
      <trkpt lat="41.68187334206112" lon="123.4357321915435">
        <ele>45.44824369095842</ele>
        <time>2017-03-08T10:29:02.226000Z</time>
      </trkpt>
      <trkpt lat="41.68187606617965" lon="123.4355895315515">
        <time>2017-03-08T10:29:06.224000Z</time>
      </trkpt>
      <trkpt lat="41.68187946085043" lon="123.4354661499368">
        <time>2017-03-08T10:29:09.444000Z</time>
      </trkpt>
      <trkpt lat="41.68188088577397" lon="123.4353163653272">
        <ele>44.58621780307023</ele>
        <time>2017-03-08T10:29:13.238000Z</time>
      </trkpt>
      <trkpt lat="41.68187656909384" lon="123.4351726156878">
        <time>2017-03-08T10:29:17.257000Z</time>
      </trkpt>
      <trkpt lat="41.68185096237965" lon="123.435054263215">
        <ele>44.41194971895763</ele>
        <time>2017-03-08T10:29:21.239000Z</time>
      </trkpt>
      <trkpt lat="41.68183805424876" lon="123.434898275997">
        <time>2017-03-08T10:29:25.335000Z</time>
      </trkpt>
      <trkpt lat="41.68182455938466" lon="123.4347780795055">
        <time>2017-03-08T10:29:28.301000Z</time>
      </trkpt>
      <trkpt lat="41.68183637786813" lon="123.4346443881499">
        <ele>43.22157334718807</ele>
        <time>2017-03-08T10:29:31.372000Z</time>
      </trkpt>
      <trkpt lat="41.681841323191" lon="123.4344934300738">
        <time>2017-03-08T10:29:35.241000Z</time>
      </trkpt>
      <trkpt lat="41.6818405269102" lon="123.4343640973078">
        <time>2017-03-08T10:29:38.322000Z</time>
      </trkpt>
      <trkpt lat="41.68185024991788" lon="123.4342273884671">
        <ele>42.99376860854306</ele>
        <time>2017-03-08T10:29:41.226000Z</time>
      </trkpt>
      <trkpt lat="41.68186211031087" lon="123.4340807889806">
        <time>2017-03-08T10:29:45.223000Z</time>
      </trkpt>
      <trkpt lat="41.68187036648549" lon="123.4339572397279">
        <time>2017-03-08T10:29:48.311000Z</time>
      </trkpt>
      <trkpt lat="41.68187522798933" lon="123.4338017554241">
        <ele>42.93555925764634</ele>
        <time>2017-03-08T10:29:52.236000Z</time>
      </trkpt>
      <trkpt lat="41.68186659462906" lon="123.4336479475009">
        <time>2017-03-08T10:29:56.204000Z</time>
      </trkpt>
      <trkpt lat="41.68186169121571" lon="123.4335080535369">
        <time>2017-03-08T10:30:00.467000Z</time>
      </trkpt>
      <trkpt lat="41.68186739090986" lon="123.4333637171643">
        <ele>42.87148955997109</ele>
        <time>2017-03-08T10:30:04.329000Z</time>
      </trkpt>
      <trkpt lat="41.68186097875394" lon="123.4332091548698">
        <time>2017-03-08T10:30:08.389000Z</time>
      </trkpt>
      <trkpt lat="41.68184488549985" lon="123.4330660757827">
        <ele>42.82887352945001</ele>
        <time>2017-03-08T10:30:12.346000Z</time>
      </trkpt>
      <trkpt lat="41.68184496931888" lon="123.4329271038281">
        <time>2017-03-08T10:30:16.203000Z</time>
      </trkpt>
      <trkpt lat="41.68184949554659" lon="123.4327737988191">
        <time>2017-03-08T10:30:20.348000Z</time>
      </trkpt>
      <trkpt lat="41.68184253856696" lon="123.432625606771">
        <ele>42.76663733208266</ele>
        <time>2017-03-08T10:30:24.220000Z</time>
      </trkpt>
      <trkpt lat="41.68184848971821" lon="123.4325000458615">
        <time>2017-03-08T10:30:28.284000Z</time>
      </trkpt>
      <trkpt lat="41.68185154911287" lon="123.4323516861754">
        <ele>42.72756835355911</ele>
        <time>2017-03-08T10:30:32.433000Z</time>
      </trkpt>
      <trkpt lat="41.68185905091621" lon="123.4322219343143">
        <time>2017-03-08T10:30:36.272000Z</time>
      </trkpt>
      <trkpt lat="41.68185967955895" lon="123.4320766759323">
        <time>2017-03-08T10:30:40.460000Z</time>
      </trkpt>
      <trkpt lat="41.68186957020469" lon="123.4319526237654">
        <ele>42.66723419856725</ele>
        <time>2017-03-08T10:30:43.274000Z</time>
      </trkpt>
      <trkpt lat="41.68188076004542" lon="123.4318105505066">
        <time>2017-03-08T10:30:46.239000Z</time>
      </trkpt>
      <trkpt lat="41.68187967039801" lon="123.4316666332292">
        <time>2017-03-08T10:30:49.230000Z</time>
      </trkpt>
      <trkpt lat="41.6818828136117" lon="123.4315213748472">
        <ele>42.60863073078193</ele>
        <time>2017-03-08T10:30:52.245000Z</time>
      </trkpt>
      <trkpt lat="41.68189262043841" lon="123.4313881025868">
        <time>2017-03-08T10:30:55.394000Z</time>
      </trkpt>
      <trkpt lat="41.6819010442511" lon="123.4312259127604">
        <time>2017-03-08T10:30:59.311000Z</time>
      </trkpt>
      <trkpt lat="41.68190163098432" lon="123.43108744372">
        <ele>42.54570911273873</ele>
        <time>2017-03-08T10:31:02.332000Z</time>
      </trkpt>
      <trkpt lat="41.68190075088449" lon="123.4309636430102">
        <time>2017-03-08T10:31:05.216000Z</time>
      </trkpt>
      <trkpt lat="41.6818994516895" lon="123.4308360704439">
        <time>2017-03-08T10:31:08.238000Z</time>
      </trkpt>
      <trkpt lat="41.68190242726512" lon="123.4306911473381">
        <ele>40.39000752220362</ele>
        <time>2017-03-08T10:31:12.231000Z</time>
      </trkpt>
      <trkpt lat="41.68190498374559" lon="123.4305445478516">
        <time>2017-03-08T10:31:16.351000Z</time>
      </trkpt>
      <trkpt lat="41.68190456465043" lon="123.4303788376259">
        <time>2017-03-08T10:31:20.253000Z</time>
      </trkpt>
      <trkpt lat="41.68190012224175" lon="123.4302388598429">
        <ele>40.01993861331927</ele>
        <time>2017-03-08T10:31:23.295000Z</time>
      </trkpt>
      <trkpt lat="41.68190196626045" lon="123.4301163164186">
        <time>2017-03-08T10:31:26.236000Z</time>
      </trkpt>
      <trkpt lat="41.68190003842272" lon="123.4299762548166">
        <time>2017-03-08T10:31:30.252000Z</time>
      </trkpt>
      <trkpt lat="41.68190234344609" lon="123.429853292297">
        <ele>39.96857657908615</ele>
        <time>2017-03-08T10:31:33.225000Z</time>
      </trkpt>
      <trkpt lat="41.68190452274091" lon="123.4296954610603">
        <time>2017-03-08T10:31:37.259000Z</time>
      </trkpt>
      <trkpt lat="41.68190548665978" lon="123.4295460955458">
        <ele>39.42516957985281</ele>
        <time>2017-03-08T10:31:41.223000Z</time>
      </trkpt>
      <trkpt lat="41.6818931233526" lon="123.429388096671">
        <time>2017-03-08T10:31:45.337000Z</time>
      </trkpt>
      <trkpt lat="41.6818796284885" lon="123.429261110838">
        <time>2017-03-08T10:31:48.253000Z</time>
      </trkpt>
      <trkpt lat="41.68187845502205" lon="123.4291389026897">
        <ele>37.95821070049375</ele>
        <time>2017-03-08T10:31:51.251000Z</time>
      </trkpt>
      <trkpt lat="41.68187887411721" lon="123.4290138446944">
        <time>2017-03-08T10:31:54.274000Z</time>
      </trkpt>
      <trkpt lat="41.68187841311254" lon="123.4288525768774">
        <time>2017-03-08T10:31:58.287000Z</time>
      </trkpt>
      <trkpt lat="41.68187837120302" lon="123.4287068994003">
        <ele>39.17251610139738</ele>
        <time>2017-03-08T10:32:01.306000Z</time>
      </trkpt>
      <trkpt lat="41.68187191713758" lon="123.4285746329682">
        <time>2017-03-08T10:32:05.228000Z</time>
      </trkpt>
      <trkpt lat="41.6818735516087" lon="123.4284157120841">
        <time>2017-03-08T10:32:09.264000Z</time>
      </trkpt>
      <trkpt lat="41.6818888904915" lon="123.4282605630564">
        <ele>40.47194806648808</ele>
        <time>2017-03-08T10:32:12.359000Z</time>
      </trkpt>
      <trkpt lat="41.68189785912789" lon="123.4281397798317">
        <time>2017-03-08T10:32:15.271000Z</time>
      </trkpt>
      <trkpt lat="41.68190825268783" lon="123.4279901628601">
        <time>2017-03-08T10:32:19.256000Z</time>
      </trkpt>
      <trkpt lat="41.68191248554893" lon="123.4278502688961">
        <ele>41.74491210826011</ele>
        <time>2017-03-08T10:32:22.265000Z</time>
      </trkpt>
      <trkpt lat="41.68191382665344" lon="123.4277009033816">
        <time>2017-03-08T10:32:26.216000Z</time>
      </trkpt>
      <trkpt lat="41.68190519329317" lon="123.4275533818858">
        <time>2017-03-08T10:32:30.256000Z</time>
      </trkpt>
      <trkpt lat="41.68189924214192" lon="123.4274186008828">
        <ele>43.04505942262968</ele>
        <time>2017-03-08T10:32:34.234000Z</time>
      </trkpt>
      <trkpt lat="41.68190649248816" lon="123.4272728395866">
        <time>2017-03-08T10:32:38.445000Z</time>
      </trkpt>
      <trkpt lat="41.68191944252856" lon="123.4271532298284">
        <ele>43.62156669927982</ele>
        <time>2017-03-08T10:32:41.321000Z</time>
      </trkpt>
      <trkpt lat="41.68192233428515" lon="123.4270218015867">
        <time>2017-03-08T10:32:44.232000Z</time>
      </trkpt>
      <trkpt lat="41.68192489076562" lon="123.4268882778691">
        <time>2017-03-08T10:32:47.232000Z</time>
      </trkpt>
      <trkpt lat="41.68192262765177" lon="123.4267647286164">
        <time>2017-03-08T10:32:50.234000Z</time>
      </trkpt>
      <trkpt lat="41.68192761488415" lon="123.4266374075072">
        <ele>44.11069033858698</ele>
        <time>2017-03-08T10:32:53.280000Z</time>
      </trkpt>
      <trkpt lat="41.68192711196996" lon="123.4264962562578">
        <time>2017-03-08T10:32:56.479000Z</time>
      </trkpt>
      <trkpt lat="41.68192120272823" lon="123.4263755568521">
        <time>2017-03-08T10:32:59.447000Z</time>
      </trkpt>
      <trkpt lat="41.68191378474392" lon="123.4262418654966">
        <ele>44.90712876595692</ele>
        <time>2017-03-08T10:33:03.388000Z</time>
      </trkpt>
      <trkpt lat="41.68191751469083" lon="123.4261199926244">
        <time>2017-03-08T10:33:06.291000Z</time>
      </trkpt>
      <trkpt lat="41.68192556131788" lon="123.425968112539">
        <time>2017-03-08T10:33:10.245000Z</time>
      </trkpt>
      <trkpt lat="41.68192795016028" lon="123.4258337506311">
        <ele>45.46900674394586</ele>
        <time>2017-03-08T10:33:14.278000Z</time>
      </trkpt>
      <trkpt lat="41.68191039007313" lon="123.4256780148702">
        <time>2017-03-08T10:33:18.253000Z</time>
      </trkpt>
      <trkpt lat="41.68190544475026" lon="123.4255350196021">
        <ele>45.70339793704234</ele>
        <time>2017-03-08T10:33:21.242000Z</time>
      </trkpt>
      <trkpt lat="41.68190762404509" lon="123.4254017473417">
        <time>2017-03-08T10:33:24.262000Z</time>
      </trkpt>
      <trkpt lat="41.68190724685945" lon="123.4252641164916">
        <time>2017-03-08T10:33:27.217000Z</time>
      </trkpt>
      <trkpt lat="41.68189974505611" lon="123.425143752362">
        <time>2017-03-08T10:33:30.252000Z</time>
      </trkpt>
      <trkpt lat="41.68190075088449" lon="123.4249997512655">
        <ele>47.20235891092814</ele>
        <time>2017-03-08T10:33:34.305000Z</time>
      </trkpt>
      <trkpt lat="41.68190012224175" lon="123.4248736036228">
        <time>2017-03-08T10:33:37.234000Z</time>
      </trkpt>
      <trkpt lat="41.68189890686579" lon="123.4247413371908">
        <time>2017-03-08T10:33:40.233000Z</time>
      </trkpt>
      <trkpt lat="41.68189371008582" lon="123.4246163630145">
        <ele>48.27638475061268</ele>
        <time>2017-03-08T10:33:43.241000Z</time>
      </trkpt>
      <trkpt lat="41.68189500928082" lon="123.4244820011066">
        <time>2017-03-08T10:33:46.232000Z</time>
      </trkpt>
      <trkpt lat="41.68189220134325" lon="123.424337664734">
        <time>2017-03-08T10:33:49.288000Z</time>
      </trkpt>
      <trkpt lat="41.6818999965132" lon="123.4241901432382">
        <ele>48.89639867640257</ele>
        <time>2017-03-08T10:33:53.281000Z</time>
      </trkpt>
      <trkpt lat="41.6819131980107" lon="123.4240577091681">
        <time>2017-03-08T10:33:57.373000Z</time>
      </trkpt>
      <trkpt lat="41.68193624824442" lon="123.4239408654379">
        <time>2017-03-08T10:34:00.457000Z</time>
      </trkpt>
      <trkpt lat="41.68194496542372" lon="123.4238148016142">
        <ele>49.64475598999563</ele>
        <time>2017-03-08T10:34:03.469000Z</time>
      </trkpt>
      <trkpt lat="41.68195330541737" lon="123.4236863908576">
        <time>2017-03-08T10:34:06.331000Z</time>
      </trkpt>
      <trkpt lat="41.681961561592" lon="123.4235597403007">
        <time>2017-03-08T10:34:10.413000Z</time>
      </trkpt>
      <trkpt lat="41.68197312861837" lon="123.4234077763962">
        <ele>50.26002100188877</ele>
        <time>2017-03-08T10:34:14.441000Z</time>
      </trkpt>
      <trkpt lat="41.68197354771353" lon="123.4232640267568">
        <time>2017-03-08T10:34:18.520000Z</time>
      </trkpt>
      <trkpt lat="41.68197275143273" lon="123.4231261444496">
        <ele>50.31009497507426</ele>
        <time>2017-03-08T10:34:21.286000Z</time>
      </trkpt>
      <trkpt lat="41.68198268398799" lon="123.4229905252563">
        <time>2017-03-08T10:34:25.389000Z</time>
      </trkpt>
      <trkpt lat="41.68197740338899" lon="123.4228437581318">
        <ele>50.56401827544246</ele>
        <time>2017-03-08T10:34:31.276000Z</time>
      </trkpt>
      <trkpt lat="41.68198767122038" lon="123.4226845857905">
        <time>2017-03-08T10:34:35.255000Z</time>
      </trkpt>
      <trkpt lat="41.68200208809383" lon="123.4225520679014">
        <time>2017-03-08T10:34:38.241000Z</time>
      </trkpt>
      <trkpt lat="41.68201239783473" lon="123.4224213940309">
        <ele>49.64539373540627</ele>
        <time>2017-03-08T10:34:41.269000Z</time>
      </trkpt>
      <trkpt lat="41.68202157601871" lon="123.4222961683976">
        <time>2017-03-08T10:34:44.260000Z</time>
      </trkpt>
      <trkpt lat="41.68203100565977" lon="123.4221669194507">
        <time>2017-03-08T10:34:47.236000Z</time>
      </trkpt>
      <trkpt lat="41.68204554826178" lon="123.4220290371435">
        <ele>48.83839888415112</ele>
        <time>2017-03-08T10:34:51.320000Z</time>
      </trkpt>
      <trkpt lat="41.6820609290541" lon="123.4218746424871">
        <time>2017-03-08T10:34:55.420000Z</time>
      </trkpt>
      <trkpt lat="41.68207471728481" lon="123.4217308928477">
        <time>2017-03-08T10:34:59.469000Z</time>
      </trkpt>
      <trkpt lat="41.68208280582137" lon="123.4216035717385">
        <ele>47.92127946351422</ele>
        <time>2017-03-08T10:35:02.285000Z</time>
      </trkpt>
      <trkpt lat="41.68208871506311" lon="123.421480693038">
        <time>2017-03-08T10:35:05.423000Z</time>
      </trkpt>
      <trkpt lat="41.6821037605793" lon="123.4213392065125">
        <time>2017-03-08T10:35:09.253000Z</time>
      </trkpt>
      <trkpt lat="41.68211712971486" lon="123.4212185909258">
        <ele>47.10023683119898</ele>
        <time>2017-03-08T10:35:13.292000Z</time>
      </trkpt>
      <trkpt lat="41.6821288643793" lon="123.4210572392898">
        <time>2017-03-08T10:35:17.353000Z</time>
      </trkpt>
      <trkpt lat="41.68213146276928" lon="123.4209328518467">
        <time>2017-03-08T10:35:20.284000Z</time>
      </trkpt>
      <trkpt lat="41.68214625682838" lon="123.4207997472244">
        <ele>46.24884095766463</ele>
        <time>2017-03-08T10:35:24.227000Z</time>
      </trkpt>
      <trkpt lat="41.68216205671586" lon="123.4206518066334">
        <time>2017-03-08T10:35:28.246000Z</time>
      </trkpt>
      <trkpt lat="41.68217714414157" lon="123.42052138422">
        <ele>45.65682732727539</ele>
        <time>2017-03-08T10:35:32.356000Z</time>
      </trkpt>
      <trkpt lat="41.6821917705626" lon="123.4203871061312">
        <time>2017-03-08T10:35:35.381000Z</time>
      </trkpt>
      <trkpt lat="41.68218648996361" lon="123.4202351422267">
        <time>2017-03-08T10:35:38.451000Z</time>
      </trkpt>
      <trkpt lat="41.68219667397596" lon="123.4201119282501">
        <ele>45.37963191139798</ele>
        <time>2017-03-08T10:35:41.382000Z</time>
      </trkpt>
      <trkpt lat="41.68221750300534" lon="123.4199758899616">
        <time>2017-03-08T10:35:45.263000Z</time>
      </trkpt>
      <trkpt lat="41.68221762873389" lon="123.4198418633299">
        <time>2017-03-08T10:35:50.430000Z</time>
      </trkpt>
      <trkpt lat="41.68220585215993" lon="123.4196964373099">
        <ele>45.37686139969525</ele>
        <time>2017-03-08T10:35:54.273000Z</time>
      </trkpt>
      <trkpt lat="41.68220346331753" lon="123.4195715469526">
        <time>2017-03-08T10:35:57.353000Z</time>
      </trkpt>
      <trkpt lat="41.68220618743606" lon="123.4194217623429">
        <ele>45.37496790867707</ele>
        <time>2017-03-08T10:36:01.493000Z</time>
      </trkpt>
      <trkpt lat="41.68221435979165" lon="123.4192986321854">
        <time>2017-03-08T10:36:04.396000Z</time>
      </trkpt>
      <trkpt lat="41.6822184669242" lon="123.4191315808552">
        <time>2017-03-08T10:36:08.278000Z</time>
      </trkpt>
      <trkpt lat="41.68221821546711" lon="123.4189864901113">
        <ele>45.37189245587425</ele>
        <time>2017-03-08T10:36:11.245000Z</time>
      </trkpt>
      <trkpt lat="41.68222781274624" lon="123.4188338556545">
        <time>2017-03-08T10:36:15.247000Z</time>
      </trkpt>
      <trkpt lat="41.68224977333255" lon="123.4186836519497">
        <time>2017-03-08T10:36:19.232000Z</time>
      </trkpt>
      <trkpt lat="41.68225945443071" lon="123.4185608570682">
        <ele>45.36874139784</ele>
        <time>2017-03-08T10:36:22.280000Z</time>
      </trkpt>
      <trkpt lat="41.68226263955392" lon="123.4183995892512">
        <time>2017-03-08T10:36:26.299000Z</time>
      </trkpt>
      <trkpt lat="41.68228007391252" lon="123.41828023095">
        <time>2017-03-08T10:36:30.471000Z</time>
      </trkpt>
      <trkpt lat="41.68229386214323" lon="123.418148048337">
        <ele>45.3659036814871</ele>
        <time>2017-03-08T10:36:34.469000Z</time>
      </trkpt>
      <trkpt lat="41.68230563871719" lon="123.4179936536806">
        <time>2017-03-08T10:36:39.283000Z</time>
      </trkpt>
      <trkpt lat="41.68230920102604" lon="123.4178560228305">
        <ele>45.36388838204051</ele>
        <time>2017-03-08T10:36:43.280000Z</time>
      </trkpt>
      <trkpt lat="41.68231272142537" lon="123.4177210741894">
        <time>2017-03-08T10:36:47.297000Z</time>
      </trkpt>
      <trkpt lat="41.68231687046744" lon="123.4175773245501">
        <ele>45.36198481032481</ele>
        <time>2017-03-08T10:36:51.220000Z</time>
      </trkpt>
      <trkpt lat="41.6823207261429" lon="123.417447656508">
        <time>2017-03-08T10:36:55.406000Z</time>
      </trkpt>
      <trkpt lat="41.6823191335813" lon="123.4173070919918">
        <time>2017-03-08T10:36:59.229000Z</time>
      </trkpt>
      <trkpt lat="41.68232085187145" lon="123.4171536193447">
        <ele>45.35909333025179</ele>
        <time>2017-03-08T10:37:03.253000Z</time>
      </trkpt>
      <trkpt lat="41.68232089378096" lon="123.417009031515">
        <time>2017-03-08T10:37:07.292000Z</time>
      </trkpt>
      <trkpt lat="41.6823466262237" lon="123.4168631863998">
        <ele>45.35701166621317</ele>
        <time>2017-03-08T10:37:11.348000Z</time>
      </trkpt>
      <trkpt lat="41.68237399313755" lon="123.4167144914376">
        <time>2017-03-08T10:37:15.260000Z</time>
      </trkpt>
      <trkpt lat="41.68239092458196" lon="123.4165854939478">
        <time>2017-03-08T10:37:18.293000Z</time>
      </trkpt>
      <trkpt lat="41.68239830065675" lon="123.4164314345675">
        <ele>45.35398241660733</ele>
        <time>2017-03-08T10:37:22.248000Z</time>
      </trkpt>
      <trkpt lat="41.68241766285308" lon="123.4163090587812">
        <time>2017-03-08T10:37:25.254000Z</time>
      </trkpt>
      <trkpt lat="41.68247549798496" lon="123.4161758703398">
        <time>2017-03-08T10:37:29.254000Z</time>
      </trkpt>
      <trkpt lat="41.68254293039598" lon="123.4160690010743">
        <ele>45.350956527234</ele>
        <time>2017-03-08T10:37:33.281000Z</time>
      </trkpt>
      <trkpt lat="41.68263010218896" lon="123.4160111659425">
        <time>2017-03-08T10:37:38.259000Z</time>
      </trkpt>
      <trkpt lat="41.68273747436859" lon="123.4160403349655">
        <ele>45.15386701740614</ele>
        <time>2017-03-08T10:37:42.311000Z</time>
      </trkpt>
      <trkpt lat="41.68283617127843" lon="123.4160537460106">
        <time>2017-03-08T10:37:46.228000Z</time>
      </trkpt>
      <trkpt lat="41.68294991370447" lon="123.416055003296">
        <time>2017-03-08T10:37:50.251000Z</time>
      </trkpt>
      <trkpt lat="41.68305456176557" lon="123.4160441068219">
        <ele>45.15386701740614</ele>
        <time>2017-03-08T10:37:54.408000Z</time>
      </trkpt>
      <trkpt lat="41.68305032890446" lon="123.4161788040059">
        <time>2017-03-08T10:37:58.368000Z</time>
      </trkpt>
      <trkpt lat="41.68312740050413" lon="123.4161160235511">
        <ele>45.15386701740614</ele>
        <time>2017-03-08T10:38:04.254000Z</time>
      </trkpt>
    </trkseg>
  </trk>
</gpx>