<?xml version="1.0" encoding="UTF-8"?>
<gpx xmlns="http://www.topografix.com/GPX/1/1" xmlns:gpxtpx="http://www.garmin.com/xmlschemas/TrackPointExtension/v1" xmlns:xsi="http://www.w3.org/2001/XMLSchema-instance" xsi:schemaLocation="http://www.topografix.com/GPX/1/1 http://www.topografix.com/GPX/1/1/gpx.xsd" version="1.1" creator="gpx.py -- https://github.com/tkrajina/gpxpy">
  <trk>
    <name>星期二 晚间跑</name>
    <trkseg>
      <trkpt lat="41.68340894863166" lon="123.4151690361308">
        <time>2017-05-09T11:05:54.222000Z</time>
      </trkpt>
      <trkpt lat="41.68348853480227" lon="123.4152476583826">
        <time>2017-05-09T11:05:59.225000Z</time>
      </trkpt>
      <trkpt lat="41.68350202966638" lon="123.4153861274229">
        <ele>55.16364351905602</ele>
        <time>2017-05-09T11:06:03.243000Z</time>
      </trkpt>
      <trkpt lat="41.68345760557957" lon="123.4154937510597">
        <time>2017-05-09T11:06:06.262000Z</time>
      </trkpt>
      <trkpt lat="41.68337651066638" lon="123.4155749717014">
        <time>2017-05-09T11:06:09.275000Z</time>
      </trkpt>
      <trkpt lat="41.68326117567874" lon="123.4155928251552">
        <ele>52.65294784672963</ele>
        <time>2017-05-09T11:06:14.291000Z</time>
      </trkpt>
      <trkpt lat="41.68316046711214" lon="123.4155900591271">
        <time>2017-05-09T11:06:17.263000Z</time>
      </trkpt>
      <trkpt lat="41.68314173355855" lon="123.4157385864513">
        <ele>50.82208998715768</ele>
        <time>2017-05-09T11:06:28.287000Z</time>
      </trkpt>
      <trkpt lat="41.68314173355855" lon="123.4157385864513">
        <ele>49.87213804344277</ele>
        <time>2017-05-09T11:06:41.318000Z</time>
      </trkpt>
      <trkpt lat="41.68315325867541" lon="123.4158793186056">
        <time>2017-05-09T11:06:41.329000Z</time>
      </trkpt>
      <trkpt lat="41.68309391480096" lon="123.4159860202329">
        <time>2017-05-09T11:06:44.263000Z</time>
      </trkpt>
      <trkpt lat="41.68301147878326" lon="123.4160422628032">
        <time>2017-05-09T11:06:47.306000Z</time>
      </trkpt>
      <trkpt lat="41.68291533835389" lon="123.4160658159511">
        <ele>48.77738066759661</ele>
        <time>2017-05-09T11:06:50.295000Z</time>
      </trkpt>
      <trkpt lat="41.68282359842367" lon="123.4160694201695">
        <time>2017-05-09T11:06:53.271000Z</time>
      </trkpt>
      <trkpt lat="41.68272439859964" lon="123.4160488845067">
        <time>2017-05-09T11:06:57.273000Z</time>
      </trkpt>
      <trkpt lat="41.68261396702535" lon="123.4160731920259">
        <ele>48.72120135989207</ele>
        <time>2017-05-09T11:07:01.309000Z</time>
      </trkpt>
      <trkpt lat="41.68252490930416" lon="123.4161002655732">
        <time>2017-05-09T11:07:05.262000Z</time>
      </trkpt>
      <trkpt lat="41.68242621239431" lon="123.4160586075144">
        <ele>48.68181487470758</ele>
        <time>2017-05-09T11:07:12.257000Z</time>
      </trkpt>
      <trkpt lat="41.68233091015525" lon="123.4161449411171">
        <time>2017-05-09T11:07:16.278000Z</time>
      </trkpt>
      <trkpt lat="41.68226041834958" lon="123.4162490443545">
        <ele>48.63944957971923</ele>
        <time>2017-05-09T11:07:19.275000Z</time>
      </trkpt>
      <trkpt lat="41.68221938893355" lon="123.4163636249708">
        <time>2017-05-09T11:07:22.257000Z</time>
      </trkpt>
      <trkpt lat="41.68221859265275" lon="123.4164868389474">
        <time>2017-05-09T11:07:25.273000Z</time>
      </trkpt>
      <trkpt lat="41.68222630400367" lon="123.4166341928052">
        <ele>48.58286961338609</ele>
        <time>2017-05-09T11:07:29.279000Z</time>
      </trkpt>
      <trkpt lat="41.68222760319866" lon="123.4167888389187">
        <time>2017-05-09T11:07:33.270000Z</time>
      </trkpt>
      <trkpt lat="41.68222404088981" lon="123.4169408028232">
        <time>2017-05-09T11:07:37.311000Z</time>
      </trkpt>
      <trkpt lat="41.68222001757629" lon="123.4170913418042">
        <ele>48.51707449859537</ele>
        <time>2017-05-09T11:07:41.255000Z</time>
      </trkpt>
      <trkpt lat="41.68220916301168" lon="123.4172375221955">
        <time>2017-05-09T11:07:45.265000Z</time>
      </trkpt>
      <trkpt lat="41.68218879498698" lon="123.4173904919284">
        <ele>47.05225686701256</ele>
        <time>2017-05-09T11:07:49.286000Z</time>
      </trkpt>
      <trkpt lat="41.68217500675626" lon="123.417516388114">
        <time>2017-05-09T11:07:52.284000Z</time>
      </trkpt>
      <trkpt lat="41.68217089962371" lon="123.4176576231824">
        <time>2017-05-09T11:07:56.314000Z</time>
      </trkpt>
      <trkpt lat="41.68220308613189" lon="123.4178026301073">
        <ele>45.16370242746918</ele>
        <time>2017-05-09T11:08:00.284000Z</time>
      </trkpt>
      <trkpt lat="41.68220555879332" lon="123.4179516603457">
        <time>2017-05-09T11:08:04.286000Z</time>
      </trkpt>
      <trkpt lat="41.68219742834724" lon="123.4180987627464">
        <time>2017-05-09T11:08:08.290000Z</time>
      </trkpt>
      <trkpt lat="41.68219357267179" lon="123.4182531574028">
        <ele>43.86266896289979</ele>
        <time>2017-05-09T11:08:12.321000Z</time>
      </trkpt>
      <trkpt lat="41.68218213137396" lon="123.4184034449266">
        <time>2017-05-09T11:08:16.282000Z</time>
      </trkpt>
      <trkpt lat="41.6821711510808" lon="123.4185546544599">
        <ele>43.82604768440995</ele>
        <time>2017-05-09T11:08:20.261000Z</time>
      </trkpt>
      <trkpt lat="41.68216088324942" lon="123.418708294745">
        <time>2017-05-09T11:08:24.273000Z</time>
      </trkpt>
      <trkpt lat="41.68215430345543" lon="123.4188309219884">
        <time>2017-05-09T11:08:27.301000Z</time>
      </trkpt>
      <trkpt lat="41.6821468435616" lon="123.418954052146">
        <ele>44.45557260040638</ele>
        <time>2017-05-09T11:08:30.281000Z</time>
      </trkpt>
      <trkpt lat="41.68214068286277" lon="123.4191071056979">
        <time>2017-05-09T11:08:34.310000Z</time>
      </trkpt>
      <trkpt lat="41.68213397734024" lon="123.4192639311062">
        <time>2017-05-09T11:08:38.415000Z</time>
      </trkpt>
      <trkpt lat="41.6821243800611" lon="123.4194182419436">
        <ele>45.09198046333968</ele>
        <time>2017-05-09T11:08:43.059000Z</time>
      </trkpt>
      <trkpt lat="41.68211251966812" lon="123.419538186978">
        <time>2017-05-09T11:08:45.295000Z</time>
      </trkpt>
      <trkpt lat="41.68210602369316" lon="123.4196615685927">
        <time>2017-05-09T11:08:48.295000Z</time>
      </trkpt>
      <trkpt lat="41.68211620770551" lon="123.4197827709125">
        <ele>45.67791338206917</ele>
        <time>2017-05-09T11:08:51.285000Z</time>
      </trkpt>
      <trkpt lat="41.68212400287546" lon="123.4199036379563">
        <time>2017-05-09T11:08:54.296000Z</time>
      </trkpt>
      <trkpt lat="41.6821071971596" lon="123.4200608824598">
        <time>2017-05-09T11:08:58.294000Z</time>
      </trkpt>
      <trkpt lat="41.68209592349984" lon="123.4201840964364">
        <ele>46.26772898881434</ele>
        <time>2017-05-09T11:09:01.306000Z</time>
      </trkpt>
      <trkpt lat="41.68207140643306" lon="123.4203414247589">
        <time>2017-05-09T11:09:05.276000Z</time>
      </trkpt>
      <trkpt lat="41.68205045167513" lon="123.420497579615">
        <ele>46.68547092213745</ele>
        <time>2017-05-09T11:09:09.315000Z</time>
      </trkpt>
      <trkpt lat="41.68204559017129" lon="123.4206178599255">
        <time>2017-05-09T11:09:12.284000Z</time>
      </trkpt>
      <trkpt lat="41.68204064484842" lon="123.420738056417">
        <time>2017-05-09T11:09:15.265000Z</time>
      </trkpt>
      <trkpt lat="41.68203532233991" lon="123.4209005815195">
        <ele>47.27140384086694</ele>
        <time>2017-05-09T11:09:19.273000Z</time>
      </trkpt>
      <trkpt lat="41.68203050274558" lon="123.4210238793152">
        <time>2017-05-09T11:09:22.295000Z</time>
      </trkpt>
      <trkpt lat="41.68202170174725" lon="123.4211673774975">
        <time>2017-05-09T11:09:25.331000Z</time>
      </trkpt>
      <trkpt lat="41.682021031195" lon="123.4212921002166">
        <time>2017-05-09T11:09:28.318000Z</time>
      </trkpt>
      <trkpt lat="41.68201218828715" lon="123.4214129672604">
        <ele>48.08517995178914</ele>
        <time>2017-05-09T11:09:31.270000Z</time>
      </trkpt>
      <trkpt lat="41.68200946416862" lon="123.4215735645251">
        <time>2017-05-09T11:09:35.285000Z</time>
      </trkpt>
      <trkpt lat="41.68203842364408" lon="123.4217063338714">
        <time>2017-05-09T11:09:38.351000Z</time>
      </trkpt>
      <trkpt lat="41.68205074504174" lon="123.4218369239228">
        <ele>48.70164491718737</ele>
        <time>2017-05-09T11:09:41.260000Z</time>
      </trkpt>
      <trkpt lat="41.68205237951286" lon="123.4219804221051">
        <time>2017-05-09T11:09:44.263000Z</time>
      </trkpt>
      <trkpt lat="41.68205066122271" lon="123.42212542903">
        <time>2017-05-09T11:09:47.293000Z</time>
      </trkpt>
      <trkpt lat="41.68202639561303" lon="123.4222617187755">
        <ele>49.2354946578687</ele>
        <time>2017-05-09T11:09:51.274000Z</time>
      </trkpt>
      <trkpt lat="41.68202505450852" lon="123.4223913868176">
        <time>2017-05-09T11:09:54.317000Z</time>
      </trkpt>
      <trkpt lat="41.68202174365677" lon="123.4225197975742">
        <time>2017-05-09T11:09:57.283000Z</time>
      </trkpt>
      <trkpt lat="41.68200942225911" lon="123.4226458613979">
        <ele>49.74738227127782</ele>
        <time>2017-05-09T11:10:00.317000Z</time>
      </trkpt>
      <trkpt lat="41.68200816497363" lon="123.4227818158673">
        <time>2017-05-09T11:10:03.283000Z</time>
      </trkpt>
      <trkpt lat="41.68199814859934" lon="123.4229108971762">
        <time>2017-05-09T11:10:06.303000Z</time>
      </trkpt>
      <trkpt lat="41.68197685856529" lon="123.4230589215862">
        <ele>50.16563292443232</ele>
        <time>2017-05-09T11:10:10.460000Z</time>
      </trkpt>
      <trkpt lat="41.68197245806612" lon="123.4231837281244">
        <time>2017-05-09T11:10:13.279000Z</time>
      </trkpt>
      <trkpt lat="41.68197417635627" lon="123.423304176073">
        <time>2017-05-09T11:10:16.469000Z</time>
      </trkpt>
      <trkpt lat="41.68196864430018" lon="123.423462929319">
        <ele>52.52334116015604</ele>
        <time>2017-05-09T11:10:20.483000Z</time>
      </trkpt>
      <trkpt lat="41.68196742892422" lon="123.4235858080195">
        <time>2017-05-09T11:10:23.260000Z</time>
      </trkpt>
      <trkpt lat="41.68196093294926" lon="123.4237082676249">
        <time>2017-05-09T11:10:26.242000Z</time>
      </trkpt>
      <trkpt lat="41.68194798290886" lon="123.4238273744689">
        <ele>53.95327800341529</ele>
        <time>2017-05-09T11:10:29.353000Z</time>
      </trkpt>
      <trkpt lat="41.68193918191053" lon="123.4239487444269">
        <time>2017-05-09T11:10:32.522000Z</time>
      </trkpt>
      <trkpt lat="41.68193209920235" lon="123.4240999539601">
        <time>2017-05-09T11:10:36.309000Z</time>
      </trkpt>
      <trkpt lat="41.68192677669384" lon="123.4242594615774">
        <ele>53.70087341167393</ele>
        <time>2017-05-09T11:10:40.289000Z</time>
      </trkpt>
      <trkpt lat="41.68191944252856" lon="123.4243960027801">
        <time>2017-05-09T11:10:43.360000Z</time>
      </trkpt>
      <trkpt lat="41.68191143781103" lon="123.4245259222793">
        <time>2017-05-09T11:10:46.255000Z</time>
      </trkpt>
      <trkpt lat="41.6819079174117" lon="123.4246540815788">
        <ele>53.42717796806199</ele>
        <time>2017-05-09T11:10:49.444000Z</time>
      </trkpt>
      <trkpt lat="41.68190640866913" lon="123.4248117451774">
        <time>2017-05-09T11:10:53.338000Z</time>
      </trkpt>
      <trkpt lat="41.68191143781103" lon="123.4249342047827">
        <time>2017-05-09T11:10:56.262000Z</time>
      </trkpt>
      <trkpt lat="41.68191315610118" lon="123.4250552394645">
        <ele>53.16528506190004</ele>
        <time>2017-05-09T11:10:59.406000Z</time>
      </trkpt>
      <trkpt lat="41.68190909087814" lon="123.4251892660963">
        <time>2017-05-09T11:11:02.304000Z</time>
      </trkpt>
      <trkpt lat="41.68191072534926" lon="123.4253132344442">
        <time>2017-05-09T11:11:05.337000Z</time>
      </trkpt>
      <trkpt lat="41.68190582193591" lon="123.4254404717343">
        <time>2017-05-09T11:11:08.259000Z</time>
      </trkpt>
      <trkpt lat="41.68190142143674" lon="123.4255616740542">
        <ele>52.84052243010571</ele>
        <time>2017-05-09T11:11:11.277000Z</time>
      </trkpt>
      <trkpt lat="41.6818992002324" lon="123.4256903362678">
        <time>2017-05-09T11:11:14.275000Z</time>
      </trkpt>
      <trkpt lat="41.68190062515594" lon="123.4258146398919">
        <time>2017-05-09T11:11:17.298000Z</time>
      </trkpt>
      <trkpt lat="41.68190045751788" lon="123.4259419610011">
        <ele>52.60061464272319</ele>
        <time>2017-05-09T11:11:20.282000Z</time>
      </trkpt>
      <trkpt lat="41.68189794294693" lon="123.4260680248248">
        <time>2017-05-09T11:11:23.278000Z</time>
      </trkpt>
      <trkpt lat="41.68189823631354" lon="123.4261944239246">
        <time>2017-05-09T11:11:26.308000Z</time>
      </trkpt>
      <trkpt lat="41.68190075088449" lon="123.4263237566905">
        <ele>52.35715838002892</ele>
        <time>2017-05-09T11:11:29.269000Z</time>
      </trkpt>
      <trkpt lat="41.68190020606078" lon="123.4264510777997">
        <time>2017-05-09T11:11:32.420000Z</time>
      </trkpt>
      <trkpt lat="41.68189190797664" lon="123.4265911394017">
        <time>2017-05-09T11:11:36.431000Z</time>
      </trkpt>
      <trkpt lat="41.68187648527481" lon="123.4267448635059">
        <ele>52.1025167060258</ele>
        <time>2017-05-09T11:11:40.323000Z</time>
      </trkpt>
      <trkpt lat="41.68187304869451" lon="123.4268969950484">
        <time>2017-05-09T11:11:44.321000Z</time>
      </trkpt>
      <trkpt lat="41.68186663653858" lon="123.4270499647813">
        <ele>51.90549918545508</ele>
        <time>2017-05-09T11:11:48.481000Z</time>
      </trkpt>
      <trkpt lat="41.68185666207381" lon="123.4272007552194">
        <time>2017-05-09T11:11:52.328000Z</time>
      </trkpt>
      <trkpt lat="41.68184836398967" lon="123.4273592570083">
        <time>2017-05-09T11:11:56.336000Z</time>
      </trkpt>
      <trkpt lat="41.6818484478087" lon="123.4275024199145">
        <ele>51.60843008924606</ele>
        <time>2017-05-09T11:12:00.414000Z</time>
      </trkpt>
      <trkpt lat="41.68185913473524" lon="123.4276310821282">
        <time>2017-05-09T11:12:04.431000Z</time>
      </trkpt>
      <trkpt lat="41.68183767706312" lon="123.4277842194991">
        <ele>51.4336291097577</ele>
        <time>2017-05-09T11:12:08.455000Z</time>
      </trkpt>
      <trkpt lat="41.68181718330987" lon="123.4279260413008">
        <time>2017-05-09T11:12:12.447000Z</time>
      </trkpt>
      <trkpt lat="41.68181324381538" lon="123.4280641750651">
        <time>2017-05-09T11:12:16.463000Z</time>
      </trkpt>
      <trkpt lat="41.68180863376863" lon="123.4282180668073">
        <ele>51.15252815245164</ele>
        <time>2017-05-09T11:12:20.445000Z</time>
      </trkpt>
      <trkpt lat="41.68179522272356" lon="123.42835460801">
        <time>2017-05-09T11:12:24.460000Z</time>
      </trkpt>
      <trkpt lat="41.68179425880469" lon="123.4284984414684">
        <time>2017-05-09T11:12:28.304000Z</time>
      </trkpt>
      <trkpt lat="41.68180138342239" lon="123.4286488128113">
        <ele>50.87335571433674</ele>
        <time>2017-05-09T11:12:32.309000Z</time>
      </trkpt>
      <trkpt lat="41.68180335316963" lon="123.4287809116053">
        <time>2017-05-09T11:12:35.433000Z</time>
      </trkpt>
      <trkpt lat="41.68180720884509" lon="123.4289164469796">
        <time>2017-05-09T11:12:38.295000Z</time>
      </trkpt>
      <trkpt lat="41.68180440090753" lon="123.429041840251">
        <ele>50.60513726522774</ele>
        <time>2017-05-09T11:12:41.281000Z</time>
      </trkpt>
      <trkpt lat="41.68180155106045" lon="123.4291650542276">
        <time>2017-05-09T11:12:44.287000Z</time>
      </trkpt>
      <trkpt lat="41.68178746946312" lon="123.4293208738076">
        <time>2017-05-09T11:12:48.298000Z</time>
      </trkpt>
      <trkpt lat="41.68178776282974" lon="123.4294554033535">
        <ele>50.34517287825697</ele>
        <time>2017-05-09T11:12:52.286000Z</time>
      </trkpt>
      <trkpt lat="41.68179807257064" lon="123.4295982309835">
        <time>2017-05-09T11:12:56.233000Z</time>
      </trkpt>
      <trkpt lat="41.68179689910419" lon="123.4297399689662">
        <ele>50.16697770499215</ele>
        <time>2017-05-09T11:13:00.277000Z</time>
      </trkpt>
      <trkpt lat="41.68177653107949" lon="123.4298763425308">
        <time>2017-05-09T11:13:04.236000Z</time>
      </trkpt>
      <trkpt lat="41.68177569288917" lon="123.430032916482">
        <time>2017-05-09T11:13:08.268000Z</time>
      </trkpt>
      <trkpt lat="41.68177573479868" lon="123.4301563819157">
        <ele>49.8865710145949</ele>
        <time>2017-05-09T11:13:11.315000Z</time>
      </trkpt>
      <trkpt lat="41.68177586052723" lon="123.4303094354676">
        <time>2017-05-09T11:13:15.345000Z</time>
      </trkpt>
      <trkpt lat="41.68177636344142" lon="123.430458465706">
        <ele>49.70930153054184</ele>
        <time>2017-05-09T11:13:19.451000Z</time>
      </trkpt>
      <trkpt lat="41.68176584415294" lon="123.4305945039945">
        <time>2017-05-09T11:13:23.411000Z</time>
      </trkpt>
      <trkpt lat="41.68177171148516" lon="123.4307535086977">
        <time>2017-05-09T11:13:27.232000Z</time>
      </trkpt>
      <trkpt lat="41.68177380696095" lon="123.4309063946115">
        <ele>49.42403497178282</ele>
        <time>2017-05-09T11:13:31.319000Z</time>
      </trkpt>
      <trkpt lat="41.68177724354126" lon="123.4310286027598">
        <time>2017-05-09T11:13:35.606000Z</time>
      </trkpt>
      <trkpt lat="41.68177057992823" lon="123.4311741125988">
        <ele>49.24761403617389</ele>
        <time>2017-05-09T11:13:39.375000Z</time>
      </trkpt>
      <trkpt lat="41.6817699512855" lon="123.4313197900759">
        <time>2017-05-09T11:13:43.245000Z</time>
      </trkpt>
      <trkpt lat="41.68177728545077" lon="123.4314743523704">
        <time>2017-05-09T11:13:47.399000Z</time>
      </trkpt>
      <trkpt lat="41.68177351359434" lon="123.4316248075323">
        <ele>48.96149892897075</ele>
        <time>2017-05-09T11:13:51.426000Z</time>
      </trkpt>
      <trkpt lat="41.68177108284242" lon="123.4317553975838">
        <time>2017-05-09T11:13:54.389000Z</time>
      </trkpt>
      <trkpt lat="41.68176764626212" lon="123.4318887536632">
        <time>2017-05-09T11:13:57.255000Z</time>
      </trkpt>
      <trkpt lat="41.68176182083942" lon="123.4320184217053">
        <ele>47.83739670571859</ele>
        <time>2017-05-09T11:14:00.332000Z</time>
      </trkpt>
      <trkpt lat="41.68176806535728" lon="123.4321642668205">
        <time>2017-05-09T11:14:03.262000Z</time>
      </trkpt>
      <trkpt lat="41.68176915500469" lon="123.4323116206782">
        <time>2017-05-09T11:14:06.286000Z</time>
      </trkpt>
      <trkpt lat="41.68176567651488" lon="123.4324652609634">
        <ele>46.75036650690956</ele>
        <time>2017-05-09T11:14:10.233000Z</time>
      </trkpt>
      <trkpt lat="41.68177749499835" lon="123.4326133691924">
        <time>2017-05-09T11:14:14.240000Z</time>
      </trkpt>
      <trkpt lat="41.68177975811221" lon="123.4327689373153">
        <time>2017-05-09T11:14:18.252000Z</time>
      </trkpt>
      <trkpt lat="41.68176831681438" lon="123.4329096694695">
        <ele>45.55865813802848</ele>
        <time>2017-05-09T11:14:22.252000Z</time>
      </trkpt>
      <trkpt lat="41.68175159491755" lon="123.433056436594">
        <time>2017-05-09T11:14:26.420000Z</time>
      </trkpt>
      <trkpt lat="41.68173885442473" lon="123.4332088195937">
        <ele>44.38756828376309</ele>
        <time>2017-05-09T11:14:30.402000Z</time>
      </trkpt>
      <trkpt lat="41.68173633985378" lon="123.4333539103376">
        <time>2017-05-09T11:14:34.368000Z</time>
      </trkpt>
      <trkpt lat="41.6817239765466" lon="123.4335085564511">
        <time>2017-05-09T11:14:38.338000Z</time>
      </trkpt>
      <trkpt lat="41.68172850277431" lon="123.4336692375349">
        <ele>43.57463395349594</ele>
        <time>2017-05-09T11:14:42.444000Z</time>
      </trkpt>
      <trkpt lat="41.68173814196296" lon="123.4338019230621">
        <time>2017-05-09T11:14:45.385000Z</time>
      </trkpt>
      <trkpt lat="41.68175540868349" lon="123.4339229577439">
        <ele>42.42701476207448</ele>
        <time>2017-05-09T11:14:48.448000Z</time>
      </trkpt>
      <trkpt lat="41.68175972536363" lon="123.4340479319202">
        <time>2017-05-09T11:14:51.400000Z</time>
      </trkpt>
      <trkpt lat="41.68177137620903" lon="123.4341778514194">
        <time>2017-05-09T11:14:54.472000Z</time>
      </trkpt>
      <trkpt lat="41.68178969066746" lon="123.4342982155489">
        <time>2017-05-09T11:14:57.356000Z</time>
      </trkpt>
      <trkpt lat="41.68181739285745" lon="123.4344142210888">
        <ele>43.32235313314838</ele>
        <time>2017-05-09T11:15:00.267000Z</time>
      </trkpt>
      <trkpt lat="41.68184400540002" lon="123.4345304780858">
        <time>2017-05-09T11:15:03.440000Z</time>
      </trkpt>
      <trkpt lat="41.68186408005811" lon="123.4346818552571">
        <time>2017-05-09T11:15:07.428000Z</time>
      </trkpt>
      <trkpt lat="41.68184207756229" lon="123.4348235932397">
        <ele>44.48499567592749</ele>
        <time>2017-05-09T11:15:11.460000Z</time>
      </trkpt>
      <trkpt lat="41.68180632874526" lon="123.434969689812">
        <time>2017-05-09T11:15:15.447000Z</time>
      </trkpt>
      <trkpt lat="41.68181424964376" lon="123.4351198096978">
        <ele>45.35909147854414</ele>
        <time>2017-05-09T11:15:19.414000Z</time>
      </trkpt>
      <trkpt lat="41.68184522077598" lon="123.4352740367161">
        <time>2017-05-09T11:15:23.437000Z</time>
      </trkpt>
      <trkpt lat="41.68185159102239" lon="123.4353986756163">
        <time>2017-05-09T11:15:26.411000Z</time>
      </trkpt>
      <trkpt lat="41.6818534769506" lon="123.4355558363008">
        <ele>46.6330658526924</ele>
        <time>2017-05-09T11:15:30.409000Z</time>
      </trkpt>
      <trkpt lat="41.68185645252623" lon="123.435707045834">
        <time>2017-05-09T11:15:34.425000Z</time>
      </trkpt>
      <trkpt lat="41.68184584941871" lon="123.435831265639">
        <time>2017-05-09T11:15:37.244000Z</time>
      </trkpt>
      <trkpt lat="41.68184346057631" lon="123.4359521326827">
        <ele>48.16848536689123</ele>
        <time>2017-05-09T11:15:40.227000Z</time>
      </trkpt>
      <trkpt lat="41.68184568178065" lon="123.4361102991956">
        <time>2017-05-09T11:15:44.237000Z</time>
      </trkpt>
      <trkpt lat="41.68184760961838" lon="123.4364278056877">
        <ele>50.73759139466323</ele>
        <time>2017-05-09T11:15:52.323000Z</time>
      </trkpt>
      <trkpt lat="41.68186781000502" lon="123.4365698789465">
        <time>2017-05-09T11:15:54.259000Z</time>
      </trkpt>
      <trkpt lat="41.68187690436996" lon="123.4367029835688">
        <time>2017-05-09T11:15:57.281000Z</time>
      </trkpt>
      <trkpt lat="41.6818872979299" lon="123.4368298017638">
        <ele>51.09745467012171</ele>
        <time>2017-05-09T11:16:00.295000Z</time>
      </trkpt>
      <trkpt lat="41.68188666928716" lon="123.4369586316156">
        <time>2017-05-09T11:16:03.265000Z</time>
      </trkpt>
      <trkpt lat="41.68189165651955" lon="123.4370996990459">
        <time>2017-05-09T11:16:06.298000Z</time>
      </trkpt>
      <trkpt lat="41.68188587300636" lon="123.4372229130226">
        <ele>51.74073923482187</ele>
        <time>2017-05-09T11:16:09.259000Z</time>
      </trkpt>
      <trkpt lat="41.68187518607981" lon="123.4373500664937">
        <time>2017-05-09T11:16:12.226000Z</time>
      </trkpt>
      <trkpt lat="41.68186910920002" lon="123.4374747892129">
        <time>2017-05-09T11:16:15.291000Z</time>
      </trkpt>
      <trkpt lat="41.68186990548082" lon="123.4376041219788">
        <time>2017-05-09T11:16:18.392000Z</time>
      </trkpt>
      <trkpt lat="41.68186588216729" lon="123.4377480392562">
        <ele>52.19639825646156</ele>
        <time>2017-05-09T11:16:21.367000Z</time>
      </trkpt>
      <trkpt lat="41.68186177503474" lon="123.4379054513978">
        <time>2017-05-09T11:16:24.364000Z</time>
      </trkpt>
      <trkpt lat="41.68186860628582" lon="123.438053978722">
        <time>2017-05-09T11:16:27.307000Z</time>
      </trkpt>
      <trkpt lat="41.68186764236696" lon="123.4381837305831">
        <ele>52.97584937784181</ele>
        <time>2017-05-09T11:16:30.290000Z</time>
      </trkpt>
      <trkpt lat="41.68186164930619" lon="123.4383263067561">
        <time>2017-05-09T11:16:33.304000Z</time>
      </trkpt>
      <trkpt lat="41.68186387051053" lon="123.4384532087701">
        <time>2017-05-09T11:16:36.255000Z</time>
      </trkpt>
      <trkpt lat="41.68187451552756" lon="123.4385793564128">
        <ele>54.25905740796462</ele>
        <time>2017-05-09T11:16:39.465000Z</time>
      </trkpt>
      <trkpt lat="41.68188151441671" lon="123.4387107846545">
        <time>2017-05-09T11:16:42.477000Z</time>
      </trkpt>
      <trkpt lat="41.6818828136117" lon="123.4388382734018">
        <time>2017-05-09T11:16:45.303000Z</time>
      </trkpt>
      <trkpt lat="41.68186734900035" lon="123.438963163759">
        <time>2017-05-09T11:16:48.271000Z</time>
      </trkpt>
      <trkpt lat="41.68189538646646" lon="123.4390831926124">
        <ele>55.12367911174555</ele>
        <time>2017-05-09T11:16:56.252000Z</time>
      </trkpt>
      <trkpt lat="41.68189995460369" lon="123.4392158781396">
        <ele>55.14644003556478</ele>
        <time>2017-05-09T11:16:59.252000Z</time>
      </trkpt>
      <trkpt lat="41.68189718857564" lon="123.4393584543126">
        <time>2017-05-09T11:17:02.364000Z</time>
      </trkpt>
      <trkpt lat="41.68187740728415" lon="123.4395027068662">
        <time>2017-05-09T11:17:05.264000Z</time>
      </trkpt>
      <trkpt lat="41.68187309060402" lon="123.4396524076568">
        <time>2017-05-09T11:17:08.258000Z</time>
      </trkpt>
      <trkpt lat="41.68189890686579" lon="123.4397959896582">
        <ele>55.53664588761553</ele>
        <time>2017-05-09T11:17:11.252000Z</time>
      </trkpt>
      <trkpt lat="41.68186797764309" lon="123.4399196227299">
        <time>2017-05-09T11:17:14.252000Z</time>
      </trkpt>
      <trkpt lat="41.68183507867314" lon="123.4400540684568">
        <time>2017-05-09T11:17:17.326000Z</time>
      </trkpt>
      <trkpt lat="41.68182590048917" lon="123.4401883465456">
        <ele>55.71131856551371</ele>
        <time>2017-05-09T11:17:20.291000Z</time>
      </trkpt>
      <trkpt lat="41.6818273254127" lon="123.4403129854458">
        <time>2017-05-09T11:17:23.244000Z</time>
      </trkpt>
      <trkpt lat="41.68182761877932" lon="123.4404363670605">
        <time>2017-05-09T11:17:26.463000Z</time>
      </trkpt>
      <trkpt lat="41.68182648722239" lon="123.4405636881696">
        <ele>55.74953793773877</ele>
        <time>2017-05-09T11:17:29.465000Z</time>
      </trkpt>
      <trkpt lat="41.68182527184643" lon="123.4407155682551">
        <time>2017-05-09T11:17:33.454000Z</time>
      </trkpt>
      <trkpt lat="41.68182736732222" lon="123.4408376087653">
        <time>2017-05-09T11:17:36.469000Z</time>
      </trkpt>
      <trkpt lat="41.68183072008349" lon="123.4409987927633">
        <ele>56.12088415656636</ele>
        <time>2017-05-09T11:17:40.359000Z</time>
      </trkpt>
      <trkpt lat="41.68183600068249" lon="123.4411578812855">
        <time>2017-05-09T11:17:44.246000Z</time>
      </trkpt>
      <trkpt lat="41.68184367012389" lon="123.4412884713369">
        <time>2017-05-09T11:17:47.317000Z</time>
      </trkpt>
      <trkpt lat="41.68184731625177" lon="123.4414116853135">
        <ele>52.56641029283371</ele>
        <time>2017-05-09T11:17:50.404000Z</time>
      </trkpt>
      <trkpt lat="41.68184698097564" lon="123.4415377491372">
        <time>2017-05-09T11:17:53.328000Z</time>
      </trkpt>
      <trkpt lat="41.68184224520035" lon="123.4416627233135">
        <time>2017-05-09T11:17:56.344000Z</time>
      </trkpt>
      <trkpt lat="41.68184434067614" lon="123.4418001865255">
        <ele>49.83598278276507</ele>
        <time>2017-05-09T11:17:59.272000Z</time>
      </trkpt>
      <trkpt lat="41.68184161655761" lon="123.4419291840153">
        <time>2017-05-09T11:18:02.272000Z</time>
      </trkpt>
      <trkpt lat="41.68183507867314" lon="123.442063126828">
        <time>2017-05-09T11:18:05.307000Z</time>
      </trkpt>
      <trkpt lat="41.68182439174659" lon="123.4422071279245">
        <time>2017-05-09T11:18:08.265000Z</time>
      </trkpt>
      <trkpt lat="41.6818191111476" lon="123.4423533083158">
        <ele>48.04842809708332</ele>
        <time>2017-05-09T11:18:11.298000Z</time>
      </trkpt>
      <trkpt lat="41.6818225477279" lon="123.442493872832">
        <time>2017-05-09T11:18:14.325000Z</time>
      </trkpt>
      <trkpt lat="41.68182053607114" lon="123.4426309169488">
        <time>2017-05-09T11:18:17.233000Z</time>
      </trkpt>
      <trkpt lat="41.68182321828015" lon="123.4427800310063">
        <ele>49.7598926188185</ele>
        <time>2017-05-09T11:18:20.351000Z</time>
      </trkpt>
      <trkpt lat="41.6818207037092" lon="123.4429313243585">
        <time>2017-05-09T11:18:23.257000Z</time>
      </trkpt>
      <trkpt lat="41.68182053607114" lon="123.4430721403318">
        <time>2017-05-09T11:18:26.271000Z</time>
      </trkpt>
      <trkpt lat="41.68182196099468" lon="123.4432087653535">
        <ele>51.54129212668589</ele>
        <time>2017-05-09T11:18:29.347000Z</time>
      </trkpt>
      <trkpt lat="41.6818257328511" lon="123.4433445521849">
        <time>2017-05-09T11:18:32.466000Z</time>
      </trkpt>
      <trkpt lat="41.68184287384309" lon="123.443479668464">
        <time>2017-05-09T11:18:35.305000Z</time>
      </trkpt>
      <trkpt lat="41.6818347014875" lon="123.4436097556012">
        <time>2017-05-09T11:18:38.255000Z</time>
      </trkpt>
      <trkpt lat="41.68181999124743" lon="123.4437338077682">
        <ele>53.47353373891356</ele>
        <time>2017-05-09T11:18:41.264000Z</time>
      </trkpt>
      <trkpt lat="41.68179580945678" lon="123.4438887053388">
        <time>2017-05-09T11:18:45.350000Z</time>
      </trkpt>
      <trkpt lat="41.68178700845845" lon="123.4440087341922">
        <time>2017-05-09T11:18:48.293000Z</time>
      </trkpt>
      <trkpt lat="41.68178725991555" lon="123.4441398271578">
        <ele>53.58115170215297</ele>
        <time>2017-05-09T11:18:51.298000Z</time>
      </trkpt>
      <trkpt lat="41.68178181167848" lon="123.4442617000299">
        <time>2017-05-09T11:18:54.326000Z</time>
      </trkpt>
      <trkpt lat="41.68179765347548" lon="123.4444027674603">
        <time>2017-05-09T11:18:57.299000Z</time>
      </trkpt>
      <trkpt lat="41.6817979887516" lon="123.4445282445508">
        <ele>53.62179161773793</ele>
        <time>2017-05-09T11:19:00.260000Z</time>
      </trkpt>
      <trkpt lat="41.68178939730085" lon="123.4446549789267">
        <time>2017-05-09T11:19:03.291000Z</time>
      </trkpt>
      <trkpt lat="41.68179128322907" lon="123.4447953758048">
        <time>2017-05-09T11:19:06.305000Z</time>
      </trkpt>
      <trkpt lat="41.68179912030853" lon="123.4449377005207">
        <ele>53.66214742449053</ele>
        <time>2017-05-09T11:19:09.273000Z</time>
      </trkpt>
      <trkpt lat="41.6817979887516" lon="123.4450669494676">
        <time>2017-05-09T11:19:12.311000Z</time>
      </trkpt>
      <trkpt lat="41.68179182805277" lon="123.4452226014095">
        <time>2017-05-09T11:19:16.252000Z</time>
      </trkpt>
      <trkpt lat="41.68179119941004" lon="123.4453604837167">
        <ele>53.70606076792657</ele>
        <time>2017-05-09T11:19:19.460000Z</time>
      </trkpt>
      <trkpt lat="41.68178851720102" lon="123.4454937559771">
        <time>2017-05-09T11:19:22.403000Z</time>
      </trkpt>
      <trkpt lat="41.68178130876429" lon="123.4456193168866">
        <time>2017-05-09T11:19:25.354000Z</time>
      </trkpt>
      <trkpt lat="41.68177850082673" lon="123.4457437881487">
        <time>2017-05-09T11:19:28.349000Z</time>
      </trkpt>
      <trkpt lat="41.68177359741338" lon="123.4458721150862">
        <ele>54.04766183197502</ele>
        <time>2017-05-09T11:19:31.317000Z</time>
      </trkpt>
      <trkpt lat="41.68177514806546" lon="123.4459958319771">
        <time>2017-05-09T11:19:34.311000Z</time>
      </trkpt>
      <trkpt lat="41.68177334595628" lon="123.4461239912766">
        <time>2017-05-09T11:19:37.286000Z</time>
      </trkpt>
      <trkpt lat="41.68178285941638" lon="123.4462596942889">
        <ele>54.49094898155251</ele>
        <time>2017-05-09T11:19:40.296000Z</time>
      </trkpt>
      <trkpt lat="41.68179195378132" lon="123.4464078025179">
        <time>2017-05-09T11:19:43.294000Z</time>
      </trkpt>
      <trkpt lat="41.68178822383441" lon="123.4465606046128">
        <time>2017-05-09T11:19:46.322000Z</time>
      </trkpt>
      <trkpt lat="41.68178541589685" lon="123.446698654558">
        <ele>54.04646524147455</ele>
        <time>2017-05-09T11:19:49.279000Z</time>
      </trkpt>
      <trkpt lat="41.68176781390019" lon="123.4468430747496">
        <time>2017-05-09T11:19:52.294000Z</time>
      </trkpt>
      <trkpt lat="41.68176529932924" lon="123.4469811246949">
        <time>2017-05-09T11:19:55.274000Z</time>
      </trkpt>
      <trkpt lat="41.68176383249618" lon="123.4471199290114">
        <time>2017-05-09T11:19:58.322000Z</time>
      </trkpt>
      <trkpt lat="41.68178302705444" lon="123.4472658579456">
        <ele>53.47666127130042</ele>
        <time>2017-05-09T11:20:01.253000Z</time>
      </trkpt>
      <trkpt lat="41.68179484553792" lon="123.4474154749172">
        <time>2017-05-09T11:20:04.240000Z</time>
      </trkpt>
      <trkpt lat="41.68179312724777" lon="123.4475634993272">
        <time>2017-05-09T11:20:07.226000Z</time>
      </trkpt>
      <trkpt lat="41.68177942283608" lon="123.4477063269573">
        <ele>53.02338312911045</ele>
        <time>2017-05-09T11:20:10.268000Z</time>
      </trkpt>
      <trkpt lat="41.68177238203742" lon="123.4478466400164">
        <time>2017-05-09T11:20:13.263000Z</time>
      </trkpt>
      <trkpt lat="41.6817747289703" lon="123.4479812533813">
        <time>2017-05-09T11:20:16.306000Z</time>
      </trkpt>
      <trkpt lat="41.68179161850519" lon="123.4481213988023">
        <ele>52.5977096379943</ele>
        <time>2017-05-09T11:20:19.308000Z</time>
      </trkpt>
      <trkpt lat="41.68182187717564" lon="123.4482573532718">
        <time>2017-05-09T11:20:22.253000Z</time>
      </trkpt>
      <trkpt lat="41.68180427517898" lon="123.4483835847335">
        <time>2017-05-09T11:20:25.262000Z</time>
      </trkpt>
      <trkpt lat="41.68178876865812" lon="123.4485256579923">
        <time>2017-05-09T11:20:28.287000Z</time>
      </trkpt>
      <trkpt lat="41.68180020995595" lon="123.4486586787956">
        <ele>52.03352431361397</ele>
        <time>2017-05-09T11:20:31.297000Z</time>
      </trkpt>
      <trkpt lat="41.68181873396195" lon="123.4487797972965">
        <time>2017-05-09T11:20:34.309000Z</time>
      </trkpt>
      <trkpt lat="41.68181906923808" lon="123.4489047714727">
        <time>2017-05-09T11:20:37.255000Z</time>
      </trkpt>
      <trkpt lat="41.68181492019601" lon="123.4490351938861">
        <ele>51.64522703147387</ele>
        <time>2017-05-09T11:20:40.268000Z</time>
      </trkpt>
      <trkpt lat="41.68180817276396" lon="123.4491570667582">
        <time>2017-05-09T11:20:43.280000Z</time>
      </trkpt>
      <trkpt lat="41.68180264070786" lon="123.4492809512871">
        <time>2017-05-09T11:20:46.318000Z</time>
      </trkpt>
      <trkpt lat="41.68179886885144" lon="123.4494026565211">
        <ele>51.26267053960133</ele>
        <time>2017-05-09T11:20:49.259000Z</time>
      </trkpt>
      <trkpt lat="41.68177925519802" lon="123.4495267925071">
        <time>2017-05-09T11:20:52.266000Z</time>
      </trkpt>
      <trkpt lat="41.68175830044009" lon="123.449645480256">
        <time>2017-05-09T11:20:55.285000Z</time>
      </trkpt>
      <trkpt lat="41.68172867041238" lon="123.4497640841859">
        <time>2017-05-09T11:20:58.333000Z</time>
      </trkpt>
      <trkpt lat="41.68170268651254" lon="123.4498800059067">
        <ele>50.75967959658374</ele>
        <time>2017-05-09T11:21:01.357000Z</time>
      </trkpt>
      <trkpt lat="41.6817007167653" lon="123.4500197322326">
        <time>2017-05-09T11:21:05.270000Z</time>
      </trkpt>
      <trkpt lat="41.68174279391922" lon="123.4501573630827">
        <ele>50.49499252190692</ele>
        <time>2017-05-09T11:21:09.250000Z</time>
      </trkpt>
      <trkpt lat="41.68174698487081" lon="123.4502778110313">
        <time>2017-05-09T11:21:12.262000Z</time>
      </trkpt>
      <trkpt lat="41.6817437997476" lon="123.4504048806834">
        <time>2017-05-09T11:21:15.285000Z</time>
      </trkpt>
      <trkpt lat="41.68174002789117" lon="123.4505379014867">
        <time>2017-05-09T11:21:18.310000Z</time>
      </trkpt>
      <trkpt lat="41.68173235844977" lon="123.450689362477">
        <ele>49.95743469281017</ele>
        <time>2017-05-09T11:21:22.307000Z</time>
      </trkpt>
      <trkpt lat="41.68172908950753" lon="123.4508172703194">
        <time>2017-05-09T11:21:25.307000Z</time>
      </trkpt>
      <trkpt lat="41.6817266168461" lon="123.4509698209571">
        <ele>49.67332664680266</ele>
        <time>2017-05-09T11:21:29.331000Z</time>
      </trkpt>
      <trkpt lat="41.68173625603475" lon="123.4510942084002">
        <time>2017-05-09T11:21:32.270000Z</time>
      </trkpt>
      <trkpt lat="41.68173554357298" lon="123.4512188473003">
        <time>2017-05-09T11:21:35.298000Z</time>
      </trkpt>
      <trkpt lat="41.68174107562907" lon="123.4513419774579">
        <time>2017-05-09T11:21:38.265000Z</time>
      </trkpt>
      <trkpt lat="41.68175230737932" lon="123.4514685441958">
        <ele>48.07976199482112</ele>
        <time>2017-05-09T11:21:41.311000Z</time>
      </trkpt>
      <trkpt lat="41.68175314556964" lon="123.4515895788776">
        <time>2017-05-09T11:21:44.262000Z</time>
      </trkpt>
      <trkpt lat="41.68179857548483" lon="123.4517314006793">
        <time>2017-05-09T11:21:48.236000Z</time>
      </trkpt>
      <trkpt lat="41.68187950275995" lon="123.4518107773023">
        <ele>46.63283480496386</ele>
        <time>2017-05-09T11:21:52.250000Z</time>
      </trkpt>
      <trkpt lat="41.68189811058499" lon="123.4516817798125">
        <time>2017-05-09T11:21:57.286000Z</time>
      </trkpt>
      <trkpt lat="41.68181148361571" lon="123.4515656904536">
        <ele>46.4819133378491</ele>
        <time>2017-05-09T11:22:00.482000Z</time>
      </trkpt>
      <trkpt lat="41.68177322022773" lon="123.4514367767828">
        <time>2017-05-09T11:22:03.511000Z</time>
      </trkpt>
      <trkpt lat="41.68175968345411" lon="123.4512979724663">
        <time>2017-05-09T11:22:06.283000Z</time>
      </trkpt>
      <trkpt lat="41.6817593900875" lon="123.4511636105584">
        <ele>46.48090313765556</ele>
        <time>2017-05-09T11:22:09.259000Z</time>
      </trkpt>
      <trkpt lat="41.68175934817798" lon="123.4510375467347">
        <time>2017-05-09T11:22:12.270000Z</time>
      </trkpt>
      <trkpt lat="41.68175691742606" lon="123.4509076272356">
        <time>2017-05-09T11:22:15.266000Z</time>
      </trkpt>
      <trkpt lat="41.68174949944176" lon="123.4507704992997">
        <time>2017-05-09T11:22:18.340000Z</time>
      </trkpt>
      <trkpt lat="41.68174488939501" lon="123.4506385681438">
        <ele>46.47969858372914</ele>
        <time>2017-05-09T11:22:21.238000Z</time>
      </trkpt>
      <trkpt lat="41.68173152025945" lon="123.4505111632156">
        <time>2017-05-09T11:22:24.292000Z</time>
      </trkpt>
      <trkpt lat="41.68172188107081" lon="123.45038007025">
        <time>2017-05-09T11:22:27.272000Z</time>
      </trkpt>
      <trkpt lat="41.68167108673759" lon="123.4502741229939">
        <ele>46.47880312910107</ele>
        <time>2017-05-09T11:22:31.257000Z</time>
      </trkpt>
      <trkpt lat="41.68163592465378" lon="123.4501614702152">
        <time>2017-05-09T11:22:34.250000Z</time>
      </trkpt>
      <trkpt lat="41.68164413891889" lon="123.4500173014807">
        <time>2017-05-09T11:22:37.463000Z</time>
      </trkpt>
      <trkpt lat="41.68164992243208" lon="123.4498854541438">
        <ele>46.47790739996207</ele>
        <time>2017-05-09T11:22:40.507000Z</time>
      </trkpt>
      <trkpt lat="41.6816790495456" lon="123.4497688618707">
        <time>2017-05-09T11:22:43.259000Z</time>
      </trkpt>
      <trkpt lat="41.68171664238132" lon="123.4496530239689">
        <time>2017-05-09T11:22:46.362000Z</time>
      </trkpt>
      <trkpt lat="41.68175193019368" lon="123.4495226853745">
        <ele>46.47703720033883</ele>
        <time>2017-05-09T11:22:49.275000Z</time>
      </trkpt>
      <trkpt lat="41.6817593900875" lon="123.4493871500003">
        <time>2017-05-09T11:22:52.405000Z</time>
      </trkpt>
      <trkpt lat="41.68175574395962" lon="123.4492537939208">
        <time>2017-05-09T11:22:55.476000Z</time>
      </trkpt>
      <trkpt lat="41.68175352275528" lon="123.4491157439756">
        <time>2017-05-09T11:22:58.434000Z</time>
      </trkpt>
      <trkpt lat="41.68175301984109" lon="123.4489807953345">
        <ele>46.475791744285</ele>
        <time>2017-05-09T11:23:01.267000Z</time>
      </trkpt>
      <trkpt lat="41.68175385803141" lon="123.4488495347308">
        <time>2017-05-09T11:23:04.269000Z</time>
      </trkpt>
      <trkpt lat="41.6817570012451" lon="123.448704527806">
        <time>2017-05-09T11:23:07.254000Z</time>
      </trkpt>
      <trkpt lat="41.68176110837765" lon="123.4485689086127">
        <ele>46.47485346595307</ele>
        <time>2017-05-09T11:23:10.276000Z</time>
      </trkpt>
      <trkpt lat="41.68176119219668" lon="123.4484369774567">
        <time>2017-05-09T11:23:13.465000Z</time>
      </trkpt>
      <trkpt lat="41.68176508978166" lon="123.4483083152431">
        <time>2017-05-09T11:23:16.453000Z</time>
      </trkpt>
      <trkpt lat="41.68178512253024" lon="123.4481853527235">
        <ele>46.47394922697549</ele>
        <time>2017-05-09T11:23:19.267000Z</time>
      </trkpt>
      <trkpt lat="41.68176944837131" lon="123.4480564390527">
        <time>2017-05-09T11:23:22.278000Z</time>
      </trkpt>
      <trkpt lat="41.68175926435895" lon="123.4479240049826">
        <time>2017-05-09T11:23:25.285000Z</time>
      </trkpt>
      <trkpt lat="41.68175540868349" lon="123.4478028864818">
        <time>2017-05-09T11:23:28.234000Z</time>
      </trkpt>
      <trkpt lat="41.6817387706057" lon="123.4476832767236">
        <ele>46.47278420262187</ele>
        <time>2017-05-09T11:23:31.367000Z</time>
      </trkpt>
      <trkpt lat="41.68177087329484" lon="123.4475277086007">
        <time>2017-05-09T11:23:35.250000Z</time>
      </trkpt>
      <trkpt lat="41.68180197015561" lon="123.4474051651763">
        <time>2017-05-09T11:23:38.227000Z</time>
      </trkpt>
      <trkpt lat="41.68178566735394" lon="123.4472865612464">
        <ele>46.47184345369163</ele>
        <time>2017-05-09T11:23:41.273000Z</time>
      </trkpt>
      <trkpt lat="41.68177556716062" lon="123.447163766365">
        <time>2017-05-09T11:23:44.248000Z</time>
      </trkpt>
      <trkpt lat="41.68177422605611" lon="123.4470387083697">
        <time>2017-05-09T11:23:47.309000Z</time>
      </trkpt>
      <trkpt lat="41.68177598625578" lon="123.4469142371076">
        <ele>46.47100125418246</ele>
        <time>2017-05-09T11:23:50.379000Z</time>
      </trkpt>
      <trkpt lat="41.68175959963508" lon="123.4467800428378">
        <time>2017-05-09T11:23:53.258000Z</time>
      </trkpt>
      <trkpt lat="41.68176316194393" lon="123.4466388077693">
        <time>2017-05-09T11:23:56.316000Z</time>
      </trkpt>
      <trkpt lat="41.68177753690787" lon="123.4465008416431">
        <ele>46.47008466221338</ele>
        <time>2017-05-09T11:23:59.407000Z</time>
      </trkpt>
      <trkpt lat="41.68176982555695" lon="123.4463676532017">
        <time>2017-05-09T11:24:02.432000Z</time>
      </trkpt>
      <trkpt lat="41.68176676616229" lon="123.4462340456652">
        <time>2017-05-09T11:24:05.276000Z</time>
      </trkpt>
      <trkpt lat="41.68177280113257" lon="123.4461073112892">
        <time>2017-05-09T11:24:08.276000Z</time>
      </trkpt>
      <trkpt lat="41.68176819108583" lon="123.4459732008385">
        <ele>45.59093741122679</ele>
        <time>2017-05-09T11:24:11.236000Z</time>
      </trkpt>
      <trkpt lat="41.68176739480503" lon="123.4458446224438">
        <time>2017-05-09T11:24:14.242000Z</time>
      </trkpt>
      <trkpt lat="41.68176538314827" lon="123.4457189777153">
        <time>2017-05-09T11:24:17.238000Z</time>
      </trkpt>
      <trkpt lat="41.68177162766613" lon="123.4455918242442">
        <ele>44.25492588734064</ele>
        <time>2017-05-09T11:24:20.351000Z</time>
      </trkpt>
      <trkpt lat="41.68177665680803" lon="123.4454338253694">
        <time>2017-05-09T11:24:24.255000Z</time>
      </trkpt>
      <trkpt lat="41.68177678253658" lon="123.4453072586315">
        <time>2017-05-09T11:24:27.278000Z</time>
      </trkpt>
      <trkpt lat="41.68177359741338" lon="123.4451832064646">
        <ele>43.63200983854087</ele>
        <time>2017-05-09T11:24:30.287000Z</time>
      </trkpt>
      <trkpt lat="41.68176965791888" lon="123.4450500180232">
        <time>2017-05-09T11:24:33.296000Z</time>
      </trkpt>
      <trkpt lat="41.68177506424643" lon="123.4449218587237">
        <time>2017-05-09T11:24:36.254000Z</time>
      </trkpt>
      <trkpt lat="41.68177900374092" lon="123.4447930288719">
        <ele>43.62665915544312</ele>
        <time>2017-05-09T11:24:39.318000Z</time>
      </trkpt>
      <trkpt lat="41.68178055439301" lon="123.4446648695724">
        <time>2017-05-09T11:24:42.246000Z</time>
      </trkpt>
      <trkpt lat="41.6817784170077" lon="123.4445363749968">
        <time>2017-05-09T11:24:45.238000Z</time>
      </trkpt>
      <trkpt lat="41.68177271731354" lon="123.4444030189174">
        <time>2017-05-09T11:24:48.261000Z</time>
      </trkpt>
      <trkpt lat="41.68177204676129" lon="123.4442773741888">
        <ele>43.61945926558545</ele>
        <time>2017-05-09T11:24:51.234000Z</time>
      </trkpt>
      <trkpt lat="41.68177556716062" lon="123.4441451077568">
        <time>2017-05-09T11:24:54.383000Z</time>
      </trkpt>
      <trkpt lat="41.68177669871755" lon="123.4440075607257">
        <time>2017-05-09T11:24:57.238000Z</time>
      </trkpt>
      <trkpt lat="41.68177904565044" lon="123.4438674153047">
        <ele>42.76825324342383</ele>
        <time>2017-05-09T11:25:00.262000Z</time>
      </trkpt>
      <trkpt lat="41.68178533207782" lon="123.4437343106823">
        <time>2017-05-09T11:25:03.273000Z</time>
      </trkpt>
      <trkpt lat="41.6817903193102" lon="123.443609168868">
        <time>2017-05-09T11:25:06.243000Z</time>
      </trkpt>
      <trkpt lat="41.68179912030853" lon="123.4434805904733">
        <ele>42.61570786724506</ele>
        <time>2017-05-09T11:25:09.375000Z</time>
      </trkpt>
      <trkpt lat="41.68179765347548" lon="123.4433348291772">
        <time>2017-05-09T11:25:12.426000Z</time>
      </trkpt>
      <trkpt lat="41.68179346252389" lon="123.4431944322991">
        <time>2017-05-09T11:25:15.325000Z</time>
      </trkpt>
      <trkpt lat="41.68179568372823" lon="123.4430645966189">
        <time>2017-05-09T11:25:18.419000Z</time>
      </trkpt>
      <trkpt lat="41.6817903193102" lon="123.4429294803398">
        <ele>42.0282393682171</ele>
        <time>2017-05-09T11:25:21.479000Z</time>
      </trkpt>
      <trkpt lat="41.68178675700135" lon="123.4427942802417">
        <time>2017-05-09T11:25:24.325000Z</time>
      </trkpt>
      <trkpt lat="41.6817829013259" lon="123.44265505683">
        <time>2017-05-09T11:25:27.438000Z</time>
      </trkpt>
      <trkpt lat="41.68178604453959" lon="123.4425276519018">
        <ele>40.92898562095397</ele>
        <time>2017-05-09T11:25:30.271000Z</time>
      </trkpt>
      <trkpt lat="41.6817860864491" lon="123.442396056022">
        <time>2017-05-09T11:25:33.265000Z</time>
      </trkpt>
      <trkpt lat="41.68178902011521" lon="123.4422676452654">
        <time>2017-05-09T11:25:36.475000Z</time>
      </trkpt>
      <trkpt lat="41.68178864292957" lon="123.4421445989268">
        <ele>40.66682773677604</ele>
        <time>2017-05-09T11:25:39.345000Z</time>
      </trkpt>
      <trkpt lat="41.6817863379062" lon="123.4420188703793">
        <time>2017-05-09T11:25:42.452000Z</time>
      </trkpt>
      <trkpt lat="41.68178851720102" lon="123.441888783242">
        <time>2017-05-09T11:25:45.461000Z</time>
      </trkpt>
      <trkpt lat="41.68179170232423" lon="123.4417586122858">
        <ele>40.60773279472343</ele>
        <time>2017-05-09T11:25:48.488000Z</time>
      </trkpt>
      <trkpt lat="41.68179786302306" lon="123.4416307044434">
        <time>2017-05-09T11:25:51.490000Z</time>
      </trkpt>
      <trkpt lat="41.68180176060803" lon="123.4415038024294">
        <time>2017-05-09T11:25:54.419000Z</time>
      </trkpt>
      <trkpt lat="41.68180033568449" lon="123.4413790797102">
        <time>2017-05-09T11:25:57.354000Z</time>
      </trkpt>
      <trkpt lat="41.68179748583741" lon="123.441249076392">
        <ele>40.52818263297016</ele>
        <time>2017-05-09T11:26:00.459000Z</time>
      </trkpt>
      <trkpt lat="41.68179484553792" lon="123.4411157203125">
        <time>2017-05-09T11:26:03.269000Z</time>
      </trkpt>
      <trkpt lat="41.68179094795294" lon="123.4409800173002">
        <time>2017-05-09T11:26:06.350000Z</time>
      </trkpt>
      <trkpt lat="41.68178323660202" lon="123.4408418835359">
        <ele>40.46589742729451</ele>
        <time>2017-05-09T11:26:09.252000Z</time>
      </trkpt>
      <trkpt lat="41.68178478725411" lon="123.4407139756935">
        <time>2017-05-09T11:26:12.302000Z</time>
      </trkpt>
      <trkpt lat="41.68178621217765" lon="123.4405837209182">
        <time>2017-05-09T11:26:15.364000Z</time>
      </trkpt>
      <trkpt lat="41.6817895230294" lon="123.4404543043332">
        <ele>40.11961863623198</ele>
        <time>2017-05-09T11:26:18.471000Z</time>
      </trkpt>
      <trkpt lat="41.6817879304678" lon="123.4403211158918">
        <time>2017-05-09T11:26:21.331000Z</time>
      </trkpt>
      <trkpt lat="41.68178348805912" lon="123.4401916154878">
        <time>2017-05-09T11:26:24.229000Z</time>
      </trkpt>
      <trkpt lat="41.68178625408716" lon="123.4400648811119">
        <time>2017-05-09T11:26:27.272000Z</time>
      </trkpt>
      <trkpt lat="41.68179949749418" lon="123.4399395716595">
        <ele>39.65658404375129</ele>
        <time>2017-05-09T11:26:30.397000Z</time>
      </trkpt>
      <trkpt lat="41.68182476893224" lon="123.4398197104441">
        <time>2017-05-09T11:26:33.480000Z</time>
      </trkpt>
      <trkpt lat="41.68183428239234" lon="123.4396949039059">
        <time>2017-05-09T11:26:36.429000Z</time>
      </trkpt>
      <trkpt lat="41.68183051053591" lon="123.4395574406939">
        <ele>39.43432383330862</ele>
        <time>2017-05-09T11:26:39.496000Z</time>
      </trkpt>
      <trkpt lat="41.68184069454826" lon="123.4394197260248">
        <ele>39.4246067493161</ele>
        <time>2017-05-09T11:26:49.429000Z</time>
      </trkpt>
      <trkpt lat="41.68184023354359" lon="123.4392976016956">
        <time>2017-05-09T11:26:52.479000Z</time>
      </trkpt>
      <trkpt lat="41.68183231264509" lon="123.4391760640996">
        <time>2017-05-09T11:26:55.232000Z</time>
      </trkpt>
      <trkpt lat="41.68182711586513" lon="123.4390521795707">
        <time>2017-05-09T11:26:58.255000Z</time>
      </trkpt>
      <trkpt lat="41.68182820551254" lon="123.4389241040902">
        <ele>39.38881591501296</ele>
        <time>2017-05-09T11:27:01.350000Z</time>
      </trkpt>
      <trkpt lat="41.68183713223942" lon="123.4387974535333">
        <time>2017-05-09T11:27:04.289000Z</time>
      </trkpt>
      <trkpt lat="41.68183390520669" lon="123.4386402928489">
        <time>2017-05-09T11:27:08.264000Z</time>
      </trkpt>
      <trkpt lat="41.68181852441437" lon="123.4385180847006">
        <ele>39.35967316442123</ele>
        <time>2017-05-09T11:27:11.281000Z</time>
      </trkpt>
      <trkpt lat="41.68180205397464" lon="123.4383807053076">
        <time>2017-05-09T11:27:14.264000Z</time>
      </trkpt>
      <trkpt lat="41.68179916221805" lon="123.4382486903327">
        <time>2017-05-09T11:27:17.223000Z</time>
      </trkpt>
      <trkpt lat="41.68180989105411" lon="123.4381242190706">
        <ele>39.33175461338761</ele>
        <time>2017-05-09T11:27:20.233000Z</time>
      </trkpt>
      <trkpt lat="41.68180649638332" lon="123.4379927070098">
        <time>2017-05-09T11:27:23.356000Z</time>
      </trkpt>
      <trkpt lat="41.68180289216496" lon="123.4378661402719">
        <time>2017-05-09T11:27:26.262000Z</time>
      </trkpt>
      <trkpt lat="41.68180972341604" lon="123.4377440159427">
        <ele>39.30466069677856</ele>
        <time>2017-05-09T11:27:29.461000Z</time>
      </trkpt>
      <trkpt lat="41.68182430792756" lon="123.4375876096295">
        <time>2017-05-09T11:27:33.250000Z</time>
      </trkpt>
      <trkpt lat="41.68183700651087" lon="123.4374643118339">
        <time>2017-05-09T11:27:36.311000Z</time>
      </trkpt>
      <trkpt lat="41.68183092963107" lon="123.4373305366593">
        <ele>39.27607903765096</ele>
        <time>2017-05-09T11:27:39.233000Z</time>
      </trkpt>
      <trkpt lat="41.68184061072923" lon="123.4371973482179">
        <time>2017-05-09T11:27:42.238000Z</time>
      </trkpt>
      <trkpt lat="41.68185159102239" lon="123.4370722902226">
        <time>2017-05-09T11:27:45.360000Z</time>
      </trkpt>
      <trkpt lat="41.68184777725644" lon="123.4369486571508">
        <time>2017-05-09T11:27:48.286000Z</time>
      </trkpt>
      <trkpt lat="41.68185662016429" lon="123.4368262813645">
        <ele>38.09483754382391</ele>
        <time>2017-05-09T11:27:51.373000Z</time>
      </trkpt>
      <trkpt lat="41.68185678780235" lon="123.4367049114066">
        <time>2017-05-09T11:27:54.254000Z</time>
      </trkpt>
      <trkpt lat="41.68184970509417" lon="123.4365751595455">
        <time>2017-05-09T11:27:57.238000Z</time>
      </trkpt>
      <trkpt lat="41.68184522077598" lon="123.4364381992476">
        <ele>37.62290317057111</ele>
        <time>2017-05-09T11:28:00.243000Z</time>
      </trkpt>
      <trkpt lat="41.68184429876663" lon="123.4363019933211">
        <time>2017-05-09T11:28:03.247000Z</time>
      </trkpt>
      <trkpt lat="41.68183587495394" lon="123.4361595847862">
        <time>2017-05-09T11:28:06.294000Z</time>
      </trkpt>
      <trkpt lat="41.68182929515995" lon="123.4360284918206">
        <ele>39.34066793326583</ele>
        <time>2017-05-09T11:28:09.252000Z</time>
      </trkpt>
      <trkpt lat="41.68183051053591" lon="123.4358972312169">
        <time>2017-05-09T11:28:12.242000Z</time>
      </trkpt>
      <trkpt lat="41.68182212863274" lon="123.435762617852">
        <time>2017-05-09T11:28:15.254000Z</time>
      </trkpt>
      <trkpt lat="41.68180972341604" lon="123.4356062953579">
        <time>2017-05-09T11:28:18.297000Z</time>
      </trkpt>
      <trkpt lat="41.68181173507281" lon="123.4354546667295">
        <ele>41.63168328478349</ele>
        <time>2017-05-09T11:28:21.242000Z</time>
      </trkpt>
      <trkpt lat="41.68182342782773" lon="123.4353138507562">
        <time>2017-05-09T11:28:24.264000Z</time>
      </trkpt>
      <trkpt lat="41.68181839868583" lon="123.4351717774974">
        <time>2017-05-09T11:28:27.245000Z</time>
      </trkpt>
      <trkpt lat="41.68180766984977" lon="123.4350393434273">
        <ele>42.60753813820068</ele>
        <time>2017-05-09T11:28:30.283000Z</time>
      </trkpt>
      <trkpt lat="41.68180976532556" lon="123.4349085857379">
        <time>2017-05-09T11:28:33.262000Z</time>
      </trkpt>
      <trkpt lat="41.68182569094159" lon="123.4347531852531">
        <time>2017-05-09T11:28:37.255000Z</time>
      </trkpt>
      <trkpt lat="41.68183189354993" lon="123.4346111119943">
        <ele>42.63717693935939</ele>
        <time>2017-05-09T11:28:40.263000Z</time>
      </trkpt>
      <trkpt lat="41.68183612641104" lon="123.4344842099803">
        <time>2017-05-09T11:28:43.259000Z</time>
      </trkpt>
      <trkpt lat="41.68183729987748" lon="123.4343578108805">
        <time>2017-05-09T11:28:46.260000Z</time>
      </trkpt>
      <trkpt lat="41.68183562349684" lon="123.4342309088664">
        <ele>42.66504486875074</ele>
        <time>2017-05-09T11:28:49.244000Z</time>
      </trkpt>
      <trkpt lat="41.68183692269184" lon="123.4341008217292">
        <time>2017-05-09T11:28:52.352000Z</time>
      </trkpt>
      <trkpt lat="41.68182502038933" lon="123.4339584970134">
        <time>2017-05-09T11:28:55.440000Z</time>
      </trkpt>
      <trkpt lat="41.68182560712255" lon="123.4338324331897">
        <time>2017-05-09T11:28:58.393000Z</time>
      </trkpt>
      <trkpt lat="41.68182799596496" lon="123.4337036033379">
        <ele>42.70210607980511</ele>
        <time>2017-05-09T11:29:01.373000Z</time>
      </trkpt>
      <trkpt lat="41.68182745114125" lon="123.4335790482568">
        <time>2017-05-09T11:29:04.293000Z</time>
      </trkpt>
      <trkpt lat="41.68182766068883" lon="123.433420965563">
        <time>2017-05-09T11:29:08.246000Z</time>
      </trkpt>
      <trkpt lat="41.68183134872623" lon="123.4332958237486">
        <ele>42.92836553845623</ele>
        <time>2017-05-09T11:29:11.258000Z</time>
      </trkpt>
      <trkpt lat="41.6818275768698" lon="123.4331595340031">
        <time>2017-05-09T11:29:14.308000Z</time>
      </trkpt>
      <trkpt lat="41.68182891797431" lon="123.4330383316832">
        <time>2017-05-09T11:29:17.263000Z</time>
      </trkpt>
      <trkpt lat="41.68183465957798" lon="123.4328866192358">
        <ele>43.67559771812784</ele>
        <time>2017-05-09T11:29:21.432000Z</time>
      </trkpt>
      <trkpt lat="41.68184438258566" lon="123.4327293747323">
        <time>2017-05-09T11:29:25.297000Z</time>
      </trkpt>
      <trkpt lat="41.6818439634905" lon="123.4326055740224">
        <time>2017-05-09T11:29:28.342000Z</time>
      </trkpt>
      <trkpt lat="41.68184815444209" lon="123.432469619553">
        <ele>43.7065532453005</ele>
        <time>2017-05-09T11:29:31.283000Z</time>
      </trkpt>
      <trkpt lat="41.68185230348416" lon="123.4323368502068">
        <time>2017-05-09T11:29:34.263000Z</time>
      </trkpt>
      <trkpt lat="41.68184664569952" lon="123.4321998899089">
        <time>2017-05-09T11:29:37.245000Z</time>
      </trkpt>
      <trkpt lat="41.68185703925945" lon="123.432067874934">
        <ele>43.73555793830651</ele>
        <time>2017-05-09T11:29:40.254000Z</time>
      </trkpt>
      <trkpt lat="41.68184723243274" lon="123.4319392965393">
        <time>2017-05-09T11:29:43.406000Z</time>
      </trkpt>
      <trkpt lat="41.68184710670419" lon="123.4317787830936">
        <time>2017-05-09T11:29:47.390000Z</time>
      </trkpt>
      <trkpt lat="41.68185368649818" lon="123.4316230473327">
        <ele>43.7657314130159</ele>
        <time>2017-05-09T11:29:51.364000Z</time>
      </trkpt>
      <trkpt lat="41.68185678780235" lon="123.4314636235344">
        <time>2017-05-09T11:29:55.351000Z</time>
      </trkpt>
      <trkpt lat="41.68185729071654" lon="123.4313368891584">
        <time>2017-05-09T11:29:58.246000Z</time>
      </trkpt>
      <trkpt lat="41.68185858991153" lon="123.4312151839244">
        <ele>43.79730570697268</ele>
        <time>2017-05-09T11:30:01.375000Z</time>
      </trkpt>
      <trkpt lat="41.68185884136863" lon="123.4310593643444">
        <time>2017-05-09T11:30:05.327000Z</time>
      </trkpt>
      <trkpt lat="41.68185699734993" lon="123.4309292772072">
        <time>2017-05-09T11:30:08.440000Z</time>
      </trkpt>
      <trkpt lat="41.68186118830152" lon="123.4307997768032">
        <ele>43.82641352777606</ele>
        <time>2017-05-09T11:30:11.300000Z</time>
      </trkpt>
      <trkpt lat="41.68186416387714" lon="123.4306711145895">
        <time>2017-05-09T11:30:14.333000Z</time>
      </trkpt>
      <trkpt lat="41.68186718136229" lon="123.4305132833528">
        <time>2017-05-09T11:30:18.233000Z</time>
      </trkpt>
      <trkpt lat="41.68186332568683" lon="123.4303919972139">
        <ele>43.97753921549861</ele>
        <time>2017-05-09T11:30:21.239000Z</time>
      </trkpt>
      <trkpt lat="41.6818585060925" lon="123.4302588925915">
        <time>2017-05-09T11:30:24.245000Z</time>
      </trkpt>
      <trkpt lat="41.6818510881082" lon="123.430133415501">
        <time>2017-05-09T11:30:27.382000Z</time>
      </trkpt>
      <trkpt lat="41.68184656188048" lon="123.4300066811251">
        <ele>44.17448937035451</ele>
        <time>2017-05-09T11:30:30.335000Z</time>
      </trkpt>
      <trkpt lat="41.68184631042339" lon="123.4298797791111">
        <time>2017-05-09T11:30:33.262000Z</time>
      </trkpt>
      <trkpt lat="41.68184811253257" lon="123.4297582415151">
        <time>2017-05-09T11:30:36.238000Z</time>
      </trkpt>
      <trkpt lat="41.68184631042339" lon="123.4296248854356">
        <ele>44.83398014273453</ele>
        <time>2017-05-09T11:30:39.239000Z</time>
      </trkpt>
      <trkpt lat="41.68184719052322" lon="123.4294961394029">
        <time>2017-05-09T11:30:42.249000Z</time>
      </trkpt>
      <trkpt lat="41.68184974700369" lon="123.4293723386931">
        <time>2017-05-09T11:30:45.306000Z</time>
      </trkpt>
      <trkpt lat="41.68185129765578" lon="123.4292472806977">
        <time>2017-05-09T11:30:48.278000Z</time>
      </trkpt>
      <trkpt lat="41.68185314167447" lon="123.4291219712453">
        <ele>46.18078568544465</ele>
        <time>2017-05-09T11:30:51.272000Z</time>
      </trkpt>
      <trkpt lat="41.68185301594593" lon="123.4289923870223">
        <time>2017-05-09T11:30:54.491000Z</time>
      </trkpt>
      <trkpt lat="41.68185536287881" lon="123.4288709332453">
        <time>2017-05-09T11:30:57.226000Z</time>
      </trkpt>
      <trkpt lat="41.6818450112284" lon="123.4287408461081">
        <ele>46.1941763549762</ele>
        <time>2017-05-09T11:31:00.252000Z</time>
      </trkpt>
      <trkpt lat="41.68184329293825" lon="123.4286182188647">
        <time>2017-05-09T11:31:03.266000Z</time>
      </trkpt>
      <trkpt lat="41.68186634317197" lon="123.4284592979806">
        <time>2017-05-09T11:31:07.234000Z</time>
      </trkpt>
      <trkpt lat="41.68187401261337" lon="123.4283340723472">
        <ele>46.20894975668764</ele>
        <time>2017-05-09T11:31:10.234000Z</time>
      </trkpt>
      <trkpt lat="41.68186579834826" lon="123.4282043204861">
        <time>2017-05-09T11:31:13.265000Z</time>
      </trkpt>
      <trkpt lat="41.68185632679768" lon="123.4280676954644">
        <time>2017-05-09T11:31:16.309000Z</time>
      </trkpt>
      <trkpt lat="41.68185557242639" lon="123.4279123787986">
        <ele>46.22293119105147</ele>
        <time>2017-05-09T11:31:20.247000Z</time>
      </trkpt>
      <trkpt lat="41.68186952829517" lon="123.427765276398">
        <time>2017-05-09T11:31:24.258000Z</time>
      </trkpt>
      <trkpt lat="41.68186718136229" lon="123.427627897005">
        <time>2017-05-09T11:31:27.310000Z</time>
      </trkpt>
      <trkpt lat="41.68185594961204" lon="123.4274932836401">
        <ele>46.2386207063434</ele>
        <time>2017-05-09T11:31:30.252000Z</time>
      </trkpt>
      <trkpt lat="41.68186588216729" lon="123.4273664654451">
        <time>2017-05-09T11:31:33.245000Z</time>
      </trkpt>
      <trkpt lat="41.68187158186145" lon="123.4272301756995">
        <time>2017-05-09T11:31:36.245000Z</time>
      </trkpt>
      <trkpt lat="41.68187032457597" lon="123.4270995018291">
        <ele>46.25283330955465</ele>
        <time>2017-05-09T11:31:39.308000Z</time>
      </trkpt>
      <trkpt lat="41.68186701372422" lon="123.4269719292628">
        <time>2017-05-09T11:31:42.233000Z</time>
      </trkpt>
      <trkpt lat="41.68186625935294" lon="123.4268473741817">
        <time>2017-05-09T11:31:45.260000Z</time>
      </trkpt>
      <trkpt lat="41.68186466679133" lon="123.4267189634251">
        <time>2017-05-09T11:31:48.271000Z</time>
      </trkpt>
      <trkpt lat="41.68185825463541" lon="123.4265821707653">
        <ele>46.27102287312228</ele>
        <time>2017-05-09T11:31:51.265000Z</time>
      </trkpt>
      <trkpt lat="41.68185959573992" lon="123.4264422768014">
        <time>2017-05-09T11:31:54.263000Z</time>
      </trkpt>
      <trkpt lat="41.68185553051688" lon="123.4263048974084">
        <time>2017-05-09T11:31:57.274000Z</time>
      </trkpt>
      <trkpt lat="41.68186227794893" lon="123.4261793364989">
        <ele>46.28577058940623</ele>
        <time>2017-05-09T11:32:00.287000Z</time>
      </trkpt>
      <trkpt lat="41.68187539562739" lon="123.4260170628535">
        <time>2017-05-09T11:32:04.282000Z</time>
      </trkpt>
      <trkpt lat="41.68187296487547" lon="123.4258827009456">
        <time>2017-05-09T11:32:07.236000Z</time>
      </trkpt>
      <trkpt lat="41.68187200095661" lon="123.425754290189">
        <ele>46.30083937353381</ele>
        <time>2017-05-09T11:32:10.244000Z</time>
      </trkpt>
      <trkpt lat="41.6818722524137" lon="123.4256226104902">
        <time>2017-05-09T11:32:13.282000Z</time>
      </trkpt>
      <trkpt lat="41.68187296487547" lon="123.4254994803326">
        <time>2017-05-09T11:32:16.423000Z</time>
      </trkpt>
      <trkpt lat="41.6818722524137" lon="123.4253649507867">
        <ele>46.31446977372194</ele>
        <time>2017-05-09T11:32:19.339000Z</time>
      </trkpt>
      <trkpt lat="41.68187120467581" lon="123.4252383002298">
        <time>2017-05-09T11:32:22.431000Z</time>
      </trkpt>
      <trkpt lat="41.68186919301905" lon="123.4251153377103">
        <time>2017-05-09T11:32:25.297000Z</time>
      </trkpt>
      <trkpt lat="41.68186512779601" lon="123.4249846638398">
        <time>2017-05-09T11:32:28.272000Z</time>
      </trkpt>
      <trkpt lat="41.68187045030452" lon="123.4248601087587">
        <ele>46.33278776442703</ele>
        <time>2017-05-09T11:32:31.372000Z</time>
      </trkpt>
      <trkpt lat="41.6818777844698" lon="123.4247358051347">
        <time>2017-05-09T11:32:34.430000Z</time>
      </trkpt>
      <trkpt lat="41.68188021522172" lon="123.424607059102">
        <time>2017-05-09T11:32:37.256000Z</time>
      </trkpt>
      <trkpt lat="41.68188063431688" lon="123.4244711046325">
        <ele>46.34624264752732</ele>
        <time>2017-05-09T11:32:40.262000Z</time>
      </trkpt>
      <trkpt lat="41.6818804247693" lon="123.4243362398105">
        <time>2017-05-09T11:32:43.296000Z</time>
      </trkpt>
      <trkpt lat="41.68188503481604" lon="123.4242128581958">
        <time>2017-05-09T11:32:46.248000Z</time>
      </trkpt>
      <trkpt lat="41.68190188244142" lon="123.4240606428342">
        <ele>46.36027545274612</ele>
        <time>2017-05-09T11:32:50.310000Z</time>
      </trkpt>
      <trkpt lat="41.68190096043207" lon="123.4239073378252">
        <time>2017-05-09T11:32:54.287000Z</time>
      </trkpt>
      <trkpt lat="41.6819026368127" lon="123.4237786756115">
        <time>2017-05-09T11:32:58.293000Z</time>
      </trkpt>
      <trkpt lat="41.68190829459734" lon="123.423655629273">
        <ele>46.37578088914103</ele>
        <time>2017-05-09T11:33:01.322000Z</time>
      </trkpt>
      <trkpt lat="41.68191403620101" lon="123.4235309065538">
        <time>2017-05-09T11:33:04.286000Z</time>
      </trkpt>
      <trkpt lat="41.68191382665344" lon="123.4234083631294">
        <time>2017-05-09T11:33:07.221000Z</time>
      </trkpt>
      <trkpt lat="41.68192258574225" lon="123.423272660117">
        <ele>46.38896607525267</ele>
        <time>2017-05-09T11:33:10.228000Z</time>
      </trkpt>
      <trkpt lat="41.68192727960803" lon="123.4231390525805">
        <time>2017-05-09T11:33:13.262000Z</time>
      </trkpt>
      <trkpt lat="41.68191495821036" lon="123.4230001644449">
        <time>2017-05-09T11:33:16.266000Z</time>
      </trkpt>
      <trkpt lat="41.6819293331743" lon="123.4228607733952">
        <ele>47.42462644691334</ele>
        <time>2017-05-09T11:33:19.286000Z</time>
      </trkpt>
      <trkpt lat="41.68193436231621" lon="123.4227295127915">
        <time>2017-05-09T11:33:22.316000Z</time>
      </trkpt>
      <trkpt lat="41.68193629015393" lon="123.4226074722814">
        <time>2017-05-09T11:33:25.254000Z</time>
      </trkpt>
      <trkpt lat="41.68194798290886" lon="123.4224814922767">
        <time>2017-05-09T11:33:28.395000Z</time>
      </trkpt>
      <trkpt lat="41.6819613101349" lon="123.4223593679475">
        <ele>46.76481475783016</ele>
        <time>2017-05-09T11:33:31.237000Z</time>
      </trkpt>
      <trkpt lat="41.68198335454024" lon="123.4222055600243">
        <time>2017-05-09T11:33:35.244000Z</time>
      </trkpt>
      <trkpt lat="41.68199873533256" lon="123.4220718686687">
        <time>2017-05-09T11:33:38.274000Z</time>
      </trkpt>
      <trkpt lat="41.68201051190652" lon="123.4219069966333">
        <ele>45.8354092631598</ele>
        <time>2017-05-09T11:33:42.447000Z</time>
      </trkpt>
      <trkpt lat="41.68201357130118" lon="123.4217473213779">
        <time>2017-05-09T11:33:45.249000Z</time>
      </trkpt>
      <trkpt lat="41.68200409975059" lon="123.4215886519509">
        <time>2017-05-09T11:33:48.391000Z</time>
      </trkpt>
      <trkpt lat="41.68200577613123" lon="123.4214565531569">
        <ele>44.75146183513464</ele>
        <time>2017-05-09T11:33:51.237000Z</time>
      </trkpt>
      <trkpt lat="41.68201692406245" lon="123.4213217721539">
        <time>2017-05-09T11:33:54.238000Z</time>
      </trkpt>
      <trkpt lat="41.68202568315126" lon="123.4211961274253">
        <time>2017-05-09T11:33:57.302000Z</time>
      </trkpt>
      <trkpt lat="41.6820350289733" lon="123.4210426547783">
        <ele>43.86998049401333</ele>
        <time>2017-05-09T11:34:01.334000Z</time>
      </trkpt>
      <trkpt lat="41.68204755991854" lon="123.4209074546801">
        <time>2017-05-09T11:34:04.231000Z</time>
      </trkpt>
      <trkpt lat="41.68205854021169" lon="123.4207679798113">
        <time>2017-05-09T11:34:07.260000Z</time>
      </trkpt>
      <trkpt lat="41.68206247970618" lon="123.4206189495729">
        <ele>42.90692039713156</ele>
        <time>2017-05-09T11:34:10.270000Z</time>
      </trkpt>
      <trkpt lat="41.68207748331286" lon="123.420476457219">
        <time>2017-05-09T11:34:13.297000Z</time>
      </trkpt>
      <trkpt lat="41.68209102008648" lon="123.420338994007">
        <time>2017-05-09T11:34:16.369000Z</time>
      </trkpt>
      <trkpt lat="41.68210438922204" lon="123.4201913886922">
        <ele>42.21206152729779</ele>
        <time>2017-05-09T11:34:19.414000Z</time>
      </trkpt>
      <trkpt lat="41.68211930900969" lon="123.4200586193459">
        <time>2017-05-09T11:34:22.236000Z</time>
      </trkpt>
      <trkpt lat="41.68213079221703" lon="123.4199254309045">
        <time>2017-05-09T11:34:25.262000Z</time>
      </trkpt>
      <trkpt lat="41.68211738117196" lon="123.4197887220638">
        <time>2017-05-09T11:34:28.213000Z</time>
      </trkpt>
      <trkpt lat="41.68210652660735" lon="123.419651845585">
        <ele>41.75104451876263</ele>
        <time>2017-05-09T11:34:31.443000Z</time>
      </trkpt>
      <trkpt lat="41.6821333486975" lon="123.4195008036899">
        <time>2017-05-09T11:34:34.349000Z</time>
      </trkpt>
      <trkpt lat="41.68214705310918" lon="123.4193719738381">
        <time>2017-05-09T11:34:37.339000Z</time>
      </trkpt>
      <trkpt lat="41.68214919049449" lon="123.4192304873126">
        <ele>41.75104451876263</ele>
        <time>2017-05-09T11:34:40.372000Z</time>
      </trkpt>
      <trkpt lat="41.68215300426044" lon="123.419091431539">
        <time>2017-05-09T11:34:43.465000Z</time>
      </trkpt>
      <trkpt lat="41.68215036396094" lon="123.4189543874221">
        <time>2017-05-09T11:34:46.253000Z</time>
      </trkpt>
      <trkpt lat="41.68216415219165" lon="123.4187905212151">
        <ele>41.75104451876263</ele>
        <time>2017-05-09T11:34:50.229000Z</time>
      </trkpt>
      <trkpt lat="41.68216821741469" lon="123.4186497890609">
        <time>2017-05-09T11:34:53.460000Z</time>
      </trkpt>
      <trkpt lat="41.68216327209182" lon="123.4184928798335">
        <time>2017-05-09T11:34:57.506000Z</time>
      </trkpt>
      <trkpt lat="41.68217517439432" lon="123.4183531535076">
        <ele>41.75104451876263</ele>
        <time>2017-05-09T11:35:01.253000Z</time>
      </trkpt>
      <trkpt lat="41.68219382412888" lon="123.418235136311">
        <time>2017-05-09T11:35:05.549000Z</time>
      </trkpt>
      <trkpt lat="41.6822065646217" lon="123.4181034566121">
        <ele>41.75104451876263</ele>
        <time>2017-05-09T11:35:09.286000Z</time>
      </trkpt>
    </trkseg>
  </trk>
</gpx>