<?xml version="1.0" encoding="UTF-8"?>
<gpx xmlns="http://www.topografix.com/GPX/1/1" xmlns:gpxtpx="http://www.garmin.com/xmlschemas/TrackPointExtension/v1" xmlns:xsi="http://www.w3.org/2001/XMLSchema-instance" xsi:schemaLocation="http://www.topografix.com/GPX/1/1 http://www.topografix.com/GPX/1/1/gpx.xsd" version="1.1" creator="gpx.py -- https://github.com/tkrajina/gpxpy">
  <trk>
    <name>星期二  上午跑</name>
    <trkseg>
      <trkpt lat="41.6837238148243" lon="123.4146208596634">
        <time>2017-06-12T22:03:55.632000Z</time>
      </trkpt>
      <trkpt lat="41.68382502630509" lon="123.4143834003465">
        <time>2017-06-12T22:03:58.260000Z</time>
      </trkpt>
      <trkpt lat="41.68382502630509" lon="123.4143834003465">
        <time>2017-06-12T22:03:59.344000Z</time>
      </trkpt>
      <trkpt lat="41.68382502630509" lon="123.4143834003465">
        <ele>59.73766013203388</ele>
        <time>2017-06-12T22:04:07.205000Z</time>
      </trkpt>
      <trkpt lat="41.68378961276419" lon="123.4145363700794">
        <time>2017-06-12T22:04:07.214000Z</time>
      </trkpt>
      <trkpt lat="41.68378961276419" lon="123.4145363700794">
        <ele>62.1836002529664</ele>
        <time>2017-06-12T22:04:57.229000Z</time>
      </trkpt>
      <trkpt lat="41.68368739545502" lon="123.4148088657515">
        <time>2017-06-12T22:04:57.237000Z</time>
      </trkpt>
      <trkpt lat="41.68367004491545" lon="123.4149271344053">
        <ele>66.84209627592953</ele>
        <time>2017-06-12T22:05:02.218000Z</time>
      </trkpt>
      <trkpt lat="41.68367004491545" lon="123.4149271344053">
        <ele>68.68344263293508</ele>
        <time>2017-06-12T22:05:10.173000Z</time>
      </trkpt>
      <trkpt lat="41.6834042966754" lon="123.4154160508173">
        <ele>68.68344263293508</ele>
        <time>2017-06-12T22:05:22.250000Z</time>
      </trkpt>
      <trkpt lat="41.683312053831" lon="123.4155126103418">
        <time>2017-06-12T22:05:25.212000Z</time>
      </trkpt>
      <trkpt lat="41.68319831140496" lon="123.4155346547471">
        <time>2017-06-12T22:05:28.231000Z</time>
      </trkpt>
      <trkpt lat="41.68309902776189" lon="123.4155532625722">
        <ele>65.51815378067339</ele>
        <time>2017-06-12T22:05:31.384000Z</time>
      </trkpt>
      <trkpt lat="41.68299366723902" lon="123.4155644943224">
        <time>2017-06-12T22:05:35.243000Z</time>
      </trkpt>
      <trkpt lat="41.68289928700931" lon="123.4155339841949">
        <time>2017-06-12T22:05:39.343000Z</time>
      </trkpt>
      <trkpt lat="41.68280214075155" lon="123.4155334812807">
        <ele>65.65408151844537</ele>
        <time>2017-06-12T22:05:42.272000Z</time>
      </trkpt>
      <trkpt lat="41.68268693149246" lon="123.4155420308219">
        <time>2017-06-12T22:05:46.242000Z</time>
      </trkpt>
      <trkpt lat="41.68259280271985" lon="123.4155423660981">
        <time>2017-06-12T22:05:49.264000Z</time>
      </trkpt>
      <trkpt lat="41.68249297425307" lon="123.4155196511405">
        <ele>68.90625774020643</ele>
        <time>2017-06-12T22:05:52.247000Z</time>
      </trkpt>
      <trkpt lat="41.68240140196092" lon="123.4155059048193">
        <time>2017-06-12T22:05:55.318000Z</time>
      </trkpt>
      <trkpt lat="41.6823075246454" lon="123.4155248479204">
        <time>2017-06-12T22:05:58.246000Z</time>
      </trkpt>
      <trkpt lat="41.68218338865943" lon="123.4155243450062">
        <ele>70.47556975239655</ele>
        <time>2017-06-12T22:06:01.235000Z</time>
      </trkpt>
      <trkpt lat="41.68206319216795" lon="123.4155141190844">
        <time>2017-06-12T22:06:04.245000Z</time>
      </trkpt>
      <trkpt lat="41.6819398943723" lon="123.4155099281328">
        <time>2017-06-12T22:06:07.241000Z</time>
      </trkpt>
      <trkpt lat="41.68182686440803" lon="123.4155111015992">
        <ele>67.42009268542935</ele>
        <time>2017-06-12T22:06:10.244000Z</time>
      </trkpt>
      <trkpt lat="41.68173240035929" lon="123.415526356663">
        <time>2017-06-12T22:06:13.245000Z</time>
      </trkpt>
      <trkpt lat="41.68163403872557" lon="123.4155458864974">
        <time>2017-06-12T22:06:19.270000Z</time>
      </trkpt>
      <trkpt lat="41.6815400356815" lon="123.4155390133368">
        <ele>63.28986627983548</ele>
        <time>2017-06-12T22:06:26.314000Z</time>
      </trkpt>
      <trkpt lat="41.6814390756578" lon="123.4155344871091">
        <ele>63.10125333447765</ele>
        <time>2017-06-12T22:06:32.195000Z</time>
      </trkpt>
      <trkpt lat="41.68134536598034" lon="123.4154937510597">
        <ele>62.46040667414952</ele>
        <time>2017-06-12T22:06:42.276000Z</time>
      </trkpt>
      <trkpt lat="41.68125421278335" lon="123.4154703655498">
        <time>2017-06-12T22:06:47.299000Z</time>
      </trkpt>
      <trkpt lat="41.68113774623878" lon="123.4154599719899">
        <ele>58.85202418086428</ele>
        <time>2017-06-12T22:06:51.249000Z</time>
      </trkpt>
      <trkpt lat="41.6810178012044" lon="123.4154519253628">
        <time>2017-06-12T22:06:55.244000Z</time>
      </trkpt>
      <trkpt lat="41.68089886199839" lon="123.4154421185361">
        <time>2017-06-12T22:06:59.244000Z</time>
      </trkpt>
      <trkpt lat="41.68079287283279" lon="123.4154106863992">
        <ele>54.40828327375775</ele>
        <time>2017-06-12T22:07:03.296000Z</time>
      </trkpt>
      <trkpt lat="41.68070226445951" lon="123.4153966048019">
        <time>2017-06-12T22:07:06.241000Z</time>
      </trkpt>
      <trkpt lat="41.68060432192095" lon="123.4153857921468">
        <time>2017-06-12T22:07:09.250000Z</time>
      </trkpt>
      <trkpt lat="41.68050227224983" lon="123.4153805115478">
        <ele>50.33114750973728</ele>
        <time>2017-06-12T22:07:12.278000Z</time>
      </trkpt>
      <trkpt lat="41.68040692810126" lon="123.4153820202904">
        <time>2017-06-12T22:07:15.279000Z</time>
      </trkpt>
      <trkpt lat="41.68029427532263" lon="123.4153747280346">
        <time>2017-06-12T22:07:19.307000Z</time>
      </trkpt>
      <trkpt lat="41.6801842628435" lon="123.4153517616199">
        <ele>49.57402282938105</ele>
        <time>2017-06-12T22:07:23.280000Z</time>
      </trkpt>
      <trkpt lat="41.68006603609927" lon="123.4153481574016">
        <time>2017-06-12T22:07:27.288000Z</time>
      </trkpt>
      <trkpt lat="41.67996788401313" lon="123.4153384343939">
        <ele>49.54444070828074</ele>
        <time>2017-06-12T22:07:30.293000Z</time>
      </trkpt>
      <trkpt lat="41.67986797172733" lon="123.4153274541007">
        <time>2017-06-12T22:07:33.260000Z</time>
      </trkpt>
      <trkpt lat="41.67977086737908" lon="123.415304320048">
        <time>2017-06-12T22:07:36.266000Z</time>
      </trkpt>
      <trkpt lat="41.67967292484052" lon="123.415285879861">
        <time>2017-06-12T22:07:39.288000Z</time>
      </trkpt>
      <trkpt lat="41.67958038862951" lon="123.4152650927412">
        <ele>49.49339273492212</ele>
        <time>2017-06-12T22:07:42.253000Z</time>
      </trkpt>
      <trkpt lat="41.67948244609095" lon="123.4152517655151">
        <time>2017-06-12T22:07:45.304000Z</time>
      </trkpt>
      <trkpt lat="41.67938936505623" lon="123.4152479098396">
        <time>2017-06-12T22:07:48.331000Z</time>
      </trkpt>
      <trkpt lat="41.67929682884522" lon="123.4152592254089">
        <ele>49.45663217347653</ele>
        <time>2017-06-12T22:07:51.246000Z</time>
      </trkpt>
      <trkpt lat="41.67920525655307" lon="123.4152670205789">
        <time>2017-06-12T22:07:54.291000Z</time>
      </trkpt>
      <trkpt lat="41.67908673644222" lon="123.4152448085355">
        <time>2017-06-12T22:07:58.307000Z</time>
      </trkpt>
      <trkpt lat="41.67896645613171" lon="123.4152220935779">
        <ele>48.45375053759528</ele>
        <time>2017-06-12T22:08:02.254000Z</time>
      </trkpt>
      <trkpt lat="41.67886972896911" lon="123.4152050783144">
        <time>2017-06-12T22:08:05.274000Z</time>
      </trkpt>
      <trkpt lat="41.67877974923856" lon="123.4152156395124">
        <time>2017-06-12T22:08:08.313000Z</time>
      </trkpt>
      <trkpt lat="41.67867774147697" lon="123.4152085987138">
        <ele>47.20358425596286</ele>
        <time>2017-06-12T22:08:11.247000Z</time>
      </trkpt>
      <trkpt lat="41.67857636235811" lon="123.4151892365174">
        <time>2017-06-12T22:08:14.260000Z</time>
      </trkpt>
      <trkpt lat="41.67846605651237" lon="123.4151712992447">
        <time>2017-06-12T22:08:18.318000Z</time>
      </trkpt>
      <trkpt lat="41.67836924553074" lon="123.4151632526176">
        <ele>47.58651268922135</ele>
        <time>2017-06-12T22:08:21.300000Z</time>
      </trkpt>
      <trkpt lat="41.67827276982523" lon="123.4151575529235">
        <time>2017-06-12T22:08:24.343000Z</time>
      </trkpt>
      <trkpt lat="41.67816585865028" lon="123.4151428845929">
        <time>2017-06-12T22:08:27.277000Z</time>
      </trkpt>
      <trkpt lat="41.67807457972474" lon="123.4151284677195">
        <ele>47.95177756718716</ele>
        <time>2017-06-12T22:08:30.318000Z</time>
      </trkpt>
      <trkpt lat="41.67795543097116" lon="123.4151026514577">
        <time>2017-06-12T22:08:34.274000Z</time>
      </trkpt>
      <trkpt lat="41.67785753034212" lon="123.4150950239258">
        <time>2017-06-12T22:08:37.292000Z</time>
      </trkpt>
      <trkpt lat="41.67776172518887" lon="123.4150859714704">
        <ele>48.3287091143895</ele>
        <time>2017-06-12T22:08:40.383000Z</time>
      </trkpt>
      <trkpt lat="41.67764609683461" lon="123.4150753264533">
        <time>2017-06-12T22:08:44.283000Z</time>
      </trkpt>
      <trkpt lat="41.67754995640524" lon="123.4150741529869">
        <time>2017-06-12T22:08:47.340000Z</time>
      </trkpt>
      <trkpt lat="41.67745381597586" lon="123.4150804394143">
        <ele>48.70258770141779</ele>
        <time>2017-06-12T22:08:50.294000Z</time>
      </trkpt>
      <trkpt lat="41.67735683735616" lon="123.4150702134924">
        <time>2017-06-12T22:08:53.348000Z</time>
      </trkpt>
      <trkpt lat="41.67725068055249" lon="123.4150631726937">
        <time>2017-06-12T22:08:57.275000Z</time>
      </trkpt>
      <trkpt lat="41.67716078464098" lon="123.4150494263725">
        <ele>49.06632609929657</ele>
        <time>2017-06-12T22:09:00.292000Z</time>
      </trkpt>
      <trkpt lat="41.67706875134415" lon="123.4150331654804">
        <time>2017-06-12T22:09:03.291000Z</time>
      </trkpt>
      <trkpt lat="41.67697449684299" lon="123.4150184133308">
        <time>2017-06-12T22:09:06.272000Z</time>
      </trkpt>
      <trkpt lat="41.67687948797054" lon="123.4150104505228">
        <time>2017-06-12T22:09:09.281000Z</time>
      </trkpt>
      <trkpt lat="41.67678896341629" lon="123.4150038288193">
        <ele>49.51936358226612</ele>
        <time>2017-06-12T22:09:12.250000Z</time>
      </trkpt>
      <trkpt lat="41.6766735027001" lon="123.4149906692313">
        <time>2017-06-12T22:09:16.253000Z</time>
      </trkpt>
      <trkpt lat="41.67655540168441" lon="123.4149798565762">
        <ele>49.76992438512147</ele>
        <time>2017-06-12T22:09:20.306000Z</time>
      </trkpt>
      <trkpt lat="41.67643721684969" lon="123.4149700497495">
        <time>2017-06-12T22:09:24.252000Z</time>
      </trkpt>
      <trkpt lat="41.67634690184302" lon="123.4149640985983">
        <time>2017-06-12T22:09:27.262000Z</time>
      </trkpt>
      <trkpt lat="41.67625667065538" lon="123.4149549623238">
        <ele>50.16691824203895</ele>
        <time>2017-06-12T22:09:30.340000Z</time>
      </trkpt>
      <trkpt lat="41.67614594571448" lon="123.4149417189168">
        <time>2017-06-12T22:09:34.259000Z</time>
      </trkpt>
      <trkpt lat="41.67605290658928" lon="123.4149278887766">
        <time>2017-06-12T22:09:37.269000Z</time>
      </trkpt>
      <trkpt lat="41.67596196293987" lon="123.4149189201402">
        <ele>50.52520492532123</ele>
        <time>2017-06-12T22:09:40.271000Z</time>
      </trkpt>
      <trkpt lat="41.67586485859162" lon="123.4149071854757">
        <time>2017-06-12T22:09:43.264000Z</time>
      </trkpt>
      <trkpt lat="41.67576767042435" lon="123.4148963728206">
        <time>2017-06-12T22:09:46.250000Z</time>
      </trkpt>
      <trkpt lat="41.67567152999497" lon="123.4148926009642">
        <time>2017-06-12T22:09:49.306000Z</time>
      </trkpt>
      <trkpt lat="41.67557815559364" lon="123.4148704727398">
        <ele>50.98914583748378</ele>
        <time>2017-06-12T22:09:52.305000Z</time>
      </trkpt>
      <trkpt lat="41.67548327244974" lon="123.4148428124594">
        <time>2017-06-12T22:09:55.245000Z</time>
      </trkpt>
      <trkpt lat="41.67536236349649" lon="123.4148360231178">
        <time>2017-06-12T22:09:59.363000Z</time>
      </trkpt>
      <trkpt lat="41.67526735462404" lon="123.4148360231178">
        <ele>51.36880324198436</ele>
        <time>2017-06-12T22:10:02.242000Z</time>
      </trkpt>
      <trkpt lat="41.67517624333657" lon="123.4148401302504">
        <time>2017-06-12T22:10:05.274000Z</time>
      </trkpt>
      <trkpt lat="41.6750613693536" lon="123.4148389567839">
        <time>2017-06-12T22:10:09.264000Z</time>
      </trkpt>
      <trkpt lat="41.67494406461871" lon="123.4148178343879">
        <ele>51.73395908565824</ele>
        <time>2017-06-12T22:10:13.274000Z</time>
      </trkpt>
      <trkpt lat="41.67485563554025" lon="123.4147965443539">
        <time>2017-06-12T22:10:16.261000Z</time>
      </trkpt>
      <trkpt lat="41.67476427279568" lon="123.4147843067752">
        <time>2017-06-12T22:10:19.271000Z</time>
      </trkpt>
      <trkpt lat="41.67466779709018" lon="123.4147846420514">
        <ele>52.09802458641283</ele>
        <time>2017-06-12T22:10:22.271000Z</time>
      </trkpt>
      <trkpt lat="41.67454961225546" lon="123.4147578199612">
        <time>2017-06-12T22:10:26.260000Z</time>
      </trkpt>
      <trkpt lat="41.67444752067483" lon="123.4147453309255">
        <ele>52.36047012708856</ele>
        <time>2017-06-12T22:10:30.269000Z</time>
      </trkpt>
      <trkpt lat="41.6743393522144" lon="123.4147415590691">
        <time>2017-06-12T22:10:34.397000Z</time>
      </trkpt>
      <trkpt lat="41.67424078103311" lon="123.4147283994811">
        <time>2017-06-12T22:10:37.383000Z</time>
      </trkpt>
      <trkpt lat="41.67415189094997" lon="123.4147099592941">
        <ele>53.60887763719282</ele>
        <time>2017-06-12T22:10:40.293000Z</time>
      </trkpt>
      <trkpt lat="41.67403705887652" lon="123.4146947880494">
        <time>2017-06-12T22:10:44.273000Z</time>
      </trkpt>
      <trkpt lat="41.67391594037569" lon="123.4146791138904">
        <time>2017-06-12T22:10:48.259000Z</time>
      </trkpt>
      <trkpt lat="41.67382373944081" lon="123.4146715701776">
        <ele>53.61315358208621</ele>
        <time>2017-06-12T22:10:51.315000Z</time>
      </trkpt>
      <trkpt lat="41.67371976193196" lon="123.4146590811418">
        <time>2017-06-12T22:10:55.298000Z</time>
      </trkpt>
      <trkpt lat="41.67360933035768" lon="123.41464106005">
        <time>2017-06-12T22:10:59.311000Z</time>
      </trkpt>
      <trkpt lat="41.67349055878974" lon="123.4146310017662">
        <ele>53.61718159502784</ele>
        <time>2017-06-12T22:11:03.269000Z</time>
      </trkpt>
      <trkpt lat="41.67339223906554" lon="123.4146372043746">
        <time>2017-06-12T22:11:06.298000Z</time>
      </trkpt>
      <trkpt lat="41.6732927877844" lon="123.4146227875011">
        <time>2017-06-12T22:11:09.246000Z</time>
      </trkpt>
      <trkpt lat="41.67319953911162" lon="123.4146068618851">
        <ele>53.62133181139593</ele>
        <time>2017-06-12T22:11:12.304000Z</time>
      </trkpt>
      <trkpt lat="41.67307636704452" lon="123.4146006592767">
        <time>2017-06-12T22:11:16.235000Z</time>
      </trkpt>
      <trkpt lat="41.67298563294268" lon="123.4145869129555">
        <time>2017-06-12T22:11:19.242000Z</time>
      </trkpt>
      <trkpt lat="41.67289313864119" lon="123.4145716578918">
        <ele>53.62536687453525</ele>
        <time>2017-06-12T22:11:22.261000Z</time>
      </trkpt>
      <trkpt lat="41.67279930323518" lon="123.4145558160948">
        <time>2017-06-12T22:11:25.267000Z</time>
      </trkpt>
      <trkpt lat="41.6727100359664" lon="123.4145377111839">
        <time>2017-06-12T22:11:28.253000Z</time>
      </trkpt>
      <trkpt lat="41.67258916892267" lon="123.4144893476026">
        <ele>53.62900242647264</ele>
        <time>2017-06-12T22:11:31.259000Z</time>
      </trkpt>
      <trkpt lat="41.67246968489296" lon="123.4144641180741">
        <time>2017-06-12T22:11:35.259000Z</time>
      </trkpt>
      <trkpt lat="41.67237664576776" lon="123.414458753656">
        <time>2017-06-12T22:11:38.245000Z</time>
      </trkpt>
      <trkpt lat="41.67225724555708" lon="123.414455903809">
        <ele>53.63345110120922</ele>
        <time>2017-06-12T22:11:42.255000Z</time>
      </trkpt>
      <trkpt lat="41.67214295830733" lon="123.4144363739746">
        <time>2017-06-12T22:11:46.278000Z</time>
      </trkpt>
      <trkpt lat="41.67204304602153" lon="123.4144041036474">
        <ele>53.63651911223332</ele>
        <time>2017-06-12T22:11:50.259000Z</time>
      </trkpt>
      <trkpt lat="41.6719467798636" lon="123.4143808019566">
        <time>2017-06-12T22:11:53.215000Z</time>
      </trkpt>
      <trkpt lat="41.67184284426428" lon="123.4143970628487">
        <time>2017-06-12T22:11:56.315000Z</time>
      </trkpt>
      <trkpt lat="41.67175215207196" lon="123.4144240525769">
        <ele>53.64051069915358</ele>
        <time>2017-06-12T22:12:00.293000Z</time>
      </trkpt>
      <trkpt lat="41.67164247486896" lon="123.414405863847">
        <time>2017-06-12T22:12:04.247000Z</time>
      </trkpt>
      <trkpt lat="41.6715413472072" lon="123.4144105577128">
        <time>2017-06-12T22:12:07.267000Z</time>
      </trkpt>
      <trkpt lat="41.6714504454673" lon="123.4144001641529">
        <ele>53.64449406084323</ele>
        <time>2017-06-12T22:12:10.276000Z</time>
      </trkpt>
      <trkpt lat="41.67133804414577" lon="123.4143783712046">
        <time>2017-06-12T22:12:13.240000Z</time>
      </trkpt>
      <trkpt lat="41.67123163588501" lon="123.4143658821689">
        <time>2017-06-12T22:12:16.268000Z</time>
      </trkpt>
      <trkpt lat="41.67113851294077" lon="123.4143534769522">
        <time>2017-06-12T22:12:19.265000Z</time>
      </trkpt>
      <trkpt lat="41.67101731062091" lon="123.4143428319352">
        <ele>53.64979228440035</ele>
        <time>2017-06-12T22:12:23.268000Z</time>
      </trkpt>
      <trkpt lat="41.67092707943327" lon="123.414339730631">
        <time>2017-06-12T22:12:26.310000Z</time>
      </trkpt>
      <trkpt lat="41.67081761177785" lon="123.4143440054016">
        <ele>53.65256066202301</ele>
        <time>2017-06-12T22:12:30.261000Z</time>
      </trkpt>
      <trkpt lat="41.67072230953879" lon="123.4143482801722">
        <time>2017-06-12T22:12:33.233000Z</time>
      </trkpt>
      <trkpt lat="41.67062411554313" lon="123.414334533851">
        <time>2017-06-12T22:12:36.241000Z</time>
      </trkpt>
      <trkpt lat="41.67051795873947" lon="123.4143168480354">
        <ele>53.65653109835024</ele>
        <time>2017-06-12T22:12:40.274000Z</time>
      </trkpt>
      <trkpt lat="41.67042860765166" lon="123.4142997489529">
        <time>2017-06-12T22:12:43.249000Z</time>
      </trkpt>
      <trkpt lat="41.67033464651711" lon="123.4142861702697">
        <time>2017-06-12T22:12:46.259000Z</time>
      </trkpt>
      <trkpt lat="41.67024181693948" lon="123.4142774530904">
        <time>2017-06-12T22:12:49.284000Z</time>
      </trkpt>
      <trkpt lat="41.67012325491912" lon="123.4142646287786">
        <ele>53.66156141439548</ele>
        <time>2017-06-12T22:12:53.295000Z</time>
      </trkpt>
      <trkpt lat="41.67003369428373" lon="123.4142535646664">
        <time>2017-06-12T22:12:56.282000Z</time>
      </trkpt>
      <trkpt lat="41.66993734430677" lon="123.4142421652781">
        <time>2017-06-12T22:12:59.311000Z</time>
      </trkpt>
      <trkpt lat="41.66983349252648" lon="123.4142300953375">
        <ele>53.66555770144755</ele>
        <time>2017-06-12T22:13:02.259000Z</time>
      </trkpt>
      <trkpt lat="41.66972226467139" lon="123.4142120742457">
        <time>2017-06-12T22:13:06.327000Z</time>
      </trkpt>
      <trkpt lat="41.66961983781463" lon="123.4141967353629">
        <time>2017-06-12T22:13:09.265000Z</time>
      </trkpt>
      <trkpt lat="41.6695227753759" lon="123.4141870123552">
        <ele>53.66973376854047</ele>
        <time>2017-06-12T22:13:12.275000Z</time>
      </trkpt>
      <trkpt lat="41.66941024832582" lon="123.4141855874317">
        <time>2017-06-12T22:13:15.251000Z</time>
      </trkpt>
      <trkpt lat="41.66928422641164" lon="123.4141870123552">
        <time>2017-06-12T22:13:18.215000Z</time>
      </trkpt>
      <trkpt lat="41.6691704839856" lon="123.4141823184895">
        <ele>53.67412486666265</ele>
        <time>2017-06-12T22:13:21.263000Z</time>
      </trkpt>
      <trkpt lat="41.66904873684204" lon="123.4141615313696">
        <time>2017-06-12T22:13:25.243000Z</time>
      </trkpt>
      <trkpt lat="41.66895460806942" lon="123.4141527303713">
        <time>2017-06-12T22:13:28.269000Z</time>
      </trkpt>
      <trkpt lat="41.66885046292251" lon="123.4141398222404">
        <ele>53.67845133797277</ele>
        <time>2017-06-12T22:13:32.247000Z</time>
      </trkpt>
      <trkpt lat="41.66873160753554" lon="123.4141223878818">
        <time>2017-06-12T22:13:36.276000Z</time>
      </trkpt>
      <trkpt lat="41.66860969275391" lon="123.4141062108087">
        <ele>54.51687338742001</ele>
        <time>2017-06-12T22:13:40.230000Z</time>
      </trkpt>
      <trkpt lat="41.66850512851185" lon="123.4140974936294">
        <time>2017-06-12T22:13:43.366000Z</time>
      </trkpt>
      <trkpt lat="41.66839997753656" lon="123.4140819871085">
        <time>2017-06-12T22:13:46.250000Z</time>
      </trkpt>
      <trkpt lat="41.66828225370651" lon="123.4140716773676">
        <ele>54.29201000043862</ele>
        <time>2017-06-12T22:13:50.244000Z</time>
      </trkpt>
      <trkpt lat="41.66819072332388" lon="123.4140620381789">
        <time>2017-06-12T22:13:53.255000Z</time>
      </trkpt>
      <trkpt lat="41.66808863174325" lon="123.4140537400948">
        <time>2017-06-12T22:13:56.263000Z</time>
      </trkpt>
      <trkpt lat="41.66799391623741" lon="123.4140369762885">
        <time>2017-06-12T22:13:59.239000Z</time>
      </trkpt>
      <trkpt lat="41.66788423903441" lon="123.4140228946911">
        <ele>53.51959558586822</ele>
        <time>2017-06-12T22:14:02.242000Z</time>
      </trkpt>
      <trkpt lat="41.66777037087983" lon="123.4140182846444">
        <time>2017-06-12T22:14:05.230000Z</time>
      </trkpt>
      <trkpt lat="41.66767586492157" lon="123.4140110762077">
        <time>2017-06-12T22:14:09.262000Z</time>
      </trkpt>
      <trkpt lat="41.6675725998745" lon="123.4139970784294">
        <ele>52.91559339704961</ele>
        <time>2017-06-12T22:14:13.251000Z</time>
      </trkpt>
      <trkpt lat="41.66748429652458" lon="123.413974866386">
        <time>2017-06-12T22:14:16.267000Z</time>
      </trkpt>
      <trkpt lat="41.66738484524345" lon="123.4139552527325">
        <time>2017-06-12T22:14:19.238000Z</time>
      </trkpt>
      <trkpt lat="41.66728992019004" lon="123.413932621594">
        <ele>52.35807911281162</ele>
        <time>2017-06-12T22:14:22.264000Z</time>
      </trkpt>
      <trkpt lat="41.66719558186984" lon="123.4139200487392">
        <time>2017-06-12T22:14:25.265000Z</time>
      </trkpt>
      <trkpt lat="41.66709437038904" lon="123.4139174503492">
        <time>2017-06-12T22:14:28.285000Z</time>
      </trkpt>
      <trkpt lat="41.66699994824982" lon="123.4139208869295">
        <ele>51.80397053586892</ele>
        <time>2017-06-12T22:14:31.263000Z</time>
      </trkpt>
      <trkpt lat="41.66688934903747" lon="123.413898423429">
        <time>2017-06-12T22:14:35.273000Z</time>
      </trkpt>
      <trkpt lat="41.66678122248656" lon="123.4138770495759">
        <time>2017-06-12T22:14:39.260000Z</time>
      </trkpt>
      <trkpt lat="41.66668927300876" lon="123.4138634708928">
        <ele>51.20592833481705</ele>
        <time>2017-06-12T22:14:42.270000Z</time>
      </trkpt>
      <trkpt lat="41.66657582394934" lon="123.413866572197">
        <time>2017-06-12T22:14:46.282000Z</time>
      </trkpt>
      <trkpt lat="41.66647193025953" lon="123.4138469585436">
        <time>2017-06-12T22:14:49.292000Z</time>
      </trkpt>
      <trkpt lat="41.66633195247656" lon="123.4138498922097">
        <ele>50.61674097273293</ele>
        <time>2017-06-12T22:14:52.299000Z</time>
      </trkpt>
      <trkpt lat="41.66622043125486" lon="123.4138391633736">
        <time>2017-06-12T22:14:56.271000Z</time>
      </trkpt>
      <trkpt lat="41.66611854922181" lon="123.4138471261816">
        <ele>50.13960138066365</ele>
        <time>2017-06-12T22:15:00.283000Z</time>
      </trkpt>
      <trkpt lat="41.66601909794068" lon="123.4138404206591">
        <time>2017-06-12T22:15:04.294000Z</time>
      </trkpt>
      <trkpt lat="41.66591604244119" lon="123.4138170351492">
        <time>2017-06-12T22:15:07.269000Z</time>
      </trkpt>
      <trkpt lat="41.66581286121315" lon="123.4138048813896">
        <ele>49.55943914291202</ele>
        <time>2017-06-12T22:15:10.443000Z</time>
      </trkpt>
      <trkpt lat="41.66570703968561" lon="123.4137841780888">
        <time>2017-06-12T22:15:13.317000Z</time>
      </trkpt>
      <trkpt lat="41.66560691785222" lon="123.4137657379018">
        <time>2017-06-12T22:15:16.262000Z</time>
      </trkpt>
      <trkpt lat="41.66550604164755" lon="123.41375291359">
        <time>2017-06-12T22:15:19.456000Z</time>
      </trkpt>
      <trkpt lat="41.66539095811701" lon="123.4137277678805">
        <ele>48.99312375174708</ele>
        <time>2017-06-12T22:15:23.451000Z</time>
      </trkpt>
      <trkpt lat="41.66529435668296" lon="123.4137190507012">
        <time>2017-06-12T22:15:26.328000Z</time>
      </trkpt>
      <trkpt lat="41.66519679133004" lon="123.4137225711005">
        <time>2017-06-12T22:15:29.320000Z</time>
      </trkpt>
      <trkpt lat="41.66508853905058" lon="123.4137218167292">
        <ele>49.50378633575346</ele>
        <time>2017-06-12T22:15:33.273000Z</time>
      </trkpt>
      <trkpt lat="41.66499793067729" lon="123.4137228225576">
        <time>2017-06-12T22:15:36.269000Z</time>
      </trkpt>
      <trkpt lat="41.66490396954274" lon="123.4137120099025">
        <time>2017-06-12T22:15:39.303000Z</time>
      </trkpt>
      <trkpt lat="41.66479873474842" lon="123.4137020354377">
        <ele>49.98508692778721</ele>
        <time>2017-06-12T22:15:42.260000Z</time>
      </trkpt>
      <trkpt lat="41.66470619853741" lon="123.4136978444861">
        <time>2017-06-12T22:15:45.295000Z</time>
      </trkpt>
      <trkpt lat="41.66459928736246" lon="123.4136758000808">
        <time>2017-06-12T22:15:48.263000Z</time>
      </trkpt>
      <trkpt lat="41.66450960099852" lon="123.4136621375786">
        <ele>50.48792948378077</ele>
        <time>2017-06-12T22:15:51.277000Z</time>
      </trkpt>
      <trkpt lat="41.66442133955812" lon="123.4136228264528">
        <time>2017-06-12T22:15:54.304000Z</time>
      </trkpt>
      <trkpt lat="41.66431589521623" lon="123.4135879577356">
        <time>2017-06-12T22:15:57.271000Z</time>
      </trkpt>
      <trkpt lat="41.66420068595713" lon="123.4135854431646">
        <ele>50.96716440803756</ele>
        <time>2017-06-12T22:16:01.240000Z</time>
      </trkpt>
      <trkpt lat="41.66409767236716" lon="123.4135735408621">
        <time>2017-06-12T22:16:05.304000Z</time>
      </trkpt>
      <trkpt lat="41.66400069374746" lon="123.4135664162444">
        <time>2017-06-12T22:16:08.289000Z</time>
      </trkpt>
      <trkpt lat="41.6639053915084" lon="123.4135092516648">
        <ele>51.4854994723584</ele>
        <time>2017-06-12T22:16:11.284000Z</time>
      </trkpt>
      <trkpt lat="41.66378997270173" lon="123.4135376663165">
        <time>2017-06-12T22:16:15.255000Z</time>
      </trkpt>
      <trkpt lat="41.66367618836617" lon="123.4135655780541">
        <time>2017-06-12T22:16:19.282000Z</time>
      </trkpt>
      <trkpt lat="41.66357137266701" lon="123.4135564417796">
        <ele>52.03954107968112</ele>
        <time>2017-06-12T22:16:22.268000Z</time>
      </trkpt>
      <trkpt lat="41.66346089918321" lon="123.4135386721449">
        <time>2017-06-12T22:16:25.269000Z</time>
      </trkpt>
      <trkpt lat="41.66335671212679" lon="123.413536241393">
        <time>2017-06-12T22:16:28.271000Z</time>
      </trkpt>
      <trkpt lat="41.6632544529081" lon="123.4135173821109">
        <ele>52.56569617201477</ele>
        <time>2017-06-12T22:16:31.271000Z</time>
      </trkpt>
      <trkpt lat="41.66315760001695" lon="123.4134990257429">
        <time>2017-06-12T22:16:34.263000Z</time>
      </trkpt>
      <trkpt lat="41.66305039547539" lon="123.4134898894685">
        <time>2017-06-12T22:16:37.241000Z</time>
      </trkpt>
      <trkpt lat="41.66295790117389" lon="123.4134830163079">
        <ele>53.07207987276885</ele>
        <time>2017-06-12T22:16:40.299000Z</time>
      </trkpt>
      <trkpt lat="41.66284172799593" lon="123.4134641570257">
        <time>2017-06-12T22:16:44.423000Z</time>
      </trkpt>
      <trkpt lat="41.66274261199093" lon="123.4134574515032">
        <time>2017-06-12T22:16:47.236000Z</time>
      </trkpt>
      <trkpt lat="41.66264332834786" lon="123.413441106792">
        <ele>53.57920131201472</ele>
        <time>2017-06-12T22:16:51.386000Z</time>
      </trkpt>
      <trkpt lat="41.66253499224937" lon="123.4134412744301">
        <time>2017-06-12T22:16:54.258000Z</time>
      </trkpt>
      <trkpt lat="41.66243956428176" lon="123.4134239238905">
        <time>2017-06-12T22:16:56.272000Z</time>
      </trkpt>
      <trkpt lat="41.66232024789011" lon="123.4134103452074">
        <time>2017-06-12T22:16:59.278000Z</time>
      </trkpt>
      <trkpt lat="41.66221916213787" lon="123.4133873787927">
        <ele>54.56923257389893</ele>
        <time>2017-06-12T22:17:02.277000Z</time>
      </trkpt>
      <trkpt lat="41.6621198784948" lon="123.4133772366898">
        <time>2017-06-12T22:17:05.287000Z</time>
      </trkpt>
      <trkpt lat="41.66200383104538" lon="123.4133691062437">
        <time>2017-06-12T22:17:09.274000Z</time>
      </trkpt>
      <trkpt lat="41.66190827734923" lon="123.4133577906745">
        <ele>54.71034026666397</ele>
        <time>2017-06-12T22:17:12.263000Z</time>
      </trkpt>
      <trkpt lat="41.66179411582803" lon="123.4133474809336">
        <time>2017-06-12T22:17:16.278000Z</time>
      </trkpt>
      <trkpt lat="41.66168942585742" lon="123.4133438767152">
        <time>2017-06-12T22:17:19.252000Z</time>
      </trkpt>
      <trkpt lat="41.66158201176827" lon="123.4133391828494">
        <ele>54.46378146238496</ele>
        <time>2017-06-12T22:17:22.266000Z</time>
      </trkpt>
      <trkpt lat="41.66148000400668" lon="123.4133258556234">
        <time>2017-06-12T22:17:25.243000Z</time>
      </trkpt>
      <trkpt lat="41.66138063654458" lon="123.4133133665877">
        <time>2017-06-12T22:17:28.267000Z</time>
      </trkpt>
      <trkpt lat="41.66128587912922" lon="123.4133027215706">
        <ele>54.22130266114395</ele>
        <time>2017-06-12T22:17:31.272000Z</time>
      </trkpt>
      <trkpt lat="41.66118839759534" lon="123.413287885602">
        <time>2017-06-12T22:17:34.275000Z</time>
      </trkpt>
      <trkpt lat="41.66107260160302" lon="123.4132726305382">
        <time>2017-06-12T22:17:37.337000Z</time>
      </trkpt>
      <trkpt lat="41.660976083988" lon="123.413264080997">
        <ele>53.97896454966288</ele>
        <time>2017-06-12T22:17:40.316000Z</time>
      </trkpt>
      <trkpt lat="41.66087956637298" lon="123.4132558667319">
        <time>2017-06-12T22:17:43.253000Z</time>
      </trkpt>
      <trkpt lat="41.660777851978" lon="123.4132418689536">
        <time>2017-06-12T22:17:46.305000Z</time>
      </trkpt>
      <trkpt lat="41.66068330411022" lon="123.4132249375092">
        <time>2017-06-12T22:17:49.276000Z</time>
      </trkpt>
      <trkpt lat="41.66059407875096" lon="123.4132060782271">
        <ele>53.67289397693307</ele>
        <time>2017-06-12T22:17:52.271000Z</time>
      </trkpt>
      <trkpt lat="41.66049814786916" lon="123.4132074193316">
        <time>2017-06-12T22:17:54.320000Z</time>
      </trkpt>
      <trkpt lat="41.66038134604847" lon="123.4132103529977">
        <time>2017-06-12T22:17:57.282000Z</time>
      </trkpt>
      <trkpt lat="41.66028005074864" lon="123.4131987859713">
        <ele>53.43569104168948</ele>
        <time>2017-06-12T22:18:00.329000Z</time>
      </trkpt>
      <trkpt lat="41.66018575433796" lon="123.4131790046798">
        <time>2017-06-12T22:18:03.236000Z</time>
      </trkpt>
      <trkpt lat="41.66007469412094" lon="123.4131603968548">
        <time>2017-06-12T22:18:06.316000Z</time>
      </trkpt>
      <trkpt lat="41.65996329862779" lon="123.4131406155633">
        <time>2017-06-12T22:18:09.350000Z</time>
      </trkpt>
      <trkpt lat="41.6598687088505" lon="123.4131271206992">
        <ele>53.10591424441131</ele>
        <time>2017-06-12T22:18:12.273000Z</time>
      </trkpt>
      <trkpt lat="41.65977445434933" lon="123.4131195769863">
        <time>2017-06-12T22:18:15.243000Z</time>
      </trkpt>
      <trkpt lat="41.6596752545253" lon="123.4131025617229">
        <time>2017-06-12T22:18:18.275000Z</time>
      </trkpt>
      <trkpt lat="41.6595835565046" lon="123.4130850435453">
        <ele>52.87926304116254</ele>
        <time>2017-06-12T22:18:21.292000Z</time>
      </trkpt>
      <trkpt lat="41.65946935307389" lon="123.413073644157">
        <time>2017-06-12T22:18:25.250000Z</time>
      </trkpt>
      <trkpt lat="41.65935858622348" lon="123.4130675253676">
        <time>2017-06-12T22:18:29.268000Z</time>
      </trkpt>
      <trkpt lat="41.65923600088959" lon="123.4130531923132">
        <ele>52.6303125109647</ele>
        <time>2017-06-12T22:18:33.261000Z</time>
      </trkpt>
      <trkpt lat="41.65913701061314" lon="123.4130406194585">
        <time>2017-06-12T22:18:36.274000Z</time>
      </trkpt>
      <trkpt lat="41.65903948716974" lon="123.4130279627847">
        <time>2017-06-12T22:18:39.252000Z</time>
      </trkpt>
      <trkpt lat="41.65893215689962" lon="123.4130259511279">
        <ele>52.37953301388777</ele>
        <time>2017-06-12T22:18:42.311000Z</time>
      </trkpt>
      <trkpt lat="41.65883555546557" lon="123.4130205867099">
        <time>2017-06-12T22:18:45.247000Z</time>
      </trkpt>
      <trkpt lat="41.65873987604087" lon="123.4130117018925">
        <time>2017-06-12T22:18:48.257000Z</time>
      </trkpt>
      <trkpt lat="41.65863791018879" lon="123.412997033562">
        <ele>52.14479214944296</ele>
        <time>2017-06-12T22:18:51.252000Z</time>
      </trkpt>
      <trkpt lat="41.65853493850832" lon="123.4129808564888">
        <time>2017-06-12T22:18:54.271000Z</time>
      </trkpt>
      <trkpt lat="41.65843548722719" lon="123.4129639250444">
        <time>2017-06-12T22:18:57.296000Z</time>
      </trkpt>
      <trkpt lat="41.65834307674473" lon="123.4129500949042">
        <ele>51.90491610876067</ele>
        <time>2017-06-12T22:19:00.310000Z</time>
      </trkpt>
      <trkpt lat="41.65825242646193" lon="123.4129368514972">
        <time>2017-06-12T22:19:03.253000Z</time>
      </trkpt>
      <trkpt lat="41.65815947115576" lon="123.4129277990418">
        <time>2017-06-12T22:19:06.283000Z</time>
      </trkpt>
      <trkpt lat="41.65805570319449" lon="123.4129121248828">
        <time>2017-06-12T22:19:09.254000Z</time>
      </trkpt>
      <trkpt lat="41.65795512035643" lon="123.4128885717349">
        <ele>51.60602071378735</ele>
        <time>2017-06-12T22:19:12.337000Z</time>
      </trkpt>
      <trkpt lat="41.65786027912205" lon="123.4128482547807">
        <time>2017-06-12T22:19:15.294000Z</time>
      </trkpt>
      <trkpt lat="41.65775466714209" lon="123.4128224385189">
        <time>2017-06-12T22:19:19.281000Z</time>
      </trkpt>
      <trkpt lat="41.65765584450369" lon="123.412822689976">
        <ele>51.36417501646604</ele>
        <time>2017-06-12T22:19:22.249000Z</time>
      </trkpt>
      <trkpt lat="41.65755224418049" lon="123.412812128778">
        <time>2017-06-12T22:19:25.276000Z</time>
      </trkpt>
      <trkpt lat="41.65744990114277" lon="123.4127957002478">
        <time>2017-06-12T22:19:28.311000Z</time>
      </trkpt>
      <trkpt lat="41.65734424725329" lon="123.4127848037737">
        <ele>51.1247913899435</ele>
        <time>2017-06-12T22:19:31.304000Z</time>
      </trkpt>
      <trkpt lat="41.65723364804094" lon="123.4127729014712">
        <time>2017-06-12T22:19:34.264000Z</time>
      </trkpt>
      <trkpt lat="41.65712602440422" lon="123.4127427266197">
        <time>2017-06-12T22:19:38.247000Z</time>
      </trkpt>
      <trkpt lat="41.65702011905765" lon="123.4127320816027">
        <ele>50.86887671662909</ele>
        <time>2017-06-12T22:19:42.322000Z</time>
      </trkpt>
      <trkpt lat="41.65691161532109" lon="123.4127251246231">
        <time>2017-06-12T22:19:45.307000Z</time>
      </trkpt>
      <trkpt lat="41.65682117458587" lon="123.4127129708635">
        <time>2017-06-12T22:19:48.268000Z</time>
      </trkpt>
      <trkpt lat="41.65672184903329" lon="123.4127112106638">
        <ele>50.62956343498652</ele>
        <time>2017-06-12T22:19:51.293000Z</time>
      </trkpt>
      <trkpt lat="41.65661732670074" lon="123.4127125517683">
        <time>2017-06-12T22:19:55.264000Z</time>
      </trkpt>
      <trkpt lat="41.65655136112278" lon="123.4126220272141">
        <ele>50.47002124722482</ele>
        <time>2017-06-12T22:20:02.287000Z</time>
      </trkpt>
      <trkpt lat="41.65663346186435" lon="123.4127163236247">
        <ele>50.3960887783811</ele>
        <time>2017-06-12T22:20:12.272000Z</time>
      </trkpt>
      <trkpt lat="41.65674422871476" lon="123.4127180838244">
        <time>2017-06-12T22:20:15.310000Z</time>
      </trkpt>
      <trkpt lat="41.6568497987852" lon="123.4127387033062">
        <time>2017-06-12T22:20:18.245000Z</time>
      </trkpt>
      <trkpt lat="41.65694459811007" lon="123.4127509408848">
        <ele>50.1411589333862</ele>
        <time>2017-06-12T22:20:21.236000Z</time>
      </trkpt>
      <trkpt lat="41.65704233110105" lon="123.4127587360548">
        <time>2017-06-12T22:20:24.305000Z</time>
      </trkpt>
      <trkpt lat="41.65714966137116" lon="123.4127748293089">
        <time>2017-06-12T22:20:27.242000Z</time>
      </trkpt>
      <trkpt lat="41.65725351315146" lon="123.4127983824568">
        <ele>49.90543324062188</ele>
        <time>2017-06-12T22:20:30.367000Z</time>
      </trkpt>
      <trkpt lat="41.65735292252307" lon="123.4128198401289">
        <time>2017-06-12T22:20:33.335000Z</time>
      </trkpt>
      <trkpt lat="41.65745463691806" lon="123.4128339217262">
        <time>2017-06-12T22:20:36.240000Z</time>
      </trkpt>
      <trkpt lat="41.65755568076079" lon="123.4128390346872">
        <time>2017-06-12T22:20:39.251000Z</time>
      </trkpt>
      <trkpt lat="41.65765219837581" lon="123.4128479195045">
        <ele>49.58501231237912</ele>
        <time>2017-06-12T22:20:43.270000Z</time>
      </trkpt>
      <trkpt lat="41.65774674624359" lon="123.4128361848401">
        <ele>48.1823597182921</ele>
        <time>2017-06-12T22:20:50.290000Z</time>
      </trkpt>
      <trkpt lat="41.65784556888198" lon="123.412836017202">
        <time>2017-06-12T22:20:53.349000Z</time>
      </trkpt>
      <trkpt lat="41.65793927855944" lon="123.4128875659065">
        <time>2017-06-12T22:20:56.291000Z</time>
      </trkpt>
      <trkpt lat="41.65804271124458" lon="123.4129340016501">
        <time>2017-06-12T22:20:59.305000Z</time>
      </trkpt>
      <trkpt lat="41.65814157579248" lon="123.4129507654565">
        <ele>47.74060616188545</ele>
        <time>2017-06-12T22:21:02.276000Z</time>
      </trkpt>
      <trkpt lat="41.65823863823121" lon="123.4129599855499">
        <time>2017-06-12T22:21:05.265000Z</time>
      </trkpt>
      <trkpt lat="41.65833888579314" lon="123.4129710496621">
        <time>2017-06-12T22:21:08.248000Z</time>
      </trkpt>
      <trkpt lat="41.65843536149865" lon="123.4129790124701">
        <ele>47.61945371833625</ele>
        <time>2017-06-12T22:21:11.303000Z</time>
      </trkpt>
      <trkpt lat="41.65852949027126" lon="123.4129901604014">
        <time>2017-06-12T22:21:14.260000Z</time>
      </trkpt>
      <trkpt lat="41.65864293933069" lon="123.4130057507413">
        <time>2017-06-12T22:21:18.285000Z</time>
      </trkpt>
      <trkpt lat="41.65874557573503" lon="123.4130277951466">
        <ele>47.49522763985556</ele>
        <time>2017-06-12T22:21:21.232000Z</time>
      </trkpt>
      <trkpt lat="41.65884100370263" lon="123.4130345006691">
        <time>2017-06-12T22:21:24.265000Z</time>
      </trkpt>
      <trkpt lat="41.65893773086523" lon="123.4130390268969">
        <time>2017-06-12T22:21:27.276000Z</time>
      </trkpt>
      <trkpt lat="41.65904485158777" lon="123.4130510968374">
        <ele>47.37458746879491</ele>
        <time>2017-06-12T22:21:30.298000Z</time>
      </trkpt>
      <trkpt lat="41.65914082437908" lon="123.4130678606438">
        <time>2017-06-12T22:21:33.278000Z</time>
      </trkpt>
      <trkpt lat="41.65924002420311" lon="123.4130800144034">
        <time>2017-06-12T22:21:36.271000Z</time>
      </trkpt>
      <trkpt lat="41.65933775719409" lon="123.4130860493736">
        <time>2017-06-12T22:21:39.245000Z</time>
      </trkpt>
      <trkpt lat="41.65943448435669" lon="123.413092168163">
        <ele>47.38516301604201</ele>
        <time>2017-06-12T22:21:42.240000Z</time>
      </trkpt>
      <trkpt lat="41.65953913241779" lon="123.4131036513703">
        <time>2017-06-12T22:21:45.244000Z</time>
      </trkpt>
      <trkpt lat="41.6596446186692" lon="123.4131168947773">
        <time>2017-06-12T22:21:48.265000Z</time>
      </trkpt>
      <trkpt lat="41.65975580461478" lon="123.4131377657162">
        <ele>48.37227710909754</ele>
        <time>2017-06-12T22:21:51.298000Z</time>
      </trkpt>
      <trkpt lat="41.65985965639507" lon="123.4131508414852">
        <time>2017-06-12T22:21:54.306000Z</time>
      </trkpt>
      <trkpt lat="41.65996090978538" lon="123.4131664318251">
        <time>2017-06-12T22:21:57.275000Z</time>
      </trkpt>
      <trkpt lat="41.66007075462645" lon="123.4131834470885">
        <ele>49.39398632223677</ele>
        <time>2017-06-12T22:22:00.332000Z</time>
      </trkpt>
      <trkpt lat="41.66017360057836" lon="123.413197863962">
        <time>2017-06-12T22:22:03.247000Z</time>
      </trkpt>
      <trkpt lat="41.66027963165348" lon="123.4132101853596">
        <time>2017-06-12T22:22:06.281000Z</time>
      </trkpt>
      <trkpt lat="41.66038474071925" lon="123.4132256080615">
        <time>2017-06-12T22:22:09.243000Z</time>
      </trkpt>
      <trkpt lat="41.66048544928586" lon="123.4132415336775">
        <ele>50.7610701508785</ele>
        <time>2017-06-12T22:22:12.254000Z</time>
      </trkpt>
      <trkpt lat="41.660592863375" lon="123.4132522625135">
        <time>2017-06-12T22:22:15.255000Z</time>
      </trkpt>
      <trkpt lat="41.66069554168885" lon="123.4132594709503">
        <time>2017-06-12T22:22:18.255000Z</time>
      </trkpt>
      <trkpt lat="41.66080199185913" lon="123.4132650868254">
        <ele>51.76173399930013</ele>
        <time>2017-06-12T22:22:21.250000Z</time>
      </trkpt>
      <trkpt lat="41.66090374816363" lon="123.4132793360608">
        <time>2017-06-12T22:22:24.279000Z</time>
      </trkpt>
      <trkpt lat="41.66100705512022" lon="123.4132896458017">
        <time>2017-06-12T22:22:27.285000Z</time>
      </trkpt>
      <trkpt lat="41.66110554248249" lon="123.4132959322291">
        <ele>52.11190098014438</ele>
        <time>2017-06-12T22:22:30.467000Z</time>
      </trkpt>
      <trkpt lat="41.66120646059667" lon="123.4133072477983">
        <time>2017-06-12T22:22:33.243000Z</time>
      </trkpt>
      <trkpt lat="41.66130993519133" lon="123.4133179766344">
        <time>2017-06-12T22:22:36.272000Z</time>
      </trkpt>
      <trkpt lat="41.66141839701837" lon="123.4133320582317">
        <time>2017-06-12T22:22:39.294000Z</time>
      </trkpt>
      <trkpt lat="41.66151860267078" lon="123.4133428708868">
        <ele>52.12901859722006</ele>
        <time>2017-06-12T22:22:42.241000Z</time>
      </trkpt>
      <trkpt lat="41.66162035897528" lon="123.4133547731893">
        <time>2017-06-12T22:22:45.307000Z</time>
      </trkpt>
      <trkpt lat="41.66172718633121" lon="123.4133727104621">
        <time>2017-06-12T22:22:48.310000Z</time>
      </trkpt>
      <trkpt lat="41.6618223209322" lon="123.4133814276414">
        <ele>52.14189408706748</ele>
        <time>2017-06-12T22:22:51.249000Z</time>
      </trkpt>
      <trkpt lat="41.66191783271884" lon="123.4133982752668">
        <time>2017-06-12T22:22:54.265000Z</time>
      </trkpt>
      <trkpt lat="41.6620247438938" lon="123.4134171345489">
        <time>2017-06-12T22:22:57.264000Z</time>
      </trkpt>
      <trkpt lat="41.66213584602034" lon="123.413430461775">
        <ele>52.15431852472279</ele>
        <time>2017-06-12T22:23:00.289000Z</time>
      </trkpt>
      <trkpt lat="41.66223743468678" lon="123.4134435375439">
        <time>2017-06-12T22:23:03.276000Z</time>
      </trkpt>
      <trkpt lat="41.66234757289445" lon="123.4134547692942">
        <time>2017-06-12T22:23:06.281000Z</time>
      </trkpt>
      <trkpt lat="41.66245519653118" lon="123.4134651628541">
        <time>2017-06-12T22:23:09.322000Z</time>
      </trkpt>
      <trkpt lat="41.66256185624903" lon="123.4134768975185">
        <ele>52.17223759817287</ele>
        <time>2017-06-12T22:23:12.327000Z</time>
      </trkpt>
      <trkpt lat="41.662656907031" lon="123.413480669375">
        <time>2017-06-12T22:23:15.260000Z</time>
      </trkpt>
      <trkpt lat="41.66275241881764" lon="123.4134891350972">
        <time>2017-06-12T22:23:18.282000Z</time>
      </trkpt>
      <trkpt lat="41.66284948125637" lon="123.4134991095619">
        <ele>52.16912082890632</ele>
        <time>2017-06-12T22:23:21.316000Z</time>
      </trkpt>
      <trkpt lat="41.66294612459993" lon="123.4135038034277">
        <time>2017-06-12T22:23:24.273000Z</time>
      </trkpt>
      <trkpt lat="41.66304423477656" lon="123.4135115147786">
        <time>2017-06-12T22:23:27.308000Z</time>
      </trkpt>
      <trkpt lat="41.66315424725568" lon="123.4135250934618">
        <ele>51.84834073340719</ele>
        <time>2017-06-12T22:23:30.293000Z</time>
      </trkpt>
      <trkpt lat="41.66325252507037" lon="123.4135397617923">
        <time>2017-06-12T22:23:33.285000Z</time>
      </trkpt>
      <trkpt lat="41.66334560610509" lon="123.4135511611806">
        <time>2017-06-12T22:23:36.321000Z</time>
      </trkpt>
      <trkpt lat="41.66344002824432" lon="123.4135582857983">
        <time>2017-06-12T22:23:39.282000Z</time>
      </trkpt>
      <trkpt lat="41.66353357028371" lon="123.4135664162444">
        <ele>51.41238352399996</ele>
        <time>2017-06-12T22:23:42.314000Z</time>
      </trkpt>
      <trkpt lat="41.66362606458521" lon="123.4135787376421">
        <time>2017-06-12T22:23:45.374000Z</time>
      </trkpt>
      <trkpt lat="41.66371994190073" lon="123.4135941603439">
        <time>2017-06-12T22:23:48.321000Z</time>
      </trkpt>
      <trkpt lat="41.66381733961558" lon="123.4135867004501">
        <ele>51.1038311357993</ele>
        <time>2017-06-12T22:23:51.288000Z</time>
      </trkpt>
      <trkpt lat="41.66391767099655" lon="123.4135584534364">
        <time>2017-06-12T22:23:54.273000Z</time>
      </trkpt>
      <trkpt lat="41.66401754137284" lon="123.4135877062785">
        <time>2017-06-12T22:23:57.279000Z</time>
      </trkpt>
      <trkpt lat="41.66411611255413" lon="123.41359709401">
        <ele>50.77210527005718</ele>
        <time>2017-06-12T22:24:02.277000Z</time>
      </trkpt>
      <trkpt lat="41.66423148945129" lon="123.413612935807">
        <time>2017-06-12T22:24:05.238000Z</time>
      </trkpt>
      <trkpt lat="41.6643422563017" lon="123.4136066493796">
        <time>2017-06-12T22:24:08.269000Z</time>
      </trkpt>
      <trkpt lat="41.66445000566697" lon="123.4136158694731">
        <ele>50.41464205266266</ele>
        <time>2017-06-12T22:24:11.285000Z</time>
      </trkpt>
      <trkpt lat="41.6645502532289" lon="123.4136598744648">
        <time>2017-06-12T22:24:14.288000Z</time>
      </trkpt>
      <trkpt lat="41.66463926904058" lon="123.4136904684113">
        <time>2017-06-12T22:24:17.302000Z</time>
      </trkpt>
      <trkpt lat="41.66473402645594" lon="123.4137088247793">
        <ele>50.07956342846774</ele>
        <time>2017-06-12T22:24:20.274000Z</time>
      </trkpt>
      <trkpt lat="41.66485527068532" lon="123.4137173743205">
        <time>2017-06-12T22:24:24.269000Z</time>
      </trkpt>
      <trkpt lat="41.66497161150134" lon="123.4137286060708">
        <time>2017-06-12T22:24:27.260000Z</time>
      </trkpt>
      <trkpt lat="41.6650825040803" lon="123.4137358983265">
        <ele>49.7133238727703</ele>
        <time>2017-06-12T22:24:30.283000Z</time>
      </trkpt>
      <trkpt lat="41.66519109163588" lon="123.4137484711813">
        <time>2017-06-12T22:24:33.368000Z</time>
      </trkpt>
      <trkpt lat="41.66528287347561" lon="123.4137626365977">
        <time>2017-06-12T22:24:36.264000Z</time>
      </trkpt>
      <trkpt lat="41.66539087429798" lon="123.4137798194992">
        <time>2017-06-12T22:24:39.259000Z</time>
      </trkpt>
      <trkpt lat="41.66550063532001" lon="123.4137960803913">
        <ele>49.25123486953976</ele>
        <time>2017-06-12T22:24:42.253000Z</time>
      </trkpt>
      <trkpt lat="41.66561488066024" lon="123.4138106649028">
        <time>2017-06-12T22:24:45.253000Z</time>
      </trkpt>
      <trkpt lat="41.66570951234704" lon="123.4138156940447">
        <time>2017-06-12T22:24:48.291000Z</time>
      </trkpt>
      <trkpt lat="41.66580079127258" lon="123.4138236568527">
        <ele>48.90018133742265</ele>
        <time>2017-06-12T22:24:51.267000Z</time>
      </trkpt>
      <trkpt lat="41.66589194446957" lon="123.4138490540194">
        <time>2017-06-12T22:24:54.296000Z</time>
      </trkpt>
      <trkpt lat="41.66598871354169" lon="123.4138601181315">
        <time>2017-06-12T22:24:57.294000Z</time>
      </trkpt>
      <trkpt lat="41.6660836385951" lon="123.413866656016">
        <ele>48.5910372859656</ele>
        <time>2017-06-12T22:25:00.257000Z</time>
      </trkpt>
      <trkpt lat="41.66618212595737" lon="123.4138774686711">
        <time>2017-06-12T22:25:03.271000Z</time>
      </trkpt>
      <trkpt lat="41.66627797302014" lon="123.4138879460501">
        <time>2017-06-12T22:25:06.270000Z</time>
      </trkpt>
      <trkpt lat="41.6663806932435" lon="123.4138964955913">
        <time>2017-06-12T22:25:09.276000Z</time>
      </trkpt>
      <trkpt lat="41.66648676622814" lon="123.4139039554851">
        <ele>48.1598133826094</ele>
        <time>2017-06-12T22:25:12.288000Z</time>
      </trkpt>
      <trkpt lat="41.66657808706319" lon="123.4139146843212">
        <time>2017-06-12T22:25:15.277000Z</time>
      </trkpt>
      <trkpt lat="41.66667690970159" lon="123.4139349685269">
        <time>2017-06-12T22:25:18.336000Z</time>
      </trkpt>
      <trkpt lat="41.66676818862712" lon="123.4139428475158">
        <ele>47.83301804400377</ele>
        <time>2017-06-12T22:25:21.316000Z</time>
      </trkpt>
      <trkpt lat="41.66688243396735" lon="123.4139560071038">
        <time>2017-06-12T22:25:25.253000Z</time>
      </trkpt>
      <trkpt lat="41.66697576645917" lon="123.4139606171506">
        <time>2017-06-12T22:25:28.267000Z</time>
      </trkpt>
      <trkpt lat="41.66707546919739" lon="123.4139612877028">
        <ele>47.50434910508626</ele>
        <time>2017-06-12T22:25:31.235000Z</time>
      </trkpt>
      <trkpt lat="41.66717890188253" lon="123.4139755369382">
        <time>2017-06-12T22:25:34.278000Z</time>
      </trkpt>
      <trkpt lat="41.6672781855256" lon="123.41399095964">
        <time>2017-06-12T22:25:37.271000Z</time>
      </trkpt>
      <trkpt lat="41.66737629570222" lon="123.4140023590284">
        <ele>47.17124269174593</ele>
        <time>2017-06-12T22:25:40.257000Z</time>
      </trkpt>
      <trkpt lat="41.66746908337033" lon="123.4140084778177">
        <time>2017-06-12T22:25:43.254000Z</time>
      </trkpt>
      <trkpt lat="41.66757503062642" lon="123.4140216374057">
        <time>2017-06-12T22:25:46.256000Z</time>
      </trkpt>
      <trkpt lat="41.66767159015095" lon="123.414033120613">
        <time>2017-06-12T22:25:49.230000Z</time>
      </trkpt>
      <trkpt lat="41.66778122544444" lon="123.4140560032087">
        <ele>46.33796296018836</ele>
        <time>2017-06-12T22:25:52.259000Z</time>
      </trkpt>
      <trkpt lat="41.66788931008583" lon="123.4140711744534">
        <time>2017-06-12T22:25:55.262000Z</time>
      </trkpt>
      <trkpt lat="41.66798796508616" lon="123.4140746110337">
        <time>2017-06-12T22:25:58.239000Z</time>
      </trkpt>
      <trkpt lat="41.66807966310686" lon="123.414078047614">
        <ele>46.25866028251041</ele>
        <time>2017-06-12T22:26:01.321000Z</time>
      </trkpt>
      <trkpt lat="41.66817932393557" lon="123.4140824062036">
        <time>2017-06-12T22:26:04.258000Z</time>
      </trkpt>
      <trkpt lat="41.66827785320735" lon="123.4140874353456">
        <time>2017-06-12T22:26:07.327000Z</time>
      </trkpt>
      <trkpt lat="41.66838639885342" lon="123.4140964039819">
        <ele>46.25043569453538</ele>
        <time>2017-06-12T22:26:10.386000Z</time>
      </trkpt>
      <trkpt lat="41.66849087927645" lon="123.4141022713142">
        <time>2017-06-12T22:26:13.470000Z</time>
      </trkpt>
      <trkpt lat="41.66860009547478" lon="123.4141042829709">
        <time>2017-06-12T22:26:16.453000Z</time>
      </trkpt>
      <trkpt lat="41.66870344434088" lon="123.4141103179412">
        <time>2017-06-12T22:26:19.383000Z</time>
      </trkpt>
      <trkpt lat="41.66881995279497" lon="123.4141125810551">
        <ele>46.23835495483857</ele>
        <time>2017-06-12T22:26:23.262000Z</time>
      </trkpt>
      <trkpt lat="41.66893449150181" lon="123.4141351283746">
        <time>2017-06-12T22:26:27.254000Z</time>
      </trkpt>
      <trkpt lat="41.66903029665506" lon="123.4141478688674">
        <ele>46.23176661894906</ele>
        <time>2017-06-12T22:26:30.302000Z</time>
      </trkpt>
      <trkpt lat="41.66913025085038" lon="123.414159854989">
        <time>2017-06-12T22:26:33.288000Z</time>
      </trkpt>
      <trkpt lat="41.66923745539194" lon="123.414173098396">
        <time>2017-06-12T22:26:36.313000Z</time>
      </trkpt>
      <trkpt lat="41.66933258999294" lon="123.4141929635065">
        <time>2017-06-12T22:26:39.273000Z</time>
      </trkpt>
      <trkpt lat="41.66943095162666" lon="123.4142044467138">
        <ele>46.22040715548309</ele>
        <time>2017-06-12T22:26:42.264000Z</time>
      </trkpt>
      <trkpt lat="41.66952495467073" lon="123.4142134991693">
        <time>2017-06-12T22:26:45.316000Z</time>
      </trkpt>
      <trkpt lat="41.66962939318424" lon="123.4142248147385">
        <time>2017-06-12T22:26:48.258000Z</time>
      </trkpt>
      <trkpt lat="41.66973492134518" lon="123.4142351244794">
        <ele>46.21196083241236</ele>
        <time>2017-06-12T22:26:51.314000Z</time>
      </trkpt>
      <trkpt lat="41.66984514337189" lon="123.4142380581455">
        <time>2017-06-12T22:26:55.267000Z</time>
      </trkpt>
      <trkpt lat="41.6699463967622" lon="123.414255157228">
        <time>2017-06-12T22:26:58.266000Z</time>
      </trkpt>
      <trkpt lat="41.67004249528206" lon="123.4142800514804">
        <ele>46.20293850782866</ele>
        <time>2017-06-12T22:27:01.291000Z</time>
      </trkpt>
      <trkpt lat="41.67015238203264" lon="123.4142931272494">
        <time>2017-06-12T22:27:04.311000Z</time>
      </trkpt>
      <trkpt lat="41.67026101149774" lon="123.414305281009">
        <time>2017-06-12T22:27:07.267000Z</time>
      </trkpt>
      <trkpt lat="41.67036633011109" lon="123.4143099748748">
        <ele>46.19394167003757</ele>
        <time>2017-06-12T22:27:10.324000Z</time>
      </trkpt>
      <trkpt lat="41.67047336701459" lon="123.4143150040167">
        <time>2017-06-12T22:27:13.272000Z</time>
      </trkpt>
      <trkpt lat="41.67057374030507" lon="123.4143295047091">
        <time>2017-06-12T22:27:16.271000Z</time>
      </trkpt>
      <trkpt lat="41.67068400424129" lon="123.4143516329335">
        <ele>46.18505187677543</ele>
        <time>2017-06-12T22:27:20.259000Z</time>
      </trkpt>
      <trkpt lat="41.6707839165271" lon="123.4143549018758">
        <time>2017-06-12T22:27:23.263000Z</time>
      </trkpt>
      <trkpt lat="41.67089262981123" lon="123.4143697378444">
        <time>2017-06-12T22:27:26.251000Z</time>
      </trkpt>
      <trkpt lat="41.6709876805932" lon="123.4143781197475">
        <time>2017-06-12T22:27:29.281000Z</time>
      </trkpt>
      <trkpt lat="41.67108432393677" lon="123.4143813886898">
        <ele>46.17325404047658</ele>
        <time>2017-06-12T22:27:32.251000Z</time>
      </trkpt>
      <trkpt lat="41.67120116766698" lon="123.4143754375385">
        <time>2017-06-12T22:27:35.255000Z</time>
      </trkpt>
      <trkpt lat="41.67130166668601" lon="123.4143599310177">
        <time>2017-06-12T22:27:38.299000Z</time>
      </trkpt>
      <trkpt lat="41.6713933647067" lon="123.4143377189743">
        <ele>46.16432601702553</ele>
        <time>2017-06-12T22:27:41.342000Z</time>
      </trkpt>
      <trkpt lat="41.67150077879585" lon="123.4143226315485">
        <time>2017-06-12T22:27:44.285000Z</time>
      </trkpt>
      <trkpt lat="41.67160131972439" lon="123.4143087175893">
        <time>2017-06-12T22:27:47.233000Z</time>
      </trkpt>
      <trkpt lat="41.67170320175744" lon="123.4143085499512">
        <ele>46.15575225999176</ele>
        <time>2017-06-12T22:27:50.316000Z</time>
      </trkpt>
      <trkpt lat="41.67181183122254" lon="123.4143204522537">
        <time>2017-06-12T22:27:53.216000Z</time>
      </trkpt>
      <trkpt lat="41.67191924531168" lon="123.4143497050958">
        <time>2017-06-12T22:27:56.240000Z</time>
      </trkpt>
      <trkpt lat="41.67202125307328" lon="123.4143750184434">
        <time>2017-06-12T22:27:59.233000Z</time>
      </trkpt>
      <trkpt lat="41.67213499549932" lon="123.4144230467485">
        <ele>46.14371994520089</ele>
        <time>2017-06-12T22:28:02.291000Z</time>
      </trkpt>
      <trkpt lat="41.67224756445891" lon="123.4144693986731">
        <time>2017-06-12T22:28:05.237000Z</time>
      </trkpt>
      <trkpt lat="41.67236801240749" lon="123.4145148285883">
        <time>2017-06-12T22:28:08.216000Z</time>
      </trkpt>
      <trkpt lat="41.67247756388194" lon="123.4145812132614">
        <ele>46.13344621910008</ele>
        <time>2017-06-12T22:28:11.289000Z</time>
      </trkpt>
      <trkpt lat="41.6725866124422" lon="123.4145620187031">
        <time>2017-06-12T22:28:14.258000Z</time>
      </trkpt>
      <trkpt lat="41.67269679255939" lon="123.4145647847312">
        <time>2017-06-12T22:28:18.253000Z</time>
      </trkpt>
      <trkpt lat="41.67282071899778" lon="123.41454324324">
        <ele>46.12379182205967</ele>
        <time>2017-06-12T22:28:22.269000Z</time>
      </trkpt>
      <trkpt lat="41.67293182112432" lon="123.4145230428534">
        <time>2017-06-12T22:28:25.249000Z</time>
      </trkpt>
      <trkpt lat="41.673040660137" lon="123.4145271499859">
        <time>2017-06-12T22:28:28.264000Z</time>
      </trkpt>
      <trkpt lat="41.67315213944919" lon="123.4145576601135">
        <ele>45.88689410794123</ele>
        <time>2017-06-12T22:28:31.265000Z</time>
      </trkpt>
      <trkpt lat="41.67326278057105" lon="123.4145817161756">
        <time>2017-06-12T22:28:34.280000Z</time>
      </trkpt>
      <trkpt lat="41.67338134259141" lon="123.414598563801">
        <time>2017-06-12T22:28:37.270000Z</time>
      </trkpt>
      <trkpt lat="41.67350044943548" lon="123.4146096279131">
        <ele>46.11566222595776</ele>
        <time>2017-06-12T22:28:41.260000Z</time>
      </trkpt>
      <trkpt lat="41.6736083245293" lon="123.4146284033762">
        <time>2017-06-12T22:28:44.264000Z</time>
      </trkpt>
      <trkpt lat="41.67371184103347" lon="123.4146396351265">
        <time>2017-06-12T22:28:47.259000Z</time>
      </trkpt>
      <trkpt lat="41.67381074749089" lon="123.41465145361">
        <ele>46.52112185658765</ele>
        <time>2017-06-12T22:28:50.301000Z</time>
      </trkpt>
      <trkpt lat="41.67393153071559" lon="123.4146774375098">
        <time>2017-06-12T22:28:53.244000Z</time>
      </trkpt>
      <trkpt lat="41.67404841635532" lon="123.4147005715625">
        <time>2017-06-12T22:28:56.248000Z</time>
      </trkpt>
      <trkpt lat="41.67416844520874" lon="123.4147212748634">
        <time>2017-06-12T22:28:59.295000Z</time>
      </trkpt>
      <trkpt lat="41.67428122371591" lon="123.4147321713375">
        <ele>47.08382740080147</ele>
        <time>2017-06-12T22:29:02.247000Z</time>
      </trkpt>
      <trkpt lat="41.67439551096565" lon="123.4147481807726">
        <time>2017-06-12T22:29:05.266000Z</time>
      </trkpt>
      <trkpt lat="41.67450485289253" lon="123.4147622623699">
        <time>2017-06-12T22:29:08.242000Z</time>
      </trkpt>
      <trkpt lat="41.67461691893793" lon="123.4147789423572">
        <ele>47.496309877537</ele>
        <time>2017-06-12T22:29:11.295000Z</time>
      </trkpt>
      <trkpt lat="41.67472261473692" lon="123.4147983883726">
        <time>2017-06-12T22:29:14.280000Z</time>
      </trkpt>
      <trkpt lat="41.67483229193992" lon="123.4148162418263">
        <time>2017-06-12T22:29:17.277000Z</time>
      </trkpt>
      <trkpt lat="41.67494318451888" lon="123.4148261324721">
        <ele>47.89913594087727</ele>
        <time>2017-06-12T22:29:20.235000Z</time>
      </trkpt>
      <trkpt lat="41.67505017951287" lon="123.4148373642223">
        <time>2017-06-12T22:29:23.234000Z</time>
      </trkpt>
      <trkpt lat="41.67515461802638" lon="123.414855133857">
        <time>2017-06-12T22:29:26.245000Z</time>
      </trkpt>
      <trkpt lat="41.67526810899533" lon="123.4148606659131">
        <time>2017-06-12T22:29:29.384000Z</time>
      </trkpt>
      <trkpt lat="41.6753919935242" lon="123.4148667008834">
        <ele>48.43309170884616</ele>
        <time>2017-06-12T22:29:32.291000Z</time>
      </trkpt>
      <trkpt lat="41.67551076509214" lon="123.4148806986617">
        <time>2017-06-12T22:29:35.275000Z</time>
      </trkpt>
      <trkpt lat="41.67563020721234" lon="123.4148906731265">
        <time>2017-06-12T22:29:38.297000Z</time>
      </trkpt>
      <trkpt lat="41.67576071344472" lon="123.4149093647706">
        <ele>48.87618940532343</ele>
        <time>2017-06-12T22:29:41.288000Z</time>
      </trkpt>
      <trkpt lat="41.67588262822635" lon="123.414936941232">
        <time>2017-06-12T22:29:44.300000Z</time>
      </trkpt>
      <trkpt lat="41.67600383054621" lon="123.4149546270477">
        <time>2017-06-12T22:29:47.255000Z</time>
      </trkpt>
      <trkpt lat="41.67612729597992" lon="123.4149639309602">
        <ele>49.33640528918318</ele>
        <time>2017-06-12T22:29:50.247000Z</time>
      </trkpt>
      <trkpt lat="41.67624162513918" lon="123.4149705526637">
        <time>2017-06-12T22:29:53.308000Z</time>
      </trkpt>
      <trkpt lat="41.67635151188976" lon="123.414979353662">
        <time>2017-06-12T22:29:56.245000Z</time>
      </trkpt>
      <trkpt lat="41.67647929400361" lon="123.4149949440019">
        <time>2017-06-12T22:29:59.319000Z</time>
      </trkpt>
      <trkpt lat="41.67659450326271" lon="123.4150081874089">
        <ele>49.91820419624669</ele>
        <time>2017-06-12T22:30:02.239000Z</time>
      </trkpt>
      <trkpt lat="41.67670091152347" lon="123.4150228557395">
        <time>2017-06-12T22:30:05.308000Z</time>
      </trkpt>
      <trkpt lat="41.67680832561261" lon="123.4150436428594">
        <time>2017-06-12T22:30:08.276000Z</time>
      </trkpt>
      <trkpt lat="41.67693866420693" lon="123.4150765837388">
        <ele>50.32256650717257</ele>
        <time>2017-06-12T22:30:11.269000Z</time>
      </trkpt>
      <trkpt lat="41.67706187818355" lon="123.4150873125749">
        <time>2017-06-12T22:30:14.276000Z</time>
      </trkpt>
      <trkpt lat="41.67717784181393" lon="123.4150959459351">
        <time>2017-06-12T22:30:17.283000Z</time>
      </trkpt>
      <trkpt lat="41.67728416625567" lon="123.4151033220099">
        <ele>50.7770763285715</ele>
        <time>2017-06-12T22:30:20.267000Z</time>
      </trkpt>
      <trkpt lat="41.67740033943362" lon="123.4151053336667">
        <time>2017-06-12T22:30:23.278000Z</time>
      </trkpt>
      <trkpt lat="41.67752149984397" lon="123.4151043278383">
        <time>2017-06-12T22:30:26.317000Z</time>
      </trkpt>
      <trkpt lat="41.67762480680056" lon="123.4151171521502">
        <time>2017-06-12T22:30:29.266000Z</time>
      </trkpt>
      <trkpt lat="41.67774659585364" lon="123.4151303955572">
        <ele>51.24143740160151</ele>
        <time>2017-06-12T22:30:32.242000Z</time>
      </trkpt>
      <trkpt lat="41.6778617212937" lon="123.4151320719378">
        <time>2017-06-12T22:30:35.272000Z</time>
      </trkpt>
      <trkpt lat="41.67798162441857" lon="123.4151514341341">
        <time>2017-06-12T22:30:38.246000Z</time>
      </trkpt>
      <trkpt lat="41.67811422612674" lon="123.415177418034">
        <ele>51.24894675492953</ele>
        <time>2017-06-12T22:30:41.259000Z</time>
      </trkpt>
      <trkpt lat="41.67823723055579" lon="123.4151847102897">
        <time>2017-06-12T22:30:44.265000Z</time>
      </trkpt>
      <trkpt lat="41.67834766213007" lon="123.4151876439558">
        <time>2017-06-12T22:30:47.283000Z</time>
      </trkpt>
      <trkpt lat="41.67846106927998" lon="123.415201306458">
        <ele>51.25665397076683</ele>
        <time>2017-06-12T22:30:50.308000Z</time>
      </trkpt>
      <trkpt lat="41.67858352888532" lon="123.4152117000179">
        <time>2017-06-12T22:30:53.336000Z</time>
      </trkpt>
      <trkpt lat="41.67868662629433" lon="123.4152293020146">
        <time>2017-06-12T22:30:56.254000Z</time>
      </trkpt>
      <trkpt lat="41.67880464349098" lon="123.415248915668">
        <ele>51.26379398074421</ele>
        <time>2017-06-12T22:31:00.334000Z</time>
      </trkpt>
      <trkpt lat="41.67889768261619" lon="123.4152545315432">
        <time>2017-06-12T22:31:03.457000Z</time>
      </trkpt>
      <trkpt lat="41.67898657269932" lon="123.4152807669001">
        <time>2017-06-12T22:31:07.287000Z</time>
      </trkpt>
      <trkpt lat="41.67909465734072" lon="123.4152812698143">
        <ele>51.27014819389907</ele>
        <time>2017-06-12T22:31:11.284000Z</time>
      </trkpt>
      <trkpt lat="41.67921313554205" lon="123.4152942617642">
        <time>2017-06-12T22:31:15.273000Z</time>
      </trkpt>
      <trkpt lat="41.67932834480114" lon="123.4153086786376">
        <time>2017-06-12T22:31:19.291000Z</time>
      </trkpt>
      <trkpt lat="41.67942213829763" lon="123.4153080919044">
        <ele>51.27733531399771</ele>
        <time>2017-06-12T22:31:22.274000Z</time>
      </trkpt>
      <trkpt lat="41.67951542887993" lon="123.4152987041729">
        <time>2017-06-12T22:31:25.249000Z</time>
      </trkpt>
      <trkpt lat="41.67960930619545" lon="123.4153011349248">
        <time>2017-06-12T22:31:28.298000Z</time>
      </trkpt>
      <trkpt lat="41.67970465034403" lon="123.4153136239605">
        <ele>51.28323350117881</ele>
        <time>2017-06-12T22:31:31.321000Z</time>
      </trkpt>
      <trkpt lat="41.6798026347921" lon="123.415338602032">
        <time>2017-06-12T22:31:34.247000Z</time>
      </trkpt>
      <trkpt lat="41.67991021651931" lon="123.4153697827118">
        <time>2017-06-12T22:31:38.309000Z</time>
      </trkpt>
      <trkpt lat="41.68000254318275" lon="123.415383696671">
        <ele>51.28964236207432</ele>
        <time>2017-06-12T22:31:41.264000Z</time>
      </trkpt>
      <trkpt lat="41.68011251375236" lon="123.415388809632">
        <time>2017-06-12T22:31:45.270000Z</time>
      </trkpt>
      <trkpt lat="41.68020760644384" lon="123.4154010472106">
        <time>2017-06-12T22:31:48.281000Z</time>
      </trkpt>
      <trkpt lat="41.68029750235535" lon="123.415415212627">
        <ele>51.29881566986711</ele>
        <time>2017-06-12T22:31:51.235000Z</time>
      </trkpt>
      <trkpt lat="41.68041187342413" lon="123.4154217505114">
        <time>2017-06-12T22:31:55.320000Z</time>
      </trkpt>
      <trkpt lat="41.68051731776603" lon="123.4154287913101">
        <time>2017-06-12T22:31:58.295000Z</time>
      </trkpt>
      <trkpt lat="41.68061777487554" lon="123.4154323955285">
        <ele>51.31480599873959</ele>
        <time>2017-06-12T22:32:01.286000Z</time>
      </trkpt>
      <trkpt lat="41.68071483731426" lon="123.4154393525081">
        <time>2017-06-12T22:32:04.276000Z</time>
      </trkpt>
      <trkpt lat="41.68082837019272" lon="123.4154494946109">
        <time>2017-06-12T22:32:08.250000Z</time>
      </trkpt>
      <trkpt lat="41.68092752810724" lon="123.4154728801208">
        <ele>51.33084259592478</ele>
        <time>2017-06-12T22:32:11.243000Z</time>
      </trkpt>
      <trkpt lat="41.68104039043344" lon="123.4154872131752">
        <time>2017-06-12T22:32:15.315000Z</time>
      </trkpt>
      <trkpt lat="41.68113820724346" lon="123.415505066629">
        <time>2017-06-12T22:32:18.267000Z</time>
      </trkpt>
      <trkpt lat="41.68123434767283" lon="123.4155196511405">
        <ele>51.34693934191648</ele>
        <time>2017-06-12T22:32:21.282000Z</time>
      </trkpt>
      <trkpt lat="41.68133409232058" lon="123.4155281168627">
        <time>2017-06-12T22:32:24.297000Z</time>
      </trkpt>
      <trkpt lat="41.68145173233159" lon="123.4155442101168">
        <time>2017-06-12T22:32:28.425000Z</time>
      </trkpt>
      <trkpt lat="41.68155126743175" lon="123.415550245087">
        <ele>51.36315638552124</ele>
        <time>2017-06-12T22:32:31.270000Z</time>
      </trkpt>
      <trkpt lat="41.68165729850687" lon="123.4155550227719">
        <time>2017-06-12T22:32:34.422000Z</time>
      </trkpt>
      <trkpt lat="41.68177259158499" lon="123.4155307152527">
        <time>2017-06-12T22:32:37.424000Z</time>
      </trkpt>
      <trkpt lat="41.68188159823574" lon="123.4154958465355">
        <ele>51.37976208295276</ele>
        <time>2017-06-12T22:32:40.377000Z</time>
      </trkpt>
      <trkpt lat="41.68199219744809" lon="123.4155178909408">
        <time>2017-06-12T22:32:43.265000Z</time>
      </trkpt>
      <trkpt lat="41.68211398650117" lon="123.4155182262169">
        <time>2017-06-12T22:32:46.265000Z</time>
      </trkpt>
      <trkpt lat="41.6822335124404" lon="123.4155128617989">
        <time>2017-06-12T22:32:49.274000Z</time>
      </trkpt>
      <trkpt lat="41.68233627457328" lon="123.4154918232219">
        <ele>51.40371518844258</ele>
        <time>2017-06-12T22:32:52.273000Z</time>
      </trkpt>
      <trkpt lat="41.68245060373254" lon="123.4154583794283">
        <time>2017-06-12T22:32:55.261000Z</time>
      </trkpt>
      <trkpt lat="41.68254754044272" lon="123.4154711199211">
        <time>2017-06-12T22:32:58.240000Z</time>
      </trkpt>
      <trkpt lat="41.68264573443837" lon="123.4155261890249">
        <ele>51.42010805163564</ele>
        <time>2017-06-12T22:33:01.246000Z</time>
      </trkpt>
      <trkpt lat="41.68273806110181" lon="123.4155569506096">
        <time>2017-06-12T22:33:04.255000Z</time>
      </trkpt>
      <trkpt lat="41.68283214796491" lon="123.4155461379545">
        <time>2017-06-12T22:33:09.237000Z</time>
      </trkpt>
      <trkpt lat="41.6829346586407" lon="123.4155350738423">
        <ele>51.582037390862</ele>
        <time>2017-06-12T22:33:16.252000Z</time>
      </trkpt>
      <trkpt lat="41.68302405163802" lon="123.4154996183919">
        <ele>51.582037390862</ele>
        <time>2017-06-12T22:33:22.248000Z</time>
      </trkpt>
      <trkpt lat="41.68311851568676" lon="123.415473383035">
        <time>2017-06-12T22:33:28.782000Z</time>
      </trkpt>
    </trkseg>
  </trk>
</gpx>