<?xml version="1.0" encoding="UTF-8"?>
<gpx xmlns="http://www.topografix.com/GPX/1/1" xmlns:gpxtpx="http://www.garmin.com/xmlschemas/TrackPointExtension/v1" xmlns:xsi="http://www.w3.org/2001/XMLSchema-instance" xsi:schemaLocation="http://www.topografix.com/GPX/1/1 http://www.topografix.com/GPX/1/1/gpx.xsd" version="1.1" creator="gpx.py -- https://github.com/tkrajina/gpxpy">
  <trk>
    <name>星期日  上午跑</name>
    <trkseg>
      <trkpt lat="41.68347156144835" lon="123.4155831021475">
        <time>2017-06-10T22:23:24.210000Z</time>
      </trkpt>
      <trkpt lat="41.68338355146505" lon="123.4156474751638">
        <ele>55.94333365631981</ele>
        <time>2017-06-10T22:23:31.320000Z</time>
      </trkpt>
      <trkpt lat="41.68330237273283" lon="123.4155655839699">
        <time>2017-06-10T22:23:34.253000Z</time>
      </trkpt>
      <trkpt lat="41.68320246044703" lon="123.4154909850316">
        <time>2017-06-10T22:23:38.226000Z</time>
      </trkpt>
      <trkpt lat="41.68309634555288" lon="123.415507748838">
        <ele>53.30631129336327</ele>
        <time>2017-06-10T22:23:42.245000Z</time>
      </trkpt>
      <trkpt lat="41.68298637498327" lon="123.4155401029842">
        <time>2017-06-10T22:23:46.234000Z</time>
      </trkpt>
      <trkpt lat="41.68289115656324" lon="123.415534319471">
        <time>2017-06-10T22:23:49.233000Z</time>
      </trkpt>
      <trkpt lat="41.68278734669246" lon="123.4155453835832">
        <ele>50.68202454977329</ele>
        <time>2017-06-10T22:23:52.266000Z</time>
      </trkpt>
      <trkpt lat="41.68269116435356" lon="123.4155322239952">
        <time>2017-06-10T22:23:55.225000Z</time>
      </trkpt>
      <trkpt lat="41.68259699367143" lon="123.4155048989909">
        <time>2017-06-10T22:23:59.210000Z</time>
      </trkpt>
      <trkpt lat="41.68250005696125" lon="123.4155128617989">
        <ele>50.63451909297424</ele>
        <time>2017-06-10T22:24:02.234000Z</time>
      </trkpt>
      <trkpt lat="41.6823992226661" lon="123.4155285359578">
        <time>2017-06-10T22:24:05.219000Z</time>
      </trkpt>
      <trkpt lat="41.68226289101101" lon="123.4155441262977">
        <time>2017-06-10T22:24:08.301000Z</time>
      </trkpt>
      <trkpt lat="41.6820942471192" lon="123.415558124076">
        <ele>50.51035313419975</ele>
        <time>2017-06-10T22:24:11.296000Z</time>
      </trkpt>
      <trkpt lat="41.68197053022839" lon="123.4155639914082">
        <time>2017-06-10T22:24:13.319000Z</time>
      </trkpt>
      <trkpt lat="41.68182585857965" lon="123.4155796655672">
        <time>2017-06-10T22:24:16.229000Z</time>
      </trkpt>
      <trkpt lat="41.68173545975394" lon="123.415550245087">
        <time>2017-06-10T22:24:19.306000Z</time>
      </trkpt>
      <trkpt lat="41.68161945421405" lon="123.4155287874149">
        <ele>50.36655796651546</ele>
        <time>2017-06-10T22:24:23.214000Z</time>
      </trkpt>
      <trkpt lat="41.68150789108284" lon="123.4155689367311">
        <time>2017-06-10T22:24:27.242000Z</time>
      </trkpt>
      <trkpt lat="41.68140139900304" lon="123.4155498259919">
        <ele>49.06349614332007</ele>
        <time>2017-06-10T22:24:31.256000Z</time>
      </trkpt>
      <trkpt lat="41.68131162882008" lon="123.4155407735365">
        <time>2017-06-10T22:24:34.241000Z</time>
      </trkpt>
      <trkpt lat="41.68119239624746" lon="123.4155168012934">
        <time>2017-06-10T22:24:38.245000Z</time>
      </trkpt>
      <trkpt lat="41.68109617199905" lon="123.4155040608006">
        <ele>47.67372060676504</ele>
        <time>2017-06-10T22:24:41.245000Z</time>
      </trkpt>
      <trkpt lat="41.6810022108645" lon="123.4154912364887">
        <time>2017-06-10T22:24:44.404000Z</time>
      </trkpt>
      <trkpt lat="41.68090799827285" lon="123.4154846986042">
        <time>2017-06-10T22:24:47.429000Z</time>
      </trkpt>
      <trkpt lat="41.68081085201509" lon="123.4154764843391">
        <ele>47.63846765117988</ele>
        <time>2017-06-10T22:24:50.468000Z</time>
      </trkpt>
      <trkpt lat="41.68072032746084" lon="123.4154658393221">
        <time>2017-06-10T22:24:53.241000Z</time>
      </trkpt>
      <trkpt lat="41.68060566302545" lon="123.415444465469">
        <time>2017-06-10T22:24:57.242000Z</time>
      </trkpt>
      <trkpt lat="41.68050772048689" lon="123.4154392686891">
        <ele>47.60093995341814</ele>
        <time>2017-06-10T22:25:00.359000Z</time>
      </trkpt>
      <trkpt lat="41.68040755674399" lon="123.4154256061869">
        <time>2017-06-10T22:25:03.319000Z</time>
      </trkpt>
      <trkpt lat="41.68031460143782" lon="123.4154130333321">
        <time>2017-06-10T22:25:06.399000Z</time>
      </trkpt>
      <trkpt lat="41.68022353205986" lon="123.4154053219812">
        <time>2017-06-10T22:25:09.474000Z</time>
      </trkpt>
      <trkpt lat="41.68010086290695" lon="123.4154014663058">
        <ele>47.55360312353891</ele>
        <time>2017-06-10T22:25:13.438000Z</time>
      </trkpt>
      <trkpt lat="41.68000660840578" lon="123.4154075850951">
        <time>2017-06-10T22:25:16.387000Z</time>
      </trkpt>
      <trkpt lat="41.67989177633233" lon="123.415375817682">
        <ele>47.5268055510686</ele>
        <time>2017-06-10T22:25:20.425000Z</time>
      </trkpt>
      <trkpt lat="41.67978293731965" lon="123.4153424577074">
        <time>2017-06-10T22:25:24.359000Z</time>
      </trkpt>
      <trkpt lat="41.67969475969829" lon="123.4153147136079">
        <time>2017-06-10T22:25:27.332000Z</time>
      </trkpt>
      <trkpt lat="41.6796007147447" lon="123.4152901546316">
        <ele>47.48735819283591</ele>
        <time>2017-06-10T22:25:30.421000Z</time>
      </trkpt>
      <trkpt lat="41.67950059291132" lon="123.4152862151371">
        <time>2017-06-10T22:25:33.328000Z</time>
      </trkpt>
      <trkpt lat="41.67940269228227" lon="123.4152864665942">
        <time>2017-06-10T22:25:36.253000Z</time>
      </trkpt>
      <trkpt lat="41.67928769257076" lon="123.415299039449">
        <ele>46.52225229238522</ele>
        <time>2017-06-10T22:25:40.272000Z</time>
      </trkpt>
      <trkpt lat="41.67919725183554" lon="123.4153124504941">
        <time>2017-06-10T22:25:43.242000Z</time>
      </trkpt>
      <trkpt lat="41.679075588511" lon="123.4152931721168">
        <time>2017-06-10T22:25:47.257000Z</time>
      </trkpt>
      <trkpt lat="41.67897995099582" lon="123.4152829461949">
        <ele>45.54477492187559</ele>
        <time>2017-06-10T22:25:50.334000Z</time>
      </trkpt>
      <trkpt lat="41.67888037398614" lon="123.4152697027879">
        <time>2017-06-10T22:25:53.240000Z</time>
      </trkpt>
      <trkpt lat="41.67878842450835" lon="123.4152603150563">
        <time>2017-06-10T22:25:56.253000Z</time>
      </trkpt>
      <trkpt lat="41.67869576256879" lon="123.4152616561609">
        <time>2017-06-10T22:25:59.260000Z</time>
      </trkpt>
      <trkpt lat="41.67860574092872" lon="123.4152709600734">
        <ele>47.58380032460916</ele>
        <time>2017-06-10T22:26:02.289000Z</time>
      </trkpt>
      <trkpt lat="41.67849199850269" lon="123.4152497538583">
        <time>2017-06-10T22:26:06.242000Z</time>
      </trkpt>
      <trkpt lat="41.67840130631037" lon="123.415211951475">
        <time>2017-06-10T22:26:09.230000Z</time>
      </trkpt>
      <trkpt lat="41.67830537542857" lon="123.4151982889729">
        <ele>50.15295532031995</ele>
        <time>2017-06-10T22:26:12.251000Z</time>
      </trkpt>
      <trkpt lat="41.67820613369502" lon="123.4151920025455">
        <time>2017-06-10T22:26:15.261000Z</time>
      </trkpt>
      <trkpt lat="41.6781064309568" lon="123.415185297023">
        <time>2017-06-10T22:26:18.272000Z</time>
      </trkpt>
      <trkpt lat="41.67801054198451" lon="123.4151674435692">
        <ele>51.49043179256206</ele>
        <time>2017-06-10T22:26:21.241000Z</time>
      </trkpt>
      <trkpt lat="41.67789788920589" lon="123.4151474946397">
        <time>2017-06-10T22:26:25.268000Z</time>
      </trkpt>
      <trkpt lat="41.67780828666098" lon="123.4151356761562">
        <time>2017-06-10T22:26:28.234000Z</time>
      </trkpt>
      <trkpt lat="41.67769186202593" lon="123.4151207563685">
        <ele>51.56091326621962</ele>
        <time>2017-06-10T22:26:32.268000Z</time>
      </trkpt>
      <trkpt lat="41.67759764943428" lon="123.4151096084373">
        <time>2017-06-10T22:26:35.247000Z</time>
      </trkpt>
      <trkpt lat="41.67750092227168" lon="123.4151095246183">
        <time>2017-06-10T22:26:38.272000Z</time>
      </trkpt>
      <trkpt lat="41.67739296335883" lon="123.4151196667211">
        <ele>51.66593915022082</ele>
        <time>2017-06-10T22:26:41.262000Z</time>
      </trkpt>
      <trkpt lat="41.67728630364098" lon="123.4151231033014">
        <time>2017-06-10T22:26:44.251000Z</time>
      </trkpt>
      <trkpt lat="41.67718685235984" lon="123.4151255340533">
        <time>2017-06-10T22:26:47.307000Z</time>
      </trkpt>
      <trkpt lat="41.6770937294156" lon="123.4151186608927">
        <ele>51.77307841596483</ele>
        <time>2017-06-10T22:26:50.291000Z</time>
      </trkpt>
      <trkpt lat="41.67700232476152" lon="123.4151068424093">
        <time>2017-06-10T22:26:53.257000Z</time>
      </trkpt>
      <trkpt lat="41.67691121347404" lon="123.415095610659">
        <time>2017-06-10T22:26:56.271000Z</time>
      </trkpt>
      <trkpt lat="41.67682114992446" lon="123.4150805232333">
        <time>2017-06-10T22:26:59.306000Z</time>
      </trkpt>
      <trkpt lat="41.6767197708056" lon="123.4150568024473">
        <ele>51.96604685098904</ele>
        <time>2017-06-10T22:27:03.251000Z</time>
      </trkpt>
      <trkpt lat="41.67661231480695" lon="123.4150459059732">
        <time>2017-06-10T22:27:07.232000Z</time>
      </trkpt>
      <trkpt lat="41.67650670282698" lon="123.4150288907098">
        <ele>51.6797477288892</ele>
        <time>2017-06-10T22:27:11.245000Z</time>
      </trkpt>
      <trkpt lat="41.67641391515888" lon="123.415018832426">
        <time>2017-06-10T22:27:14.377000Z</time>
      </trkpt>
      <trkpt lat="41.67631915774352" lon="123.4150117916273">
        <time>2017-06-10T22:27:17.313000Z</time>
      </trkpt>
      <trkpt lat="41.67623001620329" lon="123.4149941058116">
        <ele>51.27961294902612</ele>
        <time>2017-06-10T22:27:20.283000Z</time>
      </trkpt>
      <trkpt lat="41.67611820161498" lon="123.4149755818056">
        <time>2017-06-10T22:27:24.215000Z</time>
      </trkpt>
      <trkpt lat="41.67602009143836" lon="123.4149656073408">
        <time>2017-06-10T22:27:27.306000Z</time>
      </trkpt>
      <trkpt lat="41.67592998597927" lon="123.414958063628">
        <ele>50.87019543312225</ele>
        <time>2017-06-10T22:27:30.233000Z</time>
      </trkpt>
      <trkpt lat="41.67581540536291" lon="123.4149391205268">
        <time>2017-06-10T22:27:34.333000Z</time>
      </trkpt>
      <trkpt lat="41.67571649890549" lon="123.4149123822557">
        <time>2017-06-10T22:27:38.388000Z</time>
      </trkpt>
      <trkpt lat="41.67559626050449" lon="123.4148958699064">
        <ele>50.45332730013302</ele>
        <time>2017-06-10T22:27:42.254000Z</time>
      </trkpt>
      <trkpt lat="41.67548532601602" lon="123.414876088615">
        <time>2017-06-10T22:27:46.279000Z</time>
      </trkpt>
      <trkpt lat="41.67537300851352" lon="123.4148475063251">
        <ele>50.13698142716434</ele>
        <time>2017-06-10T22:27:50.322000Z</time>
      </trkpt>
      <trkpt lat="41.67528135240234" lon="123.4148340952801">
        <time>2017-06-10T22:27:53.241000Z</time>
      </trkpt>
      <trkpt lat="41.67518035046912" lon="123.4148319998043">
        <time>2017-06-10T22:27:57.240000Z</time>
      </trkpt>
      <trkpt lat="41.67507146954692" lon="123.4148411360787">
        <ele>49.71901402280186</ele>
        <time>2017-06-10T22:28:01.365000Z</time>
      </trkpt>
      <trkpt lat="41.67496652811921" lon="123.4148345981943">
        <time>2017-06-10T22:28:05.236000Z</time>
      </trkpt>
      <trkpt lat="41.67487533301271" lon="123.4148217738824">
        <time>2017-06-10T22:28:08.244000Z</time>
      </trkpt>
      <trkpt lat="41.67478271298266" lon="123.4148147330837">
        <ele>49.30336730244957</ele>
        <time>2017-06-10T22:28:11.242000Z</time>
      </trkpt>
      <trkpt lat="41.67468456089652" lon="123.4148041718857">
        <time>2017-06-10T22:28:14.232000Z</time>
      </trkpt>
      <trkpt lat="41.67458305604912" lon="123.4147884977268">
        <time>2017-06-10T22:28:17.245000Z</time>
      </trkpt>
      <trkpt lat="41.67448804717667" lon="123.4147786070811">
        <ele>48.90457607648713</ele>
        <time>2017-06-10T22:28:20.217000Z</time>
      </trkpt>
      <trkpt lat="41.67438964363343" lon="123.4147641902076">
        <time>2017-06-10T22:28:23.222000Z</time>
      </trkpt>
      <trkpt lat="41.67429404802776" lon="123.4147536290096">
        <time>2017-06-10T22:28:26.263000Z</time>
      </trkpt>
      <trkpt lat="41.67419895533628" lon="123.4147385415839">
        <time>2017-06-10T22:28:29.260000Z</time>
      </trkpt>
      <trkpt lat="41.67410671249188" lon="123.4147285671191">
        <ele>48.38022363144677</ele>
        <time>2017-06-10T22:28:32.231000Z</time>
      </trkpt>
      <trkpt lat="41.67401472110457" lon="123.4147161619024">
        <time>2017-06-10T22:28:35.230000Z</time>
      </trkpt>
      <trkpt lat="41.67391376108087" lon="123.4147173353689">
        <time>2017-06-10T22:28:38.230000Z</time>
      </trkpt>
      <trkpt lat="41.67379356458939" lon="123.4147006553816">
        <ele>47.99157013037097</ele>
        <time>2017-06-10T22:28:42.242000Z</time>
      </trkpt>
      <trkpt lat="41.67367479302145" lon="123.4146745038437">
        <time>2017-06-10T22:28:46.297000Z</time>
      </trkpt>
      <trkpt lat="41.67357425209291" lon="123.4146665410357">
        <time>2017-06-10T22:28:49.289000Z</time>
      </trkpt>
      <trkpt lat="41.67348091960109" lon="123.4146530461716">
        <ele>47.5268226220135</ele>
        <time>2017-06-10T22:28:52.241000Z</time>
      </trkpt>
      <trkpt lat="41.67336818300343" lon="123.414635611813">
        <time>2017-06-10T22:28:56.242000Z</time>
      </trkpt>
      <trkpt lat="41.67325104590661" lon="123.4146190156447">
        <ele>47.24504272667036</ele>
        <time>2017-06-10T22:29:00.236000Z</time>
      </trkpt>
      <trkpt lat="41.67315788105286" lon="123.4146006592767">
        <time>2017-06-10T22:29:03.264000Z</time>
      </trkpt>
      <trkpt lat="41.67305788494802" lon="123.4145904333549">
        <time>2017-06-10T22:29:06.235000Z</time>
      </trkpt>
      <trkpt lat="41.67295566763885" lon="123.4145766870337">
        <time>2017-06-10T22:29:09.236000Z</time>
      </trkpt>
      <trkpt lat="41.67286137122817" lon="123.4145662934737">
        <ele>46.54434712435587</ele>
        <time>2017-06-10T22:29:12.247000Z</time>
      </trkpt>
      <trkpt lat="41.67274352166957" lon="123.4145505354958">
        <time>2017-06-10T22:29:16.261000Z</time>
      </trkpt>
      <trkpt lat="41.67264365129328" lon="123.4145476856487">
        <time>2017-06-10T22:29:19.245000Z</time>
      </trkpt>
      <trkpt lat="41.6725324234382" lon="123.4145360348033">
        <ele>46.5394353108782</ele>
        <time>2017-06-10T22:29:22.285000Z</time>
      </trkpt>
      <trkpt lat="41.67242915839113" lon="123.414524719234">
        <time>2017-06-10T22:29:25.336000Z</time>
      </trkpt>
      <trkpt lat="41.67232488751567" lon="123.4145288263666">
        <time>2017-06-10T22:29:28.382000Z</time>
      </trkpt>
      <trkpt lat="41.67222753171033" lon="123.4145276529001">
        <ele>46.53442052141435</ele>
        <time>2017-06-10T22:29:31.367000Z</time>
      </trkpt>
      <trkpt lat="41.67213323529965" lon="123.4145196900921">
        <time>2017-06-10T22:29:34.237000Z</time>
      </trkpt>
      <trkpt lat="41.67201748121686" lon="123.4145093803512">
        <time>2017-06-10T22:29:38.218000Z</time>
      </trkpt>
      <trkpt lat="41.67192473545826" lon="123.4144973942297">
        <ele>46.52958911384368</ele>
        <time>2017-06-10T22:29:41.231000Z</time>
      </trkpt>
      <trkpt lat="41.6718207160399" lon="123.4144885932313">
        <time>2017-06-10T22:29:44.455000Z</time>
      </trkpt>
      <trkpt lat="41.67171782817847" lon="123.4144693986731">
        <time>2017-06-10T22:29:47.414000Z</time>
      </trkpt>
      <trkpt lat="41.67162428613908" lon="123.4144466837155">
        <ele>46.52485927162925</ele>
        <time>2017-06-10T22:29:50.368000Z</time>
      </trkpt>
      <trkpt lat="41.67152429003424" lon="123.4144355357843">
        <time>2017-06-10T22:29:53.450000Z</time>
      </trkpt>
      <trkpt lat="41.67141700167365" lon="123.4144240525769">
        <time>2017-06-10T22:29:56.381000Z</time>
      </trkpt>
      <trkpt lat="41.67132220234878" lon="123.4144103900747">
        <time>2017-06-10T22:29:59.331000Z</time>
      </trkpt>
      <trkpt lat="41.67123280935145" lon="123.4143943806397">
        <ele>46.51860594907137</ele>
        <time>2017-06-10T22:30:02.250000Z</time>
      </trkpt>
      <trkpt lat="41.67114073414511" lon="123.4143827297943">
        <time>2017-06-10T22:30:05.269000Z</time>
      </trkpt>
      <trkpt lat="41.67102904528535" lon="123.4143791255759">
        <time>2017-06-10T22:30:09.302000Z</time>
      </trkpt>
      <trkpt lat="41.67092904918051" lon="123.4143644572454">
        <ele>46.51398472536291</ele>
        <time>2017-06-10T22:30:12.276000Z</time>
      </trkpt>
      <trkpt lat="41.67080755349404" lon="123.4143441730397">
        <time>2017-06-10T22:30:16.269000Z</time>
      </trkpt>
      <trkpt lat="41.67071275416917" lon="123.4143404850023">
        <time>2017-06-10T22:30:19.269000Z</time>
      </trkpt>
      <trkpt lat="41.6706050048039" lon="123.4143512976574">
        <ele>46.50899673786806</ele>
        <time>2017-06-10T22:30:22.236000Z</time>
      </trkpt>
      <trkpt lat="41.67050551161326" lon="123.4143467714297">
        <time>2017-06-10T22:30:25.299000Z</time>
      </trkpt>
      <trkpt lat="41.67041268203563" lon="123.4143266548621">
        <time>2017-06-10T22:30:28.259000Z</time>
      </trkpt>
      <trkpt lat="41.67031662542529" lon="123.4143137467312">
        <ele>46.50426266376378</ele>
        <time>2017-06-10T22:30:31.271000Z</time>
      </trkpt>
      <trkpt lat="41.67021340228773" lon="123.4142938816207">
        <time>2017-06-10T22:30:34.263000Z</time>
      </trkpt>
      <trkpt lat="41.67012132708139" lon="123.4142834042417">
        <time>2017-06-10T22:30:37.319000Z</time>
      </trkpt>
      <trkpt lat="41.67000540536053" lon="123.4142729268627">
        <ele>46.4996611888746</ele>
        <time>2017-06-10T22:30:41.416000Z</time>
      </trkpt>
      <trkpt lat="41.66990779809809" lon="123.4142618627505">
        <time>2017-06-10T22:30:44.315000Z</time>
      </trkpt>
      <trkpt lat="41.66980361104167" lon="123.4142564983325">
        <time>2017-06-10T22:30:47.247000Z</time>
      </trkpt>
      <trkpt lat="41.66970755443133" lon="123.4142491222577">
        <ele>46.49466332697011</ele>
        <time>2017-06-10T22:30:50.331000Z</time>
      </trkpt>
      <trkpt lat="41.66960848033583" lon="123.4142414109068">
        <time>2017-06-10T22:30:53.303000Z</time>
      </trkpt>
      <trkpt lat="41.66949565991914" lon="123.4142188635873">
        <time>2017-06-10T22:30:57.252000Z</time>
      </trkpt>
      <trkpt lat="41.66939490944302" lon="123.4142161813783">
        <ele>46.48980511743045</ele>
        <time>2017-06-10T22:31:00.308000Z</time>
      </trkpt>
      <trkpt lat="41.66929202158159" lon="123.4142039437996">
        <time>2017-06-10T22:31:03.314000Z</time>
      </trkpt>
      <trkpt lat="41.66918787643468" lon="123.4141835757749">
        <time>2017-06-10T22:31:06.273000Z</time>
      </trkpt>
      <trkpt lat="41.66908322837359" lon="123.4141699970918">
        <time>2017-06-10T22:31:09.254000Z</time>
      </trkpt>
      <trkpt lat="41.66898587256825" lon="123.4141583462464">
        <ele>46.48330070274189</ele>
        <time>2017-06-10T22:31:12.227000Z</time>
      </trkpt>
      <trkpt lat="41.66888449344939" lon="123.4141497967051">
        <time>2017-06-10T22:31:15.261000Z</time>
      </trkpt>
      <trkpt lat="41.66879388507611" lon="123.4141373914885">
        <time>2017-06-10T22:31:18.240000Z</time>
      </trkpt>
      <trkpt lat="41.66870042685574" lon="123.4141275846617">
        <ele>46.47874295738107</ele>
        <time>2017-06-10T22:31:21.315000Z</time>
      </trkpt>
      <trkpt lat="41.66860856119698" lon="123.4141166043686">
        <time>2017-06-10T22:31:24.240000Z</time>
      </trkpt>
      <trkpt lat="41.66851812046176" lon="123.4140946437823">
        <time>2017-06-10T22:31:27.286000Z</time>
      </trkpt>
      <trkpt lat="41.66841024536794" lon="123.414086010422">
        <ele>46.47438128958297</ele>
        <time>2017-06-10T22:31:30.337000Z</time>
      </trkpt>
      <trkpt lat="41.66830593258297" lon="123.4140802269088">
        <time>2017-06-10T22:31:33.247000Z</time>
      </trkpt>
      <trkpt lat="41.66820241607881" lon="123.4140679893302">
        <time>2017-06-10T22:31:36.264000Z</time>
      </trkpt>
      <trkpt lat="41.6680993186698" lon="123.4140632954644">
        <time>2017-06-10T22:31:39.285000Z</time>
      </trkpt>
      <trkpt lat="41.66799793955094" lon="123.414062205817">
        <ele>46.46779505835745</ele>
        <time>2017-06-10T22:31:42.243000Z</time>
      </trkpt>
      <trkpt lat="41.66790804363942" lon="123.4140473698484">
        <time>2017-06-10T22:31:45.350000Z</time>
      </trkpt>
      <trkpt lat="41.66781068783408" lon="123.4140407481449">
        <time>2017-06-10T22:31:48.375000Z</time>
      </trkpt>
      <trkpt lat="41.66771454740471" lon="123.4140295163946">
        <ele>46.46325141929611</ele>
        <time>2017-06-10T22:31:51.221000Z</time>
      </trkpt>
      <trkpt lat="41.66761899370855" lon="123.4140142613309">
        <time>2017-06-10T22:31:54.255000Z</time>
      </trkpt>
      <trkpt lat="41.66751723740405" lon="123.4140087292748">
        <time>2017-06-10T22:31:57.384000Z</time>
      </trkpt>
      <trkpt lat="41.66742470119303" lon="123.413998670991">
        <ele>46.45862737432775</ele>
        <time>2017-06-10T22:32:00.265000Z</time>
      </trkpt>
      <trkpt lat="41.66730496570623" lon="123.4139822424607">
        <time>2017-06-10T22:32:04.267000Z</time>
      </trkpt>
      <trkpt lat="41.66719880890256" lon="123.413953911628">
        <time>2017-06-10T22:32:07.287000Z</time>
      </trkpt>
      <trkpt lat="41.66709763933128" lon="123.4139346332507">
        <ele>46.03631666324542</ele>
        <time>2017-06-10T22:32:10.273000Z</time>
      </trkpt>
      <trkpt lat="41.66699684694564" lon="123.4139291011946">
        <time>2017-06-10T22:32:13.338000Z</time>
      </trkpt>
      <trkpt lat="41.66689911395466" lon="123.4139253293382">
        <time>2017-06-10T22:32:16.250000Z</time>
      </trkpt>
      <trkpt lat="41.66680146478271" lon="123.4139175341683">
        <time>2017-06-10T22:32:19.241000Z</time>
      </trkpt>
      <trkpt lat="41.66668474678105" lon="123.4139078949796">
        <ele>45.68417529969579</ele>
        <time>2017-06-10T22:32:23.281000Z</time>
      </trkpt>
      <trkpt lat="41.66658345148122" lon="123.4139037878471">
        <time>2017-06-10T22:32:26.358000Z</time>
      </trkpt>
      <trkpt lat="41.66649104099876" lon="123.4138938972013">
        <time>2017-06-10T22:32:29.220000Z</time>
      </trkpt>
      <trkpt lat="41.66637717284417" lon="123.4138750379192">
        <ele>45.13637312592863</ele>
        <time>2017-06-10T22:32:33.412000Z</time>
      </trkpt>
      <trkpt lat="41.66626003574735" lon="123.4138527420567">
        <time>2017-06-10T22:32:37.486000Z</time>
      </trkpt>
      <trkpt lat="41.6661539208532" lon="123.4138389957355">
        <ele>44.97454284863124</ele>
        <time>2017-06-10T22:32:40.393000Z</time>
      </trkpt>
      <trkpt lat="41.66605488866723" lon="123.4138344695078">
        <time>2017-06-10T22:32:43.377000Z</time>
      </trkpt>
      <trkpt lat="41.66595983788526" lon="123.4138197173583">
        <time>2017-06-10T22:32:46.232000Z</time>
      </trkpt>
      <trkpt lat="41.66586813986456" lon="123.4138046299325">
        <time>2017-06-10T22:32:49.252000Z</time>
      </trkpt>
      <trkpt lat="41.66575766638076" lon="123.4137959965723">
        <ele>44.29651533199902</ele>
        <time>2017-06-10T22:32:53.265000Z</time>
      </trkpt>
      <trkpt lat="41.66566760283118" lon="123.4137815796988">
        <time>2017-06-10T22:32:56.221000Z</time>
      </trkpt>
      <trkpt lat="41.66555159729129" lon="123.4137682524728">
        <ele>44.29398894804292</ele>
        <time>2017-06-10T22:33:00.311000Z</time>
      </trkpt>
      <trkpt lat="41.66544456038779" lon="123.4137460404294">
        <time>2017-06-10T22:33:04.238000Z</time>
      </trkpt>
      <trkpt lat="41.66532997977144" lon="123.4137366526978">
        <time>2017-06-10T22:33:08.302000Z</time>
      </trkpt>
      <trkpt lat="41.66523547381318" lon="123.4137333837556">
        <ele>44.28972793081695</ele>
        <time>2017-06-10T22:33:11.201000Z</time>
      </trkpt>
      <trkpt lat="41.66513815991735" lon="123.413726594414">
        <time>2017-06-10T22:33:14.354000Z</time>
      </trkpt>
      <trkpt lat="41.66503975637412" lon="123.4137182125108">
        <time>2017-06-10T22:33:17.243000Z</time>
      </trkpt>
      <trkpt lat="41.66493653323656" lon="123.4137233254718">
        <ele>44.28608159183032</ele>
        <time>2017-06-10T22:33:20.327000Z</time>
      </trkpt>
      <trkpt lat="41.66483838115042" lon="123.4136993532287">
        <time>2017-06-10T22:33:23.390000Z</time>
      </trkpt>
      <trkpt lat="41.66474425237781" lon="123.4136760515379">
        <time>2017-06-10T22:33:26.404000Z</time>
      </trkpt>
      <trkpt lat="41.66465083606696" lon="123.4136617184835">
        <time>2017-06-10T22:33:29.434000Z</time>
      </trkpt>
      <trkpt lat="41.66454199705428" lon="123.4136534203993">
        <ele>44.28115288741597</ele>
        <time>2017-06-10T22:33:32.246000Z</time>
      </trkpt>
      <trkpt lat="41.66444250386363" lon="123.4136399255352">
        <time>2017-06-10T22:33:35.216000Z</time>
      </trkpt>
      <trkpt lat="41.66434950664794" lon="123.4136061464654">
        <time>2017-06-10T22:33:38.283000Z</time>
      </trkpt>
      <trkpt lat="41.66425521023726" lon="123.4135965910958">
        <ele>44.27732045318255</ele>
        <time>2017-06-10T22:33:41.288000Z</time>
      </trkpt>
      <trkpt lat="41.66415927935547" lon="123.4136006982284">
        <time>2017-06-10T22:33:44.244000Z</time>
      </trkpt>
      <trkpt lat="41.66405354164696" lon="123.4135845211553">
        <time>2017-06-10T22:33:47.222000Z</time>
      </trkpt>
      <trkpt lat="41.66395362936115" lon="123.4135666677015">
        <ele>44.27359403684731</ele>
        <time>2017-06-10T22:33:50.267000Z</time>
      </trkpt>
      <trkpt lat="41.66385011285698" lon="123.4135462158578">
        <time>2017-06-10T22:33:53.230000Z</time>
      </trkpt>
      <trkpt lat="41.66375363715148" lon="123.4135430307346">
        <time>2017-06-10T22:33:56.257000Z</time>
      </trkpt>
      <trkpt lat="41.66363285392678" lon="123.4135413543539">
        <ele>44.26980446091316</ele>
        <time>2017-06-10T22:34:00.260000Z</time>
      </trkpt>
      <trkpt lat="41.66353373792177" lon="123.413533559184">
        <time>2017-06-10T22:34:03.275000Z</time>
      </trkpt>
      <trkpt lat="41.66343566965467" lon="123.4135356546598">
        <time>2017-06-10T22:34:06.276000Z</time>
      </trkpt>
      <trkpt lat="41.66333973877287" lon="123.4135297873275">
        <time>2017-06-10T22:34:09.333000Z</time>
      </trkpt>
      <trkpt lat="41.66324431080526" lon="123.4135196452247">
        <ele>44.26460620035348</ele>
        <time>2017-06-10T22:34:12.270000Z</time>
      </trkpt>
      <trkpt lat="41.66314255450076" lon="123.4135120176928">
        <time>2017-06-10T22:34:15.242000Z</time>
      </trkpt>
      <trkpt lat="41.663045408243" lon="123.4135048930751">
        <time>2017-06-10T22:34:18.297000Z</time>
      </trkpt>
      <trkpt lat="41.66292906742698" lon="123.4134903085636">
        <ele>44.26090459671781</ele>
        <time>2017-06-10T22:34:22.294000Z</time>
      </trkpt>
      <trkpt lat="41.66280878711647" lon="123.4134799150037">
        <time>2017-06-10T22:34:26.270000Z</time>
      </trkpt>
      <trkpt lat="41.66270028337991" lon="123.4134719521957">
        <time>2017-06-10T22:34:29.237000Z</time>
      </trkpt>
      <trkpt lat="41.66260401722199" lon="123.4134587926077">
        <ele>44.25656237429326</ele>
        <time>2017-06-10T22:34:32.311000Z</time>
      </trkpt>
      <trkpt lat="41.66250879880196" lon="123.4134456330197">
        <time>2017-06-10T22:34:35.261000Z</time>
      </trkpt>
      <trkpt lat="41.66239484682834" lon="123.4134378378498">
        <time>2017-06-10T22:34:39.255000Z</time>
      </trkpt>
      <trkpt lat="41.66229782629913" lon="123.4134397656875">
        <ele>44.25271415016013</ele>
        <time>2017-06-10T22:34:42.222000Z</time>
      </trkpt>
      <trkpt lat="41.66218035392618" lon="123.4134263546424">
        <time>2017-06-10T22:34:46.274000Z</time>
      </trkpt>
      <trkpt lat="41.66208245329714" lon="123.4134069924461">
        <time>2017-06-10T22:34:49.300000Z</time>
      </trkpt>
      <trkpt lat="41.66197311137026" lon="123.4133965150671">
        <ele>44.24877457017858</ele>
        <time>2017-06-10T22:34:52.259000Z</time>
      </trkpt>
      <trkpt lat="41.66186791848546" lon="123.4133763146805">
        <time>2017-06-10T22:34:55.261000Z</time>
      </trkpt>
      <trkpt lat="41.66177483745074" lon="123.4133679327773">
        <time>2017-06-10T22:34:58.302000Z</time>
      </trkpt>
      <trkpt lat="41.6616814630494" lon="123.4133567848461">
        <ele>44.244894766246</ele>
        <time>2017-06-10T22:35:01.315000Z</time>
      </trkpt>
      <trkpt lat="41.66156378112888" lon="123.4133473132955">
        <time>2017-06-10T22:35:05.266000Z</time>
      </trkpt>
      <trkpt lat="41.66147015527045" lon="123.4133376741069">
        <time>2017-06-10T22:35:08.460000Z</time>
      </trkpt>
      <trkpt lat="41.66135666430151" lon="123.4133235086905">
        <ele>44.24106007631264</ele>
        <time>2017-06-10T22:35:12.233000Z</time>
      </trkpt>
      <trkpt lat="41.66124518498933" lon="123.4133126122164">
        <time>2017-06-10T22:35:16.260000Z</time>
      </trkpt>
      <trkpt lat="41.66114342868482" lon="123.4133034759419">
        <time>2017-06-10T22:35:19.262000Z</time>
      </trkpt>
      <trkpt lat="41.66104678534126" lon="123.4132922441917">
        <ele>44.23694680743411</ele>
        <time>2017-06-10T22:35:22.309000Z</time>
      </trkpt>
      <trkpt lat="41.66094968099301" lon="123.4132821859079">
        <time>2017-06-10T22:35:25.267000Z</time>
      </trkpt>
      <trkpt lat="41.6608418058992" lon="123.4132786655085">
        <time>2017-06-10T22:35:28.248000Z</time>
      </trkpt>
      <trkpt lat="41.66074918586915" lon="123.4132634104448">
        <ele>44.105001916082</ele>
        <time>2017-06-10T22:35:31.293000Z</time>
      </trkpt>
      <trkpt lat="41.6606462560982" lon="123.4132432938771">
        <time>2017-06-10T22:35:34.269000Z</time>
      </trkpt>
      <trkpt lat="41.66055652782475" lon="123.4132308886605">
        <time>2017-06-10T22:35:37.229000Z</time>
      </trkpt>
      <trkpt lat="41.66043658279037" lon="123.4132168070631">
        <ele>44.24780314288136</ele>
        <time>2017-06-10T22:35:41.247000Z</time>
      </trkpt>
      <trkpt lat="41.66032112207418" lon="123.4131986183332">
        <time>2017-06-10T22:35:45.275000Z</time>
      </trkpt>
      <trkpt lat="41.66022192225014" lon="123.4131950979339">
        <time>2017-06-10T22:35:48.262000Z</time>
      </trkpt>
      <trkpt lat="41.66011517871326" lon="123.4131816868888">
        <ele>44.41466497025741</ele>
        <time>2017-06-10T22:35:51.232000Z</time>
      </trkpt>
      <trkpt lat="41.66001551788455" lon="123.4131750651853">
        <time>2017-06-10T22:35:54.356000Z</time>
      </trkpt>
      <trkpt lat="41.65992457423513" lon="123.4131651745396">
        <time>2017-06-10T22:35:57.233000Z</time>
      </trkpt>
      <trkpt lat="41.65982935581511" lon="123.4131565411793">
        <ele>44.56277827770357</ele>
        <time>2017-06-10T22:36:00.246000Z</time>
      </trkpt>
      <trkpt lat="41.65970781821912" lon="123.4131395259159">
        <time>2017-06-10T22:36:04.245000Z</time>
      </trkpt>
      <trkpt lat="41.65960954040443" lon="123.4131308087366">
        <time>2017-06-10T22:36:07.246000Z</time>
      </trkpt>
      <trkpt lat="41.65949072692698" lon="123.4131192417102">
        <ele>44.71981945178301</ele>
        <time>2017-06-10T22:36:11.232000Z</time>
      </trkpt>
      <trkpt lat="41.6593885096178" lon="123.4131113627212">
        <time>2017-06-10T22:36:14.277000Z</time>
      </trkpt>
      <trkpt lat="41.6592893936128" lon="123.4131024779039">
        <time>2017-06-10T22:36:17.313000Z</time>
      </trkpt>
      <trkpt lat="41.65917665701514" lon="123.4130973649429">
        <ele>44.8791818711871</ele>
        <time>2017-06-10T22:36:21.301000Z</time>
      </trkpt>
      <trkpt lat="41.65908604864185" lon="123.4130863846498">
        <time>2017-06-10T22:36:24.271000Z</time>
      </trkpt>
      <trkpt lat="41.6589759523437" lon="123.4130661842631">
        <time>2017-06-10T22:36:28.253000Z</time>
      </trkpt>
      <trkpt lat="41.6588792251811" lon="123.4130532761322">
        <ele>45.03559809460221</ele>
        <time>2017-06-10T22:36:31.301000Z</time>
      </trkpt>
      <trkpt lat="41.65878601841783" lon="123.4130385239827">
        <time>2017-06-10T22:36:34.266000Z</time>
      </trkpt>
      <trkpt lat="41.65869549386358" lon="123.4130163957583">
        <time>2017-06-10T22:36:37.293000Z</time>
      </trkpt>
      <trkpt lat="41.65860295765256" lon="123.4129935969817">
        <ele>45.17621199407641</ele>
        <time>2017-06-10T22:36:40.245000Z</time>
      </trkpt>
      <trkpt lat="41.65850954134172" lon="123.4129801021176">
        <time>2017-06-10T22:36:43.232000Z</time>
      </trkpt>
      <trkpt lat="41.65841721467828" lon="123.4129651823299">
        <time>2017-06-10T22:36:46.230000Z</time>
      </trkpt>
      <trkpt lat="41.65829425215875" lon="123.4129572195219">
        <ele>45.31579918888779</ele>
        <time>2017-06-10T22:36:50.282000Z</time>
      </trkpt>
      <trkpt lat="41.65819886610066" lon="123.4129483347045">
        <time>2017-06-10T22:36:53.299000Z</time>
      </trkpt>
      <trkpt lat="41.65810607843255" lon="123.4129223508047">
        <time>2017-06-10T22:36:56.255000Z</time>
      </trkpt>
      <trkpt lat="41.65800939317947" lon="123.4128961992668">
        <time>2017-06-10T22:36:59.368000Z</time>
      </trkpt>
      <trkpt lat="41.65791312702154" lon="123.4128827044027">
        <ele>45.52055981012212</ele>
        <time>2017-06-10T22:37:02.289000Z</time>
      </trkpt>
      <trkpt lat="41.65781929161554" lon="123.4128524457323">
        <time>2017-06-10T22:37:05.291000Z</time>
      </trkpt>
      <trkpt lat="41.65770902767932" lon="123.4128487576949">
        <time>2017-06-10T22:37:08.247000Z</time>
      </trkpt>
      <trkpt lat="41.65760932494109" lon="123.4128500149803">
        <ele>45.67135147755826</ele>
        <time>2017-06-10T22:37:11.240000Z</time>
      </trkpt>
      <trkpt lat="41.65749290030604" lon="123.4128506855326">
        <time>2017-06-10T22:37:15.223000Z</time>
      </trkpt>
      <trkpt lat="41.65739973545229" lon="123.4128467460381">
        <time>2017-06-10T22:37:18.362000Z</time>
      </trkpt>
      <trkpt lat="41.65728305936014" lon="123.4128256236421">
        <ele>45.82500006231706</ele>
        <time>2017-06-10T22:37:22.214000Z</time>
      </trkpt>
      <trkpt lat="41.65718536827868" lon="123.4127997235613">
        <time>2017-06-10T22:37:25.235000Z</time>
      </trkpt>
      <trkpt lat="41.65709191005831" lon="123.4127734043853">
        <time>2017-06-10T22:37:28.238000Z</time>
      </trkpt>
      <trkpt lat="41.6570009664089" lon="123.4127552994745">
        <ele>45.98038958106933</ele>
        <time>2017-06-10T22:37:31.238000Z</time>
      </trkpt>
      <trkpt lat="41.6569097713024" lon="123.4127390385823">
        <time>2017-06-10T22:37:34.267000Z</time>
      </trkpt>
      <trkpt lat="41.6567953583241" lon="123.4127367754685">
        <time>2017-06-10T22:37:38.236000Z</time>
      </trkpt>
      <trkpt lat="41.65670504331743" lon="123.4127297346698">
        <ele>46.12859216718182</ele>
        <time>2017-06-10T22:37:41.251000Z</time>
      </trkpt>
      <trkpt lat="41.65659398310041" lon="123.4127246217089">
        <time>2017-06-10T22:37:45.270000Z</time>
      </trkpt>
      <trkpt lat="41.65652122818088" lon="123.4128407110678">
        <time>2017-06-10T22:37:49.338000Z</time>
      </trkpt>
      <trkpt lat="41.65652634114181" lon="123.4129964468287">
        <ele>46.28500839059694</ele>
        <time>2017-06-10T22:37:52.216000Z</time>
      </trkpt>
      <trkpt lat="41.65653681852078" lon="123.4131329042124">
        <time>2017-06-10T22:37:55.223000Z</time>
      </trkpt>
      <trkpt lat="41.65655521679824" lon="123.4132576269316">
        <time>2017-06-10T22:37:58.289000Z</time>
      </trkpt>
      <trkpt lat="41.65663765281593" lon="123.4133318905937">
        <ele>46.44093358134722</ele>
        <time>2017-06-10T22:38:02.264000Z</time>
      </trkpt>
      <trkpt lat="41.65672905747002" lon="123.4133181442725">
        <time>2017-06-10T22:38:05.258000Z</time>
      </trkpt>
      <trkpt lat="41.6568423808009" lon="123.4133094270932">
        <time>2017-06-10T22:38:09.270000Z</time>
      </trkpt>
      <trkpt lat="41.65695918262159" lon="123.4133226705002">
        <ele>46.59235019944769</ele>
        <time>2017-06-10T22:38:13.258000Z</time>
      </trkpt>
      <trkpt lat="41.65705293420856" lon="123.4133263585376">
        <time>2017-06-10T22:38:16.277000Z</time>
      </trkpt>
      <trkpt lat="41.65715205021357" lon="123.4133394343065">
        <time>2017-06-10T22:38:19.255000Z</time>
      </trkpt>
      <trkpt lat="41.65725489616548" lon="123.4133533482658">
        <ele>46.74662373487081</ele>
        <time>2017-06-10T22:38:22.309000Z</time>
      </trkpt>
      <trkpt lat="41.65736712984895" lon="123.4133637418257">
        <time>2017-06-10T22:38:26.277000Z</time>
      </trkpt>
      <trkpt lat="41.65748141709869" lon="123.4133732133763">
        <ele>46.85384741313653</ele>
        <time>2017-06-10T22:38:30.254000Z</time>
      </trkpt>
      <trkpt lat="41.6575768450663" lon="123.4133835231172">
        <time>2017-06-10T22:38:33.437000Z</time>
      </trkpt>
      <trkpt lat="41.65768664799785" lon="123.4134110157596">
        <time>2017-06-10T22:38:36.285000Z</time>
      </trkpt>
      <trkpt lat="41.65779695384359" lon="123.4134299588608">
        <time>2017-06-10T22:38:39.256000Z</time>
      </trkpt>
      <trkpt lat="41.65789430964892" lon="123.4134327248888">
        <ele>47.06896435966547</ele>
        <time>2017-06-10T22:38:42.263000Z</time>
      </trkpt>
      <trkpt lat="41.65799380283957" lon="123.4134322219746">
        <time>2017-06-10T22:38:45.258000Z</time>
      </trkpt>
      <trkpt lat="41.65809229020184" lon="123.4134368320214">
        <time>2017-06-10T22:38:48.254000Z</time>
      </trkpt>
      <trkpt lat="41.65819094520216" lon="123.4134476446765">
        <ele>47.21573848711664</ele>
        <time>2017-06-10T22:38:51.467000Z</time>
      </trkpt>
      <trkpt lat="41.65828842673605" lon="123.4134603013503">
        <time>2017-06-10T22:38:54.250000Z</time>
      </trkpt>
      <trkpt lat="41.65838829711234" lon="123.4134699405389">
        <time>2017-06-10T22:38:57.284000Z</time>
      </trkpt>
      <trkpt lat="41.6584835993514" lon="123.4134805855559">
        <ele>47.36327148323164</ele>
        <time>2017-06-10T22:39:00.266000Z</time>
      </trkpt>
      <trkpt lat="41.65859746750598" lon="123.4134848603265">
        <time>2017-06-10T22:39:04.274000Z</time>
      </trkpt>
      <trkpt lat="41.65870450440949" lon="123.4134901409255">
        <time>2017-06-10T22:39:07.279000Z</time>
      </trkpt>
      <trkpt lat="41.65879842363452" lon="123.4134841059553">
        <ele>47.52058049331006</ele>
        <time>2017-06-10T22:39:10.246000Z</time>
      </trkpt>
      <trkpt lat="41.65889125321215" lon="123.4134841897743">
        <time>2017-06-10T22:39:13.234000Z</time>
      </trkpt>
      <trkpt lat="41.65899099785989" lon="123.413493996601">
        <time>2017-06-10T22:39:16.264000Z</time>
      </trkpt>
      <trkpt lat="41.65910691958075" lon="123.4135049768942">
        <ele>47.66306924477726</ele>
        <time>2017-06-10T22:39:20.290000Z</time>
      </trkpt>
      <trkpt lat="41.65920201227223" lon="123.4135108442264">
        <time>2017-06-10T22:39:23.292000Z</time>
      </trkpt>
      <trkpt lat="41.65930640887623" lon="123.4135214892434">
        <time>2017-06-10T22:39:27.322000Z</time>
      </trkpt>
      <trkpt lat="41.6593998670966" lon="123.413530876975">
        <ele>47.82006577952353</ele>
        <time>2017-06-10T22:39:30.357000Z</time>
      </trkpt>
      <trkpt lat="41.65949973747288" lon="123.4135528375613">
        <time>2017-06-10T22:39:33.262000Z</time>
      </trkpt>
      <trkpt lat="41.65959738664483" lon="123.413573205586">
        <time>2017-06-10T22:39:36.325000Z</time>
      </trkpt>
      <trkpt lat="41.6596924374268" lon="123.4135844373362">
        <time>2017-06-10T22:39:39.263000Z</time>
      </trkpt>
      <trkpt lat="41.65979239162212" lon="123.4135934897917">
        <ele>48.01339873146727</ele>
        <time>2017-06-10T22:39:42.286000Z</time>
      </trkpt>
      <trkpt lat="41.65988388009524" lon="123.4135986027526">
        <time>2017-06-10T22:39:45.288000Z</time>
      </trkpt>
      <trkpt lat="41.66000005327319" lon="123.4135996924">
        <time>2017-06-10T22:39:49.273000Z</time>
      </trkpt>
      <trkpt lat="41.66011102967119" lon="123.4136094992267">
        <ele>48.16637772622856</ele>
        <time>2017-06-10T22:39:53.296000Z</time>
      </trkpt>
      <trkpt lat="41.66022376626884" lon="123.413633974384">
        <time>2017-06-10T22:39:57.276000Z</time>
      </trkpt>
      <trkpt lat="41.66031789504146" lon="123.4136455414103">
        <ele>48.27837781314309</ele>
        <time>2017-06-10T22:40:00.263000Z</time>
      </trkpt>
      <trkpt lat="41.6604303382725" lon="123.4136623052167">
        <time>2017-06-10T22:40:04.274000Z</time>
      </trkpt>
      <trkpt lat="41.66053678844278" lon="123.4136782308327">
        <time>2017-06-10T22:40:08.284000Z</time>
      </trkpt>
      <trkpt lat="41.66062823500639" lon="123.4136804939466">
        <ele>48.43474939722503</ele>
        <time>2017-06-10T22:40:11.287000Z</time>
      </trkpt>
      <trkpt lat="41.66072542317366" lon="123.4136871994691">
        <time>2017-06-10T22:40:14.296000Z</time>
      </trkpt>
      <trkpt lat="41.66082613174027" lon="123.4137086571412">
        <time>2017-06-10T22:40:17.331000Z</time>
      </trkpt>
      <trkpt lat="41.66091858413225" lon="123.4137225711005">
        <ele>48.57920227935155</ele>
        <time>2017-06-10T22:40:20.348000Z</time>
      </trkpt>
      <trkpt lat="41.66103458967214" lon="123.4137270973282">
        <time>2017-06-10T22:40:24.279000Z</time>
      </trkpt>
      <trkpt lat="41.66113215502506" lon="123.4137400054591">
        <time>2017-06-10T22:40:27.324000Z</time>
      </trkpt>
      <trkpt lat="41.66123370178198" lon="123.4137513210284">
        <ele>48.73173488078118</ele>
        <time>2017-06-10T22:40:30.290000Z</time>
      </trkpt>
      <trkpt lat="41.66133566763406" lon="123.413763642426">
        <time>2017-06-10T22:40:33.262000Z</time>
      </trkpt>
      <trkpt lat="41.66143822021937" lon="123.4137704317676">
        <time>2017-06-10T22:40:36.258000Z</time>
      </trkpt>
      <trkpt lat="41.66153695903873" lon="123.4137744550811">
        <time>2017-06-10T22:40:39.310000Z</time>
      </trkpt>
      <trkpt lat="41.66163431484406" lon="123.4137849324601">
        <ele>48.93323683069437</ele>
        <time>2017-06-10T22:40:42.239000Z</time>
      </trkpt>
      <trkpt lat="41.66173812471484" lon="123.4137997684287">
        <time>2017-06-10T22:40:45.281000Z</time>
      </trkpt>
      <trkpt lat="41.6618387075529" lon="123.4138093237983">
        <time>2017-06-10T22:40:48.243000Z</time>
      </trkpt>
      <trkpt lat="41.66194683410382" lon="123.4138187115299">
        <ele>49.08371602279834</ele>
        <time>2017-06-10T22:40:52.309000Z</time>
      </trkpt>
      <trkpt lat="41.66206170808679" lon="123.4138319549369">
        <time>2017-06-10T22:40:56.436000Z</time>
      </trkpt>
      <trkpt lat="41.66215332228845" lon="123.4138400015639">
        <time>2017-06-10T22:40:59.441000Z</time>
      </trkpt>
      <trkpt lat="41.6622467385993" lon="123.4138515685903">
        <ele>49.31637695491817</ele>
        <time>2017-06-10T22:41:02.469000Z</time>
      </trkpt>
      <trkpt lat="41.66236664172417" lon="123.4138579388367">
        <time>2017-06-10T22:41:06.424000Z</time>
      </trkpt>
      <trkpt lat="41.66247426536089" lon="123.4138762113856">
        <time>2017-06-10T22:41:09.264000Z</time>
      </trkpt>
      <trkpt lat="41.66258163754052" lon="123.4138898738878">
        <ele>49.52387417550553</ele>
        <time>2017-06-10T22:41:12.232000Z</time>
      </trkpt>
      <trkpt lat="41.66267773606038" lon="123.4138969985055">
        <time>2017-06-10T22:41:15.363000Z</time>
      </trkpt>
      <trkpt lat="41.6627784865365" lon="123.4139108286457">
        <time>2017-06-10T22:41:18.441000Z</time>
      </trkpt>
      <trkpt lat="41.66287709962732" lon="123.4139264189856">
        <ele>51.72936276771973</ele>
        <time>2017-06-10T22:41:21.462000Z</time>
      </trkpt>
      <trkpt lat="41.6629703483001" lon="123.4139400814878">
        <time>2017-06-10T22:41:24.391000Z</time>
      </trkpt>
      <trkpt lat="41.66306120813048" lon="123.4139502235906">
        <time>2017-06-10T22:41:27.230000Z</time>
      </trkpt>
      <trkpt lat="41.66315491780794" lon="123.4139655624734">
        <ele>51.50899582915581</ele>
        <time>2017-06-10T22:41:30.332000Z</time>
      </trkpt>
      <trkpt lat="41.66325696747905" lon="123.413980398442">
        <time>2017-06-10T22:41:33.275000Z</time>
      </trkpt>
      <trkpt lat="41.66335788559324" lon="123.4139885288881">
        <time>2017-06-10T22:41:36.279000Z</time>
      </trkpt>
      <trkpt lat="41.66346840098655" lon="123.4139992577242">
        <time>2017-06-10T22:41:39.301000Z</time>
      </trkpt>
      <trkpt lat="41.66356517005867" lon="123.4140068852561">
        <ele>50.66029358648779</ele>
        <time>2017-06-10T22:41:42.291000Z</time>
      </trkpt>
      <trkpt lat="41.66365820918387" lon="123.414006717618">
        <time>2017-06-10T22:41:45.279000Z</time>
      </trkpt>
      <trkpt lat="41.66376864075816" lon="123.4140244872527">
        <time>2017-06-10T22:41:49.243000Z</time>
      </trkpt>
      <trkpt lat="41.66385958440757" lon="123.414046280201">
        <ele>50.03505184639478</ele>
        <time>2017-06-10T22:41:52.253000Z</time>
      </trkpt>
      <trkpt lat="41.66395253971374" lon="123.4140482918577">
        <time>2017-06-10T22:41:55.359000Z</time>
      </trkpt>
      <trkpt lat="41.66405249390906" lon="123.4140632954644">
        <time>2017-06-10T22:41:58.350000Z</time>
      </trkpt>
      <trkpt lat="41.66416108146465" lon="123.414078131433">
        <ele>49.44170638838885</ele>
        <time>2017-06-10T22:42:01.229000Z</time>
      </trkpt>
      <trkpt lat="41.66426392741656" lon="123.4140853398698">
        <time>2017-06-10T22:42:04.411000Z</time>
      </trkpt>
      <trkpt lat="41.66435952302223" lon="123.4141104855793">
        <time>2017-06-10T22:42:07.265000Z</time>
      </trkpt>
      <trkpt lat="41.66448118634677" lon="123.4141056240754">
        <ele>48.79911754751163</ele>
        <time>2017-06-10T22:42:11.260000Z</time>
      </trkpt>
      <trkpt lat="41.66457845833308" lon="123.4141126648741">
        <time>2017-06-10T22:42:14.232000Z</time>
      </trkpt>
      <trkpt lat="41.66466973725861" lon="123.4141262435572">
        <time>2017-06-10T22:42:17.254000Z</time>
      </trkpt>
      <trkpt lat="41.66476554241186" lon="123.4141374753075">
        <ele>48.15373078715309</ele>
        <time>2017-06-10T22:42:20.269000Z</time>
      </trkpt>
      <trkpt lat="41.66486356876946" lon="123.4141491261529">
        <time>2017-06-10T22:42:23.334000Z</time>
      </trkpt>
      <trkpt lat="41.66496955793506" lon="123.4141618666457">
        <time>2017-06-10T22:42:26.463000Z</time>
      </trkpt>
      <trkpt lat="41.66507248770601" lon="123.4141714220153">
        <time>2017-06-10T22:42:29.326000Z</time>
      </trkpt>
      <trkpt lat="41.66517009496844" lon="123.4141794686424">
        <ele>47.31491452665241</ele>
        <time>2017-06-10T22:42:32.242000Z</time>
      </trkpt>
      <trkpt lat="41.66527851488596" lon="123.414204865809">
        <time>2017-06-10T22:42:36.295000Z</time>
      </trkpt>
      <trkpt lat="41.66536962617344" lon="123.4142083023893">
        <time>2017-06-10T22:42:39.257000Z</time>
      </trkpt>
      <trkpt lat="41.66546279102719" lon="123.4142171872066">
        <ele>46.58548609415561</ele>
        <time>2017-06-10T22:42:42.273000Z</time>
      </trkpt>
      <trkpt lat="41.66556123647994" lon="123.4142267425763">
        <time>2017-06-10T22:42:45.302000Z</time>
      </trkpt>
      <trkpt lat="41.66566458534604" lon="123.4142348730223">
        <time>2017-06-10T22:42:48.239000Z</time>
      </trkpt>
      <trkpt lat="41.6657548584432" lon="123.4142507148193">
        <ele>46.66840627057194</ele>
        <time>2017-06-10T22:42:51.263000Z</time>
      </trkpt>
      <trkpt lat="41.66585154369628" lon="123.4142692388253">
        <time>2017-06-10T22:42:54.314000Z</time>
      </trkpt>
      <trkpt lat="41.66594366081214" lon="123.4142820631372">
        <time>2017-06-10T22:42:57.274000Z</time>
      </trkpt>
      <trkpt lat="41.6660381667704" lon="123.414289523031">
        <ele>47.00793488397947</ele>
        <time>2017-06-10T22:43:00.374000Z</time>
      </trkpt>
      <trkpt lat="41.66614264719343" lon="123.4142940492587">
        <time>2017-06-10T22:43:03.455000Z</time>
      </trkpt>
      <trkpt lat="41.66623627305186" lon="123.4143020120667">
        <time>2017-06-10T22:43:06.382000Z</time>
      </trkpt>
      <trkpt lat="41.66633111428624" lon="123.4143167642163">
        <time>2017-06-10T22:43:09.473000Z</time>
      </trkpt>
      <trkpt lat="41.66645055640644" lon="123.4143325221943">
        <ele>47.47661666844047</ele>
        <time>2017-06-10T22:43:13.252000Z</time>
      </trkpt>
      <trkpt lat="41.66654581673598" lon="123.4143456817823">
        <time>2017-06-10T22:43:16.264000Z</time>
      </trkpt>
      <trkpt lat="41.66663692802346" lon="123.4143611883031">
        <time>2017-06-10T22:43:19.472000Z</time>
      </trkpt>
      <trkpt lat="41.66675125718272" lon="123.4143805504995">
        <ele>47.84791848010045</ele>
        <time>2017-06-10T22:43:23.396000Z</time>
      </trkpt>
      <trkpt lat="41.66687174704081" lon="123.4143885133075">
        <time>2017-06-10T22:43:27.374000Z</time>
      </trkpt>
      <trkpt lat="41.66696591772294" lon="123.4143975657629">
        <ele>48.13246753202679</ele>
        <time>2017-06-10T22:43:30.283000Z</time>
      </trkpt>
      <trkpt lat="41.66706033986217" lon="123.4144080431419">
        <time>2017-06-10T22:43:33.321000Z</time>
      </trkpt>
      <trkpt lat="41.66715501345849" lon="123.4144131561028">
        <time>2017-06-10T22:43:36.285000Z</time>
      </trkpt>
      <trkpt lat="41.66726611558503" lon="123.4144178499686">
        <ele>48.47503249202501</ele>
        <time>2017-06-10T22:43:40.258000Z</time>
      </trkpt>
      <trkpt lat="41.66737072173661" lon="123.4144350328701">
        <time>2017-06-10T22:43:43.257000Z</time>
      </trkpt>
      <trkpt lat="41.66747683663076" lon="123.4144294169949">
        <time>2017-06-10T22:43:46.234000Z</time>
      </trkpt>
      <trkpt lat="41.667573940979" lon="123.4144336917656">
        <time>2017-06-10T22:43:49.254000Z</time>
      </trkpt>
      <trkpt lat="41.66766744110888" lon="123.4144482762771">
        <ele>48.98177704981913</ele>
        <time>2017-06-10T22:43:52.240000Z</time>
      </trkpt>
      <trkpt lat="41.66776425209051" lon="123.4144583345609">
        <time>2017-06-10T22:43:55.243000Z</time>
      </trkpt>
      <trkpt lat="41.66785955432957" lon="123.4144698177682">
        <time>2017-06-10T22:43:58.314000Z</time>
      </trkpt>
      <trkpt lat="41.66797162037498" lon="123.4144811333375">
        <ele>49.32792056115636</ele>
        <time>2017-06-10T22:44:02.223000Z</time>
      </trkpt>
      <trkpt lat="41.66806600060469" lon="123.4144896828788">
        <time>2017-06-10T22:44:05.228000Z</time>
      </trkpt>
      <trkpt lat="41.66815870445377" lon="123.414506111409">
        <time>2017-06-10T22:44:08.252000Z</time>
      </trkpt>
      <trkpt lat="41.6682607960344" lon="123.4145253897863">
        <ele>49.69054709684298</ele>
        <time>2017-06-10T22:44:11.254000Z</time>
      </trkpt>
      <trkpt lat="41.66836464781469" lon="123.4145429079639">
        <time>2017-06-10T22:44:14.249000Z</time>
      </trkpt>
      <trkpt lat="41.66847017597562" lon="123.4145573248373">
        <time>2017-06-10T22:44:17.451000Z</time>
      </trkpt>
      <trkpt lat="41.66857415348446" lon="123.414564449455">
        <ele>50.06922289308032</ele>
        <time>2017-06-10T22:44:20.268000Z</time>
      </trkpt>
      <trkpt lat="41.66867297612286" lon="123.4145885893362">
        <time>2017-06-10T22:44:23.257000Z</time>
      </trkpt>
      <trkpt lat="41.66877460669881" lon="123.4146247153388">
        <time>2017-06-10T22:44:26.272000Z</time>
      </trkpt>
      <trkpt lat="41.6688686516524" lon="123.4146422335165">
        <time>2017-06-10T22:44:29.245000Z</time>
      </trkpt>
      <trkpt lat="41.66899224281466" lon="123.4146369529175">
        <ele>50.55753248943105</ele>
        <time>2017-06-10T22:44:33.289000Z</time>
      </trkpt>
      <trkpt lat="41.66909366384304" lon="123.4146455024587">
        <time>2017-06-10T22:44:36.266000Z</time>
      </trkpt>
      <trkpt lat="41.66918884035355" lon="123.4146587458657">
        <time>2017-06-10T22:44:39.273000Z</time>
      </trkpt>
      <trkpt lat="41.66929013565338" lon="123.414656818028">
        <ele>50.94488356164176</ele>
        <time>2017-06-10T22:44:43.288000Z</time>
      </trkpt>
      <trkpt lat="41.66938325859761" lon="123.4146610089796">
        <time>2017-06-10T22:44:46.301000Z</time>
      </trkpt>
      <trkpt lat="41.66948690083033" lon="123.4146617633509">
        <time>2017-06-10T22:44:49.279000Z</time>
      </trkpt>
      <trkpt lat="41.66959125552481" lon="123.4146731627392">
        <ele>51.30458219168736</ele>
        <time>2017-06-10T22:44:52.445000Z</time>
      </trkpt>
      <trkpt lat="41.66969602931447" lon="123.414677940424">
        <time>2017-06-10T22:44:55.338000Z</time>
      </trkpt>
      <trkpt lat="41.66979833044267" lon="123.4146896750884">
        <time>2017-06-10T22:44:58.490000Z</time>
      </trkpt>
      <trkpt lat="41.66990054775185" lon="123.4147050977903">
        <ele>51.64850195144372</ele>
        <time>2017-06-10T22:45:01.254000Z</time>
      </trkpt>
      <trkpt lat="41.67000372897989" lon="123.4147190955686">
        <time>2017-06-10T22:45:04.250000Z</time>
      </trkpt>
      <trkpt lat="41.67012945752747" lon="123.4147346859085">
        <time>2017-06-10T22:45:08.297000Z</time>
      </trkpt>
      <trkpt lat="41.67023536287404" lon="123.41474407364">
        <ele>51.66014769241063</ele>
        <time>2017-06-10T22:45:11.302000Z</time>
      </trkpt>
      <trkpt lat="41.67032676752812" lon="123.414754634838">
        <time>2017-06-10T22:45:14.268000Z</time>
      </trkpt>
      <trkpt lat="41.67041662153012" lon="123.4147632681983">
        <time>2017-06-10T22:45:17.296000Z</time>
      </trkpt>
      <trkpt lat="41.67050664317019" lon="123.4147668724166">
        <ele>51.67022138411095</ele>
        <time>2017-06-10T22:45:20.342000Z</time>
      </trkpt>
      <trkpt lat="41.67060659736551" lon="123.4147687164353">
        <time>2017-06-10T22:45:23.289000Z</time>
      </trkpt>
      <trkpt lat="41.67072482410974" lon="123.4147713148253">
        <time>2017-06-10T22:45:27.267000Z</time>
      </trkpt>
      <trkpt lat="41.6708330763892" lon="123.4147796967285">
        <ele>51.68100564207977</ele>
        <time>2017-06-10T22:45:30.452000Z</time>
      </trkpt>
      <trkpt lat="41.6709374729932" lon="123.4147952032494">
        <time>2017-06-10T22:45:33.336000Z</time>
      </trkpt>
      <trkpt lat="41.67104547381557" lon="123.4148114641415">
        <time>2017-06-10T22:45:36.295000Z</time>
      </trkpt>
      <trkpt lat="41.67115003805763" lon="123.4148299043285">
        <time>2017-06-10T22:45:39.265000Z</time>
      </trkpt>
      <trkpt lat="41.67125112380988" lon="123.4148435668307">
        <ele>52.67545843409462</ele>
        <time>2017-06-10T22:45:42.284000Z</time>
      </trkpt>
      <trkpt lat="41.67134546213008" lon="123.4148501047151">
        <time>2017-06-10T22:45:45.262000Z</time>
      </trkpt>
      <trkpt lat="41.67145174466229" lon="123.4148661979692">
        <time>2017-06-10T22:45:48.350000Z</time>
      </trkpt>
      <trkpt lat="41.67155555453307" lon="123.4148850572514">
        <ele>54.13518432411295</ele>
        <time>2017-06-10T22:45:51.436000Z</time>
      </trkpt>
      <trkpt lat="41.67165831666595" lon="123.4149006475913">
        <time>2017-06-10T22:45:54.421000Z</time>
      </trkpt>
      <trkpt lat="41.67174980513907" lon="123.4149039165335">
        <time>2017-06-10T22:45:57.284000Z</time>
      </trkpt>
      <trkpt lat="41.67185432747162" lon="123.4149226919966">
        <ele>55.38812946292762</ele>
        <time>2017-06-10T22:46:00.270000Z</time>
      </trkpt>
      <trkpt lat="41.67196035854674" lon="123.4149429762023">
        <time>2017-06-10T22:46:03.299000Z</time>
      </trkpt>
      <trkpt lat="41.67207560971535" lon="123.4149558005141">
        <time>2017-06-10T22:46:06.257000Z</time>
      </trkpt>
      <trkpt lat="41.67218524500883" lon="123.4149656073408">
        <time>2017-06-10T22:46:09.315000Z</time>
      </trkpt>
      <trkpt lat="41.67228339709497" lon="123.4149781801956">
        <ele>55.98046123417395</ele>
        <time>2017-06-10T22:46:12.359000Z</time>
      </trkpt>
      <trkpt lat="41.67238905098445" lon="123.4149985482203">
        <time>2017-06-10T22:46:15.236000Z</time>
      </trkpt>
      <trkpt lat="41.6725020390392" lon="123.4150147252934">
        <time>2017-06-10T22:46:18.229000Z</time>
      </trkpt>
      <trkpt lat="41.67261867322183" lon="123.4150309861856">
        <ele>56.30545432718558</ele>
        <time>2017-06-10T22:46:21.351000Z</time>
      </trkpt>
      <trkpt lat="41.67272876951999" lon="123.4150464927064">
        <time>2017-06-10T22:46:24.240000Z</time>
      </trkpt>
      <trkpt lat="41.67284142229862" lon="123.4150609933989">
        <time>2017-06-10T22:46:27.241000Z</time>
      </trkpt>
      <trkpt lat="41.67294908784486" lon="123.4150701296734">
        <ele>56.0205808123828</ele>
        <time>2017-06-10T22:46:30.433000Z</time>
      </trkpt>
      <trkpt lat="41.67305155661113" lon="123.4150801879572">
        <time>2017-06-10T22:46:33.360000Z</time>
      </trkpt>
      <trkpt lat="41.67315754577673" lon="123.4150807746904">
        <time>2017-06-10T22:46:36.285000Z</time>
      </trkpt>
      <trkpt lat="41.67324815415002" lon="123.415063759427">
        <time>2017-06-10T22:46:39.332000Z</time>
      </trkpt>
      <trkpt lat="41.67334601286954" lon="123.4150656872647">
        <ele>55.39923232627158</ele>
        <time>2017-06-10T22:46:42.301000Z</time>
      </trkpt>
      <trkpt lat="41.67344429068423" lon="123.4150758293675">
        <time>2017-06-10T22:46:45.371000Z</time>
      </trkpt>
      <trkpt lat="41.67354893874533" lon="123.4150890727745">
        <time>2017-06-10T22:46:48.457000Z</time>
      </trkpt>
      <trkpt lat="41.67365266479707" lon="123.4150962812113">
        <ele>54.93992714578937</ele>
        <time>2017-06-10T22:46:51.340000Z</time>
      </trkpt>
      <trkpt lat="41.67375362482078" lon="123.4151037411051">
        <time>2017-06-10T22:46:55.303000Z</time>
      </trkpt>
      <trkpt lat="41.67385705750591" lon="123.4151163139599">
        <time>2017-06-10T22:46:58.298000Z</time>
      </trkpt>
      <trkpt lat="41.67396744717068" lon="123.4151409567552">
        <ele>54.46953623240517</ele>
        <time>2017-06-10T22:47:01.288000Z</time>
      </trkpt>
      <trkpt lat="41.67406601835198" lon="123.4151598998563">
        <time>2017-06-10T22:47:04.257000Z</time>
      </trkpt>
      <trkpt lat="41.67415851265348" lon="123.4151832015472">
        <time>2017-06-10T22:47:07.266000Z</time>
      </trkpt>
      <trkpt lat="41.67426596865214" lon="123.4151904099839">
        <ele>54.00420917232188</ele>
        <time>2017-06-10T22:47:10.413000Z</time>
      </trkpt>
      <trkpt lat="41.67436776686615" lon="123.4151979536967">
        <time>2017-06-10T22:47:13.385000Z</time>
      </trkpt>
      <trkpt lat="41.67445841714895" lon="123.415209185447">
        <time>2017-06-10T22:47:16.260000Z</time>
      </trkpt>
      <trkpt lat="41.67457425505079" lon="123.4152227641301">
        <ele>53.54654632263997</ele>
        <time>2017-06-10T22:47:20.258000Z</time>
      </trkpt>
      <trkpt lat="41.67468125004477" lon="123.4152379353749">
        <time>2017-06-10T22:47:23.289000Z</time>
      </trkpt>
      <trkpt lat="41.67477848012156" lon="123.4152476583826">
        <time>2017-06-10T22:47:26.301000Z</time>
      </trkpt>
      <trkpt lat="41.67488648094393" lon="123.4152412881361">
        <time>2017-06-10T22:47:29.298000Z</time>
      </trkpt>
      <trkpt lat="41.67498853061504" lon="123.4152386059271">
        <ele>52.8924880814229</ele>
        <time>2017-06-10T22:47:32.250000Z</time>
      </trkpt>
      <trkpt lat="41.67509125083841" lon="123.4152705409782">
        <time>2017-06-10T22:47:35.293000Z</time>
      </trkpt>
      <trkpt lat="41.67519426442838" lon="123.4152816889094">
        <time>2017-06-10T22:47:38.291000Z</time>
      </trkpt>
      <trkpt lat="41.67529694274224" lon="123.4152932559358">
        <ele>52.41908622823816</ele>
        <time>2017-06-10T22:47:41.291000Z</time>
      </trkpt>
      <trkpt lat="41.67540817059732" lon="123.4153039009528">
        <time>2017-06-10T22:47:45.317000Z</time>
      </trkpt>
      <trkpt lat="41.67552639734156" lon="123.4153056611525">
        <time>2017-06-10T22:47:49.321000Z</time>
      </trkpt>
      <trkpt lat="41.67562341787077" lon="123.4153193236547">
        <ele>51.91215345454741</ele>
        <time>2017-06-10T22:47:52.267000Z</time>
      </trkpt>
      <trkpt lat="41.67572190523303" lon="123.4153339919852">
        <time>2017-06-10T22:47:55.275000Z</time>
      </trkpt>
      <trkpt lat="41.6758175008387" lon="123.4153432120787">
        <time>2017-06-10T22:47:58.275000Z</time>
      </trkpt>
      <trkpt lat="41.67591137815423" lon="123.4153531865435">
        <ele>51.4668080858677</ele>
        <time>2017-06-10T22:48:01.494000Z</time>
      </trkpt>
      <trkpt lat="41.67602650359429" lon="123.4153749794917">
        <time>2017-06-10T22:48:05.361000Z</time>
      </trkpt>
      <trkpt lat="41.67613756381131" lon="123.4153945931452">
        <time>2017-06-10T22:48:08.339000Z</time>
      </trkpt>
      <trkpt lat="41.6762382304684" lon="123.4154079203712">
        <ele>51.15908360412341</ele>
        <time>2017-06-10T22:48:11.277000Z</time>
      </trkpt>
      <trkpt lat="41.67634912304736" lon="123.4154199903118">
        <time>2017-06-10T22:48:15.263000Z</time>
      </trkpt>
      <trkpt lat="41.67646303311146" lon="123.4154342395472">
        <time>2017-06-10T22:48:19.361000Z</time>
      </trkpt>
      <trkpt lat="41.67655770670778" lon="123.4154395201462">
        <ele>51.05058728736879</ele>
        <time>2017-06-10T22:48:22.241000Z</time>
      </trkpt>
      <trkpt lat="41.67665552351779" lon="123.4154460580306">
        <time>2017-06-10T22:48:25.248000Z</time>
      </trkpt>
      <trkpt lat="41.67675065811879" lon="123.4154511709916">
        <time>2017-06-10T22:48:28.346000Z</time>
      </trkpt>
      <trkpt lat="41.67686922013915" lon="123.4154665098744">
        <ele>50.77407663812727</ele>
        <time>2017-06-10T22:48:31.304000Z</time>
      </trkpt>
      <trkpt lat="41.67697126981027" lon="123.4154745565014">
        <time>2017-06-10T22:48:34.426000Z</time>
      </trkpt>
      <trkpt lat="41.67708530560292" lon="123.4154847824233">
        <time>2017-06-10T22:48:38.514000Z</time>
      </trkpt>
      <trkpt lat="41.6771920491398" lon="123.4155013785916">
        <ele>50.77407663812727</ele>
        <time>2017-06-10T22:48:41.255000Z</time>
      </trkpt>
      <trkpt lat="41.67730562392779" lon="123.4155091737615">
        <time>2017-06-10T22:48:44.277000Z</time>
      </trkpt>
      <trkpt lat="41.67740499138988" lon="123.4155147896366">
        <time>2017-06-10T22:48:47.235000Z</time>
      </trkpt>
      <trkpt lat="41.6775136627645" lon="123.4155261890249">
        <ele>50.77407663812726</ele>
        <time>2017-06-10T22:48:50.290000Z</time>
      </trkpt>
      <trkpt lat="41.67760804299422" lon="123.415531721081">
        <time>2017-06-10T22:48:53.265000Z</time>
      </trkpt>
      <trkpt lat="41.67771595999755" lon="123.4155380075084">
        <time>2017-06-10T22:48:56.368000Z</time>
      </trkpt>
      <trkpt lat="41.67781834494479" lon="123.4155534302103">
        <time>2017-06-10T22:48:59.323000Z</time>
      </trkpt>
      <trkpt lat="41.67791926305897" lon="123.4155734629588">
        <ele>50.77407663812727</ele>
        <time>2017-06-10T22:49:02.438000Z</time>
      </trkpt>
      <trkpt lat="41.67804813482024" lon="123.4155903944032">
        <time>2017-06-10T22:49:05.370000Z</time>
      </trkpt>
      <trkpt lat="41.67815827302791" lon="123.4156076611238">
        <time>2017-06-10T22:49:08.409000Z</time>
      </trkpt>
      <trkpt lat="41.67825676039018" lon="123.4156189766931">
        <ele>50.77407663812727</ele>
        <time>2017-06-10T22:49:11.440000Z</time>
      </trkpt>
      <trkpt lat="41.67835621167131" lon="123.415629454072">
        <time>2017-06-10T22:49:15.361000Z</time>
      </trkpt>
      <trkpt lat="41.67846857108332" lon="123.4156529234009">
        <time>2017-06-10T22:49:19.470000Z</time>
      </trkpt>
      <trkpt lat="41.67858575008966" lon="123.4156714474069">
        <ele>50.77407663812727</ele>
        <time>2017-06-10T22:49:23.485000Z</time>
      </trkpt>
      <trkpt lat="41.67870179753907" lon="123.4157055617528">
        <time>2017-06-10T22:49:27.280000Z</time>
      </trkpt>
      <trkpt lat="41.67880808007128" lon="123.4157280252533">
        <ele>50.77407663812727</ele>
        <time>2017-06-10T22:49:31.246000Z</time>
      </trkpt>
      <trkpt lat="41.67890660934307" lon="123.415735066052">
        <time>2017-06-10T22:49:34.281000Z</time>
      </trkpt>
      <trkpt lat="41.67899650525458" lon="123.4157286119865">
        <time>2017-06-10T22:49:37.264000Z</time>
      </trkpt>
      <trkpt lat="41.6791183781267" lon="123.4157283605294">
        <ele>50.77407663812727</ele>
        <time>2017-06-10T22:49:41.448000Z</time>
      </trkpt>
      <trkpt lat="41.67922193654038" lon="123.4157473036306">
        <time>2017-06-10T22:49:44.322000Z</time>
      </trkpt>
      <trkpt lat="41.67932482440181" lon="123.4157606308567">
        <time>2017-06-10T22:49:47.283000Z</time>
      </trkpt>
      <trkpt lat="41.67943911165155" lon="123.4157732875304">
        <ele>50.77407663812727</ele>
        <time>2017-06-10T22:49:51.355000Z</time>
      </trkpt>
      <trkpt lat="41.67953215077676" lon="123.4157916438984">
        <time>2017-06-10T22:49:54.261000Z</time>
      </trkpt>
      <trkpt lat="41.67962296869762" lon="123.4158133530276">
        <time>2017-06-10T22:49:57.279000Z</time>
      </trkpt>
      <trkpt lat="41.67971877385087" lon="123.4158194718169">
        <ele>50.77407663812727</ele>
        <time>2017-06-10T22:50:00.364000Z</time>
      </trkpt>
      <trkpt lat="41.67983586903818" lon="123.4158124310183">
        <time>2017-06-10T22:50:04.510000Z</time>
      </trkpt>
      <trkpt lat="41.67993301529594" lon="123.4158139397608">
        <time>2017-06-10T22:50:07.464000Z</time>
      </trkpt>
      <trkpt lat="41.68003523260511" lon="123.4158221540259">
        <ele>50.77407663812727</ele>
        <time>2017-06-10T22:50:10.377000Z</time>
      </trkpt>
      <trkpt lat="41.68013585735269" lon="123.4158339725094">
        <time>2017-06-10T22:50:13.330000Z</time>
      </trkpt>
      <trkpt lat="41.68023828420944" lon="123.4158398398416">
        <time>2017-06-10T22:50:16.253000Z</time>
      </trkpt>
      <trkpt lat="41.6803647671283" lon="123.4158483893829">
        <ele>50.77407663812727</ele>
        <time>2017-06-10T22:50:20.308000Z</time>
      </trkpt>
      <trkpt lat="41.68049351316102" lon="123.415867332484">
        <time>2017-06-10T22:50:23.256000Z</time>
      </trkpt>
      <trkpt lat="41.68059614956535" lon="123.4158813302623">
        <time>2017-06-10T22:50:26.301000Z</time>
      </trkpt>
      <trkpt lat="41.68069606185116" lon="123.4158902988987">
        <time>2017-06-10T22:50:29.278000Z</time>
      </trkpt>
      <trkpt lat="41.68079941071726" lon="123.4159075656192">
        <ele>50.77407663812727</ele>
        <time>2017-06-10T22:50:32.259000Z</time>
      </trkpt>
      <trkpt lat="41.68091537434764" lon="123.4159191326456">
        <time>2017-06-10T22:50:36.473000Z</time>
      </trkpt>
      <trkpt lat="41.68103246953495" lon="123.4159452841835">
        <ele>50.77407663812727</ele>
        <time>2017-06-10T22:50:40.268000Z</time>
      </trkpt>
      <trkpt lat="41.68114822361775" lon="123.4159445298122">
        <time>2017-06-10T22:50:44.269000Z</time>
      </trkpt>
      <trkpt lat="41.6812429810331" lon="123.4159509838777">
        <time>2017-06-10T22:50:47.264000Z</time>
      </trkpt>
      <trkpt lat="41.68133317031123" lon="123.4159586114096">
        <ele>50.77407663812727</ele>
        <time>2017-06-10T22:50:50.348000Z</time>
      </trkpt>
      <trkpt lat="41.68142993938334" lon="123.4159687535124">
        <time>2017-06-10T22:50:53.337000Z</time>
      </trkpt>
      <trkpt lat="41.68152230795629" lon="123.4159806558149">
        <time>2017-06-10T22:50:56.472000Z</time>
      </trkpt>
      <trkpt lat="41.6816111142204" lon="123.4160151054369">
        <time>2017-06-10T22:50:59.432000Z</time>
      </trkpt>
      <trkpt lat="41.68170884721138" lon="123.4160562605815">
        <ele>50.77407663812727</ele>
        <time>2017-06-10T22:51:02.490000Z</time>
      </trkpt>
      <trkpt lat="41.68180251497932" lon="123.4160581046002">
        <time>2017-06-10T22:51:05.362000Z</time>
      </trkpt>
      <trkpt lat="41.68191407811053" lon="123.4160431009935">
        <time>2017-06-10T22:51:08.331000Z</time>
      </trkpt>
      <trkpt lat="41.682035573797" lon="123.4160264210062">
        <ele>50.77407663812727</ele>
        <time>2017-06-10T22:51:11.262000Z</time>
      </trkpt>
      <trkpt lat="41.68215853631653" lon="123.4160305281388">
        <time>2017-06-10T22:51:14.259000Z</time>
      </trkpt>
      <trkpt lat="41.68227961290784" lon="123.4160569311338">
        <time>2017-06-10T22:51:17.283000Z</time>
      </trkpt>
      <trkpt lat="41.68237483132787" lon="123.4161176161127">
        <ele>50.77407663812727</ele>
        <time>2017-06-10T22:51:20.277000Z</time>
      </trkpt>
      <trkpt lat="41.6824631765873" lon="123.4161555861341">
        <time>2017-06-10T22:51:23.277000Z</time>
      </trkpt>
      <trkpt lat="41.68254322376259" lon="123.4160775506156">
        <time>2017-06-10T22:51:27.484000Z</time>
      </trkpt>
      <trkpt lat="41.68263383213587" lon="123.4160740302162">
        <ele>50.77407663812727</ele>
        <time>2017-06-10T22:51:31.531000Z</time>
      </trkpt>
      <trkpt lat="41.68273646854021" lon="123.4160837532239">
        <time>2017-06-10T22:51:34.468000Z</time>
      </trkpt>
      <trkpt lat="41.68282858565606" lon="123.4160829988526">
        <time>2017-06-10T22:51:37.438000Z</time>
      </trkpt>
      <trkpt lat="41.68293197643168" lon="123.4160719347404">
        <ele>50.77407663812727</ele>
        <time>2017-06-10T22:51:41.352000Z</time>
      </trkpt>
      <trkpt lat="41.68301717847742" lon="123.4160146025228">
        <time>2017-06-10T22:51:48.321000Z</time>
      </trkpt>
      <trkpt lat="41.68311185207374" lon="123.4159747884827">
        <ele>50.77407663812727</ele>
        <time>2017-06-10T22:51:53.230000Z</time>
      </trkpt>
    </trkseg>
  </trk>
</gpx>