<?xml version="1.0" encoding="UTF-8"?>
<gpx xmlns="http://www.topografix.com/GPX/1/1" xmlns:gpxtpx="http://www.garmin.com/xmlschemas/TrackPointExtension/v1" xmlns:xsi="http://www.w3.org/2001/XMLSchema-instance" xsi:schemaLocation="http://www.topografix.com/GPX/1/1 http://www.topografix.com/GPX/1/1/gpx.xsd" version="1.1" creator="gpx.py -- https://github.com/tkrajina/gpxpy">
  <trk>
    <trkseg>
      <trkpt lat="41.68241187933989" lon="123.4163975716787">
        <time>2017-08-08T22:20:39.222000Z</time>
      </trkpt>
      <trkpt lat="41.68241187933989" lon="123.4163975716787">
        <ele>47.85648821342613</ele>
        <time>2017-08-08T22:20:51.246000Z</time>
      </trkpt>
      <trkpt lat="41.68233589738764" lon="123.4165028483825">
        <time>2017-08-08T22:20:51.260000Z</time>
      </trkpt>
      <trkpt lat="41.68229859791852" lon="123.4166305885868">
        <ele>48.35509963243771</ele>
        <time>2017-08-08T22:20:56.237000Z</time>
      </trkpt>
      <trkpt lat="41.68231234423973" lon="123.4167878330903">
        <time>2017-08-08T22:20:59.207000Z</time>
      </trkpt>
      <trkpt lat="41.68232780885108" lon="123.4169159923898">
        <time>2017-08-08T22:21:03.204000Z</time>
      </trkpt>
      <trkpt lat="41.68231477499165" lon="123.4170632624285">
        <ele>49.73923802791714</ele>
        <time>2017-08-08T22:21:08.220000Z</time>
      </trkpt>
      <trkpt lat="41.68230806946911" lon="123.4171915893661">
        <time>2017-08-08T22:21:11.209000Z</time>
      </trkpt>
      <trkpt lat="41.68229692153789" lon="123.4173271247404">
        <time>2017-08-08T22:21:14.218000Z</time>
      </trkpt>
      <trkpt lat="41.68227538004674" lon="123.4174483270602">
        <ele>51.08382961209715</ele>
        <time>2017-08-08T22:21:17.224000Z</time>
      </trkpt>
      <trkpt lat="41.68224512137629" lon="123.4175800905781">
        <time>2017-08-08T22:21:22.224000Z</time>
      </trkpt>
      <trkpt lat="41.68222948912688" lon="123.417733227949">
        <ele>51.93780580461218</ele>
        <time>2017-08-08T22:21:26.229000Z</time>
      </trkpt>
      <trkpt lat="41.68223975695826" lon="123.4178761393981">
        <time>2017-08-08T22:21:30.226000Z</time>
      </trkpt>
      <trkpt lat="41.68221788019098" lon="123.4180069809066">
        <time>2017-08-08T22:21:34.253000Z</time>
      </trkpt>
      <trkpt lat="41.6822221549616" lon="123.4181746189701">
        <ele>53.34426269755761</ele>
        <time>2017-08-08T22:21:37.251000Z</time>
      </trkpt>
      <trkpt lat="41.68224206198163" lon="123.4183202126281">
        <time>2017-08-08T22:21:40.240000Z</time>
      </trkpt>
      <trkpt lat="41.68224839031853" lon="123.418473098542">
        <time>2017-08-08T22:21:44.250000Z</time>
      </trkpt>
      <trkpt lat="41.68221863456227" lon="123.4185958096044">
        <ele>54.58548978654974</ele>
        <time>2017-08-08T22:21:50.231000Z</time>
      </trkpt>
      <trkpt lat="41.68222194541402" lon="123.4187341110068">
        <time>2017-08-08T22:21:54.241000Z</time>
      </trkpt>
      <trkpt lat="41.6822092049212" lon="123.418872160952">
        <ele>55.06331888943478</ele>
        <time>2017-08-08T22:21:57.255000Z</time>
      </trkpt>
      <trkpt lat="41.68219063900568" lon="123.4190196824478">
        <time>2017-08-08T22:22:00.236000Z</time>
      </trkpt>
      <trkpt lat="41.68217366565175" lon="123.4191412200438">
        <time>2017-08-08T22:22:04.277000Z</time>
      </trkpt>
      <trkpt lat="41.68216390073456" lon="123.4192674515056">
        <ele>55.79163233454079</ele>
        <time>2017-08-08T22:22:08.256000Z</time>
      </trkpt>
      <trkpt lat="41.68218242474057" lon="123.4193878156351">
        <time>2017-08-08T22:22:11.273000Z</time>
      </trkpt>
      <trkpt lat="41.68219047136761" lon="123.4195246082949">
        <time>2017-08-08T22:22:15.223000Z</time>
      </trkpt>
      <trkpt lat="41.68217462957062" lon="123.4196762369232">
        <ele>55.86137361893525</ele>
        <time>2017-08-08T22:22:19.224000Z</time>
      </trkpt>
      <trkpt lat="41.68216825932421" lon="123.4198053182321">
        <time>2017-08-08T22:22:23.338000Z</time>
      </trkpt>
      <trkpt lat="41.68215300426044" lon="123.4199269396471">
        <ele>55.91227001025172</ele>
        <time>2017-08-08T22:22:33.253000Z</time>
      </trkpt>
      <trkpt lat="41.68212471533723" lon="123.4200731200384">
        <ele>55.93449787608017</ele>
        <time>2017-08-08T22:22:38.234000Z</time>
      </trkpt>
      <trkpt lat="41.68209143918164" lon="123.4202296939897">
        <time>2017-08-08T22:22:42.248000Z</time>
      </trkpt>
      <trkpt lat="41.68209315747179" lon="123.4204005171763">
        <time>2017-08-08T22:22:45.267000Z</time>
      </trkpt>
      <trkpt lat="41.68208930179633" lon="123.4205604438888">
        <ele>56.0218479673553</ele>
        <time>2017-08-08T22:22:48.259000Z</time>
      </trkpt>
      <trkpt lat="41.68208599094458" lon="123.4206896928357">
        <time>2017-08-08T22:22:51.247000Z</time>
      </trkpt>
      <trkpt lat="41.68206926904775" lon="123.4208408185499">
        <time>2017-08-08T22:22:55.223000Z</time>
      </trkpt>
      <trkpt lat="41.68205837257363" lon="123.4209869989412">
        <ele>56.10154299849633</ele>
        <time>2017-08-08T22:22:59.249000Z</time>
      </trkpt>
      <trkpt lat="41.68206449136294" lon="123.4211367835509">
        <time>2017-08-08T22:23:02.257000Z</time>
      </trkpt>
      <trkpt lat="41.68206059377797" lon="123.4212875739889">
        <time>2017-08-08T22:23:05.235000Z</time>
      </trkpt>
      <trkpt lat="41.68205904312588" lon="123.4214373585986">
        <ele>56.18225725860707</ele>
        <time>2017-08-08T22:23:09.224000Z</time>
      </trkpt>
      <trkpt lat="41.68203217912622" lon="123.4215714690494">
        <time>2017-08-08T22:23:13.259000Z</time>
      </trkpt>
      <trkpt lat="41.68199232317664" lon="123.4217194934594">
        <ele>56.23428130750703</ele>
        <time>2017-08-08T22:23:17.235000Z</time>
      </trkpt>
      <trkpt lat="41.6819856176541" lon="123.4218881373512">
        <time>2017-08-08T22:23:20.221000Z</time>
      </trkpt>
      <trkpt lat="41.68201688215293" lon="123.4220142849939">
        <time>2017-08-08T22:23:23.222000Z</time>
      </trkpt>
      <trkpt lat="41.68203544806845" lon="123.4221447912263">
        <ele>58.55345883288931</ele>
        <time>2017-08-08T22:23:27.247000Z</time>
      </trkpt>
      <trkpt lat="41.68203536424942" lon="123.4222715256022">
        <time>2017-08-08T22:23:30.245000Z</time>
      </trkpt>
      <trkpt lat="41.68203519661136" lon="123.4224160296129">
        <time>2017-08-08T22:23:33.245000Z</time>
      </trkpt>
      <trkpt lat="41.68203343641169" lon="123.4225462005692">
        <ele>60.02379347845508</ele>
        <time>2017-08-08T22:23:36.216000Z</time>
      </trkpt>
      <trkpt lat="41.68204462625243" lon="123.4226879385518">
        <time>2017-08-08T22:23:40.224000Z</time>
      </trkpt>
      <trkpt lat="41.68202253993757" lon="123.4228138347374">
        <time>2017-08-08T22:23:43.216000Z</time>
      </trkpt>
      <trkpt lat="41.68199710086144" lon="123.4229357076096">
        <ele>58.68532973989728</ele>
        <time>2017-08-08T22:23:46.263000Z</time>
      </trkpt>
      <trkpt lat="41.68196009475894" lon="123.4230645374613">
        <time>2017-08-08T22:23:49.236000Z</time>
      </trkpt>
      <trkpt lat="41.68191948443808" lon="123.4231796209918">
        <time>2017-08-08T22:23:51.225000Z</time>
      </trkpt>
      <trkpt lat="41.68187640145577" lon="123.4232999013024">
        <time>2017-08-08T22:23:53.257000Z</time>
      </trkpt>
      <trkpt lat="41.68186542116262" lon="123.4234407172756">
        <ele>56.93623285796275</ele>
        <time>2017-08-08T22:23:56.241000Z</time>
      </trkpt>
      <trkpt lat="41.68186885774292" lon="123.4235743248122">
        <time>2017-08-08T22:24:00.227000Z</time>
      </trkpt>
      <trkpt lat="41.68187824547447" lon="123.4236973711508">
        <time>2017-08-08T22:24:04.535000Z</time>
      </trkpt>
      <trkpt lat="41.68188964486279" lon="123.4238396120476">
        <ele>55.60778456192634</ele>
        <time>2017-08-08T22:24:08.391000Z</time>
      </trkpt>
      <trkpt lat="41.68190401982672" lon="123.4239803442018">
        <time>2017-08-08T22:24:12.229000Z</time>
      </trkpt>
      <trkpt lat="41.68190557047881" lon="123.4241227527367">
        <ele>54.65872122859997</ele>
        <time>2017-08-08T22:24:16.219000Z</time>
      </trkpt>
      <trkpt lat="41.68190783359267" lon="123.4242785723167">
        <time>2017-08-08T22:24:19.248000Z</time>
      </trkpt>
      <trkpt lat="41.68191424574859" lon="123.4244214837657">
        <time>2017-08-08T22:24:22.240000Z</time>
      </trkpt>
      <trkpt lat="41.68190984524943" lon="123.4245770518886">
        <ele>54.14522808344668</ele>
        <time>2017-08-08T22:24:26.234000Z</time>
      </trkpt>
      <trkpt lat="41.68188834566779" lon="123.4247228131848">
        <time>2017-08-08T22:24:31.242000Z</time>
      </trkpt>
      <trkpt lat="41.68189044114359" lon="123.4248674848335">
        <ele>53.75737339957378</ele>
        <time>2017-08-08T22:24:36.250000Z</time>
      </trkpt>
      <trkpt lat="41.68188180778332" lon="123.4249897768008">
        <time>2017-08-08T22:24:39.236000Z</time>
      </trkpt>
      <trkpt lat="41.68187070176162" lon="123.4251349513637">
        <time>2017-08-08T22:24:42.257000Z</time>
      </trkpt>
      <trkpt lat="41.68187648527481" lon="123.4252745100515">
        <time>2017-08-08T22:24:45.248000Z</time>
      </trkpt>
      <trkpt lat="41.68187715582706" lon="123.4254016635226">
        <ele>52.23041927096554</ele>
        <time>2017-08-08T22:24:48.249000Z</time>
      </trkpt>
      <trkpt lat="41.68188092768349" lon="123.4255860653924">
        <time>2017-08-08T22:24:51.249000Z</time>
      </trkpt>
      <trkpt lat="41.68188629210152" lon="123.4257328325169">
        <ele>52.22817813101045</ele>
        <time>2017-08-08T22:24:56.255000Z</time>
      </trkpt>
      <trkpt lat="41.68188511863507" lon="123.4258894902872">
        <time>2017-08-08T22:25:00.225000Z</time>
      </trkpt>
      <trkpt lat="41.68189354244776" lon="123.4260399454491">
        <time>2017-08-08T22:25:04.248000Z</time>
      </trkpt>
      <trkpt lat="41.68188696265377" lon="123.4261872154879">
        <ele>51.68922828213233</ele>
        <time>2017-08-08T22:25:08.234000Z</time>
      </trkpt>
      <trkpt lat="41.68188029904075" lon="123.4263264388996">
        <time>2017-08-08T22:25:11.245000Z</time>
      </trkpt>
      <trkpt lat="41.68186781000502" lon="123.4264639859306">
        <time>2017-08-08T22:25:14.257000Z</time>
      </trkpt>
      <trkpt lat="41.68188151441671" lon="123.4266120941596">
        <ele>51.27895402795278</ele>
        <time>2017-08-08T22:25:18.248000Z</time>
      </trkpt>
      <trkpt lat="41.68188855521537" lon="123.4267405887353">
        <time>2017-08-08T22:25:21.243000Z</time>
      </trkpt>
      <trkpt lat="41.68190070897497" lon="123.4268753697383">
        <time>2017-08-08T22:25:24.226000Z</time>
      </trkpt>
      <trkpt lat="41.68189827822305" lon="123.4270013497429">
        <ele>51.23554830994195</ele>
        <time>2017-08-08T22:25:27.257000Z</time>
      </trkpt>
      <trkpt lat="41.68189949359901" lon="123.4271306825089">
        <time>2017-08-08T22:25:31.241000Z</time>
      </trkpt>
      <trkpt lat="41.68189811058499" lon="123.4272676428067">
        <time>2017-08-08T22:25:35.280000Z</time>
      </trkpt>
      <trkpt lat="41.68189299762405" lon="123.4273948800968">
        <ele>51.19440186018466</ele>
        <time>2017-08-08T22:25:38.238000Z</time>
      </trkpt>
      <trkpt lat="41.68188750747748" lon="123.4275556449997">
        <time>2017-08-08T22:25:42.245000Z</time>
      </trkpt>
      <trkpt lat="41.68188591491587" lon="123.4276855644988">
        <time>2017-08-08T22:25:45.261000Z</time>
      </trkpt>
      <trkpt lat="41.68188394516863" lon="123.4278395400601">
        <ele>51.15052914259068</ele>
        <time>2017-08-08T22:25:49.236000Z</time>
      </trkpt>
      <trkpt lat="41.68187870647915" lon="123.4279975389349">
        <time>2017-08-08T22:25:53.248000Z</time>
      </trkpt>
      <trkpt lat="41.68187321633257" lon="123.4281303921001">
        <ele>51.11778868532981</ele>
        <time>2017-08-08T22:25:56.239000Z</time>
      </trkpt>
      <trkpt lat="41.68188130486913" lon="123.4282537737148">
        <time>2017-08-08T22:25:59.259000Z</time>
      </trkpt>
      <trkpt lat="41.68187472507514" lon="123.428375730406">
        <time>2017-08-08T22:26:02.247000Z</time>
      </trkpt>
      <trkpt lat="41.68187422216095" lon="123.4285319690811">
        <ele>51.07801799110122</ele>
        <time>2017-08-08T22:26:06.241000Z</time>
      </trkpt>
      <trkpt lat="41.68187426407047" lon="123.428663984056">
        <time>2017-08-08T22:26:09.244000Z</time>
      </trkpt>
      <trkpt lat="41.68187497653224" lon="123.4288295266437">
        <time>2017-08-08T22:26:13.241000Z</time>
      </trkpt>
      <trkpt lat="41.68185632679768" lon="123.4289897886323">
        <ele>51.03042189845252</ele>
        <time>2017-08-08T22:26:17.241000Z</time>
      </trkpt>
      <trkpt lat="41.68185544669785" lon="123.4291119967805">
        <time>2017-08-08T22:26:20.253000Z</time>
      </trkpt>
      <trkpt lat="41.68186705563374" lon="123.4292523936587">
        <time>2017-08-08T22:26:24.225000Z</time>
      </trkpt>
      <trkpt lat="41.68185846418299" lon="123.42939597566">
        <ele>50.98576664101654</ele>
        <time>2017-08-08T22:26:28.278000Z</time>
      </trkpt>
      <trkpt lat="41.68185980528749" lon="123.429517597075">
        <time>2017-08-08T22:26:31.261000Z</time>
      </trkpt>
      <trkpt lat="41.68185465041704" lon="123.4296415654229">
        <time>2017-08-08T22:26:35.258000Z</time>
      </trkpt>
      <trkpt lat="41.68186806146212" lon="123.4297804535585">
        <ele>50.94487262346635</ele>
        <time>2017-08-08T22:26:39.254000Z</time>
      </trkpt>
      <trkpt lat="41.68187405452289" lon="123.4299356025862">
        <time>2017-08-08T22:26:43.277000Z</time>
      </trkpt>
      <trkpt lat="41.68188356798299" lon="123.430096451308">
        <ele>50.91388657004483</ele>
        <time>2017-08-08T22:26:47.255000Z</time>
      </trkpt>
      <trkpt lat="41.68189203370519" lon="123.4302512650596">
        <time>2017-08-08T22:26:50.273000Z</time>
      </trkpt>
      <trkpt lat="41.68190016415127" lon="123.4304132034289">
        <time>2017-08-08T22:26:53.242000Z</time>
      </trkpt>
      <trkpt lat="41.68189559601404" lon="123.430571956675">
        <ele>50.86365256083194</ele>
        <time>2017-08-08T22:26:56.227000Z</time>
      </trkpt>
      <trkpt lat="41.68189559601404" lon="123.4306931589948">
        <time>2017-08-08T22:26:59.243000Z</time>
      </trkpt>
      <trkpt lat="41.68190401982672" lon="123.4308434465187">
        <time>2017-08-08T22:27:03.247000Z</time>
      </trkpt>
      <trkpt lat="41.68189023159601" lon="123.4309912194716">
        <ele>50.81846719576104</ele>
        <time>2017-08-08T22:27:07.252000Z</time>
      </trkpt>
      <trkpt lat="41.68187707200803" lon="123.4311453626709">
        <time>2017-08-08T22:27:11.321000Z</time>
      </trkpt>
      <trkpt lat="41.68186768427648" lon="123.4312753659891">
        <time>2017-08-08T22:27:14.242000Z</time>
      </trkpt>
      <trkpt lat="41.68185808699734" lon="123.4314087220686">
        <ele>50.7728779391588</ele>
        <time>2017-08-08T22:27:17.236000Z</time>
      </trkpt>
      <trkpt lat="41.68185641061671" lon="123.4315518849748">
        <time>2017-08-08T22:27:20.249000Z</time>
      </trkpt>
      <trkpt lat="41.68185414750285" lon="123.4316950478809">
        <time>2017-08-08T22:27:23.237000Z</time>
      </trkpt>
      <trkpt lat="41.68186143975861" lon="123.4318261408465">
        <ele>50.72879065418879</ele>
        <time>2017-08-08T22:27:27.231000Z</time>
      </trkpt>
      <trkpt lat="41.68188658546813" lon="123.4319530428605">
        <time>2017-08-08T22:27:31.249000Z</time>
      </trkpt>
      <trkpt lat="41.68188151441671" lon="123.4321140592205">
        <time>2017-08-08T22:27:35.238000Z</time>
      </trkpt>
      <trkpt lat="41.68189098596729" lon="123.4322371893781">
        <ele>50.68433734251849</ele>
        <time>2017-08-08T22:27:38.232000Z</time>
      </trkpt>
      <trkpt lat="41.68189844586112" lon="123.432361157726">
        <time>2017-08-08T22:27:41.263000Z</time>
      </trkpt>
      <trkpt lat="41.68189262043841" lon="123.4324972798335">
        <time>2017-08-08T22:27:44.236000Z</time>
      </trkpt>
      <trkpt lat="41.68188801039167" lon="123.4326464777099">
        <ele>50.64399867582392</ele>
        <time>2017-08-08T22:27:48.267000Z</time>
      </trkpt>
      <trkpt lat="41.68188998013891" lon="123.4327676800298">
        <time>2017-08-08T22:27:51.221000Z</time>
      </trkpt>
      <trkpt lat="41.68189823631354" lon="123.4329053946989">
        <time>2017-08-08T22:27:55.226000Z</time>
      </trkpt>
      <trkpt lat="41.68191608976729" lon="123.433040427159">
        <ele>50.60113568705834</ele>
        <time>2017-08-08T22:27:59.217000Z</time>
      </trkpt>
      <trkpt lat="41.68193021327414" lon="123.4331814945894">
        <time>2017-08-08T22:28:04.362000Z</time>
      </trkpt>
      <trkpt lat="41.68192677669384" lon="123.4333155212211">
        <ele>50.57181568620368</ele>
        <time>2017-08-08T22:28:08.205000Z</time>
      </trkpt>
      <trkpt lat="41.68192543558933" lon="123.4334722628104">
        <time>2017-08-08T22:28:12.245000Z</time>
      </trkpt>
      <trkpt lat="41.68190682776429" lon="123.4336214606868">
        <time>2017-08-08T22:28:15.243000Z</time>
      </trkpt>
      <trkpt lat="41.68190406173624" lon="123.433767305802">
        <ele>50.52544388975942</ele>
        <time>2017-08-08T22:28:18.242000Z</time>
      </trkpt>
      <trkpt lat="41.6819184786097" lon="123.4338956327396">
        <time>2017-08-08T22:28:21.222000Z</time>
      </trkpt>
      <trkpt lat="41.68191516775794" lon="123.4340396338361">
        <ele>49.04987746005681</ele>
        <time>2017-08-08T22:28:26.232000Z</time>
      </trkpt>
      <trkpt lat="41.68190125379868" lon="123.4341830481993">
        <time>2017-08-08T22:28:31.245000Z</time>
      </trkpt>
      <trkpt lat="41.68191005479701" lon="123.434317074831">
        <ele>48.63132887347862</ele>
        <time>2017-08-08T22:28:36.241000Z</time>
      </trkpt>
      <trkpt lat="41.68188172396429" lon="123.434470128383">
        <time>2017-08-08T22:28:41.250000Z</time>
      </trkpt>
      <trkpt lat="41.68187376115628" lon="123.4346012213486">
        <time>2017-08-08T22:28:44.215000Z</time>
      </trkpt>
      <trkpt lat="41.68186705563374" lon="123.4347256087916">
        <ele>48.48194492428479</ele>
        <time>2017-08-08T22:28:47.249000Z</time>
      </trkpt>
      <trkpt lat="41.68186491824843" lon="123.4348790814387">
        <time>2017-08-08T22:28:50.216000Z</time>
      </trkpt>
      <trkpt lat="41.68184970509417" lon="123.435003971796">
        <time>2017-08-08T22:28:53.235000Z</time>
      </trkpt>
      <trkpt lat="41.68184010781504" lon="123.4351465479689">
        <ele>47.21031169185711</ele>
        <time>2017-08-08T22:28:56.232000Z</time>
      </trkpt>
      <trkpt lat="41.681832061188" lon="123.4352702648597">
        <time>2017-08-08T22:29:00.247000Z</time>
      </trkpt>
      <trkpt lat="41.68182719968416" lon="123.435413763042">
        <time>2017-08-08T22:29:03.266000Z</time>
      </trkpt>
      <trkpt lat="41.6818222962708" lon="123.4355665651368">
        <ele>46.99521575080686</ele>
        <time>2017-08-08T22:29:06.248000Z</time>
      </trkpt>
      <trkpt lat="41.68184526268549" lon="123.4357095604049">
        <time>2017-08-08T22:29:10.232000Z</time>
      </trkpt>
      <trkpt lat="41.68184266429551" lon="123.4358490352737">
        <time>2017-08-08T22:29:14.196000Z</time>
      </trkpt>
      <trkpt lat="41.68186244558699" lon="123.4359859117525">
        <ele>47.43883244870538</ele>
        <time>2017-08-08T22:29:18.223000Z</time>
      </trkpt>
      <trkpt lat="41.6818735516087" lon="123.4361175076323">
        <time>2017-08-08T22:29:21.229000Z</time>
      </trkpt>
      <trkpt lat="41.68184111364342" lon="123.4362439905511">
        <time>2017-08-08T22:29:25.229000Z</time>
      </trkpt>
      <trkpt lat="41.68183784470119" lon="123.4363896680283">
        <ele>47.84898930241243</ele>
        <time>2017-08-08T22:29:29.207000Z</time>
      </trkpt>
      <trkpt lat="41.6818423709289" lon="123.4365549591588">
        <time>2017-08-08T22:29:32.193000Z</time>
      </trkpt>
      <trkpt lat="41.68186982166178" lon="123.4366965295034">
        <time>2017-08-08T22:29:35.217000Z</time>
      </trkpt>
      <trkpt lat="41.68190783359267" lon="123.4368354176389">
        <ele>48.31158685737958</ele>
        <time>2017-08-08T22:29:38.223000Z</time>
      </trkpt>
      <trkpt lat="41.68192334011353" lon="123.4369956796276">
        <time>2017-08-08T22:29:41.228000Z</time>
      </trkpt>
      <trkpt lat="41.68193180583574" lon="123.437150158103">
        <time>2017-08-08T22:29:43.264000Z</time>
      </trkpt>
      <trkpt lat="41.68193180583574" lon="123.437150158103">
        <ele>48.7811197255064</ele>
        <time>2017-08-08T22:29:46.224000Z</time>
      </trkpt>
      <trkpt lat="41.68180146724142" lon="123.4378305171835">
        <time>2017-08-08T22:29:51.238000Z</time>
      </trkpt>
      <trkpt lat="41.68179765347548" lon="123.4380176850813">
        <time>2017-08-08T22:29:53.239000Z</time>
      </trkpt>
      <trkpt lat="41.68181823104776" lon="123.4381420725243">
        <ele>49.68088535385516</ele>
        <time>2017-08-08T22:29:57.230000Z</time>
      </trkpt>
      <trkpt lat="41.68179601900436" lon="123.4382637777584">
        <time>2017-08-08T22:30:02.265000Z</time>
      </trkpt>
      <trkpt lat="41.68180850804008" lon="123.438384309526">
        <ele>49.93639689131729</ele>
        <time>2017-08-08T22:30:08.224000Z</time>
      </trkpt>
      <trkpt lat="41.68182715777464" lon="123.4385279753464">
        <time>2017-08-08T22:30:11.243000Z</time>
      </trkpt>
      <trkpt lat="41.68182787023641" lon="123.4386557993697">
        <time>2017-08-08T22:30:13.222000Z</time>
      </trkpt>
      <trkpt lat="41.68183268983073" lon="123.4388058354365">
        <ele>50.33608993920446</ele>
        <time>2017-08-08T22:30:16.227000Z</time>
      </trkpt>
      <trkpt lat="41.68183675505377" lon="123.4389298876034">
        <time>2017-08-08T22:30:19.223000Z</time>
      </trkpt>
      <trkpt lat="41.68184760961838" lon="123.4390554485129">
        <time>2017-08-08T22:30:22.301000Z</time>
      </trkpt>
      <trkpt lat="41.68183918580569" lon="123.4391918220775">
        <ele>50.74125823432297</ele>
        <time>2017-08-08T22:30:44.246000Z</time>
      </trkpt>
      <trkpt lat="41.6818402754531" lon="123.439354263361">
        <ele>50.8795994810346</ele>
        <time>2017-08-08T22:30:48.241000Z</time>
      </trkpt>
      <trkpt lat="41.68183834761538" lon="123.439497007172">
        <time>2017-08-08T22:30:51.244000Z</time>
      </trkpt>
      <trkpt lat="41.68185192629851" lon="123.439629189785">
        <time>2017-08-08T22:30:54.244000Z</time>
      </trkpt>
      <trkpt lat="41.68186110448249" lon="123.4397568461703">
        <ele>51.32309450677243</ele>
        <time>2017-08-08T22:30:57.257000Z</time>
      </trkpt>
      <trkpt lat="41.68184358630486" lon="123.4399026912855">
        <time>2017-08-08T22:31:01.239000Z</time>
      </trkpt>
      <trkpt lat="41.68182539757498" lon="123.4400289227473">
        <time>2017-08-08T22:31:04.248000Z</time>
      </trkpt>
      <trkpt lat="41.68181973979033" lon="123.4401748516815">
        <ele>51.73215631103322</ele>
        <time>2017-08-08T22:31:07.239000Z</time>
      </trkpt>
      <trkpt lat="41.68180783748783" lon="123.4403543920474">
        <time>2017-08-08T22:31:10.260000Z</time>
      </trkpt>
      <trkpt lat="41.68179237287648" lon="123.440498560782">
        <time>2017-08-08T22:31:13.254000Z</time>
      </trkpt>
      <trkpt lat="41.68182921134092" lon="123.4406221100347">
        <ele>52.20935452528391</ele>
        <time>2017-08-08T22:31:18.207000Z</time>
      </trkpt>
      <trkpt lat="41.68183843143441" lon="123.4407561366665">
        <time>2017-08-08T22:31:22.248000Z</time>
      </trkpt>
      <trkpt lat="41.68188205924042" lon="123.4409091902184">
        <time>2017-08-08T22:31:25.299000Z</time>
      </trkpt>
      <trkpt lat="41.6818941710905" lon="123.4410312307286">
        <ele>52.86317082473806</ele>
        <time>2017-08-08T22:31:27.279000Z</time>
      </trkpt>
      <trkpt lat="41.68187627572723" lon="123.4411722981589">
        <time>2017-08-08T22:31:31.256000Z</time>
      </trkpt>
      <trkpt lat="41.68187535371788" lon="123.4413219151305">
        <time>2017-08-08T22:31:35.379000Z</time>
      </trkpt>
      <trkpt lat="41.6818804247693" lon="123.4414664191412">
        <ele>53.07564788148584</ele>
        <time>2017-08-08T22:31:38.267000Z</time>
      </trkpt>
      <trkpt lat="41.68189060878165" lon="123.4415956680881">
        <time>2017-08-08T22:31:41.248000Z</time>
      </trkpt>
      <trkpt lat="41.68187648527481" lon="123.4417325445669">
        <time>2017-08-08T22:31:45.260000Z</time>
      </trkpt>
      <trkpt lat="41.68187275532789" lon="123.4418668226557">
        <ele>53.21329992082293</ele>
        <time>2017-08-08T22:31:48.238000Z</time>
      </trkpt>
      <trkpt lat="41.68187128849484" lon="123.4419876058804">
        <time>2017-08-08T22:31:52.263000Z</time>
      </trkpt>
      <trkpt lat="41.68183084581204" lon="123.4421140887993">
        <ele>53.29841944718853</ele>
        <time>2017-08-08T22:31:56.273000Z</time>
      </trkpt>
      <trkpt lat="41.68181005869217" lon="123.4422543180393">
        <time>2017-08-08T22:31:59.231000Z</time>
      </trkpt>
      <trkpt lat="41.68181265708215" lon="123.4423926194417">
        <time>2017-08-08T22:32:02.257000Z</time>
      </trkpt>
      <trkpt lat="41.68180486191221" lon="123.4425512888687">
        <ele>53.43811820781023</ele>
        <time>2017-08-08T22:32:06.246000Z</time>
      </trkpt>
      <trkpt lat="41.68180171869852" lon="123.4426874947953">
        <time>2017-08-08T22:32:09.239000Z</time>
      </trkpt>
      <trkpt lat="41.68179723438032" lon="123.4428359383004">
        <time>2017-08-08T22:32:12.240000Z</time>
      </trkpt>
      <trkpt lat="41.68179413307615" lon="123.4429804423111">
        <time>2017-08-08T22:32:15.229000Z</time>
      </trkpt>
      <trkpt lat="41.68179316915728" lon="123.4431093559819">
        <ele>54.24706980929111</ele>
        <time>2017-08-08T22:32:18.241000Z</time>
      </trkpt>
      <trkpt lat="41.68179023549117" lon="123.4432437178897">
        <time>2017-08-08T22:32:21.252000Z</time>
      </trkpt>
      <trkpt lat="41.68179124131955" lon="123.4434078355538">
        <time>2017-08-08T22:32:25.262000Z</time>
      </trkpt>
      <trkpt lat="41.68177196294226" lon="123.4435370006817">
        <ele>54.53657864637101</ele>
        <time>2017-08-08T22:32:28.237000Z</time>
      </trkpt>
      <trkpt lat="41.68175708506413" lon="123.4436747153508">
        <time>2017-08-08T22:32:32.269000Z</time>
      </trkpt>
      <trkpt lat="41.68175762988783" lon="123.4438146931338">
        <ele>54.66688225590688</ele>
        <time>2017-08-08T22:32:36.229000Z</time>
      </trkpt>
      <trkpt lat="41.6817612341062" lon="123.4439628851818">
        <time>2017-08-08T22:32:40.246000Z</time>
      </trkpt>
      <trkpt lat="41.68178755328216" lon="123.444111244868">
        <time>2017-08-08T22:32:44.245000Z</time>
      </trkpt>
      <trkpt lat="41.68181089688249" lon="123.4442613647538">
        <ele>55.69483912952468</ele>
        <time>2017-08-08T22:32:48.242000Z</time>
      </trkpt>
      <trkpt lat="41.6818085499496" lon="123.4443927929955">
        <time>2017-08-08T22:32:51.267000Z</time>
      </trkpt>
      <trkpt lat="41.68179509699501" lon="123.4445175157147">
        <time>2017-08-08T22:32:54.259000Z</time>
      </trkpt>
      <trkpt lat="41.68179547418065" lon="123.4446483572232">
        <ele>55.8498731216069</ele>
        <time>2017-08-08T22:32:57.305000Z</time>
      </trkpt>
      <trkpt lat="41.6818014253319" lon="123.444809038307">
        <time>2017-08-08T22:33:01.258000Z</time>
      </trkpt>
      <trkpt lat="41.68179702483274" lon="123.4449476749855">
        <time>2017-08-08T22:33:05.262000Z</time>
      </trkpt>
      <trkpt lat="41.68178109921671" lon="123.4450876527684">
        <ele>55.95831043275908</ele>
        <time>2017-08-08T22:33:09.247000Z</time>
      </trkpt>
      <trkpt lat="41.68179300151922" lon="123.4452088550883">
        <time>2017-08-08T22:33:12.234000Z</time>
      </trkpt>
      <trkpt lat="41.68180339507915" lon="123.4453390260445">
        <time>2017-08-08T22:33:15.253000Z</time>
      </trkpt>
      <trkpt lat="41.68180599346913" lon="123.4454890621113">
        <ele>56.05777445788916</ele>
        <time>2017-08-08T22:33:19.245000Z</time>
      </trkpt>
      <trkpt lat="41.68180096432723" lon="123.4456170537727">
        <time>2017-08-08T22:33:22.253000Z</time>
      </trkpt>
      <trkpt lat="41.68180079668917" lon="123.4457386751878">
        <time>2017-08-08T22:33:25.246000Z</time>
      </trkpt>
      <trkpt lat="41.68178499680169" lon="123.4458798264372">
        <ele>56.89229458738396</ele>
        <time>2017-08-08T22:33:29.250000Z</time>
      </trkpt>
      <trkpt lat="41.68178294323541" lon="123.4460081533747">
        <time>2017-08-08T22:33:32.242000Z</time>
      </trkpt>
      <trkpt lat="41.68177791409351" lon="123.4461425991016">
        <time>2017-08-08T22:33:35.272000Z</time>
      </trkpt>
      <trkpt lat="41.68177929710753" lon="123.4462907073306">
        <ele>57.49284847040781</ele>
        <time>2017-08-08T22:33:39.222000Z</time>
      </trkpt>
      <trkpt lat="41.68177992575027" lon="123.4464148433166">
        <time>2017-08-08T22:33:42.249000Z</time>
      </trkpt>
      <trkpt lat="41.6817707475663" lon="123.4465366323697">
        <time>2017-08-08T22:33:45.249000Z</time>
      </trkpt>
      <trkpt lat="41.68176701761939" lon="123.4466699046301">
        <ele>57.56427647476949</ele>
        <time>2017-08-08T22:33:49.329000Z</time>
      </trkpt>
      <trkpt lat="41.68178629599668" lon="123.4468260594862">
        <time>2017-08-08T22:33:53.250000Z</time>
      </trkpt>
      <trkpt lat="41.6818032693506" lon="123.4469626845079">
        <ele>57.61704173530861</ele>
        <time>2017-08-08T22:33:56.246000Z</time>
      </trkpt>
      <trkpt lat="41.68182787023641" lon="123.4471041710334">
        <time>2017-08-08T22:33:59.231000Z</time>
      </trkpt>
      <trkpt lat="41.68183503676362" lon="123.447240544598">
        <time>2017-08-08T22:34:02.246000Z</time>
      </trkpt>
      <trkpt lat="41.68183164209284" lon="123.4473907483029">
        <time>2017-08-08T22:34:05.259000Z</time>
      </trkpt>
      <trkpt lat="41.68183474339701" lon="123.4475209192591">
        <ele>58.46265944817388</ele>
        <time>2017-08-08T22:34:08.241000Z</time>
      </trkpt>
      <trkpt lat="41.68181705758132" lon="123.4476445523309">
        <time>2017-08-08T22:34:11.270000Z</time>
      </trkpt>
      <trkpt lat="41.68177954856463" lon="123.4477597196805">
        <ele>58.72749771189783</ele>
        <time>2017-08-08T22:34:23.240000Z</time>
      </trkpt>
      <trkpt lat="41.68177095711388" lon="123.4478805029052">
        <ele>58.64778982779065</ele>
        <time>2017-08-08T22:34:26.254000Z</time>
      </trkpt>
      <trkpt lat="41.68176831681438" lon="123.4480416869032">
        <time>2017-08-08T22:34:29.249000Z</time>
      </trkpt>
      <trkpt lat="41.68178617026813" lon="123.448183843981">
        <time>2017-08-08T22:34:32.265000Z</time>
      </trkpt>
      <trkpt lat="41.68179727628983" lon="123.4483103268998">
        <time>2017-08-08T22:34:35.255000Z</time>
      </trkpt>
      <trkpt lat="41.68178964875795" lon="123.4484492988544">
        <ele>58.07805872959993</ele>
        <time>2017-08-08T22:34:38.268000Z</time>
      </trkpt>
      <trkpt lat="41.68178382333524" lon="123.448572512831">
        <time>2017-08-08T22:34:41.249000Z</time>
      </trkpt>
      <trkpt lat="41.68179107368149" lon="123.4486999177592">
        <time>2017-08-08T22:34:44.234000Z</time>
      </trkpt>
      <trkpt lat="41.68178956493892" lon="123.4488470201599">
        <ele>57.67637603091899</ele>
        <time>2017-08-08T22:34:48.245000Z</time>
      </trkpt>
      <trkpt lat="41.68177950665511" lon="123.4489915241706">
        <time>2017-08-08T22:34:52.246000Z</time>
      </trkpt>
      <trkpt lat="41.68177213058032" lon="123.4491464217412">
        <time>2017-08-08T22:34:55.244000Z</time>
      </trkpt>
      <trkpt lat="41.68176898736663" lon="123.4492786881732">
        <ele>57.21616101046476</ele>
        <time>2017-08-08T22:34:58.251000Z</time>
      </trkpt>
      <trkpt lat="41.68177980002172" lon="123.4494138882714">
        <time>2017-08-08T22:35:02.226000Z</time>
      </trkpt>
      <trkpt lat="41.68177372314192" lon="123.4495691211181">
        <ele>56.94020524396491</ele>
        <time>2017-08-08T22:35:06.241000Z</time>
      </trkpt>
      <trkpt lat="41.68176622133858" lon="123.4497124516624">
        <time>2017-08-08T22:35:10.278000Z</time>
      </trkpt>
      <trkpt lat="41.6817617789299" lon="123.4498394374954">
        <time>2017-08-08T22:35:14.224000Z</time>
      </trkpt>
      <trkpt lat="41.68175197210319" lon="123.44997321267">
        <ele>56.50189343905798</ele>
        <time>2017-08-08T22:35:18.240000Z</time>
      </trkpt>
      <trkpt lat="41.6817453923092" lon="123.4501278587835">
        <time>2017-08-08T22:35:22.239000Z</time>
      </trkpt>
      <trkpt lat="41.68174518276162" lon="123.4502623045104">
        <ele>56.20440569795232</ele>
        <time>2017-08-08T22:35:26.268000Z</time>
      </trkpt>
      <trkpt lat="41.68175071481772" lon="123.4503830877351">
        <time>2017-08-08T22:35:29.226000Z</time>
      </trkpt>
      <trkpt lat="41.68174849361338" lon="123.4505195451187">
        <time>2017-08-08T22:35:32.232000Z</time>
      </trkpt>
      <trkpt lat="41.68174291964777" lon="123.45067092229">
        <time>2017-08-08T22:35:35.252000Z</time>
      </trkpt>
      <trkpt lat="41.68175121773191" lon="123.4508236405658">
        <ele>55.64544058706451</ele>
        <time>2017-08-08T22:35:41.241000Z</time>
      </trkpt>
      <trkpt lat="41.68175134346045" lon="123.4509549011695">
        <time>2017-08-08T22:35:44.243000Z</time>
      </trkpt>
      <trkpt lat="41.68175708506413" lon="123.4510929511147">
        <ele>55.35290272517858</ele>
        <time>2017-08-08T22:35:47.245000Z</time>
      </trkpt>
      <trkpt lat="41.68176068928249" lon="123.4512204398619">
        <time>2017-08-08T22:35:50.217000Z</time>
      </trkpt>
      <trkpt lat="41.68176567651488" lon="123.451344743486">
        <time>2017-08-08T22:35:53.259000Z</time>
      </trkpt>
      <trkpt lat="41.68176156938232" lon="123.4514714778619">
        <ele>54.95159126743912</ele>
        <time>2017-08-08T22:35:57.250000Z</time>
      </trkpt>
      <trkpt lat="41.68178705036797" lon="123.4515922610866">
        <time>2017-08-08T22:36:01.253000Z</time>
      </trkpt>
      <trkpt lat="41.68185599152155" lon="123.4516786785083">
        <ele>54.69209384934487</ele>
        <time>2017-08-08T22:36:07.254000Z</time>
      </trkpt>
      <trkpt lat="41.6819301294551" lon="123.4517727234619">
        <time>2017-08-08T22:36:13.221000Z</time>
      </trkpt>
      <trkpt lat="41.68200766205944" lon="123.4518422932582">
        <ele>54.42145920300623</ele>
        <time>2017-08-08T22:36:18.263000Z</time>
      </trkpt>
      <trkpt lat="41.68210468258865" lon="123.4518446401911">
        <time>2017-08-08T22:36:22.272000Z</time>
      </trkpt>
      <trkpt lat="41.68221100703038" lon="123.4518460651147">
        <time>2017-08-08T22:36:25.263000Z</time>
      </trkpt>
      <trkpt lat="41.68229872364707" lon="123.4518139624255">
        <ele>54.01284667341767</ele>
        <time>2017-08-08T22:36:29.235000Z</time>
      </trkpt>
      <trkpt lat="41.68238882910617" lon="123.4518350848215">
        <time>2017-08-08T22:36:33.271000Z</time>
      </trkpt>
      <trkpt lat="41.68227487713255" lon="123.4518354200976">
        <ele>53.76164030301646</ele>
        <time>2017-08-08T22:36:50.244000Z</time>
      </trkpt>
      <trkpt lat="41.68215547692187" lon="123.4518418741631">
        <time>2017-08-08T22:36:54.264000Z</time>
      </trkpt>
      <trkpt lat="41.68204089630552" lon="123.4518335760789">
        <ele>53.70730818323712</ele>
        <time>2017-08-08T22:36:58.239000Z</time>
      </trkpt>
      <trkpt lat="41.68193696070619" lon="123.451802143942">
        <time>2017-08-08T22:37:01.240000Z</time>
      </trkpt>
      <trkpt lat="41.68185477614559" lon="123.4517295566606">
        <time>2017-08-08T22:37:04.234000Z</time>
      </trkpt>
      <trkpt lat="41.6818067059309" lon="123.4515843820976">
        <ele>53.6145079225248</ele>
        <time>2017-08-08T22:37:08.269000Z</time>
      </trkpt>
      <trkpt lat="41.68180641256429" lon="123.4514304903554">
        <time>2017-08-08T22:37:12.237000Z</time>
      </trkpt>
      <trkpt lat="41.68180922050185" lon="123.4512947873431">
        <time>2017-08-08T22:37:15.260000Z</time>
      </trkpt>
      <trkpt lat="41.68181605175294" lon="123.4511721600997">
        <ele>53.61199605457592</ele>
        <time>2017-08-08T22:37:18.246000Z</time>
      </trkpt>
      <trkpt lat="41.68181450110085" lon="123.451027739908">
        <time>2017-08-08T22:37:21.218000Z</time>
      </trkpt>
      <trkpt lat="41.68181387245811" lon="123.4508815595167">
        <time>2017-08-08T22:37:24.207000Z</time>
      </trkpt>
      <trkpt lat="41.68180540673591" lon="123.4507388157057">
        <ele>53.60967963650769</ele>
        <time>2017-08-08T22:37:27.400000Z</time>
      </trkpt>
      <trkpt lat="41.68180217970319" lon="123.4506087285685">
        <time>2017-08-08T22:37:30.232000Z</time>
      </trkpt>
      <trkpt lat="41.68178973257698" lon="123.4504636378246">
        <time>2017-08-08T22:37:33.280000Z</time>
      </trkpt>
      <trkpt lat="41.68179815638967" lon="123.4503042140263">
        <ele>53.60733019414929</ele>
        <time>2017-08-08T22:37:37.234000Z</time>
      </trkpt>
      <trkpt lat="41.68179325297631" lon="123.4501491488176">
        <time>2017-08-08T22:37:41.233000Z</time>
      </trkpt>
      <trkpt lat="41.68179052885778" lon="123.4500240070032">
        <time>2017-08-08T22:37:44.210000Z</time>
      </trkpt>
      <trkpt lat="41.68178981639601" lon="123.449899116646">
        <ele>53.6048648297927</ele>
        <time>2017-08-08T22:37:47.237000Z</time>
      </trkpt>
      <trkpt lat="41.68178780473925" lon="123.4497739748316">
        <time>2017-08-08T22:37:50.223000Z</time>
      </trkpt>
      <trkpt lat="41.68179949749418" lon="123.4496117011862">
        <time>2017-08-08T22:37:54.224000Z</time>
      </trkpt>
      <trkpt lat="41.68180863376863" lon="123.4494912532377">
        <ele>53.6025511075849</ele>
        <time>2017-08-08T22:37:57.230000Z</time>
      </trkpt>
      <trkpt lat="41.68181085497297" lon="123.4493330029058">
        <time>2017-08-08T22:38:01.309000Z</time>
      </trkpt>
      <trkpt lat="41.68181232180603" lon="123.4491833021151">
        <time>2017-08-08T22:38:05.269000Z</time>
      </trkpt>
      <trkpt lat="41.68180838231154" lon="123.4490422346848">
        <ele>53.60014842198314</ele>
        <time>2017-08-08T22:38:08.225000Z</time>
      </trkpt>
      <trkpt lat="41.68181139979668" lon="123.448918685432">
        <time>2017-08-08T22:38:11.229000Z</time>
      </trkpt>
      <trkpt lat="41.68181550692923" lon="123.4487983213025">
        <time>2017-08-08T22:38:14.240000Z</time>
      </trkpt>
      <trkpt lat="41.68181973979033" lon="123.448664965223">
        <ele>53.59799105967986</ele>
        <time>2017-08-08T22:38:17.302000Z</time>
      </trkpt>
      <trkpt lat="41.68182883415528" lon="123.448543343808">
        <time>2017-08-08T22:38:20.243000Z</time>
      </trkpt>
      <trkpt lat="41.68183298319735" lon="123.4483931401031">
        <time>2017-08-08T22:38:24.232000Z</time>
      </trkpt>
      <trkpt lat="41.6818415746481" lon="123.4482643102514">
        <ele>53.59571710141329</ele>
        <time>2017-08-08T22:38:27.208000Z</time>
      </trkpt>
      <trkpt lat="41.68185896709718" lon="123.44812592503">
        <time>2017-08-08T22:38:30.213000Z</time>
      </trkpt>
      <trkpt lat="41.68183239646412" lon="123.448004303615">
        <time>2017-08-08T22:38:34.229000Z</time>
      </trkpt>
      <trkpt lat="41.68183239646412" lon="123.448004303615">
        <ele>53.36842402413819</ele>
        <time>2017-08-08T22:39:33.539000Z</time>
      </trkpt>
      <trkpt lat="41.68182317637064" lon="123.4477774893152">
        <ele>53.23961985528121</ele>
        <time>2017-08-08T22:39:36.242000Z</time>
      </trkpt>
      <trkpt lat="41.68184916027047" lon="123.4476445523309">
        <time>2017-08-08T22:39:41.326000Z</time>
      </trkpt>
      <trkpt lat="41.6818621941299" lon="123.4475111962514">
        <time>2017-08-08T22:39:44.299000Z</time>
      </trkpt>
      <trkpt lat="41.6818492440895" lon="123.4473845456945">
        <ele>53.39622443475899</ele>
        <time>2017-08-08T22:39:47.277000Z</time>
      </trkpt>
      <trkpt lat="41.68184258047648" lon="123.4472400416838">
        <time>2017-08-08T22:39:51.402000Z</time>
      </trkpt>
      <trkpt lat="41.68184903454192" lon="123.4471157380598">
        <time>2017-08-08T22:39:54.268000Z</time>
      </trkpt>
      <trkpt lat="41.68185012418933" lon="123.4469574039089">
        <ele>53.64507603679863</ele>
        <time>2017-08-08T22:39:57.350000Z</time>
      </trkpt>
      <trkpt lat="41.68184534650452" lon="123.4468206950682">
        <time>2017-08-08T22:40:00.253000Z</time>
      </trkpt>
      <trkpt lat="41.68184945363708" lon="123.4466916137593">
        <time>2017-08-08T22:40:04.238000Z</time>
      </trkpt>
      <trkpt lat="41.68185314167447" lon="123.4465430864351">
        <ele>53.91104561267555</ele>
        <time>2017-08-08T22:40:08.219000Z</time>
      </trkpt>
      <trkpt lat="41.68186454106279" lon="123.4464171902495">
        <time>2017-08-08T22:40:11.233000Z</time>
      </trkpt>
      <trkpt lat="41.68186215222038" lon="123.4462752846288">
        <time>2017-08-08T22:40:15.253000Z</time>
      </trkpt>
      <trkpt lat="41.68186211031087" lon="123.4461202194201">
        <ele>54.17264143312267</ele>
        <time>2017-08-08T22:40:19.253000Z</time>
      </trkpt>
      <trkpt lat="41.68186303232022" lon="123.4459944908726">
        <time>2017-08-08T22:40:22.297000Z</time>
      </trkpt>
      <trkpt lat="41.68185817081638" lon="123.4458575305747">
        <time>2017-08-08T22:40:25.305000Z</time>
      </trkpt>
      <trkpt lat="41.68185959573992" lon="123.4457184748011">
        <ele>54.43453889187531</ele>
        <time>2017-08-08T22:40:28.357000Z</time>
      </trkpt>
      <trkpt lat="41.68186223603941" lon="123.4455765691804">
        <time>2017-08-08T22:40:31.252000Z</time>
      </trkpt>
      <trkpt lat="41.68186709754325" lon="123.4454019741374">
        <time>2017-08-08T22:40:34.249000Z</time>
      </trkpt>
      <trkpt lat="41.68186588216729" lon="123.4452395328539">
        <ele>54.72019036718626</ele>
        <time>2017-08-08T22:40:38.293000Z</time>
      </trkpt>
      <trkpt lat="41.68187103703774" lon="123.4451085237073">
        <time>2017-08-08T22:40:41.231000Z</time>
      </trkpt>
      <trkpt lat="41.68186931874759" lon="123.444983381893">
        <time>2017-08-08T22:40:44.231000Z</time>
      </trkpt>
      <trkpt lat="41.68186684608616" lon="123.444861928116">
        <ele>54.98261569297352</ele>
        <time>2017-08-08T22:40:47.473000Z</time>
      </trkpt>
      <trkpt lat="41.6818627389536" lon="123.4447372053968">
        <time>2017-08-08T22:40:50.490000Z</time>
      </trkpt>
      <trkpt lat="41.68186051774926" lon="123.4446072020786">
        <time>2017-08-08T22:40:53.360000Z</time>
      </trkpt>
      <trkpt lat="41.68186764236696" lon="123.4444826469975">
        <ele>55.21857225745293</ele>
        <time>2017-08-08T22:40:56.434000Z</time>
      </trkpt>
      <trkpt lat="41.68187292296596" lon="123.4443566669928">
        <time>2017-08-08T22:40:59.422000Z</time>
      </trkpt>
      <trkpt lat="41.68187233623274" lon="123.4442319442736">
        <time>2017-08-08T22:41:02.231000Z</time>
      </trkpt>
      <trkpt lat="41.68187254578032" lon="123.4440858477014">
        <time>2017-08-08T22:41:05.270000Z</time>
      </trkpt>
      <trkpt lat="41.68187317442305" lon="123.4439213947611">
        <ele>55.54562359019413</ele>
        <time>2017-08-08T22:41:08.219000Z</time>
      </trkpt>
      <trkpt lat="41.6818698635713" lon="123.4437606298583">
        <time>2017-08-08T22:41:11.200000Z</time>
      </trkpt>
      <trkpt lat="41.68187363542773" lon="123.4436333087491">
        <time>2017-08-08T22:41:14.231000Z</time>
      </trkpt>
      <trkpt lat="41.68188788466312" lon="123.4434880503672">
        <ele>55.82938982609569</ele>
        <time>2017-08-08T22:41:17.227000Z</time>
      </trkpt>
      <trkpt lat="41.6818923270718" lon="123.4433641658383">
        <time>2017-08-08T22:41:20.206000Z</time>
      </trkpt>
      <trkpt lat="41.68188168205477" lon="123.443225864436">
        <time>2017-08-08T22:41:25.285000Z</time>
      </trkpt>
      <trkpt lat="41.68188344225444" lon="123.4430954420226">
        <ele>56.0860840240784</ele>
        <time>2017-08-08T22:41:28.244000Z</time>
      </trkpt>
      <trkpt lat="41.68188059240736" lon="123.4429557156967">
        <time>2017-08-08T22:41:31.238000Z</time>
      </trkpt>
      <trkpt lat="41.68188935149617" lon="123.4428144806283">
        <time>2017-08-08T22:41:34.244000Z</time>
      </trkpt>
      <trkpt lat="41.68188168205477" lon="123.4426760115879">
        <ele>56.34428641358863</ele>
        <time>2017-08-08T22:41:37.293000Z</time>
      </trkpt>
      <trkpt lat="41.68188495099701" lon="123.4425402247565">
        <time>2017-08-08T22:41:40.267000Z</time>
      </trkpt>
      <trkpt lat="41.68189865540869" lon="123.4424108081716">
        <time>2017-08-08T22:41:43.298000Z</time>
      </trkpt>
      <trkpt lat="41.68190246917464" lon="123.4422849119859">
        <ele>56.59834127639819</ele>
        <time>2017-08-08T22:41:46.478000Z</time>
      </trkpt>
      <trkpt lat="41.68190255299367" lon="123.4421475325929">
        <time>2017-08-08T22:41:49.235000Z</time>
      </trkpt>
      <trkpt lat="41.68190116997965" lon="123.442002274211">
        <time>2017-08-08T22:41:52.225000Z</time>
      </trkpt>
      <trkpt lat="41.68190012224175" lon="123.4418455326217">
        <time>2017-08-08T22:41:55.445000Z</time>
      </trkpt>
      <trkpt lat="41.68191265318699" lon="123.441677307825">
        <ele>56.95269087578736</ele>
        <time>2017-08-08T22:41:59.327000Z</time>
      </trkpt>
      <trkpt lat="41.68190297208883" lon="123.4415564407813">
        <time>2017-08-08T22:42:02.266000Z</time>
      </trkpt>
      <trkpt lat="41.68189823631354" lon="123.4414283653008">
        <time>2017-08-08T22:42:05.223000Z</time>
      </trkpt>
      <trkpt lat="41.68189882304676" lon="123.4412924946504">
        <ele>57.21519161115099</ele>
        <time>2017-08-08T22:42:08.228000Z</time>
      </trkpt>
      <trkpt lat="41.68189429681905" lon="123.441159390028">
        <time>2017-08-08T22:42:11.268000Z</time>
      </trkpt>
      <trkpt lat="41.6818939196334" lon="123.4409992956775">
        <time>2017-08-08T22:42:15.271000Z</time>
      </trkpt>
      <trkpt lat="41.68189907450385" lon="123.4408407100695">
        <ele>57.48410216050657</ele>
        <time>2017-08-08T22:42:18.301000Z</time>
      </trkpt>
      <trkpt lat="41.68190997097798" lon="123.4407186695593">
        <time>2017-08-08T22:42:21.336000Z</time>
      </trkpt>
      <trkpt lat="41.68192572895594" lon="123.4405941144781">
        <time>2017-08-08T22:42:25.258000Z</time>
      </trkpt>
      <trkpt lat="41.68193951718666" lon="123.4404451680588">
        <ele>57.73974062442001</ele>
        <time>2017-08-08T22:42:29.352000Z</time>
      </trkpt>
      <trkpt lat="41.68194852773257" lon="123.4403169249403">
        <time>2017-08-08T22:42:32.204000Z</time>
      </trkpt>
      <trkpt lat="41.68192715387948" lon="123.4401837364989">
        <time>2017-08-08T22:42:35.222000Z</time>
      </trkpt>
      <trkpt lat="41.68191634122439" lon="123.4400616959887">
        <ele>57.99982825333963</ele>
        <time>2017-08-08T22:42:38.261000Z</time>
      </trkpt>
      <trkpt lat="41.68191705368616" lon="123.439914593588">
        <time>2017-08-08T22:42:41.274000Z</time>
      </trkpt>
      <trkpt lat="41.68193666733958" lon="123.4397778009283">
        <time>2017-08-08T22:42:44.227000Z</time>
      </trkpt>
      <trkpt lat="41.68194408532388" lon="123.4396508989143">
        <ele>58.25637163216959</ele>
        <time>2017-08-08T22:42:47.223000Z</time>
      </trkpt>
      <trkpt lat="41.68194370813824" lon="123.4394908883827">
        <time>2017-08-08T22:42:51.345000Z</time>
      </trkpt>
      <trkpt lat="41.68192903980769" lon="123.439346216734">
        <time>2017-08-08T22:42:55.219000Z</time>
      </trkpt>
      <trkpt lat="41.68191738896228" lon="123.4391975217717">
        <ele>58.5279215166983</ele>
        <time>2017-08-08T22:42:59.226000Z</time>
      </trkpt>
      <trkpt lat="41.68191039007313" lon="123.4390578792649">
        <time>2017-08-08T22:43:02.271000Z</time>
      </trkpt>
      <trkpt lat="41.68192551940836" lon="123.4389157221871">
        <ele>58.70935695745811</ele>
        <time>2017-08-08T22:43:06.266000Z</time>
      </trkpt>
      <trkpt lat="41.68192866262205" lon="123.4387590644168">
        <time>2017-08-08T22:43:10.269000Z</time>
      </trkpt>
      <trkpt lat="41.68191089298733" lon="123.4386159015106">
        <time>2017-08-08T22:43:14.220000Z</time>
      </trkpt>
      <trkpt lat="41.68191797569551" lon="123.4384703078525">
        <ele>60.84239089131081</ele>
        <time>2017-08-08T22:43:18.253000Z</time>
      </trkpt>
      <trkpt lat="41.68191432956763" lon="123.4383190983193">
        <time>2017-08-08T22:43:20.243000Z</time>
      </trkpt>
      <trkpt lat="41.68191500011988" lon="123.4381678887861">
        <time>2017-08-08T22:43:22.227000Z</time>
      </trkpt>
      <trkpt lat="41.68191910725243" lon="123.4380250611561">
        <time>2017-08-08T22:43:25.245000Z</time>
      </trkpt>
      <trkpt lat="41.68190779168315" lon="123.4378748574512">
        <ele>61.50564358458661</ele>
        <time>2017-08-08T22:43:28.250000Z</time>
      </trkpt>
      <trkpt lat="41.68188428044476" lon="123.4377398249911">
        <time>2017-08-08T22:43:31.231000Z</time>
      </trkpt>
      <trkpt lat="41.6818870464728" lon="123.4376195446806">
        <ele>61.54145347636236</ele>
        <time>2017-08-08T22:43:36.217000Z</time>
      </trkpt>
      <trkpt lat="41.68190309781738" lon="123.4374945705043">
        <time>2017-08-08T22:43:40.230000Z</time>
      </trkpt>
      <trkpt lat="41.68192380111821" lon="123.4373523296075">
        <time>2017-08-08T22:43:45.252000Z</time>
      </trkpt>
      <trkpt lat="41.681906073393" lon="123.4372220748322">
        <ele>61.589924031994</ele>
        <time>2017-08-08T22:43:48.316000Z</time>
      </trkpt>
      <trkpt lat="41.68188733983941" lon="123.4370976035701">
        <time>2017-08-08T22:43:51.211000Z</time>
      </trkpt>
      <trkpt lat="41.68186311613925" lon="123.4369316418873">
        <time>2017-08-08T22:43:54.237000Z</time>
      </trkpt>
      <trkpt lat="41.68184848971821" lon="123.436750928055">
        <ele>64.5682038526847</ele>
        <time>2017-08-08T22:43:57.221000Z</time>
      </trkpt>
      <trkpt lat="41.68184727434225" lon="123.4366279655354">
        <time>2017-08-08T22:43:59.342000Z</time>
      </trkpt>
      <trkpt lat="41.68184957936563" lon="123.4364806116777">
        <time>2017-08-08T22:44:03.434000Z</time>
      </trkpt>
      <trkpt lat="41.68185364458866" lon="123.4363408015328">
        <ele>64.4075162301344</ele>
        <time>2017-08-08T22:44:07.253000Z</time>
      </trkpt>
      <trkpt lat="41.68184895072289" lon="123.4362034221398">
        <time>2017-08-08T22:44:10.267000Z</time>
      </trkpt>
      <trkpt lat="41.68185062710352" lon="123.4360828903722">
        <time>2017-08-08T22:44:13.335000Z</time>
      </trkpt>
      <trkpt lat="41.68186860628582" lon="123.4359514621305">
        <ele>63.46834761381793</ele>
        <time>2017-08-08T22:44:17.485000Z</time>
      </trkpt>
      <trkpt lat="41.68185456659801" lon="123.4357904457705">
        <time>2017-08-08T22:44:21.255000Z</time>
      </trkpt>
      <trkpt lat="41.68185465041704" lon="123.4356657230513">
        <time>2017-08-08T22:44:24.339000Z</time>
      </trkpt>
      <trkpt lat="41.68183130681671" lon="123.4355163575368">
        <ele>62.47665596424311</ele>
        <time>2017-08-08T22:44:28.271000Z</time>
      </trkpt>
      <trkpt lat="41.68180054523207" lon="123.4353780561345">
        <time>2017-08-08T22:44:31.302000Z</time>
      </trkpt>
      <trkpt lat="41.68179325297631" lon="123.4352304508196">
        <time>2017-08-08T22:44:35.360000Z</time>
      </trkpt>
      <trkpt lat="41.68178109921671" lon="123.4351088294046">
        <ele>61.42733093222808</ele>
        <time>2017-08-08T22:44:39.237000Z</time>
      </trkpt>
      <trkpt lat="41.68177883610286" lon="123.4349732102113">
        <time>2017-08-08T22:44:43.238000Z</time>
      </trkpt>
      <trkpt lat="41.68178411670186" lon="123.4348389321225">
        <ele>60.81777983814359</ele>
        <time>2017-08-08T22:44:46.249000Z</time>
      </trkpt>
      <trkpt lat="41.68178591881104" lon="123.4346953501212">
        <time>2017-08-08T22:44:49.237000Z</time>
      </trkpt>
      <trkpt lat="41.68178864292957" lon="123.4345683642881">
        <time>2017-08-08T22:44:52.213000Z</time>
      </trkpt>
      <trkpt lat="41.68179518081404" lon="123.4344444797593">
        <ele>59.86214454112991</ele>
        <time>2017-08-08T22:44:56.234000Z</time>
      </trkpt>
      <trkpt lat="41.68180264070786" lon="123.434319505583">
        <time>2017-08-08T22:44:59.363000Z</time>
      </trkpt>
      <trkpt lat="41.68182217054225" lon="123.4341766779529">
        <time>2017-08-08T22:45:03.436000Z</time>
      </trkpt>
      <trkpt lat="41.68183495294459" lon="123.4340134822982">
        <ele>59.72776394908664</ele>
        <time>2017-08-08T22:45:06.483000Z</time>
      </trkpt>
      <trkpt lat="41.68184643615194" lon="123.4338744265246">
        <time>2017-08-08T22:45:09.253000Z</time>
      </trkpt>
      <trkpt lat="41.68185687162138" lon="123.4337402322548">
        <time>2017-08-08T22:45:11.249000Z</time>
      </trkpt>
      <trkpt lat="41.68185272257931" lon="123.4335709178107">
        <time>2017-08-08T22:45:14.222000Z</time>
      </trkpt>
      <trkpt lat="41.68185967955895" lon="123.4334156011449">
        <ele>59.65792047811255</ele>
        <time>2017-08-08T22:45:17.230000Z</time>
      </trkpt>
      <trkpt lat="41.68185196820803" lon="123.4332630505072">
        <time>2017-08-08T22:45:20.231000Z</time>
      </trkpt>
      <trkpt lat="41.68186571452923" lon="123.4331042134421">
        <time>2017-08-08T22:45:23.253000Z</time>
      </trkpt>
      <trkpt lat="41.6818709113092" lon="123.4329565243082">
        <ele>59.60414266313981</ele>
        <time>2017-08-08T22:45:26.388000Z</time>
      </trkpt>
      <trkpt lat="41.68186236176796" lon="123.4327763972091">
        <time>2017-08-08T22:45:29.239000Z</time>
      </trkpt>
      <trkpt lat="41.6818656307102" lon="123.432649327557">
        <time>2017-08-08T22:45:32.229000Z</time>
      </trkpt>
      <trkpt lat="41.68187472507514" lon="123.432527622323">
        <time>2017-08-08T22:45:35.232000Z</time>
      </trkpt>
      <trkpt lat="41.68187313251354" lon="123.4324049112605">
        <ele>59.5378079424876</ele>
        <time>2017-08-08T22:45:38.305000Z</time>
      </trkpt>
      <trkpt lat="41.68187367733724" lon="123.4322620836305">
        <time>2017-08-08T22:45:41.346000Z</time>
      </trkpt>
      <trkpt lat="41.68188587300636" lon="123.4321307392078">
        <time>2017-08-08T22:45:44.470000Z</time>
      </trkpt>
      <trkpt lat="41.6818865016491" lon="123.4319781885701">
        <ele>59.49212511841495</ele>
        <time>2017-08-08T22:45:48.226000Z</time>
      </trkpt>
      <trkpt lat="41.68192526795126" lon="123.431848604347">
        <time>2017-08-08T22:45:53.239000Z</time>
      </trkpt>
      <trkpt lat="41.68192489076562" lon="123.4316750989514">
        <ele>59.45858478069242</ele>
        <time>2017-08-08T22:45:56.217000Z</time>
      </trkpt>
      <trkpt lat="41.68191508393891" lon="123.4315124062108">
        <time>2017-08-08T22:45:59.228000Z</time>
      </trkpt>
      <trkpt lat="41.68191747278131" lon="123.4313742724465">
        <time>2017-08-08T22:46:02.222000Z</time>
      </trkpt>
      <trkpt lat="41.68191353328682" lon="123.4311845899778">
        <time>2017-08-08T22:46:05.413000Z</time>
      </trkpt>
      <trkpt lat="41.68191483248182" lon="123.4310384934055">
        <ele>59.38227636818037</ele>
        <time>2017-08-08T22:46:08.223000Z</time>
      </trkpt>
      <trkpt lat="41.68191826906212" lon="123.4308887926149">
        <time>2017-08-08T22:46:12.345000Z</time>
      </trkpt>
      <trkpt lat="41.68191466484375" lon="123.4307504073935">
        <ele>59.34830779715084</ele>
        <time>2017-08-08T22:46:16.239000Z</time>
      </trkpt>
      <trkpt lat="41.68190137952723" lon="123.4306052328306">
        <time>2017-08-08T22:46:19.233000Z</time>
      </trkpt>
      <trkpt lat="41.68189702093758" lon="123.4304427915471">
        <time>2017-08-08T22:46:22.236000Z</time>
      </trkpt>
      <trkpt lat="41.6819028882698" lon="123.4303179011898">
        <time>2017-08-08T22:46:25.480000Z</time>
      </trkpt>
      <trkpt lat="41.68191210836329" lon="123.4301832878249">
        <ele>59.28258089151501</ele>
        <time>2017-08-08T22:46:29.443000Z</time>
      </trkpt>
      <trkpt lat="41.68192216664709" lon="123.4300406278329">
        <time>2017-08-08T22:46:33.238000Z</time>
      </trkpt>
      <trkpt lat="41.68192208282806" lon="123.4299195093321">
        <ele>59.25061534724404</ele>
        <time>2017-08-08T22:46:36.256000Z</time>
      </trkpt>
      <trkpt lat="41.6819295846314" lon="123.4297698923605">
        <time>2017-08-08T22:46:40.260000Z</time>
      </trkpt>
      <trkpt lat="41.68191516775794" lon="123.4296146595137">
        <time>2017-08-08T22:46:44.254000Z</time>
      </trkpt>
      <trkpt lat="41.68190016415127" lon="123.4294823092627">
        <ele>59.20154809864832</ele>
        <time>2017-08-08T22:46:47.456000Z</time>
      </trkpt>
      <trkpt lat="41.6818999965132" lon="123.4293550719725">
        <time>2017-08-08T22:46:50.242000Z</time>
      </trkpt>
      <trkpt lat="41.68189899068482" lon="123.4292164352941">
        <time>2017-08-08T22:46:53.502000Z</time>
      </trkpt>
      <trkpt lat="41.6819002479703" lon="123.4290552512961">
        <ele>58.66234203517827</ele>
        <time>2017-08-08T22:46:57.239000Z</time>
      </trkpt>
      <trkpt lat="41.68190016415127" lon="123.4289227334069">
        <time>2017-08-08T22:47:00.243000Z</time>
      </trkpt>
      <trkpt lat="41.68188759129651" lon="123.4287813307004">
        <time>2017-08-08T22:47:03.240000Z</time>
      </trkpt>
      <trkpt lat="41.6818656307102" lon="123.4286572785335">
        <ele>58.40641284710625</ele>
        <time>2017-08-08T22:47:06.231000Z</time>
      </trkpt>
      <trkpt lat="41.68186516970552" lon="123.4285369144039">
        <time>2017-08-08T22:47:09.222000Z</time>
      </trkpt>
      <trkpt lat="41.68188637592055" lon="123.4283741378444">
        <time>2017-08-08T22:47:13.266000Z</time>
      </trkpt>
      <trkpt lat="41.68189375199534" lon="123.4282447212594">
        <ele>58.06765995546994</ele>
        <time>2017-08-08T22:47:16.222000Z</time>
      </trkpt>
      <trkpt lat="41.68191127017297" lon="123.4281130415606">
        <time>2017-08-08T22:47:19.214000Z</time>
      </trkpt>
      <trkpt lat="41.6819243040324" lon="123.427989911403">
        <time>2017-08-08T22:47:22.252000Z</time>
      </trkpt>
      <trkpt lat="41.68193846944876" lon="123.4278613330083">
        <ele>56.99325067200561</ele>
        <time>2017-08-08T22:47:26.241000Z</time>
      </trkpt>
      <trkpt lat="41.68194090020068" lon="123.4277390410411">
        <time>2017-08-08T22:47:29.235000Z</time>
      </trkpt>
      <trkpt lat="41.68193444613524" lon="123.4275821318137">
        <time>2017-08-08T22:47:32.303000Z</time>
      </trkpt>
      <trkpt lat="41.68192497458465" lon="123.4274340235846">
        <time>2017-08-08T22:47:35.212000Z</time>
      </trkpt>
      <trkpt lat="41.68192493267514" lon="123.4272993264007">
        <ele>56.82550324433163</ele>
        <time>2017-08-08T22:47:38.283000Z</time>
      </trkpt>
      <trkpt lat="41.68192501649417" lon="123.4271609411793">
        <time>2017-08-08T22:47:41.279000Z</time>
      </trkpt>
      <trkpt lat="41.68192962654091" lon="123.4270270821857">
        <time>2017-08-08T22:47:44.251000Z</time>
      </trkpt>
      <trkpt lat="41.68192598041303" lon="123.426888026412">
        <ele>56.70314672259359</ele>
        <time>2017-08-08T22:47:47.253000Z</time>
      </trkpt>
      <trkpt lat="41.68192715387948" lon="123.4267396667259">
        <time>2017-08-08T22:47:51.276000Z</time>
      </trkpt>
      <trkpt lat="41.68193432040669" lon="123.4265817516702">
        <time>2017-08-08T22:47:54.295000Z</time>
      </trkpt>
      <trkpt lat="41.6819422832147" lon="123.4264190589296">
        <ele>56.53868230813933</ele>
        <time>2017-08-08T22:47:57.321000Z</time>
      </trkpt>
      <trkpt lat="41.68192987799801" lon="123.4262701963293">
        <time>2017-08-08T22:48:00.257000Z</time>
      </trkpt>
      <trkpt lat="41.681931177193" lon="123.4261437134104">
        <time>2017-08-08T22:48:03.239000Z</time>
      </trkpt>
      <trkpt lat="41.68193226684041" lon="123.4260013048755">
        <ele>56.48127112932644</ele>
        <time>2017-08-08T22:48:06.340000Z</time>
      </trkpt>
      <trkpt lat="41.6819356615112" lon="123.4258530290084">
        <time>2017-08-08T22:48:09.269000Z</time>
      </trkpt>
      <trkpt lat="41.6819406906531" lon="123.4257190023767">
        <time>2017-08-08T22:48:12.376000Z</time>
      </trkpt>
      <trkpt lat="41.68194999456562" lon="123.4255629313396">
        <ele>56.42573119956278</ele>
        <time>2017-08-08T22:48:16.468000Z</time>
      </trkpt>
      <trkpt lat="41.68194819245644" lon="123.4254336823927">
        <time>2017-08-08T22:48:19.347000Z</time>
      </trkpt>
      <trkpt lat="41.68194743808515" lon="123.4252905194866">
        <time>2017-08-08T22:48:22.342000Z</time>
      </trkpt>
      <trkpt lat="41.68194395959534" lon="123.4251428303527">
        <time>2017-08-08T22:48:25.237000Z</time>
      </trkpt>
      <trkpt lat="41.68193214111187" lon="123.4250057024168">
        <ele>56.35036231979005</ele>
        <time>2017-08-08T22:48:28.511000Z</time>
      </trkpt>
      <trkpt lat="41.68194932401337" lon="123.4248558339881">
        <time>2017-08-08T22:48:32.274000Z</time>
      </trkpt>
      <trkpt lat="41.68195649054058" lon="123.4246868548202">
        <time>2017-08-08T22:48:35.237000Z</time>
      </trkpt>
      <trkpt lat="41.68196198068716" lon="123.4245612100916">
        <ele>56.29038800152318</ele>
        <time>2017-08-08T22:48:37.433000Z</time>
      </trkpt>
      <trkpt lat="41.68196063958265" lon="123.4244355653631">
        <time>2017-08-08T22:48:39.441000Z</time>
      </trkpt>
      <trkpt lat="41.68195032984175" lon="123.4243100044536">
        <time>2017-08-08T22:48:41.442000Z</time>
      </trkpt>
      <trkpt lat="41.68193876281537" lon="123.4241307993638">
        <time>2017-08-08T22:48:44.285000Z</time>
      </trkpt>
      <trkpt lat="41.68194416914292" lon="123.4239890613811">
        <ele>56.2175036372948</ele>
        <time>2017-08-08T22:48:47.244000Z</time>
      </trkpt>
      <trkpt lat="41.68197803203173" lon="123.4238552023875">
        <time>2017-08-08T22:48:51.279000Z</time>
      </trkpt>
      <trkpt lat="41.68196558490552" lon="123.423679601516">
        <time>2017-08-08T22:48:54.257000Z</time>
      </trkpt>
      <trkpt lat="41.68196118440635" lon="123.423542054485">
        <ele>55.64769190580654</ele>
        <time>2017-08-08T22:48:56.212000Z</time>
      </trkpt>
      <trkpt lat="41.68195841837831" lon="123.4234136437284">
        <time>2017-08-08T22:48:58.232000Z</time>
      </trkpt>
      <trkpt lat="41.6819467675329" lon="123.4232776054399">
        <time>2017-08-08T22:49:02.305000Z</time>
      </trkpt>
      <trkpt lat="41.68199689131387" lon="123.4231507034259">
        <ele>55.00260801378347</ele>
        <time>2017-08-08T22:49:06.231000Z</time>
      </trkpt>
      <trkpt lat="41.68203067038365" lon="123.4230072890626">
        <time>2017-08-08T22:49:10.208000Z</time>
      </trkpt>
      <trkpt lat="41.68204491961904" lon="123.4228751902687">
        <time>2017-08-08T22:49:13.348000Z</time>
      </trkpt>
      <trkpt lat="41.68203968092956" lon="123.4227525630253">
        <time>2017-08-08T22:49:15.386000Z</time>
      </trkpt>
      <trkpt lat="41.68202844917931" lon="123.422624990459">
        <ele>54.7746795043346</ele>
        <time>2017-08-08T22:49:17.404000Z</time>
      </trkpt>
      <trkpt lat="41.68200745251186" lon="123.4224932269411">
        <time>2017-08-08T22:49:19.232000Z</time>
      </trkpt>
      <trkpt lat="41.68200150136061" lon="123.4223658220129">
        <time>2017-08-08T22:49:21.381000Z</time>
      </trkpt>
      <trkpt lat="41.68200548276462" lon="123.4222116788136">
        <time>2017-08-08T22:49:24.340000Z</time>
      </trkpt>
      <trkpt lat="41.68202497068949" lon="123.4220873751896">
        <ele>54.69536668453915</ele>
        <time>2017-08-08T22:49:28.213000Z</time>
      </trkpt>
      <trkpt lat="41.68203196957864" lon="123.4219639097558">
        <time>2017-08-08T22:49:31.278000Z</time>
      </trkpt>
      <trkpt lat="41.68204747609951" lon="123.4218055756049">
        <time>2017-08-08T22:49:35.250000Z</time>
      </trkpt>
      <trkpt lat="41.68206549719132" lon="123.4216267057913">
        <ele>54.61472070419838</ele>
        <time>2017-08-08T22:49:38.232000Z</time>
      </trkpt>
      <trkpt lat="41.68207417246111" lon="123.4214677849071">
        <time>2017-08-08T22:49:41.294000Z</time>
      </trkpt>
      <trkpt lat="41.68206931095727" lon="123.4213125520604">
        <time>2017-08-08T22:49:44.213000Z</time>
      </trkpt>
      <trkpt lat="41.68207065206177" lon="123.4211879969793">
        <ele>54.54250829694074</ele>
        <time>2017-08-08T22:49:46.303000Z</time>
      </trkpt>
      <trkpt lat="41.68207253798999" lon="123.4210119770127">
        <time>2017-08-08T22:49:49.293000Z</time>
      </trkpt>
      <trkpt lat="41.68210271284141" lon="123.4208974802153">
        <time>2017-08-08T22:49:52.248000Z</time>
      </trkpt>
      <trkpt lat="41.68208255436428" lon="123.4207583406227">
        <time>2017-08-08T22:49:55.265000Z</time>
      </trkpt>
      <trkpt lat="41.68207333427079" lon="123.4206096456604">
        <ele>54.50196649089391</ele>
        <time>2017-08-08T22:49:58.235000Z</time>
      </trkpt>
      <trkpt lat="41.68209269646712" lon="123.4204724339055">
        <time>2017-08-08T22:50:01.242000Z</time>
      </trkpt>
      <trkpt lat="41.6821264755369" lon="123.4203378205406">
        <time>2017-08-08T22:50:05.279000Z</time>
      </trkpt>
      <trkpt lat="41.68215505782671" lon="123.4201912210541">
        <ele>54.4709868397418</ele>
        <time>2017-08-08T22:50:09.219000Z</time>
      </trkpt>
      <trkpt lat="41.68217056434758" lon="123.42007211421">
        <time>2017-08-08T22:50:12.257000Z</time>
      </trkpt>
      <trkpt lat="41.68218175418831" lon="123.4199523368137">
        <time>2017-08-08T22:50:15.300000Z</time>
      </trkpt>
      <trkpt lat="41.68219239920534" lon="123.4198007081853">
        <ele>53.04816323752179</ele>
        <time>2017-08-08T22:50:18.242000Z</time>
      </trkpt>
      <trkpt lat="41.68220166120835" lon="123.419649247195">
        <time>2017-08-08T22:50:21.265000Z</time>
      </trkpt>
      <trkpt lat="41.68221947275259" lon="123.4194842075216">
        <time>2017-08-08T22:50:24.247000Z</time>
      </trkpt>
      <trkpt lat="41.68223887685843" lon="123.4193480854141">
        <ele>52.62024250451024</ele>
        <time>2017-08-08T22:50:27.283000Z</time>
      </trkpt>
      <trkpt lat="41.68224164288647" lon="123.4191941098528">
        <time>2017-08-08T22:50:31.320000Z</time>
      </trkpt>
      <trkpt lat="41.68223925404407" lon="123.4190641065346">
        <time>2017-08-08T22:50:34.447000Z</time>
      </trkpt>
      <trkpt lat="41.68224771976627" lon="123.4189361148732">
        <ele>52.48475300651273</ele>
        <time>2017-08-08T22:50:37.380000Z</time>
      </trkpt>
      <trkpt lat="41.68225346136995" lon="123.4187933710622">
        <time>2017-08-08T22:50:40.245000Z</time>
      </trkpt>
      <trkpt lat="41.68225601785041" lon="123.4186418262528">
        <time>2017-08-08T22:50:43.218000Z</time>
      </trkpt>
      <trkpt lat="41.682265489401" lon="123.4184922931003">
        <ele>51.70501998503133</ele>
        <time>2017-08-08T22:50:46.250000Z</time>
      </trkpt>
      <trkpt lat="41.6822974663616" lon="123.4183523991363">
        <time>2017-08-08T22:50:49.276000Z</time>
      </trkpt>
      <trkpt lat="41.68232227679498" lon="123.4182297718929">
        <time>2017-08-08T22:50:53.265000Z</time>
      </trkpt>
      <trkpt lat="41.68233702894457" lon="123.4180756286936">
        <ele>51.70501998503133</ele>
        <time>2017-08-08T22:50:57.300000Z</time>
      </trkpt>
      <trkpt lat="41.68232324071385" lon="123.4179452062803">
        <time>2017-08-08T22:51:00.228000Z</time>
      </trkpt>
      <trkpt lat="41.68232265398063" lon="123.4178133589434">
        <time>2017-08-08T22:51:03.255000Z</time>
      </trkpt>
      <trkpt lat="41.6823371127636" lon="123.4176851996439">
        <ele>51.70501998503133</ele>
        <time>2017-08-08T22:51:06.298000Z</time>
      </trkpt>
      <trkpt lat="41.682350062804" lon="123.4175432102041">
        <time>2017-08-08T22:51:09.221000Z</time>
      </trkpt>
      <trkpt lat="41.68235073335625" lon="123.417392252128">
        <time>2017-08-08T22:51:12.336000Z</time>
      </trkpt>
      <trkpt lat="41.6823696345479" lon="123.4172518552499">
        <ele>51.70501998503133</ele>
        <time>2017-08-08T22:51:16.505000Z</time>
      </trkpt>
      <trkpt lat="41.6823733225853" lon="123.4171215166556">
        <time>2017-08-08T22:51:19.229000Z</time>
      </trkpt>
      <trkpt lat="41.68237231675692" lon="123.4169890825855">
        <time>2017-08-08T22:51:23.220000Z</time>
      </trkpt>
      <trkpt lat="41.68238451242603" lon="123.4168566485154">
        <ele>51.70501998503133</ele>
        <time>2017-08-08T22:51:28.230000Z</time>
      </trkpt>
      <trkpt lat="41.68237336449481" lon="123.4167268966543">
        <time>2017-08-08T22:51:34.070000Z</time>
      </trkpt>
    </trkseg>
  </trk>
</gpx>