<?xml version="1.0" encoding="UTF-8"?>
<gpx xmlns="http://www.topografix.com/GPX/1/1" xmlns:gpxtpx="http://www.garmin.com/xmlschemas/TrackPointExtension/v1" xmlns:xsi="http://www.w3.org/2001/XMLSchema-instance" xsi:schemaLocation="http://www.topografix.com/GPX/1/1 http://www.topografix.com/GPX/1/1/gpx.xsd" version="1.1" creator="gpx.py -- https://github.com/tkrajina/gpxpy">
  <trk>
    <name>星期三  上午跑</name>
    <trkseg>
      <trkpt lat="41.68368685063131" lon="123.4145507869529">
        <time>2017-08-22T22:18:55.386000Z</time>
      </trkpt>
      <trkpt lat="41.68363362554617" lon="123.4146483523058">
        <ele>60.26172876101814</ele>
        <time>2017-08-22T22:19:04.235000Z</time>
      </trkpt>
      <trkpt lat="41.68366044763632" lon="123.4147634358363">
        <ele>59.96238974990509</ele>
        <time>2017-08-22T22:19:11.281000Z</time>
      </trkpt>
      <trkpt lat="41.68364246845402" lon="123.4148858116226">
        <time>2017-08-22T22:19:14.242000Z</time>
      </trkpt>
      <trkpt lat="41.68363144625135" lon="123.4150133003699">
        <ele>59.35476733491664</ele>
        <time>2017-08-22T22:19:19.231000Z</time>
      </trkpt>
      <trkpt lat="41.68363144625135" lon="123.4150133003699">
        <ele>59.03664509900268</ele>
        <time>2017-08-22T22:19:29.164000Z</time>
      </trkpt>
      <trkpt lat="41.68338082734652" lon="123.4155937471645">
        <ele>59.03664509900268</ele>
        <time>2017-08-22T22:19:54.268000Z</time>
      </trkpt>
      <trkpt lat="41.68327563446172" lon="123.415663652237">
        <ele>57.3747769237595</ele>
        <time>2017-08-22T22:19:57.298000Z</time>
      </trkpt>
      <trkpt lat="41.68327563446172" lon="123.415663652237">
        <time>2017-08-22T22:20:11.247000Z</time>
      </trkpt>
      <trkpt lat="41.68321117762633" lon="123.4158784804152">
        <time>2017-08-22T22:20:11.253000Z</time>
      </trkpt>
      <trkpt lat="41.68313339356489" lon="123.4159535822677">
        <ele>56.41146582325525</ele>
        <time>2017-08-22T22:20:18.230000Z</time>
      </trkpt>
      <trkpt lat="41.68304073162533" lon="123.4159737826543">
        <time>2017-08-22T22:20:21.256000Z</time>
      </trkpt>
      <trkpt lat="41.68293843049712" lon="123.4159959946977">
        <time>2017-08-22T22:20:24.250000Z</time>
      </trkpt>
      <trkpt lat="41.68283365670748" lon="123.4159875289755">
        <time>2017-08-22T22:20:27.267000Z</time>
      </trkpt>
      <trkpt lat="41.68274166532017" lon="123.4159829189288">
        <ele>55.08978271940649</ele>
        <time>2017-08-22T22:20:30.280000Z</time>
      </trkpt>
      <trkpt lat="41.68264506388612" lon="123.4160078131812">
        <time>2017-08-22T22:20:34.263000Z</time>
      </trkpt>
      <trkpt lat="41.68255127038963" lon="123.4160164465414">
        <ele>52.57934772123419</ele>
        <time>2017-08-22T22:20:38.274000Z</time>
      </trkpt>
      <trkpt lat="41.68244771197595" lon="123.4160717671024">
        <time>2017-08-22T22:20:42.287000Z</time>
      </trkpt>
      <trkpt lat="41.68239293623872" lon="123.4161805642055">
        <time>2017-08-22T22:20:45.271000Z</time>
      </trkpt>
      <trkpt lat="41.68233648412086" lon="123.4163047840105">
        <ele>50.87982558948674</ele>
        <time>2017-08-22T22:20:48.249000Z</time>
      </trkpt>
      <trkpt lat="41.68229679580934" lon="123.4164421634035">
        <time>2017-08-22T22:20:52.237000Z</time>
      </trkpt>
      <trkpt lat="41.6822739551232" lon="123.4165627789902">
        <time>2017-08-22T22:20:55.238000Z</time>
      </trkpt>
      <trkpt lat="41.68227089572854" lon="123.4167133179711">
        <ele>51.17001962316893</ele>
        <time>2017-08-22T22:20:59.240000Z</time>
      </trkpt>
      <trkpt lat="41.68228841390617" lon="123.416863521676">
        <time>2017-08-22T22:21:03.234000Z</time>
      </trkpt>
      <trkpt lat="41.6823083209262" lon="123.4170006496119">
        <ele>51.75778116636643</ele>
        <time>2017-08-22T22:21:08.498000Z</time>
      </trkpt>
      <trkpt lat="41.68230823710717" lon="123.4171407112138">
        <time>2017-08-22T22:21:12.370000Z</time>
      </trkpt>
      <trkpt lat="41.68228288185008" lon="123.4172887356239">
        <time>2017-08-22T22:21:16.253000Z</time>
      </trkpt>
      <trkpt lat="41.68227743361302" lon="123.417410776134">
        <ele>52.59607168543183</ele>
        <time>2017-08-22T22:21:19.229000Z</time>
      </trkpt>
      <trkpt lat="41.68227936145075" lon="123.4175354150342">
        <time>2017-08-22T22:21:22.273000Z</time>
      </trkpt>
      <trkpt lat="41.68227077" lon="123.4176622332292">
        <time>2017-08-22T22:21:25.244000Z</time>
      </trkpt>
      <trkpt lat="41.68226561512954" lon="123.417783435549">
        <ele>53.32288615833212</ele>
        <time>2017-08-22T22:21:28.239000Z</time>
      </trkpt>
      <trkpt lat="41.68226620186277" lon="123.4179248382555">
        <time>2017-08-22T22:21:33.236000Z</time>
      </trkpt>
      <trkpt lat="41.68227986436494" lon="123.4180674144285">
        <time>2017-08-22T22:21:37.236000Z</time>
      </trkpt>
      <trkpt lat="41.68230148967512" lon="123.4182229825514">
        <ele>54.11256657760225</ele>
        <time>2017-08-22T22:21:40.263000Z</time>
      </trkpt>
      <trkpt lat="41.6822810797409" lon="123.4183988348799">
        <time>2017-08-22T22:21:43.240000Z</time>
      </trkpt>
      <trkpt lat="41.68223849967278" lon="123.4185621981727">
        <time>2017-08-22T22:21:46.282000Z</time>
      </trkpt>
      <trkpt lat="41.68218565177329" lon="123.4187053610789">
        <ele>55.10159514651353</ele>
        <time>2017-08-22T22:21:49.246000Z</time>
      </trkpt>
      <trkpt lat="41.68214282024808" lon="123.4188133199917">
        <time>2017-08-22T22:21:52.250000Z</time>
      </trkpt>
      <trkpt lat="41.68215023823239" lon="123.418951453756">
        <time>2017-08-22T22:21:56.266000Z</time>
      </trkpt>
      <trkpt lat="41.6821856936828" lon="123.4190822952645">
        <ele>56.19076840123798</ele>
        <time>2017-08-22T22:22:00.236000Z</time>
      </trkpt>
      <trkpt lat="41.68216834314324" lon="123.4192273021894">
        <time>2017-08-22T22:22:05.231000Z</time>
      </trkpt>
      <trkpt lat="41.6821616376207" lon="123.4193627537446">
        <ele>56.41526939818288</ele>
        <time>2017-08-22T22:22:10.257000Z</time>
      </trkpt>
      <trkpt lat="41.68215195652254" lon="123.4195058328318">
        <time>2017-08-22T22:22:14.253000Z</time>
      </trkpt>
      <trkpt lat="41.68213108558364" lon="123.4196449724244">
        <time>2017-08-22T22:22:17.258000Z</time>
      </trkpt>
      <trkpt lat="41.68213280387379" lon="123.4197784123229">
        <ele>56.5260009590494</ele>
        <time>2017-08-22T22:22:20.284000Z</time>
      </trkpt>
      <trkpt lat="41.68213142085977" lon="123.4199136124211">
        <time>2017-08-22T22:22:24.272000Z</time>
      </trkpt>
      <trkpt lat="41.68210254520334" lon="123.4200557694988">
        <ele>56.596627515866</ele>
        <time>2017-08-22T22:22:28.273000Z</time>
      </trkpt>
      <trkpt lat="41.68202090546645" lon="123.4202652332591">
        <time>2017-08-22T22:22:31.262000Z</time>
      </trkpt>
      <trkpt lat="41.68197761293657" lon="123.4204392415689">
        <time>2017-08-22T22:22:33.258000Z</time>
      </trkpt>
      <trkpt lat="41.68199068870552" lon="123.4206144233452">
        <time>2017-08-22T22:22:35.270000Z</time>
      </trkpt>
      <trkpt lat="41.68203934565343" lon="123.4207575862514">
        <time>2017-08-22T22:22:37.272000Z</time>
      </trkpt>
      <trkpt lat="41.68215401008882" lon="123.4207811393993">
        <ele>56.83327234260217</ele>
        <time>2017-08-22T22:22:40.247000Z</time>
      </trkpt>
      <trkpt lat="41.6822739551232" lon="123.4208169301259">
        <time>2017-08-22T22:22:43.276000Z</time>
      </trkpt>
      <trkpt lat="41.68231925930984" lon="123.4209392220931">
        <ele>56.91734103405697</ele>
        <time>2017-08-22T22:22:50.222000Z</time>
      </trkpt>
      <trkpt lat="41.68226678859599" lon="123.4210704826968">
        <time>2017-08-22T22:22:54.307000Z</time>
      </trkpt>
      <trkpt lat="41.68222307697095" lon="123.4212076944517">
        <ele>56.99233233106197</ele>
        <time>2017-08-22T22:22:58.244000Z</time>
      </trkpt>
      <trkpt lat="41.68219105810083" lon="123.4213228618013">
        <time>2017-08-22T22:23:00.253000Z</time>
      </trkpt>
      <trkpt lat="41.68219105810083" lon="123.4213228618013">
        <time>2017-08-22T22:23:03.249000Z</time>
      </trkpt>
      <trkpt lat="41.68208661958732" lon="123.421919318031">
        <ele>58.3497407715049</ele>
        <time>2017-08-22T22:23:14.256000Z</time>
      </trkpt>
      <trkpt lat="41.68206864040501" lon="123.4220668395268">
        <ele>58.67970949592122</ele>
        <time>2017-08-22T22:23:18.255000Z</time>
      </trkpt>
      <trkpt lat="41.68202702425577" lon="123.4222027939962">
        <time>2017-08-22T22:23:21.247000Z</time>
      </trkpt>
      <trkpt lat="41.6819951311142" lon="123.4223364015328">
        <time>2017-08-22T22:23:24.269000Z</time>
      </trkpt>
      <trkpt lat="41.68194291185744" lon="123.4224541672723">
        <ele>63.50932440681331</ele>
        <time>2017-08-22T22:23:28.405000Z</time>
      </trkpt>
      <trkpt lat="41.68195301205076" lon="123.4225904570179">
        <time>2017-08-22T22:23:32.271000Z</time>
      </trkpt>
      <trkpt lat="41.68197086550452" lon="123.4227640462326">
        <time>2017-08-22T22:23:35.240000Z</time>
      </trkpt>
      <trkpt lat="41.68197086550452" lon="123.4227640462326">
        <time>2017-08-22T22:23:37.240000Z</time>
      </trkpt>
      <trkpt lat="41.68194056492455" lon="123.4233972151982">
        <ele>65.40983439308305</ele>
        <time>2017-08-22T22:23:52.283000Z</time>
      </trkpt>
      <trkpt lat="41.68194056492455" lon="123.4233972151982">
        <time>2017-08-22T22:23:56.260000Z</time>
      </trkpt>
      <trkpt lat="41.68204471007146" lon="123.4239996225791">
        <ele>65.4784940734495</ele>
        <time>2017-08-22T22:24:08.245000Z</time>
      </trkpt>
      <trkpt lat="41.68201855853356" lon="123.4241303802686">
        <time>2017-08-22T22:24:12.244000Z</time>
      </trkpt>
      <trkpt lat="41.68200921271153" lon="123.4242507443981">
        <time>2017-08-22T22:24:15.255000Z</time>
      </trkpt>
      <trkpt lat="41.68196537535794" lon="123.4244024568455">
        <ele>65.80040411177848</ele>
        <time>2017-08-22T22:24:18.259000Z</time>
      </trkpt>
      <trkpt lat="41.68191906534292" lon="123.424535812925">
        <time>2017-08-22T22:24:22.259000Z</time>
      </trkpt>
      <trkpt lat="41.68191093489684" lon="123.4246908781337">
        <time>2017-08-22T22:24:26.268000Z</time>
      </trkpt>
      <trkpt lat="41.68191713750519" lon="123.4248252400415">
        <ele>64.05748309881118</ele>
        <time>2017-08-22T22:24:30.235000Z</time>
      </trkpt>
      <trkpt lat="41.68191634122439" lon="123.4249565006452">
        <time>2017-08-22T22:24:34.239000Z</time>
      </trkpt>
      <trkpt lat="41.681931177193" lon="123.4250964784281">
        <time>2017-08-22T22:24:37.245000Z</time>
      </trkpt>
      <trkpt lat="41.68194458823807" lon="123.4252496996181">
        <ele>61.63431038682715</ele>
        <time>2017-08-22T22:24:40.257000Z</time>
      </trkpt>
      <trkpt lat="41.6819335660354" lon="123.4253791162031">
        <time>2017-08-22T22:24:43.239000Z</time>
      </trkpt>
      <trkpt lat="41.68192719578899" lon="123.4255055153029">
        <time>2017-08-22T22:24:46.269000Z</time>
      </trkpt>
      <trkpt lat="41.68192556131788" lon="123.4256660287487">
        <ele>60.29570943780789</ele>
        <time>2017-08-22T22:24:49.244000Z</time>
      </trkpt>
      <trkpt lat="41.6819103062541" lon="123.4257914220201">
        <time>2017-08-22T22:24:52.250000Z</time>
      </trkpt>
      <trkpt lat="41.68191202454425" lon="123.4259385244208">
        <time>2017-08-22T22:24:56.246000Z</time>
      </trkpt>
      <trkpt lat="41.68191202454425" lon="123.4260846209931">
        <ele>60.22643043277599</ele>
        <time>2017-08-22T22:25:00.224000Z</time>
      </trkpt>
      <trkpt lat="41.68193729598232" lon="123.4262410273062">
        <time>2017-08-22T22:25:03.250000Z</time>
      </trkpt>
      <trkpt lat="41.681961561592" lon="123.426380585994">
        <time>2017-08-22T22:25:07.283000Z</time>
      </trkpt>
      <trkpt lat="41.6819330212117" lon="123.4265381657737">
        <ele>59.31758038385368</ele>
        <time>2017-08-22T22:25:11.249000Z</time>
      </trkpt>
      <trkpt lat="41.68189002204843" lon="123.4266721085863">
        <time>2017-08-22T22:25:14.252000Z</time>
      </trkpt>
      <trkpt lat="41.68188557963975" lon="123.4267983400481">
        <time>2017-08-22T22:25:17.270000Z</time>
      </trkpt>
      <trkpt lat="41.68190112807013" lon="123.4269187041777">
        <ele>59.06458321111771</ele>
        <time>2017-08-22T22:25:21.271000Z</time>
      </trkpt>
      <trkpt lat="41.68190418746479" lon="123.4270616156267">
        <time>2017-08-22T22:25:24.280000Z</time>
      </trkpt>
      <trkpt lat="41.68190523520268" lon="123.4272096400367">
        <time>2017-08-22T22:25:27.291000Z</time>
      </trkpt>
      <trkpt lat="41.68188633401103" lon="123.4273658787119">
        <ele>57.67147801833292</ele>
        <time>2017-08-22T22:25:30.259000Z</time>
      </trkpt>
      <trkpt lat="41.68191709559567" lon="123.4275265597957">
        <time>2017-08-22T22:25:34.261000Z</time>
      </trkpt>
      <trkpt lat="41.68191298846312" lon="123.427688749622">
        <ele>57.49679685659967</ele>
        <time>2017-08-22T22:25:38.273000Z</time>
      </trkpt>
      <trkpt lat="41.68192912362672" lon="123.4278097843038">
        <time>2017-08-22T22:25:41.283000Z</time>
      </trkpt>
      <trkpt lat="41.68195942420669" lon="123.4279706330257">
        <time>2017-08-22T22:25:45.266000Z</time>
      </trkpt>
      <trkpt lat="41.68193335648782" lon="123.4281521012293">
        <ele>57.45681218358096</ele>
        <time>2017-08-22T22:25:48.256000Z</time>
      </trkpt>
      <trkpt lat="41.68192845307447" lon="123.4282874689656">
        <time>2017-08-22T22:25:53.235000Z</time>
      </trkpt>
      <trkpt lat="41.68191470675327" lon="123.4284170531886">
        <ele>57.03476839044846</ele>
        <time>2017-08-22T22:25:58.267000Z</time>
      </trkpt>
      <trkpt lat="41.68191831097163" lon="123.4285410215365">
        <time>2017-08-22T22:26:01.241000Z</time>
      </trkpt>
      <trkpt lat="41.6819459712521" lon="123.4286597931044">
        <time>2017-08-22T22:26:03.251000Z</time>
      </trkpt>
      <trkpt lat="41.68196001093991" lon="123.4288111702757">
        <time>2017-08-22T22:26:06.242000Z</time>
      </trkpt>
      <trkpt lat="41.6819266928748" lon="123.4289270081776">
        <ele>56.49101406094118</ele>
        <time>2017-08-22T22:26:09.236000Z</time>
      </trkpt>
      <trkpt lat="41.68189852968015" lon="123.4290626273709">
        <time>2017-08-22T22:26:12.265000Z</time>
      </trkpt>
      <trkpt lat="41.68189878113724" lon="123.4291863442617">
        <time>2017-08-22T22:26:16.243000Z</time>
      </trkpt>
      <trkpt lat="41.68188428044476" lon="123.4293157608466">
        <ele>56.44943926361869</ele>
        <time>2017-08-22T22:26:20.277000Z</time>
      </trkpt>
      <trkpt lat="41.68186546307214" lon="123.4294424114036">
        <time>2017-08-22T22:26:23.259000Z</time>
      </trkpt>
      <trkpt lat="41.68184283193357" lon="123.4295616020667">
        <time>2017-08-22T22:26:27.240000Z</time>
      </trkpt>
      <trkpt lat="41.68181332763441" lon="123.4296970536219">
        <ele>56.4084822961016</ele>
        <time>2017-08-22T22:26:30.268000Z</time>
      </trkpt>
      <trkpt lat="41.68181881778099" lon="123.4298200999605">
        <time>2017-08-22T22:26:33.243000Z</time>
      </trkpt>
      <trkpt lat="41.6818389343486" lon="123.4299495165454">
        <time>2017-08-22T22:26:37.292000Z</time>
      </trkpt>
      <trkpt lat="41.6818748927132" lon="123.4300707188653">
        <ele>56.36608372570521</ele>
        <time>2017-08-22T22:26:41.234000Z</time>
      </trkpt>
      <trkpt lat="41.68189320717163" lon="123.4302041587638">
        <time>2017-08-22T22:26:45.251000Z</time>
      </trkpt>
      <trkpt lat="41.68188633401103" lon="123.4303591401534">
        <ele>56.33697528976522</ele>
        <time>2017-08-22T22:26:49.239000Z</time>
      </trkpt>
      <trkpt lat="41.68188080195494" lon="123.4305030574309">
        <time>2017-08-22T22:26:53.242000Z</time>
      </trkpt>
      <trkpt lat="41.68186743281938" lon="123.4306271934169">
        <time>2017-08-22T22:26:56.275000Z</time>
      </trkpt>
      <trkpt lat="41.68185708116896" lon="123.4307753854649">
        <ele>56.28950421466418</ele>
        <time>2017-08-22T22:26:59.245000Z</time>
      </trkpt>
      <trkpt lat="41.68186919301905" lon="123.4309179616379">
        <time>2017-08-22T22:27:02.253000Z</time>
      </trkpt>
      <trkpt lat="41.68190116997965" lon="123.4310747032272">
        <time>2017-08-22T22:27:05.256000Z</time>
      </trkpt>
      <trkpt lat="41.68191164735861" lon="123.4312239849227">
        <ele>56.2285418679712</ele>
        <time>2017-08-22T22:27:08.230000Z</time>
      </trkpt>
      <trkpt lat="41.68192539367981" lon="123.4313564189928">
        <time>2017-08-22T22:27:11.226000Z</time>
      </trkpt>
      <trkpt lat="41.68191722132422" lon="123.4314846621113">
        <time>2017-08-22T22:27:15.243000Z</time>
      </trkpt>
      <trkpt lat="41.68191722132422" lon="123.4314846621113">
        <ele>55.99054574906854</ele>
        <time>2017-08-22T22:27:18.235000Z</time>
      </trkpt>
      <trkpt lat="41.68188775893457" lon="123.432091763358">
        <ele>55.99054574906854</ele>
        <time>2017-08-22T22:27:28.237000Z</time>
      </trkpt>
      <trkpt lat="41.6818706598521" lon="123.4322262929039">
        <time>2017-08-22T22:27:31.265000Z</time>
      </trkpt>
      <trkpt lat="41.68185431514092" lon="123.4323686176198">
        <time>2017-08-22T22:27:34.244000Z</time>
      </trkpt>
      <trkpt lat="41.68183763515361" lon="123.4325017222422">
        <time>2017-08-22T22:27:37.292000Z</time>
      </trkpt>
      <trkpt lat="41.68182845696963" lon="123.4326243494856">
        <ele>55.13881011520674</ele>
        <time>2017-08-22T22:27:40.258000Z</time>
      </trkpt>
      <trkpt lat="41.68181538120069" lon="123.4327510838615">
        <time>2017-08-22T22:27:43.261000Z</time>
      </trkpt>
      <trkpt lat="41.68181538120069" lon="123.4327510838615">
        <time>2017-08-22T22:27:47.265000Z</time>
      </trkpt>
      <trkpt lat="41.68175980918266" lon="123.4333993402528">
        <ele>52.38139248251045</ele>
        <time>2017-08-22T22:27:58.242000Z</time>
      </trkpt>
      <trkpt lat="41.68175980918266" lon="123.4333993402528">
        <time>2017-08-22T22:28:03.254000Z</time>
      </trkpt>
      <trkpt lat="41.68189932596095" lon="123.4340195172685">
        <ele>53.64373151117354</ele>
        <time>2017-08-22T22:28:20.249000Z</time>
      </trkpt>
      <trkpt lat="41.68167867235996" lon="123.4345992935108">
        <ele>54.89676125496449</ele>
        <time>2017-08-22T22:28:39.233000Z</time>
      </trkpt>
      <trkpt lat="41.68180683165945" lon="123.4353146889465">
        <ele>56.15560930180052</ele>
        <time>2017-08-22T22:28:56.258000Z</time>
      </trkpt>
      <trkpt lat="41.68177711781271" lon="123.4354369809138">
        <ele>57.57899895875175</ele>
        <time>2017-08-22T22:29:01.228000Z</time>
      </trkpt>
      <trkpt lat="41.6817628266678" lon="123.4355648049372">
        <time>2017-08-22T22:29:04.234000Z</time>
      </trkpt>
      <trkpt lat="41.68180691547848" lon="123.4357003403114">
        <ele>58.077743895777</ele>
        <time>2017-08-22T22:29:08.265000Z</time>
      </trkpt>
      <trkpt lat="41.68183092963107" lon="123.4358290025251">
        <time>2017-08-22T22:29:11.239000Z</time>
      </trkpt>
      <trkpt lat="41.68185133956529" lon="123.4359710757839">
        <time>2017-08-22T22:29:14.232000Z</time>
      </trkpt>
      <trkpt lat="41.68186177503474" lon="123.4360909369992">
        <time>2017-08-22T22:29:16.258000Z</time>
      </trkpt>
      <trkpt lat="41.68186923492856" lon="123.4362494387882">
        <ele>61.23553247645253</ele>
        <time>2017-08-22T22:29:18.241000Z</time>
      </trkpt>
      <trkpt lat="41.68188620828249" lon="123.4363993910359">
        <time>2017-08-22T22:29:20.251000Z</time>
      </trkpt>
      <trkpt lat="41.68194010391988" lon="123.4365661909091">
        <time>2017-08-22T22:29:23.224000Z</time>
      </trkpt>
      <trkpt lat="41.68194010391988" lon="123.4365661909091">
        <time>2017-08-22T22:29:26.223000Z</time>
      </trkpt>
      <trkpt lat="41.68196788992889" lon="123.4372492321985">
        <ele>61.96140180731547</ele>
        <time>2017-08-22T22:29:40.247000Z</time>
      </trkpt>
      <trkpt lat="41.68200493794091" lon="123.4374244977938">
        <time>2017-08-22T22:29:43.255000Z</time>
      </trkpt>
      <trkpt lat="41.68200493794091" lon="123.4374244977938">
        <time>2017-08-22T22:29:46.242000Z</time>
      </trkpt>
      <trkpt lat="41.68184153273858" lon="123.4379917011814">
        <ele>63.73338945278958</ele>
        <time>2017-08-22T22:30:03.241000Z</time>
      </trkpt>
      <trkpt lat="41.68184325102873" lon="123.4381231294232">
        <ele>64.04957755805113</ele>
        <time>2017-08-22T22:30:08.246000Z</time>
      </trkpt>
      <trkpt lat="41.68184467595227" lon="123.4382605088162">
        <time>2017-08-22T22:30:12.252000Z</time>
      </trkpt>
      <trkpt lat="41.68185720689751" lon="123.4384034202652">
        <time>2017-08-22T22:30:15.267000Z</time>
      </trkpt>
      <trkpt lat="41.68187443170853" lon="123.4385627602445">
        <ele>59.86398526476133</ele>
        <time>2017-08-22T22:30:18.250000Z</time>
      </trkpt>
      <trkpt lat="41.68188369371153" lon="123.4387028218465">
        <time>2017-08-22T22:30:21.250000Z</time>
      </trkpt>
      <trkpt lat="41.68188821993925" lon="123.4388287180322">
        <time>2017-08-22T22:30:24.248000Z</time>
      </trkpt>
      <trkpt lat="41.68190707922138" lon="123.4389669356155">
        <ele>56.87257544361283</ele>
        <time>2017-08-22T22:30:28.244000Z</time>
      </trkpt>
      <trkpt lat="41.68190707922138" lon="123.4389669356155">
        <ele>56.16099216194979</ele>
        <time>2017-08-22T22:31:06.210000Z</time>
      </trkpt>
      <trkpt lat="41.68182812169351" lon="123.4390981124001">
        <time>2017-08-22T22:31:06.228000Z</time>
      </trkpt>
      <trkpt lat="41.68183847334392" lon="123.4392201529103">
        <ele>56.08610844927858</ele>
        <time>2017-08-22T22:31:09.238000Z</time>
      </trkpt>
      <trkpt lat="41.68184258047648" lon="123.4393525031613">
        <time>2017-08-22T22:31:12.223000Z</time>
      </trkpt>
      <trkpt lat="41.68185020800836" lon="123.4394815006512">
        <time>2017-08-22T22:31:15.274000Z</time>
      </trkpt>
      <trkpt lat="41.68185825463541" lon="123.439621143158">
        <ele>52.36159191288982</ele>
        <time>2017-08-22T22:31:18.251000Z</time>
      </trkpt>
      <trkpt lat="41.68185821272589" lon="123.4397677426445">
        <time>2017-08-22T22:31:21.243000Z</time>
      </trkpt>
      <trkpt lat="41.68182166762806" lon="123.4398953990298">
        <time>2017-08-22T22:31:24.248000Z</time>
      </trkpt>
      <trkpt lat="41.68179614473291" lon="123.4400213790344">
        <ele>51.24703508563979</ele>
        <time>2017-08-22T22:31:27.283000Z</time>
      </trkpt>
      <trkpt lat="41.68177686635561" lon="123.440170828368">
        <time>2017-08-22T22:31:31.246000Z</time>
      </trkpt>
      <trkpt lat="41.68176374867715" lon="123.4402984009343">
        <time>2017-08-22T22:31:34.237000Z</time>
      </trkpt>
      <trkpt lat="41.68177116666146" lon="123.4404211119967">
        <ele>50.9843123620719</ele>
        <time>2017-08-22T22:31:38.242000Z</time>
      </trkpt>
      <trkpt lat="41.68177342977531" lon="123.4405466729062">
        <time>2017-08-22T22:31:42.250000Z</time>
      </trkpt>
      <trkpt lat="41.6817829013259" lon="123.4406957031446">
        <time>2017-08-22T22:31:46.254000Z</time>
      </trkpt>
      <trkpt lat="41.68179103177197" lon="123.4408464935826">
        <ele>50.74169776712709</ele>
        <time>2017-08-22T22:31:50.270000Z</time>
      </trkpt>
      <trkpt lat="41.68178935539134" lon="123.4409869742798">
        <time>2017-08-22T22:31:53.251000Z</time>
      </trkpt>
      <trkpt lat="41.68178474534459" lon="123.4411269520628">
        <time>2017-08-22T22:31:56.248000Z</time>
      </trkpt>
      <trkpt lat="41.68177456133224" lon="123.4412619845229">
        <ele>50.22313817956041</ele>
        <time>2017-08-22T22:31:59.281000Z</time>
      </trkpt>
      <trkpt lat="41.68177275922306" lon="123.4413883836227">
        <time>2017-08-22T22:32:02.259000Z</time>
      </trkpt>
      <trkpt lat="41.6817955999092" lon="123.4415349831092">
        <time>2017-08-22T22:32:05.250000Z</time>
      </trkpt>
      <trkpt lat="41.68181458491988" lon="123.4416892101275">
        <ele>50.59712383313752</ele>
        <time>2017-08-22T22:32:08.258000Z</time>
      </trkpt>
      <trkpt lat="41.68182267345644" lon="123.4418229014831">
        <time>2017-08-22T22:32:11.251000Z</time>
      </trkpt>
      <trkpt lat="41.68181835677631" lon="123.4419595265048">
        <time>2017-08-22T22:32:14.283000Z</time>
      </trkpt>
      <trkpt lat="41.6818156745673" lon="123.4420979955452">
        <ele>51.27414632734785</ele>
        <time>2017-08-22T22:32:17.258000Z</time>
      </trkpt>
      <trkpt lat="41.68180440090753" lon="123.4422236402737">
        <time>2017-08-22T22:32:20.264000Z</time>
      </trkpt>
      <trkpt lat="41.68180335316963" lon="123.4423517157542">
        <time>2017-08-22T22:32:23.258000Z</time>
      </trkpt>
      <trkpt lat="41.68179350443341" lon="123.4424944595652">
        <time>2017-08-22T22:32:26.259000Z</time>
      </trkpt>
      <trkpt lat="41.68178562544443" lon="123.442641813423">
        <ele>52.12433401162663</ele>
        <time>2017-08-22T22:32:29.263000Z</time>
      </trkpt>
      <trkpt lat="41.6817860864491" lon="123.4428080265629">
        <time>2017-08-22T22:32:32.273000Z</time>
      </trkpt>
      <trkpt lat="41.68179262433357" lon="123.4429656901615">
        <time>2017-08-22T22:32:35.226000Z</time>
      </trkpt>
      <trkpt lat="41.68181035205878" lon="123.4430999682503">
        <ele>52.87211012424599</ele>
        <time>2017-08-22T22:32:38.260000Z</time>
      </trkpt>
      <trkpt lat="41.68181927878566" lon="123.4432464839178">
        <time>2017-08-22T22:32:41.250000Z</time>
      </trkpt>
      <trkpt lat="41.68181751858599" lon="123.4433711228179">
        <time>2017-08-22T22:32:44.240000Z</time>
      </trkpt>
      <trkpt lat="41.68180276643641" lon="123.443506155278">
        <ele>53.51880963913817</ele>
        <time>2017-08-22T22:32:47.292000Z</time>
      </trkpt>
      <trkpt lat="41.68181085497297" lon="123.4436520842122">
        <time>2017-08-22T22:32:51.253000Z</time>
      </trkpt>
      <trkpt lat="41.68182372119434" lon="123.443778231855">
        <time>2017-08-22T22:32:55.227000Z</time>
      </trkpt>
      <trkpt lat="41.68181219607748" lon="123.4439348896252">
        <ele>54.1687512335801</ele>
        <time>2017-08-22T22:32:59.254000Z</time>
      </trkpt>
      <trkpt lat="41.68180800512589" lon="123.4440606181728">
        <time>2017-08-22T22:33:03.259000Z</time>
      </trkpt>
      <trkpt lat="41.68182179335661" lon="123.4441803955691">
        <ele>54.61768389593816</ele>
        <time>2017-08-22T22:33:07.274000Z</time>
      </trkpt>
      <trkpt lat="41.68183356993057" lon="123.4443204571711">
        <time>2017-08-22T22:33:11.250000Z</time>
      </trkpt>
      <trkpt lat="41.6818183148668" lon="123.4444720857995">
        <time>2017-08-22T22:33:14.240000Z</time>
      </trkpt>
      <trkpt lat="41.68179547418065" lon="123.4446012509274">
        <ele>55.2754446234118</ele>
        <time>2017-08-22T22:33:17.258000Z</time>
      </trkpt>
      <trkpt lat="41.68179484553792" lon="123.4447465931284">
        <time>2017-08-22T22:33:20.258000Z</time>
      </trkpt>
      <trkpt lat="41.68179874312289" lon="123.4448887502062">
        <time>2017-08-22T22:33:23.234000Z</time>
      </trkpt>
      <trkpt lat="41.68180913668282" lon="123.4450392891871">
        <ele>56.02650423458672</ele>
        <time>2017-08-22T22:33:28.676000Z</time>
      </trkpt>
      <trkpt lat="41.68181777004309" lon="123.4451682866769">
        <time>2017-08-22T22:33:30.270000Z</time>
      </trkpt>
      <trkpt lat="41.68182225436129" lon="123.4453189094769">
        <time>2017-08-22T22:33:34.255000Z</time>
      </trkpt>
      <trkpt lat="41.68181240562506" lon="123.4454746452379">
        <ele>56.40347672451385</ele>
        <time>2017-08-22T22:33:38.259000Z</time>
      </trkpt>
      <trkpt lat="41.68181668039568" lon="123.4456299619036">
        <time>2017-08-22T22:33:42.256000Z</time>
      </trkpt>
      <trkpt lat="41.68181445919134" lon="123.4457784054088">
        <time>2017-08-22T22:33:46.246000Z</time>
      </trkpt>
      <trkpt lat="41.68178591881104" lon="123.4459317942368">
        <ele>56.49559690776699</ele>
        <time>2017-08-22T22:33:50.244000Z</time>
      </trkpt>
      <trkpt lat="41.68178457770653" lon="123.4460735322195">
        <time>2017-08-22T22:33:53.246000Z</time>
      </trkpt>
      <trkpt lat="41.68180322744109" lon="123.4461962432819">
        <time>2017-08-22T22:33:56.253000Z</time>
      </trkpt>
      <trkpt lat="41.68181420773424" lon="123.4463476204532">
        <ele>56.58068464827246</ele>
        <time>2017-08-22T22:33:59.261000Z</time>
      </trkpt>
      <trkpt lat="41.68183310892589" lon="123.4464916215497">
        <time>2017-08-22T22:34:01.267000Z</time>
      </trkpt>
      <trkpt lat="41.68187007311888" lon="123.4466645402121">
        <time>2017-08-22T22:34:04.246000Z</time>
      </trkpt>
      <trkpt lat="41.68187422216095" lon="123.4467867483603">
        <ele>57.24507589054593</ele>
        <time>2017-08-22T22:34:07.261000Z</time>
      </trkpt>
      <trkpt lat="41.68184304148115" lon="123.4469125607269">
        <time>2017-08-22T22:34:10.236000Z</time>
      </trkpt>
      <trkpt lat="41.68183122299768" lon="123.4470325057613">
        <time>2017-08-22T22:34:13.264000Z</time>
      </trkpt>
      <trkpt lat="41.68181563265778" lon="123.4471526184338">
        <time>2017-08-22T22:34:16.251000Z</time>
      </trkpt>
      <trkpt lat="41.68181605175294" lon="123.4473019001292">
        <ele>58.69205851094804</ele>
        <time>2017-08-22T22:34:19.247000Z</time>
      </trkpt>
      <trkpt lat="41.68181131597765" lon="123.4474330769139">
        <time>2017-08-22T22:34:22.249000Z</time>
      </trkpt>
      <trkpt lat="41.68179551609017" lon="123.4475731385159">
        <time>2017-08-22T22:34:25.245000Z</time>
      </trkpt>
      <trkpt lat="41.68178206313558" lon="123.4477206600117">
        <ele>59.84596262959545</ele>
        <time>2017-08-22T22:34:28.238000Z</time>
      </trkpt>
      <trkpt lat="41.68179815638967" lon="123.4478893877225">
        <time>2017-08-22T22:34:31.238000Z</time>
      </trkpt>
      <trkpt lat="41.68181240562506" lon="123.4480376635896">
        <time>2017-08-22T22:34:34.247000Z</time>
      </trkpt>
      <trkpt lat="41.68183491103508" lon="123.4481682536411">
        <ele>59.93368157201272</ele>
        <time>2017-08-22T22:34:37.252000Z</time>
      </trkpt>
      <trkpt lat="41.6818637866915" lon="123.4482939821886">
        <time>2017-08-22T22:34:40.245000Z</time>
      </trkpt>
      <trkpt lat="41.68182246390887" lon="123.4484290146487">
        <time>2017-08-22T22:34:45.215000Z</time>
      </trkpt>
      <trkpt lat="41.68180268261738" lon="123.4485481214928">
        <ele>60.65683114791928</ele>
        <time>2017-08-22T22:34:48.210000Z</time>
      </trkpt>
      <trkpt lat="41.68181018442072" lon="123.4487010074066">
        <time>2017-08-22T22:34:52.229000Z</time>
      </trkpt>
      <trkpt lat="41.68180264070786" lon="123.4488471039789">
        <time>2017-08-22T22:34:56.241000Z</time>
      </trkpt>
      <trkpt lat="41.68180901095428" lon="123.4490003251689">
        <ele>60.43072669232436</ele>
        <time>2017-08-22T22:35:00.248000Z</time>
      </trkpt>
      <trkpt lat="41.68180943004943" lon="123.4491413087802">
        <time>2017-08-22T22:35:03.254000Z</time>
      </trkpt>
      <trkpt lat="41.68180201206513" lon="123.449267456423">
        <time>2017-08-22T22:35:06.241000Z</time>
      </trkpt>
      <trkpt lat="41.68178692463942" lon="123.4494205099749">
        <ele>58.44098319043176</ele>
        <time>2017-08-22T22:35:10.254000Z</time>
      </trkpt>
      <trkpt lat="41.68178814001538" lon="123.449560990672">
        <time>2017-08-22T22:35:13.247000Z</time>
      </trkpt>
      <trkpt lat="41.68178830765344" lon="123.4496937600183">
        <time>2017-08-22T22:35:16.246000Z</time>
      </trkpt>
      <trkpt lat="41.68178642172523" lon="123.4498186503755">
        <ele>56.41996335455685</ele>
        <time>2017-08-22T22:35:19.227000Z</time>
      </trkpt>
      <trkpt lat="41.68177275922306" lon="123.4499561974066">
        <time>2017-08-22T22:35:23.228000Z</time>
      </trkpt>
      <trkpt lat="41.68175918053992" lon="123.4500906431334">
        <ele>55.21383354047202</ele>
        <time>2017-08-22T22:35:27.219000Z</time>
      </trkpt>
      <trkpt lat="41.68174727823742" lon="123.4502450377899">
        <time>2017-08-22T22:35:31.222000Z</time>
      </trkpt>
      <trkpt lat="41.68176270093925" lon="123.4503875301438">
        <time>2017-08-22T22:35:35.231000Z</time>
      </trkpt>
      <trkpt lat="41.68176400013424" lon="123.4505375662106">
        <ele>54.92699432245596</ele>
        <time>2017-08-22T22:35:38.240000Z</time>
      </trkpt>
      <trkpt lat="41.68176345531054" lon="123.4506722633945">
        <time>2017-08-22T22:35:41.240000Z</time>
      </trkpt>
      <trkpt lat="41.68176349722005" lon="123.4507937171715">
        <time>2017-08-22T22:35:44.230000Z</time>
      </trkpt>
      <trkpt lat="41.68176462877698" lon="123.4509492852943">
        <ele>55.51751684801268</ele>
        <time>2017-08-22T22:35:48.236000Z</time>
      </trkpt>
      <trkpt lat="41.68177137620903" lon="123.4510731698232">
        <time>2017-08-22T22:35:51.236000Z</time>
      </trkpt>
      <trkpt lat="41.68177942283608" lon="123.4512094595688">
        <time>2017-08-22T22:35:54.383000Z</time>
      </trkpt>
      <trkpt lat="41.68179195378132" lon="123.4513669555294">
        <ele>56.12308676236877</ele>
        <time>2017-08-22T22:35:57.242000Z</time>
      </trkpt>
      <trkpt lat="41.68180058714159" lon="123.4515075200456">
        <time>2017-08-22T22:36:00.224000Z</time>
      </trkpt>
      <trkpt lat="41.68180779557832" lon="123.4516664409297">
        <time>2017-08-22T22:36:04.240000Z</time>
      </trkpt>
      <trkpt lat="41.68181081306346" lon="123.4518042394178">
        <ele>56.78989604974555</ele>
        <time>2017-08-22T22:36:07.266000Z</time>
      </trkpt>
      <trkpt lat="41.68178348805912" lon="123.4519559518652">
        <time>2017-08-22T22:36:11.247000Z</time>
      </trkpt>
      <trkpt lat="41.68178591881104" lon="123.4521001205998">
        <time>2017-08-22T22:36:14.253000Z</time>
      </trkpt>
      <trkpt lat="41.68178285941638" lon="123.4522278608041">
        <ele>57.426960498798</ele>
        <time>2017-08-22T22:36:17.224000Z</time>
      </trkpt>
      <trkpt lat="41.6817982402087" lon="123.4523498174953">
        <time>2017-08-22T22:36:20.255000Z</time>
      </trkpt>
      <trkpt lat="41.68180783748783" lon="123.4524730314719">
        <time>2017-08-22T22:36:23.265000Z</time>
      </trkpt>
      <trkpt lat="41.6817741841466" lon="123.4526217264342">
        <ele>57.972690797231</ele>
        <time>2017-08-22T22:36:27.254000Z</time>
      </trkpt>
      <trkpt lat="41.68175922244944" lon="123.4527573456275">
        <time>2017-08-22T22:36:30.254000Z</time>
      </trkpt>
      <trkpt lat="41.681756749788" lon="123.452906627323">
        <time>2017-08-22T22:36:34.262000Z</time>
      </trkpt>
      <trkpt lat="41.68175272647448" lon="123.4530523048001">
        <ele>58.6150043353995</ele>
        <time>2017-08-22T22:36:37.265000Z</time>
      </trkpt>
      <trkpt lat="41.68175612114526" lon="123.4531726689296">
        <time>2017-08-22T22:36:39.249000Z</time>
      </trkpt>
      <trkpt lat="41.68174048889585" lon="123.453305689733">
        <time>2017-08-22T22:36:41.257000Z</time>
      </trkpt>
      <trkpt lat="41.68173558548249" lon="123.453461676951">
        <time>2017-08-22T22:36:44.254000Z</time>
      </trkpt>
      <trkpt lat="41.68172854468383" lon="123.4535931890117">
        <ele>59.42493878600752</ele>
        <time>2017-08-22T22:36:50.237000Z</time>
      </trkpt>
      <trkpt lat="41.6817342862875" lon="123.4537333344328">
        <time>2017-08-22T22:36:54.245000Z</time>
      </trkpt>
      <trkpt lat="41.68173981834359" lon="123.4538732283967">
        <ele>59.82072010535841</ele>
        <time>2017-08-22T22:36:58.236000Z</time>
      </trkpt>
      <trkpt lat="41.68175566014059" lon="123.454019408788">
        <time>2017-08-22T22:37:01.349000Z</time>
      </trkpt>
      <trkpt lat="41.68173273563541" lon="123.4541472328114">
        <time>2017-08-22T22:37:04.266000Z</time>
      </trkpt>
      <trkpt lat="41.68172732930787" lon="123.4542821814524">
        <ele>61.26454288314828</ele>
        <time>2017-08-22T22:37:07.257000Z</time>
      </trkpt>
      <trkpt lat="41.68174069844343" lon="123.4544519149917">
        <time>2017-08-22T22:37:11.255000Z</time>
      </trkpt>
      <trkpt lat="41.68171442117698" lon="123.4546734486925">
        <time>2017-08-22T22:37:14.251000Z</time>
      </trkpt>
      <trkpt lat="41.68169895656563" lon="123.4548216407406">
        <ele>62.38927811110861</ele>
        <time>2017-08-22T22:37:18.252000Z</time>
      </trkpt>
      <trkpt lat="41.68169866319902" lon="123.454954913001">
        <time>2017-08-22T22:37:21.257000Z</time>
      </trkpt>
      <trkpt lat="41.68169866319902" lon="123.454954913001">
        <time>2017-08-22T22:37:23.275000Z</time>
      </trkpt>
      <trkpt lat="41.68176563460536" lon="123.4555683844941">
        <ele>63.04587252642901</ele>
        <time>2017-08-22T22:37:35.240000Z</time>
      </trkpt>
      <trkpt lat="41.68178093157865" lon="123.4557102062958">
        <ele>63.13332983240201</ele>
        <time>2017-08-22T22:37:39.223000Z</time>
      </trkpt>
      <trkpt lat="41.68180213779367" lon="123.455840377252">
        <time>2017-08-22T22:37:43.234000Z</time>
      </trkpt>
      <trkpt lat="41.6818093462304" lon="123.4559796006637">
        <ele>64.58601130511826</ele>
        <time>2017-08-22T22:37:47.269000Z</time>
      </trkpt>
      <trkpt lat="41.68178675700135" lon="123.4561381862717">
        <time>2017-08-22T22:37:51.249000Z</time>
      </trkpt>
      <trkpt lat="41.68178382333524" lon="123.4562753980266">
        <time>2017-08-22T22:37:54.268000Z</time>
      </trkpt>
      <trkpt lat="41.68176462877698" lon="123.4564056528019">
        <ele>65.208601549108</ele>
        <time>2017-08-22T22:37:57.238000Z</time>
      </trkpt>
      <trkpt lat="41.68175561823107" lon="123.4565519170123">
        <time>2017-08-22T22:38:00.250000Z</time>
      </trkpt>
      <trkpt lat="41.68176244948216" lon="123.4566777293789">
        <time>2017-08-22T22:38:03.248000Z</time>
      </trkpt>
      <trkpt lat="41.68176622133858" lon="123.4568357282537">
        <ele>64.01019140679719</ele>
        <time>2017-08-22T22:38:07.266000Z</time>
      </trkpt>
      <trkpt lat="41.68176303621538" lon="123.4570009355652">
        <time>2017-08-22T22:38:11.272000Z</time>
      </trkpt>
      <trkpt lat="41.6817551572264" lon="123.4571307712453">
        <time>2017-08-22T22:38:14.253000Z</time>
      </trkpt>
      <trkpt lat="41.68173541784443" lon="123.4572677315431">
        <ele>62.67028994540013</ele>
        <time>2017-08-22T22:38:17.339000Z</time>
      </trkpt>
      <trkpt lat="41.68170038148917" lon="123.4574104753541">
        <time>2017-08-22T22:38:21.298000Z</time>
      </trkpt>
      <trkpt lat="41.68168277949251" lon="123.4575545602697">
        <time>2017-08-22T22:38:25.327000Z</time>
      </trkpt>
      <trkpt lat="41.68168705426313" lon="123.4576979746329">
        <ele>61.38300334637685</ele>
        <time>2017-08-22T22:38:28.257000Z</time>
      </trkpt>
      <trkpt lat="41.68170985303976" lon="123.4578467534142">
        <time>2017-08-22T22:38:31.242000Z</time>
      </trkpt>
      <trkpt lat="41.68170985303976" lon="123.4578467534142">
        <time>2017-08-22T22:38:34.247000Z</time>
      </trkpt>
      <trkpt lat="41.6818960151092" lon="123.4585318901795">
        <ele>60.50956666485364</ele>
        <time>2017-08-22T22:38:41.345000Z</time>
      </trkpt>
      <trkpt lat="41.68156539093859" lon="123.459003875147">
        <ele>62.92850075383183</ele>
        <time>2017-08-22T22:38:53.259000Z</time>
      </trkpt>
      <trkpt lat="41.68159363795228" lon="123.4591299389707">
        <ele>65.07524988179976</ele>
        <time>2017-08-22T22:39:00.274000Z</time>
      </trkpt>
      <trkpt lat="41.68161337733425" lon="123.4592806455898">
        <time>2017-08-22T22:39:06.374000Z</time>
      </trkpt>
      <trkpt lat="41.68160751000203" lon="123.4594264068859">
        <ele>66.01951618348635</ele>
        <time>2017-08-22T22:39:09.447000Z</time>
      </trkpt>
      <trkpt lat="41.68161999903776" lon="123.4595522192525">
        <time>2017-08-22T22:39:13.228000Z</time>
      </trkpt>
      <trkpt lat="41.68163936123408" lon="123.4596710746395">
        <ele>67.2790423020552</ele>
        <time>2017-08-22T22:39:17.288000Z</time>
      </trkpt>
      <trkpt lat="41.68165055107482" lon="123.4598092922228">
        <time>2017-08-22T22:39:21.274000Z</time>
      </trkpt>
      <trkpt lat="41.6816637106628" lon="123.4599397984552">
        <time>2017-08-22T22:39:25.239000Z</time>
      </trkpt>
      <trkpt lat="41.68170147113658" lon="123.4600651079076">
        <ele>65.39353378822958</ele>
        <time>2017-08-22T22:39:31.299000Z</time>
      </trkpt>
      <trkpt lat="41.68175134346045" lon="123.4601734859156">
        <ele>64.38826234959012</ele>
        <time>2017-08-22T22:39:38.367000Z</time>
      </trkpt>
      <trkpt lat="41.68181248944409" lon="123.4602728952872">
        <time>2017-08-22T22:39:44.217000Z</time>
      </trkpt>
      <trkpt lat="41.68188629210152" lon="123.4603473265874">
        <ele>62.48334906247995</ele>
        <time>2017-08-22T22:40:09.442000Z</time>
      </trkpt>
      <trkpt lat="41.68188629210152" lon="123.4603473265874">
        <ele>61.56311839558649</ele>
        <time>2017-08-22T22:42:46.225000Z</time>
      </trkpt>
      <trkpt lat="41.68188629210152" lon="123.4603473265874">
        <ele>60.60771401928446</ele>
        <time>2017-08-22T22:43:37.244000Z</time>
      </trkpt>
      <trkpt lat="41.68183440812088" lon="123.4602045827764">
        <time>2017-08-22T22:43:40.425000Z</time>
      </trkpt>
      <trkpt lat="41.6817699512855" lon="123.4601206799256">
        <ele>59.56551726071135</ele>
        <time>2017-08-22T22:43:45.222000Z</time>
      </trkpt>
      <trkpt lat="41.68173688467748" lon="123.4600051772999">
        <time>2017-08-22T22:43:48.365000Z</time>
      </trkpt>
      <trkpt lat="41.6817345377446" lon="123.4598760959911">
        <time>2017-08-22T22:43:51.418000Z</time>
      </trkpt>
      <trkpt lat="41.68173654940136" lon="123.4597329330849">
        <ele>46.28813626395298</ele>
        <time>2017-08-22T22:43:54.392000Z</time>
      </trkpt>
      <trkpt lat="41.68173566930152" lon="123.459611730765">
        <time>2017-08-22T22:43:57.310000Z</time>
      </trkpt>
      <trkpt lat="41.68174392547615" lon="123.4594612756031">
        <time>2017-08-22T22:44:01.220000Z</time>
      </trkpt>
      <trkpt lat="41.6817472363279" lon="123.4592713416773">
        <ele>45.33237905603457</ele>
        <time>2017-08-22T22:44:31.347000Z</time>
      </trkpt>
      <trkpt lat="41.6817472363279" lon="123.4592713416773">
        <time>2017-08-22T22:44:37.217000Z</time>
      </trkpt>
      <trkpt lat="41.68173839342005" lon="123.4591896181213">
        <time>2017-08-22T22:44:38.330000Z</time>
      </trkpt>
      <trkpt lat="41.68172833513625" lon="123.4590468743103">
        <ele>45.03082118520071</ele>
        <time>2017-08-22T22:44:43.288000Z</time>
      </trkpt>
      <trkpt lat="41.68171345725812" lon="123.4589123447644">
        <time>2017-08-22T22:44:47.269000Z</time>
      </trkpt>
      <trkpt lat="41.68170930821605" lon="123.4587452934342">
        <ele>45.21513182425083</ele>
        <time>2017-08-22T22:44:51.249000Z</time>
      </trkpt>
      <trkpt lat="41.68170880530186" lon="123.4585777391898">
        <time>2017-08-22T22:44:54.249000Z</time>
      </trkpt>
      <trkpt lat="41.68171249333925" lon="123.4583981150048">
        <time>2017-08-22T22:44:57.255000Z</time>
      </trkpt>
      <trkpt lat="41.68171810921438" lon="123.4582740628379">
        <ele>45.55446342715319</ele>
        <time>2017-08-22T22:44:59.315000Z</time>
      </trkpt>
      <trkpt lat="41.68171697765745" lon="123.4580953606623">
        <time>2017-08-22T22:45:02.252000Z</time>
      </trkpt>
      <trkpt lat="41.6817128705249" lon="123.4579421394723">
        <time>2017-08-22T22:45:05.257000Z</time>
      </trkpt>
      <trkpt lat="41.68169551998533" lon="123.4578029160606">
        <time>2017-08-22T22:45:08.268000Z</time>
      </trkpt>
      <trkpt lat="41.68169275395729" lon="123.4576356970924">
        <ele>45.94856434140119</ele>
        <time>2017-08-22T22:45:11.262000Z</time>
      </trkpt>
      <trkpt lat="41.68170172259368" lon="123.457481386255">
        <time>2017-08-22T22:45:14.246000Z</time>
      </trkpt>
      <trkpt lat="41.68169862128951" lon="123.4573051986503">
        <time>2017-08-22T22:45:17.268000Z</time>
      </trkpt>
      <trkpt lat="41.68170369234092" lon="123.4571825714069">
        <ele>46.27725958528859</ele>
        <time>2017-08-22T22:45:19.274000Z</time>
      </trkpt>
      <trkpt lat="41.68171500791021" lon="123.4570625425535">
        <time>2017-08-22T22:45:21.241000Z</time>
      </trkpt>
      <trkpt lat="41.68172573674627" lon="123.4568876960533">
        <time>2017-08-22T22:45:24.238000Z</time>
      </trkpt>
      <trkpt lat="41.68173516638733" lon="123.4567235783892">
        <time>2017-08-22T22:45:27.229000Z</time>
      </trkpt>
      <trkpt lat="41.68173432819702" lon="123.4565716983038">
        <ele>46.66239103260607</ele>
        <time>2017-08-22T22:45:30.248000Z</time>
      </trkpt>
      <trkpt lat="41.68173416055895" lon="123.4564361629295">
        <time>2017-08-22T22:45:33.251000Z</time>
      </trkpt>
      <trkpt lat="41.68174216527648" lon="123.4563123622196">
        <time>2017-08-22T22:45:36.249000Z</time>
      </trkpt>
      <trkpt lat="41.68175448667414" lon="123.4561789223211">
        <ele>46.93393569074149</ele>
        <time>2017-08-22T22:45:40.267000Z</time>
      </trkpt>
      <trkpt lat="41.68174757160403" lon="123.4560566303539">
        <time>2017-08-22T22:45:46.267000Z</time>
      </trkpt>
      <trkpt lat="41.68174497321404" lon="123.455914389457">
        <ele>47.10348242847235</ele>
        <time>2017-08-22T22:45:53.247000Z</time>
      </trkpt>
      <trkpt lat="41.68174476366647" lon="123.4557889123666">
        <time>2017-08-22T22:45:58.254000Z</time>
      </trkpt>
      <trkpt lat="41.68175100818433" lon="123.4556491022217">
        <ele>47.28009361360867</ele>
        <time>2017-08-22T22:46:06.359000Z</time>
      </trkpt>
      <trkpt lat="41.68174975089885" lon="123.4554765188354">
        <ele>47.37248706057436</ele>
        <time>2017-08-22T22:46:10.413000Z</time>
      </trkpt>
      <trkpt lat="41.68175033763207" lon="123.4553174303132">
        <time>2017-08-22T22:46:13.230000Z</time>
      </trkpt>
      <trkpt lat="41.68175264265545" lon="123.45510042284">
        <time>2017-08-22T22:46:16.373000Z</time>
      </trkpt>
      <trkpt lat="41.68174861934192" lon="123.4549176135319">
        <ele>47.73444077033687</ele>
        <time>2017-08-22T22:46:19.425000Z</time>
      </trkpt>
      <trkpt lat="41.68174895461805" lon="123.4547928908127">
        <time>2017-08-22T22:46:21.272000Z</time>
      </trkpt>
      <trkpt lat="41.68174983471788" lon="123.454600861411">
        <time>2017-08-22T22:46:24.346000Z</time>
      </trkpt>
      <trkpt lat="41.68174845170386" lon="123.4544709419119">
        <time>2017-08-22T22:46:26.249000Z</time>
      </trkpt>
      <trkpt lat="41.68174417693324" lon="123.4542989452588">
        <ele>48.14973502680122</ele>
        <time>2017-08-22T22:46:29.351000Z</time>
      </trkpt>
      <trkpt lat="41.68174258437164" lon="123.4541773238438">
        <time>2017-08-22T22:46:31.452000Z</time>
      </trkpt>
      <trkpt lat="41.68174740396596" lon="123.4540084284949">
        <time>2017-08-22T22:46:34.474000Z</time>
      </trkpt>
      <trkpt lat="41.68174958326079" lon="123.453842215355">
        <time>2017-08-22T22:46:37.263000Z</time>
      </trkpt>
      <trkpt lat="41.68175113391288" lon="123.4536855575847">
        <ele>48.56471178001141</ele>
        <time>2017-08-22T22:46:40.249000Z</time>
      </trkpt>
      <trkpt lat="41.68175612114526" lon="123.4535610863226">
        <time>2017-08-22T22:46:42.239000Z</time>
      </trkpt>
      <trkpt lat="41.6817741841466" lon="123.453384982537">
        <time>2017-08-22T22:46:45.247000Z</time>
      </trkpt>
      <trkpt lat="41.68178156022139" lon="123.4532202781396">
        <time>2017-08-22T22:46:48.443000Z</time>
      </trkpt>
      <trkpt lat="41.68178684082039" lon="123.453052053343">
        <ele>48.97635474905272</ele>
        <time>2017-08-22T22:46:51.379000Z</time>
      </trkpt>
      <trkpt lat="41.6817844938875" lon="123.452930599566">
        <time>2017-08-22T22:46:53.241000Z</time>
      </trkpt>
      <trkpt lat="41.68176835872389" lon="123.4527456947821">
        <time>2017-08-22T22:46:56.262000Z</time>
      </trkpt>
      <trkpt lat="41.6817800095693" lon="123.4525795654612">
        <ele>49.2903654674344</ele>
        <time>2017-08-22T22:46:59.313000Z</time>
      </trkpt>
      <trkpt lat="41.68180067096062" lon="123.452409748103">
        <time>2017-08-22T22:47:02.257000Z</time>
      </trkpt>
      <trkpt lat="41.68178139258332" lon="123.4522520006853">
        <time>2017-08-22T22:47:05.233000Z</time>
      </trkpt>
      <trkpt lat="41.68177518997498" lon="123.4520994500475">
        <time>2017-08-22T22:47:08.233000Z</time>
      </trkpt>
      <trkpt lat="41.68177648916997" lon="123.4519364220309">
        <ele>49.72018549777739</ele>
        <time>2017-08-22T22:47:11.251000Z</time>
      </trkpt>
      <trkpt lat="41.68178721800603" lon="123.451807340722">
        <time>2017-08-22T22:47:14.265000Z</time>
      </trkpt>
      <trkpt lat="41.6817662632481" lon="123.4516875633257">
        <ele>49.91338622794448</ele>
        <time>2017-08-22T22:47:19.341000Z</time>
      </trkpt>
      <trkpt lat="41.68175804898299" lon="123.4515576438265">
        <time>2017-08-22T22:47:24.469000Z</time>
      </trkpt>
      <trkpt lat="41.68175335511722" lon="123.4514357709544">
        <ele>50.08047231545546</ele>
        <time>2017-08-22T22:47:30.411000Z</time>
      </trkpt>
      <trkpt lat="41.68174979280837" lon="123.4513080307501">
        <time>2017-08-22T22:47:35.388000Z</time>
      </trkpt>
      <trkpt lat="41.68175088245578" lon="123.4511843976783">
        <ele>50.24525650437366</ele>
        <time>2017-08-22T22:47:41.302000Z</time>
      </trkpt>
      <trkpt lat="41.68176068928249" lon="123.4510543105411">
        <time>2017-08-22T22:47:46.203000Z</time>
      </trkpt>
      <trkpt lat="41.68176328767247" lon="123.4509119020062">
        <ele>50.36392211387887</ele>
        <time>2017-08-22T22:47:49.365000Z</time>
      </trkpt>
      <trkpt lat="41.68176412586279" lon="123.4507857543635">
        <time>2017-08-22T22:47:51.427000Z</time>
      </trkpt>
      <trkpt lat="41.68176500596262" lon="123.4505954013424">
        <time>2017-08-22T22:47:54.423000Z</time>
      </trkpt>
      <trkpt lat="41.68176722716697" lon="123.4504154418813">
        <time>2017-08-22T22:47:57.354000Z</time>
      </trkpt>
      <trkpt lat="41.68177296877064" lon="123.4502471332657">
        <ele>50.54538366508773</ele>
        <time>2017-08-22T22:48:00.233000Z</time>
      </trkpt>
      <trkpt lat="41.68178361378767" lon="123.4500924871521">
        <time>2017-08-22T22:48:03.417000Z</time>
      </trkpt>
      <trkpt lat="41.68178675700135" lon="123.4499655851381">
        <time>2017-08-22T22:48:05.457000Z</time>
      </trkpt>
      <trkpt lat="41.68178348805912" lon="123.4498302174019">
        <time>2017-08-22T22:48:07.467000Z</time>
      </trkpt>
      <trkpt lat="41.68177896183141" lon="123.4497028962927">
        <ele>50.71184302778799</ele>
        <time>2017-08-22T22:48:09.478000Z</time>
      </trkpt>
      <trkpt lat="41.68177078947581" lon="123.4494905826854">
        <time>2017-08-22T22:48:12.375000Z</time>
      </trkpt>
      <trkpt lat="41.6817654669673" lon="123.4493584000724">
        <time>2017-08-22T22:48:14.387000Z</time>
      </trkpt>
      <trkpt lat="41.68176102455862" lon="123.449148517217">
        <time>2017-08-22T22:48:17.382000Z</time>
      </trkpt>
      <trkpt lat="41.68176265902974" lon="123.4489799571442">
        <ele>51.44128230305986</ele>
        <time>2017-08-22T22:48:20.342000Z</time>
      </trkpt>
      <trkpt lat="41.68176429350085" lon="123.4488160909372">
        <time>2017-08-22T22:48:23.338000Z</time>
      </trkpt>
      <trkpt lat="41.68176102455862" lon="123.4486500454354">
        <time>2017-08-22T22:48:26.251000Z</time>
      </trkpt>
      <trkpt lat="41.68176215611555" lon="123.4485030268537">
        <ele>51.48516204747898</ele>
        <time>2017-08-22T22:48:29.248000Z</time>
      </trkpt>
      <trkpt lat="41.68176047973491" lon="123.4483806510674">
        <time>2017-08-22T22:48:32.326000Z</time>
      </trkpt>
      <trkpt lat="41.68176194656797" lon="123.4482514021205">
        <ele>52.17161057220456</ele>
        <time>2017-08-22T22:48:39.407000Z</time>
      </trkpt>
      <trkpt lat="41.68179354634292" lon="123.4481308703529">
        <time>2017-08-22T22:48:47.392000Z</time>
      </trkpt>
      <trkpt lat="41.68176861018099" lon="123.448014864813">
        <ele>52.6108308770757</ele>
        <time>2017-08-22T22:48:53.316000Z</time>
      </trkpt>
      <trkpt lat="41.68176861018099" lon="123.448014864813">
        <ele>52.75340335211452</ele>
        <time>2017-08-22T22:49:34.260000Z</time>
      </trkpt>
      <trkpt lat="41.68176295239635" lon="123.4478674271362">
        <time>2017-08-22T22:49:34.267000Z</time>
      </trkpt>
      <trkpt lat="41.68176135983474" lon="123.4477140383082">
        <time>2017-08-22T22:49:38.247000Z</time>
      </trkpt>
      <trkpt lat="41.68178285941638" lon="123.4475676064598">
        <ele>53.10905273650844</ele>
        <time>2017-08-22T22:49:42.306000Z</time>
      </trkpt>
      <trkpt lat="41.68179840784676" lon="123.4474322387236">
        <time>2017-08-22T22:49:45.478000Z</time>
      </trkpt>
      <trkpt lat="41.68178709227748" lon="123.4472730663823">
        <time>2017-08-22T22:49:48.367000Z</time>
      </trkpt>
      <trkpt lat="41.68177535761304" lon="123.4471175820785">
        <ele>55.47707906678419</ele>
        <time>2017-08-22T22:49:51.370000Z</time>
      </trkpt>
      <trkpt lat="41.68177644726045" lon="123.4469882493126">
        <time>2017-08-22T22:49:54.257000Z</time>
      </trkpt>
      <trkpt lat="41.68177485469885" lon="123.4468481877106">
        <time>2017-08-22T22:49:57.254000Z</time>
      </trkpt>
      <trkpt lat="41.68176370676763" lon="123.4467178491163">
        <time>2017-08-22T22:50:00.240000Z</time>
      </trkpt>
      <trkpt lat="41.68175775561638" lon="123.4465905280071">
        <ele>55.53614314542303</ele>
        <time>2017-08-22T22:50:03.236000Z</time>
      </trkpt>
      <trkpt lat="41.68176228184409" lon="123.4464500473099">
        <time>2017-08-22T22:50:06.251000Z</time>
      </trkpt>
      <trkpt lat="41.68176437731989" lon="123.4462937248158">
        <time>2017-08-22T22:50:09.263000Z</time>
      </trkpt>
      <trkpt lat="41.68175716888316" lon="123.4461696726488">
        <ele>54.18355907570594</ele>
        <time>2017-08-22T22:50:12.227000Z</time>
      </trkpt>
      <trkpt lat="41.68175586968817" lon="123.4460281023043">
        <time>2017-08-22T22:50:15.310000Z</time>
      </trkpt>
      <trkpt lat="41.68175230737932" lon="123.4458790720659">
        <time>2017-08-22T22:50:18.282000Z</time>
      </trkpt>
      <trkpt lat="41.68175901290186" lon="123.4457218275624">
        <time>2017-08-22T22:50:21.280000Z</time>
      </trkpt>
      <trkpt lat="41.68175033763207" lon="123.4455758986282">
        <ele>52.35851014239616</ele>
        <time>2017-08-22T22:50:24.357000Z</time>
      </trkpt>
      <trkpt lat="41.68175167873658" lon="123.4454339091884">
        <time>2017-08-22T22:50:27.274000Z</time>
      </trkpt>
      <trkpt lat="41.68174493130453" lon="123.4452728928285">
        <time>2017-08-22T22:50:31.292000Z</time>
      </trkpt>
      <trkpt lat="41.68173856105812" lon="123.445139369111">
        <ele>50.92539228911214</ele>
        <time>2017-08-22T22:50:34.309000Z</time>
      </trkpt>
      <trkpt lat="41.68174576949485" lon="123.4450032470035">
        <time>2017-08-22T22:50:37.313000Z</time>
      </trkpt>
      <trkpt lat="41.68175712697364" lon="123.4448596650022">
        <time>2017-08-22T22:50:40.264000Z</time>
      </trkpt>
      <trkpt lat="41.68176781390019" lon="123.4447201901334">
        <ele>49.52739547813238</ele>
        <time>2017-08-22T22:50:43.301000Z</time>
      </trkpt>
      <trkpt lat="41.68177380696095" lon="123.4445984848993">
        <time>2017-08-22T22:50:46.286000Z</time>
      </trkpt>
      <trkpt lat="41.68177489660837" lon="123.4444746841895">
        <time>2017-08-22T22:50:49.297000Z</time>
      </trkpt>
      <trkpt lat="41.6817794647456" lon="123.4443318565594">
        <ele>47.57993503712282</ele>
        <time>2017-08-22T22:50:52.246000Z</time>
      </trkpt>
      <trkpt lat="41.68178218886413" lon="123.4441969079184">
        <time>2017-08-22T22:50:55.251000Z</time>
      </trkpt>
      <trkpt lat="41.68177598625578" lon="123.4440606181728">
        <time>2017-08-22T22:50:58.233000Z</time>
      </trkpt>
      <trkpt lat="41.6817768244461" lon="123.4439260048079">
        <ele>45.65817562552994</ele>
        <time>2017-08-22T22:51:01.413000Z</time>
      </trkpt>
      <trkpt lat="41.68178197931655" lon="123.4437801596927">
        <time>2017-08-22T22:51:04.364000Z</time>
      </trkpt>
      <trkpt lat="41.68179178614326" lon="123.4436321352827">
        <time>2017-08-22T22:51:07.240000Z</time>
      </trkpt>
      <trkpt lat="41.6818067059309" lon="123.4434839432346">
        <time>2017-08-22T22:51:10.243000Z</time>
      </trkpt>
      <trkpt lat="41.68181081306346" lon="123.4433294647592">
        <ele>44.15996646387404</ele>
        <time>2017-08-22T22:51:13.244000Z</time>
      </trkpt>
      <trkpt lat="41.68180678974993" lon="123.4431911633568">
        <time>2017-08-22T22:51:16.261000Z</time>
      </trkpt>
      <trkpt lat="41.6818059096501" lon="123.4430562147158">
        <time>2017-08-22T22:51:19.449000Z</time>
      </trkpt>
      <trkpt lat="41.68180138342239" lon="123.442914057638">
        <ele>43.93840919903997</ele>
        <time>2017-08-22T22:51:22.424000Z</time>
      </trkpt>
      <trkpt lat="41.68180301789351" lon="123.4427548852968">
        <time>2017-08-22T22:51:25.302000Z</time>
      </trkpt>
      <trkpt lat="41.68179383970953" lon="123.4426185955512">
        <time>2017-08-22T22:51:28.258000Z</time>
      </trkpt>
      <trkpt lat="41.68178587690152" lon="123.4424898495185">
        <time>2017-08-22T22:51:31.229000Z</time>
      </trkpt>
      <trkpt lat="41.68179706674226" lon="123.4423554037916">
        <ele>43.18341568242098</ele>
        <time>2017-08-22T22:51:34.229000Z</time>
      </trkpt>
      <trkpt lat="41.68179932985611" lon="123.4422247299212">
        <time>2017-08-22T22:51:37.268000Z</time>
      </trkpt>
      <trkpt lat="41.68179249860503" lon="123.4420864285188">
        <time>2017-08-22T22:51:40.381000Z</time>
      </trkpt>
      <trkpt lat="41.68179601900436" lon="123.4419501387733">
        <ele>43.08899645351081</ele>
        <time>2017-08-22T22:51:43.406000Z</time>
      </trkpt>
      <trkpt lat="41.68180469427414" lon="123.4418175370651">
        <time>2017-08-22T22:51:46.413000Z</time>
      </trkpt>
      <trkpt lat="41.68180163487948" lon="123.4416859411853">
        <time>2017-08-22T22:51:49.438000Z</time>
      </trkpt>
      <trkpt lat="41.68179815638967" lon="123.44155568641">
        <ele>43.07416640296362</ele>
        <time>2017-08-22T22:51:52.412000Z</time>
      </trkpt>
      <trkpt lat="41.68180461045511" lon="123.4414267727392">
        <time>2017-08-22T22:51:55.375000Z</time>
      </trkpt>
      <trkpt lat="41.68181089688249" lon="123.4412929975646">
        <time>2017-08-22T22:51:58.328000Z</time>
      </trkpt>
      <trkpt lat="41.68181466873892" lon="123.4411562049048">
        <time>2017-08-22T22:52:01.268000Z</time>
      </trkpt>
      <trkpt lat="41.68182003315695" lon="123.4410226811873">
        <ele>43.0545487333379</ele>
        <time>2017-08-22T22:52:04.358000Z</time>
      </trkpt>
      <trkpt lat="41.6818238888324" lon="123.4408727289396">
        <time>2017-08-22T22:52:07.281000Z</time>
      </trkpt>
      <trkpt lat="41.68182149999" lon="123.4407306556808">
        <time>2017-08-22T22:52:10.356000Z</time>
      </trkpt>
      <trkpt lat="41.68182258963741" lon="123.4405945335733">
        <ele>42.22064774892036</ele>
        <time>2017-08-22T22:52:13.336000Z</time>
      </trkpt>
      <trkpt lat="41.68182250581838" lon="123.4404597525703">
        <time>2017-08-22T22:52:16.326000Z</time>
      </trkpt>
      <trkpt lat="41.68182489466079" lon="123.4403273185002">
        <time>2017-08-22T22:52:19.389000Z</time>
      </trkpt>
      <trkpt lat="41.68182644531287" lon="123.4401838203179">
        <ele>41.68277434745942</ele>
        <time>2017-08-22T22:52:22.320000Z</time>
      </trkpt>
      <trkpt lat="41.68181869205244" lon="123.4400419985162">
        <time>2017-08-22T22:52:25.334000Z</time>
      </trkpt>
      <trkpt lat="41.68183189354993" lon="123.4399167728829">
        <time>2017-08-22T22:52:28.247000Z</time>
      </trkpt>
      <trkpt lat="41.68185687162138" lon="123.4397971631246">
        <ele>43.24242648960039</ele>
        <time>2017-08-22T22:52:31.400000Z</time>
      </trkpt>
      <trkpt lat="41.6818603501112" lon="123.4396617115693">
        <time>2017-08-22T22:52:34.329000Z</time>
      </trkpt>
      <trkpt lat="41.68185066901304" lon="123.4395306186037">
        <time>2017-08-22T22:52:40.445000Z</time>
      </trkpt>
      <trkpt lat="41.68183717414893" lon="123.4393901379066">
        <ele>44.72332211668287</ele>
        <time>2017-08-22T22:52:46.371000Z</time>
      </trkpt>
      <trkpt lat="41.6818135790915" lon="123.4392594640361">
        <time>2017-08-22T22:52:51.308000Z</time>
      </trkpt>
      <trkpt lat="41.68181655466713" lon="123.4391194024341">
        <ele>45.76764261115787</ele>
        <time>2017-08-22T22:52:57.257000Z</time>
      </trkpt>
      <trkpt lat="41.68184199374326" lon="123.4389940929817">
        <ele>46.2975419379098</ele>
        <time>2017-08-22T22:53:03.251000Z</time>
      </trkpt>
      <trkpt lat="41.68186902538098" lon="123.4388557915794">
        <time>2017-08-22T22:53:09.280000Z</time>
      </trkpt>
      <trkpt lat="41.68184786107548" lon="123.4387247824328">
        <ele>47.22048166605057</ele>
        <time>2017-08-22T22:53:16.372000Z</time>
      </trkpt>
      <trkpt lat="41.68182602621771" lon="123.4386056755888">
        <ele>47.45799940560417</ele>
        <time>2017-08-22T22:53:21.488000Z</time>
      </trkpt>
      <trkpt lat="41.68182833124109" lon="123.4384538793223">
        <time>2017-08-22T22:53:25.378000Z</time>
      </trkpt>
      <trkpt lat="41.68184446640469" lon="123.4383146559106">
        <time>2017-08-22T22:53:30.493000Z</time>
      </trkpt>
      <trkpt lat="41.68184090409584" lon="123.438170235719">
        <ele>47.77917160984563</ele>
        <time>2017-08-22T22:53:33.299000Z</time>
      </trkpt>
      <trkpt lat="41.68184220329083" lon="123.4380198643761">
        <time>2017-08-22T22:53:36.481000Z</time>
      </trkpt>
      <trkpt lat="41.68183562349684" lon="123.4378725105183">
        <time>2017-08-22T22:53:39.421000Z</time>
      </trkpt>
      <trkpt lat="41.68182640340336" lon="123.4377202113377">
        <ele>47.34538689615932</ele>
        <time>2017-08-22T22:53:42.240000Z</time>
      </trkpt>
      <trkpt lat="41.68181668039568" lon="123.4375472088563">
        <time>2017-08-22T22:53:45.234000Z</time>
      </trkpt>
      <trkpt lat="41.68181341145344" lon="123.437377475317">
        <time>2017-08-22T22:53:48.357000Z</time>
      </trkpt>
      <trkpt lat="41.68180289216496" lon="123.4372278583454">
        <time>2017-08-22T22:53:51.257000Z</time>
      </trkpt>
      <trkpt lat="41.68180104814626" lon="123.4370677639948">
        <ele>46.71181118057399</ele>
        <time>2017-08-22T22:53:54.252000Z</time>
      </trkpt>
      <trkpt lat="41.68181253135361" lon="123.4369238467174">
        <time>2017-08-22T22:53:57.379000Z</time>
      </trkpt>
      <trkpt lat="41.68181219607748" lon="123.4367885628002">
        <time>2017-08-22T22:54:00.362000Z</time>
      </trkpt>
      <trkpt lat="41.68180041950352" lon="123.4366508481311">
        <ele>46.28038527446618</ele>
        <time>2017-08-22T22:54:03.365000Z</time>
      </trkpt>
      <trkpt lat="41.68180377226479" lon="123.4365148098426">
        <time>2017-08-22T22:54:06.437000Z</time>
      </trkpt>
      <trkpt lat="41.68181504592456" lon="123.4363822919535">
        <time>2017-08-22T22:54:09.397000Z</time>
      </trkpt>
      <trkpt lat="41.68182363737531" lon="123.4362518695401">
        <ele>45.88044944953136</ele>
        <time>2017-08-22T22:54:12.384000Z</time>
      </trkpt>
      <trkpt lat="41.6818204522521" lon="123.4361229558694">
        <time>2017-08-22T22:54:15.365000Z</time>
      </trkpt>
      <trkpt lat="41.68180419135995" lon="123.4359784518587">
        <time>2017-08-22T22:54:19.327000Z</time>
      </trkpt>
      <trkpt lat="41.68178482916363" lon="123.4358235542881">
        <ele>45.48251861103827</ele>
        <time>2017-08-22T22:54:22.259000Z</time>
      </trkpt>
      <trkpt lat="41.68178403288282" lon="123.4356589337098">
        <time>2017-08-22T22:54:25.345000Z</time>
      </trkpt>
      <trkpt lat="41.68180716693558" lon="123.4355351329999">
        <time>2017-08-22T22:54:28.304000Z</time>
      </trkpt>
      <trkpt lat="41.68182506229885" lon="123.4354114999282">
        <time>2017-08-22T22:54:31.250000Z</time>
      </trkpt>
      <trkpt lat="41.68183302510686" lon="123.4352397547322">
        <ele>44.91876359977657</ele>
        <time>2017-08-22T22:54:34.251000Z</time>
      </trkpt>
      <trkpt lat="41.68183738369651" lon="123.4350891319322">
        <time>2017-08-22T22:54:37.245000Z</time>
      </trkpt>
      <trkpt lat="41.68183088772155" lon="123.4349439573692">
        <time>2017-08-22T22:54:40.252000Z</time>
      </trkpt>
      <trkpt lat="41.6818024730698" lon="123.4348144569652">
        <ele>44.4597396450003</ele>
        <time>2017-08-22T22:54:43.428000Z</time>
      </trkpt>
      <trkpt lat="41.68178801428683" lon="123.4346475732731">
        <time>2017-08-22T22:54:46.473000Z</time>
      </trkpt>
      <trkpt lat="41.68177975811221" lon="123.4345054161953">
        <time>2017-08-22T22:54:49.349000Z</time>
      </trkpt>
      <trkpt lat="41.68176622133858" lon="123.4343853035229">
        <ele>44.02300642184086</ele>
        <time>2017-08-22T22:54:52.465000Z</time>
      </trkpt>
      <trkpt lat="41.68176953219034" lon="123.4342396260457">
        <time>2017-08-22T22:54:55.478000Z</time>
      </trkpt>
      <trkpt lat="41.68176802344777" lon="123.4341095389085">
        <time>2017-08-22T22:54:58.410000Z</time>
      </trkpt>
      <trkpt lat="41.68176559269585" lon="123.4339719918775">
        <ele>43.6336852310093</ele>
        <time>2017-08-22T22:55:01.331000Z</time>
      </trkpt>
      <trkpt lat="41.68176077310152" lon="123.4338449222254">
        <time>2017-08-22T22:55:04.225000Z</time>
      </trkpt>
      <trkpt lat="41.68176550887681" lon="123.4336993285673">
        <time>2017-08-22T22:55:07.235000Z</time>
      </trkpt>
      <trkpt lat="41.68176353912957" lon="123.4335541540044">
        <time>2017-08-22T22:55:10.226000Z</time>
      </trkpt>
      <trkpt lat="41.6817707475663" lon="123.4333868512171">
        <ele>43.08903656113345</ele>
        <time>2017-08-22T22:55:13.261000Z</time>
      </trkpt>
      <trkpt lat="41.68177996765979" lon="123.4332248290288">
        <time>2017-08-22T22:55:16.241000Z</time>
      </trkpt>
      <trkpt lat="41.6817895230294" lon="123.4330822528558">
        <time>2017-08-22T22:55:19.239000Z</time>
      </trkpt>
      <trkpt lat="41.6817895230294" lon="123.4329409339683">
        <ele>42.62517705082126</ele>
        <time>2017-08-22T22:55:22.318000Z</time>
      </trkpt>
      <trkpt lat="41.68179379780002" lon="123.4328145348685">
        <time>2017-08-22T22:55:25.359000Z</time>
      </trkpt>
      <trkpt lat="41.68180171869852" lon="123.4326922429012">
        <time>2017-08-22T22:55:28.260000Z</time>
      </trkpt>
      <trkpt lat="41.68180574201204" lon="123.4325691127436">
        <ele>40.96984751075898</ele>
        <time>2017-08-22T22:55:31.387000Z</time>
      </trkpt>
      <trkpt lat="41.68180758603074" lon="123.4324091860311">
        <time>2017-08-22T22:55:35.418000Z</time>
      </trkpt>
      <trkpt lat="41.68181177698232" lon="123.4322711360859">
        <time>2017-08-22T22:55:38.461000Z</time>
      </trkpt>
      <trkpt lat="41.68181936260469" lon="123.4321275540846">
        <ele>40.68340742121515</ele>
        <time>2017-08-22T22:55:42.271000Z</time>
      </trkpt>
      <trkpt lat="41.68182581667013" lon="123.4319960420238">
        <time>2017-08-22T22:55:49.333000Z</time>
      </trkpt>
      <trkpt lat="41.68183147445477" lon="123.4318719898569">
        <ele>40.67860033192264</ele>
        <time>2017-08-22T22:55:55.227000Z</time>
      </trkpt>
      <trkpt lat="41.68183051053591" lon="123.4317411483484">
        <time>2017-08-22T22:56:01.291000Z</time>
      </trkpt>
      <trkpt lat="41.68184828017063" lon="123.4316089657354">
        <ele>40.67415204327135</ele>
        <time>2017-08-22T22:56:08.283000Z</time>
      </trkpt>
      <trkpt lat="41.68184781916596" lon="123.4314768669414">
        <ele>40.67181039698132</ele>
        <time>2017-08-22T22:56:13.248000Z</time>
      </trkpt>
      <trkpt lat="41.6818431672097" lon="123.4313347936826">
        <time>2017-08-22T22:56:20.337000Z</time>
      </trkpt>
      <trkpt lat="41.68184044309117" lon="123.4311822430449">
        <ele>40.66702638843182</ele>
        <time>2017-08-22T22:56:24.244000Z</time>
      </trkpt>
      <trkpt lat="41.68184048500068" lon="123.4310562630402">
        <time>2017-08-22T22:56:27.281000Z</time>
      </trkpt>
      <trkpt lat="41.68184228710987" lon="123.430907651897">
        <time>2017-08-22T22:56:30.231000Z</time>
      </trkpt>
      <trkpt lat="41.68183780279167" lon="123.4307524190503">
        <ele>40.65957760319026</ele>
        <time>2017-08-22T22:56:33.258000Z</time>
      </trkpt>
      <trkpt lat="41.68183981444843" lon="123.4305929952519">
        <time>2017-08-22T22:56:36.252000Z</time>
      </trkpt>
      <trkpt lat="41.681836042592" lon="123.4304085095631">
        <time>2017-08-22T22:56:39.369000Z</time>
      </trkpt>
      <trkpt lat="41.68183767706312" lon="123.4302388598429">
        <ele>40.65086986833042</ele>
        <time>2017-08-22T22:56:42.489000Z</time>
      </trkpt>
      <trkpt lat="41.68183650359668" lon="123.4300954454797">
        <time>2017-08-22T22:56:45.372000Z</time>
      </trkpt>
      <trkpt lat="41.68183277364977" lon="123.4299496003645">
        <time>2017-08-22T22:56:48.325000Z</time>
      </trkpt>
      <trkpt lat="41.68182749305077" lon="123.4297983070122">
        <time>2017-08-22T22:56:51.247000Z</time>
      </trkpt>
      <trkpt lat="41.6818238888324" lon="123.4296540544587">
        <ele>40.6402233510584</ele>
        <time>2017-08-22T22:56:54.249000Z</time>
      </trkpt>
      <trkpt lat="41.68182225436129" lon="123.4295109753715">
        <time>2017-08-22T22:56:57.444000Z</time>
      </trkpt>
      <trkpt lat="41.6818238888324" lon="123.4293620289522">
        <time>2017-08-22T22:57:00.438000Z</time>
      </trkpt>
      <trkpt lat="41.68183356993057" lon="123.4291940556126">
        <ele>40.63261509886519</ele>
        <time>2017-08-22T22:57:03.283000Z</time>
      </trkpt>
      <trkpt lat="41.68183688078232" lon="123.4290324525195">
        <time>2017-08-22T22:57:06.259000Z</time>
      </trkpt>
      <trkpt lat="41.68183864098199" lon="123.4288843442904">
        <time>2017-08-22T22:57:09.350000Z</time>
      </trkpt>
      <trkpt lat="41.68183566540636" lon="123.4287309554624">
        <ele>40.62427455764401</ele>
        <time>2017-08-22T22:57:13.269000Z</time>
      </trkpt>
      <trkpt lat="41.68183302510686" lon="123.4285742138731">
        <time>2017-08-22T22:57:17.300000Z</time>
      </trkpt>
      <trkpt lat="41.681841323191" lon="123.4284114373135">
        <time>2017-08-22T22:57:21.266000Z</time>
      </trkpt>
      <trkpt lat="41.68184417303808" lon="123.4282370937275">
        <ele>40.61602004464675</ele>
        <time>2017-08-22T22:57:24.307000Z</time>
      </trkpt>
      <trkpt lat="41.68184010781504" lon="123.428079765405">
        <time>2017-08-22T22:57:27.269000Z</time>
      </trkpt>
      <trkpt lat="41.68183147445477" lon="123.427944984402">
        <time>2017-08-22T22:57:30.250000Z</time>
      </trkpt>
      <trkpt lat="41.68183025907882" lon="123.4278124665128">
        <ele>40.60787673886578</ele>
        <time>2017-08-22T22:57:33.266000Z</time>
      </trkpt>
      <trkpt lat="41.68182967234559" lon="123.427664945017">
        <time>2017-08-22T22:57:36.265000Z</time>
      </trkpt>
      <trkpt lat="41.68183302510686" lon="123.4275049344855">
        <time>2017-08-22T22:57:39.277000Z</time>
      </trkpt>
      <trkpt lat="41.68183113917865" lon="123.4273593408274">
        <ele>40.60020344094229</ele>
        <time>2017-08-22T22:57:42.348000Z</time>
      </trkpt>
      <trkpt lat="41.68183600068249" lon="123.4272114002364">
        <time>2017-08-22T22:57:45.330000Z</time>
      </trkpt>
      <trkpt lat="41.6818423709289" lon="123.427057173218">
        <time>2017-08-22T22:57:48.248000Z</time>
      </trkpt>
      <trkpt lat="41.68184916027047" lon="123.4269070533322">
        <time>2017-08-22T22:57:51.258000Z</time>
      </trkpt>
      <trkpt lat="41.68185624297865" lon="123.4267699253964">
        <ele>40.5897646503573</ele>
        <time>2017-08-22T22:57:54.276000Z</time>
      </trkpt>
      <trkpt lat="41.68186173312522" lon="123.42661293235">
        <time>2017-08-22T22:57:57.307000Z</time>
      </trkpt>
      <trkpt lat="41.68185909282573" lon="123.4264902212875">
        <time>2017-08-22T22:58:00.314000Z</time>
      </trkpt>
      <trkpt lat="41.68186533734359" lon="123.4263635707306">
        <ele>40.58248792156357</ele>
        <time>2017-08-22T22:58:03.251000Z</time>
      </trkpt>
      <trkpt lat="41.68186701372422" lon="123.4262240120428">
        <time>2017-08-22T22:58:06.298000Z</time>
      </trkpt>
      <trkpt lat="41.68186567261971" lon="123.4261035640942">
        <time>2017-08-22T22:58:09.362000Z</time>
      </trkpt>
      <trkpt lat="41.68186621744342" lon="123.4259645921396">
        <ele>40.57573995160953</ele>
        <time>2017-08-22T22:58:12.527000Z</time>
      </trkpt>
      <trkpt lat="41.68186692990519" lon="123.4258223512428">
        <time>2017-08-22T22:58:15.381000Z</time>
      </trkpt>
      <trkpt lat="41.68186328377731" lon="123.4256904200869">
        <time>2017-08-22T22:58:18.257000Z</time>
      </trkpt>
      <trkpt lat="41.68185967955895" lon="123.4255521186845">
        <ele>40.56853456329417</ele>
        <time>2017-08-22T22:58:22.277000Z</time>
      </trkpt>
      <trkpt lat="41.68185418941237" lon="123.4254088719593">
        <time>2017-08-22T22:58:25.284000Z</time>
      </trkpt>
      <trkpt lat="41.68185565624542" lon="123.4252682236241">
        <time>2017-08-22T22:58:28.344000Z</time>
      </trkpt>
      <trkpt lat="41.6818484478087" lon="123.4251215403186">
        <time>2017-08-22T22:58:31.246000Z</time>
      </trkpt>
      <trkpt lat="41.68184643615194" lon="123.4249677323954">
        <ele>40.55860354905522</ele>
        <time>2017-08-22T22:58:34.266000Z</time>
      </trkpt>
      <trkpt lat="41.68184815444209" lon="123.4248240665751">
        <time>2017-08-22T22:58:37.388000Z</time>
      </trkpt>
      <trkpt lat="41.68185343504108" lon="123.4246886988388">
        <ele>40.55341667662787</ele>
        <time>2017-08-22T22:58:42.434000Z</time>
      </trkpt>
      <trkpt lat="41.68184920217998" lon="123.4245591984348">
        <time>2017-08-22T22:58:47.463000Z</time>
      </trkpt>
      <trkpt lat="41.68185460850753" lon="123.4244335537063">
        <ele>40.54879423327937</ele>
        <time>2017-08-22T22:58:52.228000Z</time>
      </trkpt>
      <trkpt lat="41.68185159102239" lon="123.4243053105878">
        <time>2017-08-22T22:58:57.231000Z</time>
      </trkpt>
      <trkpt lat="41.68184903454192" lon="123.4241837729918">
        <ele>41.31378315256757</ele>
        <time>2017-08-22T22:59:02.248000Z</time>
      </trkpt>
      <trkpt lat="41.68185879945911" lon="123.4240624030339">
        <time>2017-08-22T22:59:09.369000Z</time>
      </trkpt>
      <trkpt lat="41.68186211031087" lon="123.4239399434285">
        <ele>42.92675181805957</ele>
        <time>2017-08-22T22:59:13.259000Z</time>
      </trkpt>
      <trkpt lat="41.68187166568048" lon="123.4237909970092">
        <time>2017-08-22T22:59:16.274000Z</time>
      </trkpt>
      <trkpt lat="41.68188314888783" lon="123.423629226278">
        <time>2017-08-22T22:59:19.221000Z</time>
      </trkpt>
      <trkpt lat="41.68190477419801" lon="123.4234617558526">
        <ele>45.80443455081232</ele>
        <time>2017-08-22T22:59:22.235000Z</time>
      </trkpt>
      <trkpt lat="41.6819285368935" lon="123.4233192634987">
        <time>2017-08-22T22:59:25.228000Z</time>
      </trkpt>
      <trkpt lat="41.68193411085911" lon="123.4231566545772">
        <time>2017-08-22T22:59:28.251000Z</time>
      </trkpt>
      <trkpt lat="41.68192803397931" lon="123.4229864181237">
        <time>2017-08-22T22:59:31.291000Z</time>
      </trkpt>
      <trkpt lat="41.68191223409183" lon="123.422794221084">
        <ele>46.48466963431697</ele>
        <time>2017-08-22T22:59:34.243000Z</time>
      </trkpt>
      <trkpt lat="41.68191541921504" lon="123.4226703365551">
        <time>2017-08-22T22:59:36.245000Z</time>
      </trkpt>
      <trkpt lat="41.68192849498399" lon="123.4225001001017">
        <time>2017-08-22T22:59:39.283000Z</time>
      </trkpt>
      <trkpt lat="41.68194856964208" lon="123.4223515727775">
        <ele>46.5306548069108</ele>
        <time>2017-08-22T22:59:42.258000Z</time>
      </trkpt>
      <trkpt lat="41.68196009475894" lon="123.422186365466">
        <time>2017-08-22T22:59:45.232000Z</time>
      </trkpt>
      <trkpt lat="41.68197006922372" lon="123.4220214934306">
        <time>2017-08-22T22:59:48.426000Z</time>
      </trkpt>
      <trkpt lat="41.68197677474625" lon="123.4218529333579">
        <time>2017-08-22T22:59:51.251000Z</time>
      </trkpt>
      <trkpt lat="41.6819840250925" lon="123.42171857145">
        <ele>46.59890803787447</ele>
        <time>2017-08-22T22:59:54.327000Z</time>
      </trkpt>
      <trkpt lat="41.68200548276462" lon="123.4215787613051">
        <time>2017-08-22T22:59:57.468000Z</time>
      </trkpt>
      <trkpt lat="41.68201763652421" lon="123.4214425553786">
        <time>2017-08-22T23:00:00.226000Z</time>
      </trkpt>
      <trkpt lat="41.68203305922605" lon="123.4212616739081">
        <ele>46.64237516666781</ele>
        <time>2017-08-22T23:00:03.258000Z</time>
      </trkpt>
      <trkpt lat="41.68204437479533" lon="123.4211005737292">
        <time>2017-08-22T23:00:06.254000Z</time>
      </trkpt>
      <trkpt lat="41.68205258906044" lon="123.4209262301432">
        <time>2017-08-22T23:00:09.367000Z</time>
      </trkpt>
      <trkpt lat="41.68205472644575" lon="123.4207747691529">
        <ele>46.69674061214063</ele>
        <time>2017-08-22T23:00:12.249000Z</time>
      </trkpt>
      <trkpt lat="41.68205766011186" lon="123.4206063767182">
        <time>2017-08-22T23:00:15.259000Z</time>
      </trkpt>
      <trkpt lat="41.68206474282004" lon="123.4204466176437">
        <time>2017-08-22T23:00:18.356000Z</time>
      </trkpt>
      <trkpt lat="41.68208431456394" lon="123.4203108308124">
        <time>2017-08-22T23:00:21.250000Z</time>
      </trkpt>
      <trkpt lat="41.68210019827045" lon="123.4201473837005">
        <ele>46.7615502777646</ele>
        <time>2017-08-22T23:00:24.285000Z</time>
      </trkpt>
      <trkpt lat="41.68211251966812" lon="123.419979661818">
        <time>2017-08-22T23:00:27.263000Z</time>
      </trkpt>
      <trkpt lat="41.68211356740601" lon="123.4198571183937">
        <time>2017-08-22T23:00:29.265000Z</time>
      </trkpt>
      <trkpt lat="41.68212865483172" lon="123.4196924978154">
        <ele>46.80934393736935</ele>
        <time>2017-08-22T23:00:32.255000Z</time>
      </trkpt>
      <trkpt lat="41.68214541863806" lon="123.4195410368251">
        <time>2017-08-22T23:00:35.371000Z</time>
      </trkpt>
      <trkpt lat="41.68215732094057" lon="123.4193855525212">
        <time>2017-08-22T23:00:38.394000Z</time>
      </trkpt>
      <trkpt lat="41.68216687631018" lon="123.4192613327162">
        <ele>46.8591558037666</ele>
        <time>2017-08-22T23:00:41.353000Z</time>
      </trkpt>
      <trkpt lat="41.6821711510808" lon="123.4191060160505">
        <time>2017-08-22T23:00:44.446000Z</time>
      </trkpt>
      <trkpt lat="41.68217701841302" lon="123.4189367016064">
        <time>2017-08-22T23:00:47.325000Z</time>
      </trkpt>
      <trkpt lat="41.68218464594491" lon="123.4187753499704">
        <time>2017-08-22T23:00:50.374000Z</time>
      </trkpt>
      <trkpt lat="41.68220174502738" lon="123.4186273255604">
        <ele>46.92327171080565</ele>
        <time>2017-08-22T23:00:54.265000Z</time>
      </trkpt>
      <trkpt lat="41.68221473697729" lon="123.4184854199397">
        <time>2017-08-22T23:00:57.250000Z</time>
      </trkpt>
      <trkpt lat="41.68222458571352" lon="123.4183604457634">
        <time>2017-08-22T23:01:00.247000Z</time>
      </trkpt>
      <trkpt lat="41.68222194541402" lon="123.4182252456652">
        <ele>46.96712986716504</ele>
        <time>2017-08-22T23:01:03.260000Z</time>
      </trkpt>
      <trkpt lat="41.68223108168848" lon="123.4180566855924">
        <time>2017-08-22T23:01:06.287000Z</time>
      </trkpt>
      <trkpt lat="41.68224273253389" lon="123.4178967588799">
        <time>2017-08-22T23:01:09.309000Z</time>
      </trkpt>
      <trkpt lat="41.68225622739799" lon="123.4177335632252">
        <ele>47.01586956120379</ele>
        <time>2017-08-22T23:01:12.485000Z</time>
      </trkpt>
      <trkpt lat="41.68226984799065" lon="123.4175727983223">
        <time>2017-08-22T23:01:15.437000Z</time>
      </trkpt>
      <trkpt lat="41.68228015773155" lon="123.4174096864866">
        <time>2017-08-22T23:01:18.256000Z</time>
      </trkpt>
      <trkpt lat="41.68229214385308" lon="123.4172560462015">
        <time>2017-08-22T23:01:21.276000Z</time>
      </trkpt>
      <trkpt lat="41.682305135803" lon="123.4170770925688">
        <ele>47.08340380599762</ele>
        <time>2017-08-22T23:01:24.259000Z</time>
      </trkpt>
      <trkpt lat="41.68231003921635" lon="123.4169446584987">
        <time>2017-08-22T23:01:27.249000Z</time>
      </trkpt>
      <trkpt lat="41.68229855600901" lon="123.4168244620072">
        <time>2017-08-22T23:01:31.284000Z</time>
      </trkpt>
      <trkpt lat="41.68230446525074" lon="123.4166954645174">
        <ele>47.1288513002061</ele>
        <time>2017-08-22T23:01:35.495000Z</time>
      </trkpt>
      <trkpt lat="41.68230886574991" lon="123.4165563249247">
        <time>2017-08-22T23:01:40.361000Z</time>
      </trkpt>
      <trkpt lat="41.68232076805241" lon="123.4164204542743">
        <ele>47.15699267116894</ele>
        <time>2017-08-22T23:01:46.360000Z</time>
      </trkpt>
      <trkpt lat="41.68234101034857" lon="123.4162866790997">
        <ele>47.1713345531881</ele>
        <time>2017-08-22T23:01:51.487000Z</time>
      </trkpt>
      <trkpt lat="41.68240534145541" lon="123.4161862638997">
        <time>2017-08-22T23:01:57.283000Z</time>
      </trkpt>
      <trkpt lat="41.68247989848413" lon="123.4160955717074">
        <ele>48.13323651868907</ele>
        <time>2017-08-22T23:02:04.251000Z</time>
      </trkpt>
      <trkpt lat="41.68256924957193" lon="123.4160668217795">
        <time>2017-08-22T23:02:10.304000Z</time>
      </trkpt>
      <trkpt lat="41.68266576718695" lon="123.4160634690182">
        <ele>49.43815513997598</ele>
        <time>2017-08-22T23:02:16.269000Z</time>
      </trkpt>
      <trkpt lat="41.68276173997827" lon="123.4160736111211">
        <ele>49.879069506042</ele>
        <time>2017-08-22T23:02:22.307000Z</time>
      </trkpt>
      <trkpt lat="41.68286018543102" lon="123.4160433524506">
        <time>2017-08-22T23:02:28.232000Z</time>
      </trkpt>
      <trkpt lat="41.68295854706474" lon="123.4160234035211">
        <ele>50.4449372271924</ele>
        <time>2017-08-22T23:02:36.243000Z</time>
      </trkpt>
      <trkpt lat="41.6830546455846" lon="123.4160016105728">
        <ele>50.96674479534092</ele>
        <time>2017-08-22T23:02:43.254000Z</time>
      </trkpt>
      <trkpt lat="41.68314332612015" lon="123.4159688373314">
        <time>2017-08-22T23:02:49.250000Z</time>
      </trkpt>
      <trkpt lat="41.68316901665337" lon="123.4158458748119">
        <ele>51.96501419515927</ele>
        <time>2017-08-22T23:02:57.297000Z</time>
      </trkpt>
      <trkpt lat="41.68316901665337" lon="123.4158458748119">
        <ele>52.1495905189604</ele>
        <time>2017-08-22T23:03:10.475000Z</time>
      </trkpt>
      <trkpt lat="41.68321855370112" lon="123.4157255945014">
        <time>2017-08-22T23:03:10.489000Z</time>
      </trkpt>
      <trkpt lat="41.68330052871413" lon="123.4156696033882">
        <time>2017-08-22T23:03:18.243000Z</time>
      </trkpt>
      <trkpt lat="41.68338455729343" lon="123.4156170488553">
        <ele>52.71548847757699</ele>
        <time>2017-08-22T23:03:27.268000Z</time>
      </trkpt>
      <trkpt lat="41.68338455729343" lon="123.4156170488553">
        <ele>54.10247009197707</ele>
        <time>2017-08-22T23:03:49.302000Z</time>
      </trkpt>
      <trkpt lat="41.68346917260595" lon="123.4153023922103">
        <time>2017-08-22T23:04:00.233000Z</time>
      </trkpt>
      <trkpt lat="41.68346875351079" lon="123.4151557089048">
        <time>2017-08-22T23:04:05.219000Z</time>
      </trkpt>
      <trkpt lat="41.68347621340461" lon="123.4150190838831">
        <ele>51.14847982611185</ele>
        <time>2017-08-22T23:04:08.298000Z</time>
      </trkpt>
      <trkpt lat="41.68352591809042" lon="123.41489209805">
        <time>2017-08-22T23:04:12.284000Z</time>
      </trkpt>
      <trkpt lat="41.68357696388073" lon="123.4147579037802">
        <time>2017-08-22T23:04:15.329000Z</time>
      </trkpt>
      <trkpt lat="41.68361581400193" lon="123.4146337677943">
        <ele>52.65692066201009</ele>
        <time>2017-08-22T23:04:18.285000Z</time>
      </trkpt>
      <trkpt lat="41.68365026362397" lon="123.4144765232908">
        <time>2017-08-22T23:04:22.316000Z</time>
      </trkpt>
      <trkpt lat="41.68365097608574" lon="123.41435020801">
        <time>2017-08-22T23:04:25.279000Z</time>
      </trkpt>
      <trkpt lat="41.68360906656988" lon="123.4142269940334">
        <ele>54.15256170629333</ele>
        <time>2017-08-22T23:04:30.216000Z</time>
      </trkpt>
      <trkpt lat="41.68356036771245" lon="123.4141106532173">
        <ele>54.62921784646858</ele>
        <time>2017-08-22T23:04:38.360000Z</time>
      </trkpt>
      <trkpt lat="41.68354234662063" lon="123.4139772971379">
        <time>2017-08-22T23:04:41.426000Z</time>
      </trkpt>
      <trkpt lat="41.68353949677356" lon="123.4138357267933">
        <time>2017-08-22T23:04:44.348000Z</time>
      </trkpt>
      <trkpt lat="41.68353077959426" lon="123.4137150273876">
        <ele>56.07443926347994</ele>
        <time>2017-08-22T23:04:48.272000Z</time>
      </trkpt>
    </trkseg>
  </trk>
</gpx>