<?xml version="1.0" encoding="UTF-8"?>
<gpx xmlns="http://www.topografix.com/GPX/1/1" xmlns:gpxtpx="http://www.garmin.com/xmlschemas/TrackPointExtension/v1" xmlns:xsi="http://www.w3.org/2001/XMLSchema-instance" xsi:schemaLocation="http://www.topografix.com/GPX/1/1 http://www.topografix.com/GPX/1/1/gpx.xsd" version="1.1" creator="gpx.py -- https://github.com/tkrajina/gpxpy">
  <trk>
    <name>星期四  上午跑</name>
    <trkseg>
      <trkpt lat="41.68299396060564" lon="123.4159758781301">
        <time>2017-08-23T22:15:56.250000Z</time>
      </trkpt>
      <trkpt lat="41.68289937082834" lon="123.4159863555091">
        <time>2017-08-23T22:16:01.245000Z</time>
      </trkpt>
      <trkpt lat="41.68279862035222" lon="123.4160054662483">
        <ele>40.54624161531288</ele>
        <time>2017-08-23T22:16:05.251000Z</time>
      </trkpt>
      <trkpt lat="41.68268483601667" lon="123.4160213918643">
        <time>2017-08-23T22:16:09.261000Z</time>
      </trkpt>
      <trkpt lat="41.68257838584639" lon="123.4160216433214">
        <ele>40.63560201015262</ele>
        <time>2017-08-23T22:16:13.260000Z</time>
      </trkpt>
      <trkpt lat="41.68247755155124" lon="123.4160819930242">
        <time>2017-08-23T22:16:17.249000Z</time>
      </trkpt>
      <trkpt lat="41.68241762094356" lon="123.416208308305">
        <time>2017-08-23T22:16:21.240000Z</time>
      </trkpt>
      <trkpt lat="41.6823846800641" lon="123.4163432569461">
        <ele>40.77148182883408</ele>
        <time>2017-08-23T22:16:25.270000Z</time>
      </trkpt>
      <trkpt lat="41.68236971836694" lon="123.4164626990663">
        <time>2017-08-23T22:16:28.260000Z</time>
      </trkpt>
      <trkpt lat="41.68233807668246" lon="123.4165990726309">
        <time>2017-08-23T22:16:31.208000Z</time>
      </trkpt>
      <trkpt lat="41.68231678664841" lon="123.4167242144453">
        <ele>40.89680931814569</ele>
        <time>2017-08-23T22:16:34.254000Z</time>
      </trkpt>
      <trkpt lat="41.68231351770617" lon="123.4168480989741">
        <time>2017-08-23T22:16:38.234000Z</time>
      </trkpt>
      <trkpt lat="41.68231531981535" lon="123.4169777670162">
        <ele>40.97472563747165</ele>
        <time>2017-08-23T22:16:43.361000Z</time>
      </trkpt>
      <trkpt lat="41.6822982626424" lon="123.4171342571484">
        <time>2017-08-23T22:16:47.271000Z</time>
      </trkpt>
      <trkpt lat="41.68229763399966" lon="123.4172835388439">
        <time>2017-08-23T22:16:51.308000Z</time>
      </trkpt>
      <trkpt lat="41.68228070255525" lon="123.4174412862616">
        <ele>41.10971371000917</ele>
        <time>2017-08-23T22:16:55.275000Z</time>
      </trkpt>
      <trkpt lat="41.68226439975358" lon="123.4175940883564">
        <time>2017-08-23T22:16:59.252000Z</time>
      </trkpt>
      <trkpt lat="41.68226108890183" lon="123.4177177214282">
        <time>2017-08-23T22:17:02.299000Z</time>
      </trkpt>
      <trkpt lat="41.6822551796601" lon="123.4178709426182">
        <ele>41.24477609472537</ele>
        <time>2017-08-23T22:17:06.259000Z</time>
      </trkpt>
      <trkpt lat="41.68225857433088" lon="123.4179949947851">
        <time>2017-08-23T22:17:10.256000Z</time>
      </trkpt>
      <trkpt lat="41.68224642057128" lon="123.4181419295477">
        <ele>41.33049519281072</ele>
        <time>2017-08-23T22:17:14.250000Z</time>
      </trkpt>
      <trkpt lat="41.68222777083673" lon="123.418264221515">
        <time>2017-08-23T22:17:17.257000Z</time>
      </trkpt>
      <trkpt lat="41.68221511416294" lon="123.4183932190048">
        <time>2017-08-23T22:17:20.249000Z</time>
      </trkpt>
      <trkpt lat="41.68219826653756" lon="123.4185272456365">
        <ele>41.45485662379973</ele>
        <time>2017-08-23T22:17:23.259000Z</time>
      </trkpt>
      <trkpt lat="41.68220664844073" lon="123.4187122342395">
        <time>2017-08-23T22:17:26.309000Z</time>
      </trkpt>
      <trkpt lat="41.68221377305843" lon="123.4188454226809">
        <time>2017-08-23T22:17:29.224000Z</time>
      </trkpt>
      <trkpt lat="41.68219914663739" lon="123.4189916868912">
        <ele>41.59526948537952</ele>
        <time>2017-08-23T22:17:33.260000Z</time>
      </trkpt>
      <trkpt lat="41.68217324655659" lon="123.4191096202688">
        <time>2017-08-23T22:17:37.286000Z</time>
      </trkpt>
      <trkpt lat="41.68214776557095" lon="123.4192519449847">
        <time>2017-08-23T22:17:42.239000Z</time>
      </trkpt>
      <trkpt lat="41.68214126959599" lon="123.4193749913233">
        <ele>41.72394102273087</ele>
        <time>2017-08-23T22:17:46.265000Z</time>
      </trkpt>
      <trkpt lat="41.68212894819833" lon="123.4195280448752">
        <time>2017-08-23T22:17:50.233000Z</time>
      </trkpt>
      <trkpt lat="41.68211251966812" lon="123.4196477384525">
        <ele>41.80954865254822</ele>
        <time>2017-08-23T22:17:53.255000Z</time>
      </trkpt>
      <trkpt lat="41.68210497595526" lon="123.4197904822635">
        <time>2017-08-23T22:17:56.245000Z</time>
      </trkpt>
      <trkpt lat="41.68210623324074" lon="123.4199188930201">
        <time>2017-08-23T22:17:59.256000Z</time>
      </trkpt>
      <trkpt lat="41.68210753243573" lon="123.4200797417419">
        <ele>41.93093759639081</ele>
        <time>2017-08-23T22:18:03.303000Z</time>
      </trkpt>
      <trkpt lat="41.68209340892889" lon="123.420199016224">
        <time>2017-08-23T22:18:06.305000Z</time>
      </trkpt>
      <trkpt lat="41.68211834509082" lon="123.4203444422441">
        <time>2017-08-23T22:18:10.274000Z</time>
      </trkpt>
      <trkpt lat="41.68211319022037" lon="123.4204777983235">
        <ele>42.06399355228315</ele>
        <time>2017-08-23T22:18:13.268000Z</time>
      </trkpt>
      <trkpt lat="41.68209340892889" lon="123.4206151777165">
        <time>2017-08-23T22:18:16.253000Z</time>
      </trkpt>
      <trkpt lat="41.68206952050485" lon="123.4207456839489">
        <time>2017-08-23T22:18:19.245000Z</time>
      </trkpt>
      <trkpt lat="41.68205711528815" lon="123.4208850749986">
        <ele>42.18995269511338</ele>
        <time>2017-08-23T22:18:23.213000Z</time>
      </trkpt>
      <trkpt lat="41.68203247249283" lon="123.4210306686567">
        <time>2017-08-23T22:18:27.211000Z</time>
      </trkpt>
      <trkpt lat="41.68201872617163" lon="123.4211548884617">
        <time>2017-08-23T22:18:31.233000Z</time>
      </trkpt>
      <trkpt lat="41.68201365512021" lon="123.4213130549746">
        <ele>42.3182155154821</ele>
        <time>2017-08-23T22:18:35.234000Z</time>
      </trkpt>
      <trkpt lat="41.6820152057723" lon="123.4214338381993">
        <time>2017-08-23T22:18:38.347000Z</time>
      </trkpt>
      <trkpt lat="41.68202153410919" lon="123.4215657693552">
        <time>2017-08-23T22:18:42.418000Z</time>
      </trkpt>
      <trkpt lat="41.68201453522004" lon="123.421718487631">
        <ele>42.44525218490291</ele>
        <time>2017-08-23T22:18:46.267000Z</time>
      </trkpt>
      <trkpt lat="41.68201684024341" lon="123.4218462278353">
        <time>2017-08-23T22:18:49.252000Z</time>
      </trkpt>
      <trkpt lat="41.68201331984408" lon="123.4219686036216">
        <time>2017-08-23T22:18:52.430000Z</time>
      </trkpt>
      <trkpt lat="41.68200003452755" lon="123.4221057315575">
        <ele>42.56979939633858</ele>
        <time>2017-08-23T22:18:56.391000Z</time>
      </trkpt>
      <trkpt lat="41.68199508920468" lon="123.4222457931595">
        <time>2017-08-23T22:18:59.463000Z</time>
      </trkpt>
      <trkpt lat="41.68198591102071" lon="123.4223983437972">
        <ele>42.65577858704925</ele>
        <time>2017-08-23T22:19:03.282000Z</time>
      </trkpt>
      <trkpt lat="41.68188578918733" lon="123.4231340234386">
        <ele>42.70304113267758</ele>
        <time>2017-08-23T22:19:18.356000Z</time>
      </trkpt>
      <trkpt lat="41.68191059962071" lon="123.4232559801297">
        <time>2017-08-23T22:19:21.271000Z</time>
      </trkpt>
      <trkpt lat="41.68189702093758" lon="123.4234141466426">
        <ele>42.97305443384197</ele>
        <time>2017-08-23T22:19:26.244000Z</time>
      </trkpt>
      <trkpt lat="41.68187166568048" lon="123.4235303198205">
        <time>2017-08-23T22:19:30.228000Z</time>
      </trkpt>
      <trkpt lat="41.68187128849484" lon="123.4236774222212">
        <ele>43.0595909658926</ele>
        <time>2017-08-23T22:19:34.271000Z</time>
      </trkpt>
      <trkpt lat="41.68185724880703" lon="123.423830224316">
        <time>2017-08-23T22:19:38.293000Z</time>
      </trkpt>
      <trkpt lat="41.68185515333123" lon="123.423964837681">
        <time>2017-08-23T22:19:42.329000Z</time>
      </trkpt>
      <trkpt lat="41.68188092768349" lon="123.4241311346399">
        <ele>43.19409600926883</ele>
        <time>2017-08-23T22:19:46.250000Z</time>
      </trkpt>
      <trkpt lat="41.681891530791" lon="123.4242754710125">
        <time>2017-08-23T22:19:49.276000Z</time>
      </trkpt>
      <trkpt lat="41.68190049942739" lon="123.4244102520155">
        <time>2017-08-23T22:19:52.263000Z</time>
      </trkpt>
      <trkpt lat="41.68190058324642" lon="123.4245512356268">
        <ele>43.33309693945404</ele>
        <time>2017-08-23T22:19:56.245000Z</time>
      </trkpt>
      <trkpt lat="41.68190318163641" lon="123.4246990085798">
        <time>2017-08-23T22:20:00.486000Z</time>
      </trkpt>
      <trkpt lat="41.68188742365844" lon="123.4248437640475">
        <ele>43.42227155384712</ele>
        <time>2017-08-23T22:20:04.238000Z</time>
      </trkpt>
      <trkpt lat="41.68187061794259" lon="123.4249746893751">
        <time>2017-08-23T22:20:08.235000Z</time>
      </trkpt>
      <trkpt lat="41.6818550695122" lon="123.4251118173109">
        <time>2017-08-23T22:20:12.300000Z</time>
      </trkpt>
      <trkpt lat="41.6818500403703" lon="123.4252539743887">
        <ele>43.55131465209178</ele>
        <time>2017-08-23T22:20:18.292000Z</time>
      </trkpt>
      <trkpt lat="41.68183591686346" lon="123.425397472571">
        <time>2017-08-23T22:20:22.241000Z</time>
      </trkpt>
      <trkpt lat="41.68184048500068" lon="123.4255651106345">
        <ele>43.63996908123424</ele>
        <time>2017-08-23T22:20:26.373000Z</time>
      </trkpt>
      <trkpt lat="41.68184513695694" lon="123.425714476149">
        <time>2017-08-23T22:20:29.258000Z</time>
      </trkpt>
      <trkpt lat="41.68185159102239" lon="123.4258708824622">
        <ele>43.73791253270931</ele>
        <time>2017-08-23T22:20:33.296000Z</time>
      </trkpt>
      <trkpt lat="41.68185745835461" lon="123.4260277078705">
        <time>2017-08-23T22:20:37.306000Z</time>
      </trkpt>
      <trkpt lat="41.68186294850118" lon="123.4261555318939">
        <time>2017-08-23T22:20:40.274000Z</time>
      </trkpt>
      <trkpt lat="41.68187070176162" lon="123.4263003711807">
        <ele>43.8743125366414</ele>
        <time>2017-08-23T22:20:44.273000Z</time>
      </trkpt>
      <trkpt lat="41.68187912557431" lon="123.4264560231226">
        <time>2017-08-23T22:20:48.238000Z</time>
      </trkpt>
      <trkpt lat="41.68186948638566" lon="123.4266030417042">
        <time>2017-08-23T22:20:51.278000Z</time>
      </trkpt>
      <trkpt lat="41.68187149804242" lon="123.4267510661142">
        <ele>44.01290474984398</ele>
        <time>2017-08-23T22:20:55.283000Z</time>
      </trkpt>
      <trkpt lat="41.68186152357764" lon="123.426906466599">
        <time>2017-08-23T22:20:59.255000Z</time>
      </trkpt>
      <trkpt lat="41.68185393795527" lon="123.4270409961449">
        <ele>44.1067610314927</ele>
        <time>2017-08-23T22:21:03.258000Z</time>
      </trkpt>
      <trkpt lat="41.68185699734993" lon="123.4271872603553">
        <time>2017-08-23T22:21:07.330000Z</time>
      </trkpt>
      <trkpt lat="41.68185293212689" lon="123.4273148329215">
        <time>2017-08-23T22:21:10.324000Z</time>
      </trkpt>
      <trkpt lat="41.68186617553391" lon="123.4274531343239">
        <ele>44.23301742303757</ele>
        <time>2017-08-23T22:21:14.334000Z</time>
      </trkpt>
      <trkpt lat="41.68187233623274" lon="123.4276122228461">
        <time>2017-08-23T22:21:18.285000Z</time>
      </trkpt>
      <trkpt lat="41.68188084386446" lon="123.4277421423452">
        <time>2017-08-23T22:21:21.232000Z</time>
      </trkpt>
      <trkpt lat="41.68188390325911" lon="123.4278886580127">
        <ele>44.3655531936793</ele>
        <time>2017-08-23T22:21:24.266000Z</time>
      </trkpt>
      <trkpt lat="41.68187082749017" lon="123.4280448966878">
        <time>2017-08-23T22:21:27.242000Z</time>
      </trkpt>
      <trkpt lat="41.68187032457597" lon="123.4281692003118">
        <time>2017-08-23T22:21:30.243000Z</time>
      </trkpt>
      <trkpt lat="41.68186315804876" lon="123.4283267800914">
        <ele>44.49775455951703</ele>
        <time>2017-08-23T22:21:34.369000Z</time>
      </trkpt>
      <trkpt lat="41.6818690672905" lon="123.4284602199899">
        <time>2017-08-23T22:21:37.248000Z</time>
      </trkpt>
      <trkpt lat="41.6818878427536" lon="123.4285901394891">
        <time>2017-08-23T22:21:40.247000Z</time>
      </trkpt>
      <trkpt lat="41.68189727239467" lon="123.428735230233">
        <ele>44.62865546222821</ele>
        <time>2017-08-23T22:21:43.242000Z</time>
      </trkpt>
      <trkpt lat="41.68190883942105" lon="123.4288798180627">
        <time>2017-08-23T22:21:46.263000Z</time>
      </trkpt>
      <trkpt lat="41.6818999965132" lon="123.429012755047">
        <time>2017-08-23T22:21:49.263000Z</time>
      </trkpt>
      <trkpt lat="41.68189111169584" lon="123.4291415848987">
        <time>2017-08-23T22:21:52.381000Z</time>
      </trkpt>
      <trkpt lat="41.68187388688482" lon="123.4292631224947">
        <ele>44.79964778532695</ele>
        <time>2017-08-23T22:21:55.269000Z</time>
      </trkpt>
      <trkpt lat="41.68185033373691" lon="123.4293943830984">
        <time>2017-08-23T22:21:59.262000Z</time>
      </trkpt>
      <trkpt lat="41.68183239646412" lon="123.4295455926316">
        <ele>44.87953337738742</ele>
        <time>2017-08-23T22:22:03.275000Z</time>
      </trkpt>
      <trkpt lat="41.68180842422105" lon="123.429686743881">
        <time>2017-08-23T22:22:07.256000Z</time>
      </trkpt>
      <trkpt lat="41.68180339507915" lon="123.4298429825561">
        <time>2017-08-23T22:22:11.271000Z</time>
      </trkpt>
      <trkpt lat="41.68179702483274" lon="123.4299862292813">
        <ele>45.01979761460987</ele>
        <time>2017-08-23T22:22:15.248000Z</time>
      </trkpt>
      <trkpt lat="41.68181592602439" lon="123.4301345051484">
        <time>2017-08-23T22:22:20.485000Z</time>
      </trkpt>
      <trkpt lat="41.68179958131321" lon="123.430278673883">
        <ele>45.11056994084417</ele>
        <time>2017-08-23T22:22:24.278000Z</time>
      </trkpt>
      <trkpt lat="41.68179237287648" lon="123.4304181487518">
        <time>2017-08-23T22:22:28.268000Z</time>
      </trkpt>
      <trkpt lat="41.6817860864491" lon="123.4305663407998">
        <time>2017-08-23T22:22:32.261000Z</time>
      </trkpt>
      <trkpt lat="41.68178738564409" lon="123.4307022952693">
        <ele>45.24462911114843</ele>
        <time>2017-08-23T22:22:35.256000Z</time>
      </trkpt>
      <trkpt lat="41.68179467789985" lon="123.4308307898449">
        <time>2017-08-23T22:22:39.452000Z</time>
      </trkpt>
      <trkpt lat="41.68180624492623" lon="123.4309521598028">
        <time>2017-08-23T22:22:42.447000Z</time>
      </trkpt>
      <trkpt lat="41.6818196559713" lon="123.4311124217915">
        <ele>45.36419740661383</ele>
        <time>2017-08-23T22:22:45.277000Z</time>
      </trkpt>
      <trkpt lat="41.68183717414893" lon="123.4312523995744">
        <time>2017-08-23T22:22:47.254000Z</time>
      </trkpt>
      <trkpt lat="41.68183717414893" lon="123.4312523995744">
        <time>2017-08-23T22:22:50.258000Z</time>
      </trkpt>
      <trkpt lat="41.68182887606479" lon="123.431917168315">
        <ele>45.45779359563723</ele>
        <time>2017-08-23T22:23:02.252000Z</time>
      </trkpt>
      <trkpt lat="41.68182703204609" lon="123.4320613370495">
        <ele>45.66315530136664</ele>
        <time>2017-08-23T22:23:05.296000Z</time>
      </trkpt>
      <trkpt lat="41.68181588411488" lon="123.432207852717">
        <time>2017-08-23T22:23:08.292000Z</time>
      </trkpt>
      <trkpt lat="41.68181810531922" lon="123.4323568829553">
        <time>2017-08-23T22:23:12.268000Z</time>
      </trkpt>
      <trkpt lat="41.68182439174659" lon="123.4325141274588">
        <ele>45.79918374440542</ele>
        <time>2017-08-23T22:23:17.348000Z</time>
      </trkpt>
      <trkpt lat="41.68181697376229" lon="123.4326609784024">
        <time>2017-08-23T22:23:21.452000Z</time>
      </trkpt>
      <trkpt lat="41.68182317637064" lon="123.4328222462194">
        <ele>45.89326296259012</ele>
        <time>2017-08-23T22:23:25.406000Z</time>
      </trkpt>
      <trkpt lat="41.68184270620502" lon="123.4329442029106">
        <time>2017-08-23T22:23:28.474000Z</time>
      </trkpt>
      <trkpt lat="41.68180821467347" lon="123.4330841806935">
        <time>2017-08-23T22:23:31.321000Z</time>
      </trkpt>
      <trkpt lat="41.68175301984109" lon="123.4332027846234">
        <ele>46.41717742583126</ele>
        <time>2017-08-23T22:23:33.360000Z</time>
      </trkpt>
      <trkpt lat="41.6816875152678" lon="123.4333917127209">
        <time>2017-08-23T22:23:36.256000Z</time>
      </trkpt>
      <trkpt lat="41.68170096822239" lon="123.4335343727129">
        <time>2017-08-23T22:23:42.275000Z</time>
      </trkpt>
      <trkpt lat="41.68171488218166" lon="123.4337060340898">
        <ele>46.76084624607313</ele>
        <time>2017-08-23T22:23:46.243000Z</time>
      </trkpt>
      <trkpt lat="41.68171488218166" lon="123.4337060340898">
        <time>2017-08-23T22:23:49.284000Z</time>
      </trkpt>
      <trkpt lat="41.68170930821605" lon="123.4343977087396">
        <ele>47.94309262278691</ele>
        <time>2017-08-23T22:24:04.235000Z</time>
      </trkpt>
      <trkpt lat="41.68171542700536" lon="123.4345327411996">
        <time>2017-08-23T22:24:08.240000Z</time>
      </trkpt>
      <trkpt lat="41.68173449583508" lon="123.4346872196751">
        <time>2017-08-23T22:24:12.390000Z</time>
      </trkpt>
      <trkpt lat="41.68174727823742" lon="123.4348134511369">
        <ele>50.60049665001775</ele>
        <time>2017-08-23T22:24:15.289000Z</time>
      </trkpt>
      <trkpt lat="41.68174937371321" lon="123.4349561949479">
        <time>2017-08-23T22:24:19.244000Z</time>
      </trkpt>
      <trkpt lat="41.68174610477097" lon="123.4350929037886">
        <time>2017-08-23T22:24:22.323000Z</time>
      </trkpt>
      <trkpt lat="41.68174794878967" lon="123.4352399223702">
        <ele>51.95361173357946</ele>
        <time>2017-08-23T22:24:25.270000Z</time>
      </trkpt>
      <trkpt lat="41.68177238203742" lon="123.4353596159475">
        <time>2017-08-23T22:24:28.231000Z</time>
      </trkpt>
      <trkpt lat="41.68182472702272" lon="123.4354948998647">
        <ele>51.54435870776557</ele>
        <time>2017-08-23T22:24:33.240000Z</time>
      </trkpt>
      <trkpt lat="41.68184442449517" lon="123.4356341232764">
        <time>2017-08-23T22:24:36.227000Z</time>
      </trkpt>
      <trkpt lat="41.68185913473524" lon="123.435786254819">
        <time>2017-08-23T22:24:39.261000Z</time>
      </trkpt>
      <trkpt lat="41.6818553209693" lon="123.43591860507">
        <time>2017-08-23T22:24:42.288000Z</time>
      </trkpt>
      <trkpt lat="41.68186026629217" lon="123.4360456747221">
        <ele>50.66881517273538</ele>
        <time>2017-08-23T22:24:46.397000Z</time>
      </trkpt>
      <trkpt lat="41.68183478530653" lon="123.4361903463709">
        <time>2017-08-23T22:24:51.226000Z</time>
      </trkpt>
      <trkpt lat="41.68182539757498" lon="123.4363264684784">
        <ele>50.25247787350526</ele>
        <time>2017-08-23T22:24:54.278000Z</time>
      </trkpt>
      <trkpt lat="41.68184249665745" lon="123.4364456591415">
        <time>2017-08-23T22:24:57.326000Z</time>
      </trkpt>
      <trkpt lat="41.68185594961204" lon="123.4365657718139">
        <time>2017-08-23T22:25:00.429000Z</time>
      </trkpt>
      <trkpt lat="41.68186064347781" lon="123.4367091023581">
        <ele>49.67955996697307</ele>
        <time>2017-08-23T22:25:04.428000Z</time>
      </trkpt>
      <trkpt lat="41.68186257131554" lon="123.4368639999287">
        <time>2017-08-23T22:25:09.247000Z</time>
      </trkpt>
      <trkpt lat="41.68187179140903" lon="123.4370194842326">
        <ele>49.22925448495235</ele>
        <time>2017-08-23T22:25:13.252000Z</time>
      </trkpt>
      <trkpt lat="41.68189702093758" lon="123.4371718672322">
        <time>2017-08-23T22:25:17.260000Z</time>
      </trkpt>
      <trkpt lat="41.68190883942105" lon="123.4373079893397">
        <time>2017-08-23T22:25:20.343000Z</time>
      </trkpt>
      <trkpt lat="41.68190850414492" lon="123.437432879697">
        <ele>48.55134401343106</ele>
        <time>2017-08-23T22:25:23.462000Z</time>
      </trkpt>
      <trkpt lat="41.68189425490953" lon="123.4375542496549">
        <time>2017-08-23T22:25:26.327000Z</time>
      </trkpt>
      <trkpt lat="41.68188105341203" lon="123.4377040342646">
        <time>2017-08-23T22:25:30.321000Z</time>
      </trkpt>
      <trkpt lat="41.68187996376462" lon="123.4378460237043">
        <ele>47.94972571716136</ele>
        <time>2017-08-23T22:25:33.280000Z</time>
      </trkpt>
      <trkpt lat="41.68187003120936" lon="123.437987761687">
        <time>2017-08-23T22:25:36.256000Z</time>
      </trkpt>
      <trkpt lat="41.68185121383674" lon="123.4381468502092">
        <time>2017-08-23T22:25:40.232000Z</time>
      </trkpt>
      <trkpt lat="41.68184731625177" lon="123.4382672981577">
        <ele>47.27726468672946</ele>
        <time>2017-08-23T22:25:43.414000Z</time>
      </trkpt>
      <trkpt lat="41.68185008227982" lon="123.4384229500996">
        <time>2017-08-23T22:25:47.375000Z</time>
      </trkpt>
      <trkpt lat="41.68185703925945" lon="123.4385468346285">
        <time>2017-08-23T22:25:50.246000Z</time>
      </trkpt>
      <trkpt lat="41.68186952829517" lon="123.4386783466893">
        <ele>46.24801412432586</ele>
        <time>2017-08-23T22:25:53.309000Z</time>
      </trkpt>
      <trkpt lat="41.6818640381486" lon="123.4388303105938">
        <time>2017-08-23T22:25:57.250000Z</time>
      </trkpt>
      <trkpt lat="41.68185754217364" lon="123.438952602561">
        <time>2017-08-23T22:26:01.273000Z</time>
      </trkpt>
      <trkpt lat="41.68185335122205" lon="123.4390883893924">
        <ele>45.39528633687608</ele>
        <time>2017-08-23T22:26:34.274000Z</time>
      </trkpt>
      <trkpt lat="41.68185838036396" lon="123.4392091726171">
        <time>2017-08-23T22:26:37.256000Z</time>
      </trkpt>
      <trkpt lat="41.68185674589284" lon="123.4393372480976">
        <time>2017-08-23T22:26:40.219000Z</time>
      </trkpt>
      <trkpt lat="41.68185289021738" lon="123.4394605458932">
        <ele>44.74027622967669</ele>
        <time>2017-08-23T22:26:43.252000Z</time>
      </trkpt>
      <trkpt lat="41.6818595538304" lon="123.439608067389">
        <time>2017-08-23T22:26:47.250000Z</time>
      </trkpt>
      <trkpt lat="41.68187057603307" lon="123.4397461173343">
        <time>2017-08-23T22:26:50.310000Z</time>
      </trkpt>
      <trkpt lat="41.68184153273858" lon="123.4398689960348">
        <ele>43.67006669119239</ele>
        <time>2017-08-23T22:26:53.362000Z</time>
      </trkpt>
      <trkpt lat="41.68182912752189" lon="123.4400297609376">
        <time>2017-08-23T22:26:57.247000Z</time>
      </trkpt>
      <trkpt lat="41.68182430792756" lon="123.4401546512949">
        <time>2017-08-23T22:27:00.250000Z</time>
      </trkpt>
      <trkpt lat="41.68182338591821" lon="123.4403080401229">
        <ele>43.51349921007636</ele>
        <time>2017-08-23T22:27:04.260000Z</time>
      </trkpt>
      <trkpt lat="41.6818318097309" lon="123.4404326790231">
        <time>2017-08-23T22:27:08.274000Z</time>
      </trkpt>
      <trkpt lat="41.68182611003675" lon="123.4405833018231">
        <time>2017-08-23T22:27:12.236000Z</time>
      </trkpt>
      <trkpt lat="41.68183122299768" lon="123.4407330864327">
        <ele>42.46340028693962</ele>
        <time>2017-08-23T22:27:16.277000Z</time>
      </trkpt>
      <trkpt lat="41.68182795405544" lon="123.4408904985743">
        <time>2017-08-23T22:27:20.240000Z</time>
      </trkpt>
      <trkpt lat="41.68181860823341" lon="123.4410499223726">
        <ele>41.36872003780104</ele>
        <time>2017-08-23T22:27:24.298000Z</time>
      </trkpt>
      <trkpt lat="41.68182166762806" lon="123.4411811829763">
        <time>2017-08-23T22:27:27.303000Z</time>
      </trkpt>
      <trkpt lat="41.6818278283269" lon="123.4413249326157">
        <time>2017-08-23T22:27:30.261000Z</time>
      </trkpt>
      <trkpt lat="41.68183625213958" lon="123.4414540977436">
        <ele>39.82212785542318</ele>
        <time>2017-08-23T22:27:33.283000Z</time>
      </trkpt>
      <trkpt lat="41.6818389343486" lon="123.441600613411">
        <time>2017-08-23T22:27:36.252000Z</time>
      </trkpt>
      <trkpt lat="41.68183336038299" lon="123.4417628870564">
        <time>2017-08-23T22:27:39.314000Z</time>
      </trkpt>
      <trkpt lat="41.68183235455461" lon="123.4418846761095">
        <time>2017-08-23T22:27:42.235000Z</time>
      </trkpt>
      <trkpt lat="41.68183700651087" lon="123.4420477879452">
        <ele>40.29827492994516</ele>
        <time>2017-08-23T22:27:46.401000Z</time>
      </trkpt>
      <trkpt lat="41.68183030098833" lon="123.4421792161869">
        <time>2017-08-23T22:27:49.436000Z</time>
      </trkpt>
      <trkpt lat="41.68182967234559" lon="123.4423362930524">
        <ele>40.54897551545685</ele>
        <time>2017-08-23T22:27:53.434000Z</time>
      </trkpt>
      <trkpt lat="41.68182707395561" lon="123.4424730018931">
        <time>2017-08-23T22:27:56.289000Z</time>
      </trkpt>
      <trkpt lat="41.68182024270453" lon="123.4426161647993">
        <time>2017-08-23T22:27:59.260000Z</time>
      </trkpt>
      <trkpt lat="41.68182129044242" lon="123.44275807042">
        <time>2017-08-23T22:28:02.249000Z</time>
      </trkpt>
      <trkpt lat="41.68180347889818" lon="123.4429023229735">
        <ele>41.04097030235823</ele>
        <time>2017-08-23T22:28:07.219000Z</time>
      </trkpt>
      <trkpt lat="41.68180452663608" lon="123.44304892246">
        <time>2017-08-23T22:28:10.268000Z</time>
      </trkpt>
      <trkpt lat="41.68181001678266" lon="123.443199461441">
        <ele>41.28972826506211</ele>
        <time>2017-08-23T22:28:13.230000Z</time>
      </trkpt>
      <trkpt lat="41.68180649638332" lon="123.4433467314797">
        <time>2017-08-23T22:28:16.236000Z</time>
      </trkpt>
      <trkpt lat="41.68180674784042" lon="123.4434735496747">
        <time>2017-08-23T22:28:19.250000Z</time>
      </trkpt>
      <trkpt lat="41.68180264070786" lon="123.4436289501595">
        <ele>41.65074937739561</ele>
        <time>2017-08-23T22:28:23.289000Z</time>
      </trkpt>
      <trkpt lat="41.68180414945044" lon="123.4437535890596">
        <time>2017-08-23T22:28:26.362000Z</time>
      </trkpt>
      <trkpt lat="41.68180574201204" lon="123.4438752942937">
        <time>2017-08-23T22:28:29.267000Z</time>
      </trkpt>
      <trkpt lat="41.68180930432089" lon="123.4440080636399">
        <time>2017-08-23T22:28:32.339000Z</time>
      </trkpt>
      <trkpt lat="41.68179555799968" lon="123.4441685770857">
        <ele>42.10501638450344</ele>
        <time>2017-08-23T22:28:36.364000Z</time>
      </trkpt>
      <trkpt lat="41.6817707475663" lon="123.4443087225067">
        <time>2017-08-23T22:28:40.252000Z</time>
      </trkpt>
      <trkpt lat="41.68174966707982" lon="123.4444308468359">
        <ele>42.36471438091441</ele>
        <time>2017-08-23T22:28:43.461000Z</time>
      </trkpt>
      <trkpt lat="41.68175901290186" lon="123.4445892648058">
        <time>2017-08-23T22:28:47.466000Z</time>
      </trkpt>
      <trkpt lat="41.68177695017464" lon="123.4447428212719">
        <time>2017-08-23T22:28:51.408000Z</time>
      </trkpt>
      <trkpt lat="41.68177204676129" lon="123.4448757582562">
        <ele>42.73841366315143</ele>
        <time>2017-08-23T22:28:54.290000Z</time>
      </trkpt>
      <trkpt lat="41.68176974173792" lon="123.445015065487">
        <time>2017-08-23T22:28:58.365000Z</time>
      </trkpt>
      <trkpt lat="41.68177753690787" lon="123.4451583122122">
        <time>2017-08-23T22:29:01.279000Z</time>
      </trkpt>
      <trkpt lat="41.6817636229486" lon="123.44529527251">
        <ele>43.09197101417077</ele>
        <time>2017-08-23T22:29:04.268000Z</time>
      </trkpt>
      <trkpt lat="41.68175880335428" lon="123.4454475716906">
        <time>2017-08-23T22:29:07.266000Z</time>
      </trkpt>
      <trkpt lat="41.68175972536363" lon="123.4455823526936">
        <time>2017-08-23T22:29:10.301000Z</time>
      </trkpt>
      <trkpt lat="41.68176743671454" lon="123.4457071592318">
        <ele>43.45350334303264</ele>
        <time>2017-08-23T22:29:13.274000Z</time>
      </trkpt>
      <trkpt lat="41.68177221439935" lon="123.4458351508933">
        <time>2017-08-23T22:29:16.292000Z</time>
      </trkpt>
      <trkpt lat="41.68176869400002" lon="123.4459787328946">
        <time>2017-08-23T22:29:19.286000Z</time>
      </trkpt>
      <trkpt lat="41.68175704315461" lon="123.4461355583029">
        <time>2017-08-23T22:29:22.293000Z</time>
      </trkpt>
      <trkpt lat="41.68174589522339" lon="123.446286264922">
        <ele>43.92484498218796</ele>
        <time>2017-08-23T22:29:25.262000Z</time>
      </trkpt>
      <trkpt lat="41.68176035400636" lon="123.4464099818128">
        <time>2017-08-23T22:29:28.248000Z</time>
      </trkpt>
      <trkpt lat="41.68178076394059" lon="123.4465564136612">
        <time>2017-08-23T22:29:32.270000Z</time>
      </trkpt>
      <trkpt lat="41.68180041950352" lon="123.4466884286361">
        <ele>44.28658179766118</ele>
        <time>2017-08-23T22:29:35.266000Z</time>
      </trkpt>
      <trkpt lat="41.68181693185277" lon="123.4468198568779">
        <time>2017-08-23T22:29:40.235000Z</time>
      </trkpt>
      <trkpt lat="41.68180825658299" lon="123.4469478485393">
        <ele>44.5142776393963</ele>
        <time>2017-08-23T22:29:46.235000Z</time>
      </trkpt>
      <trkpt lat="41.68181638702907" lon="123.4470831324565">
        <time>2017-08-23T22:29:52.252000Z</time>
      </trkpt>
      <trkpt lat="41.68181638702907" lon="123.4472065978902">
        <ele>44.73880393865553</ele>
        <time>2017-08-23T22:29:59.240000Z</time>
      </trkpt>
      <trkpt lat="41.68181563265778" lon="123.4473303986">
        <ele>44.84370557027665</ele>
        <time>2017-08-23T22:30:06.294000Z</time>
      </trkpt>
      <trkpt lat="41.68178407479234" lon="123.4474441410261">
        <ele>44.85945839247896</ele>
        <time>2017-08-23T22:30:16.244000Z</time>
      </trkpt>
      <trkpt lat="41.68178407479234" lon="123.4474441410261">
        <ele>46.04245829204691</ele>
        <time>2017-08-23T22:35:03.239000Z</time>
      </trkpt>
      <trkpt lat="41.68183248028316" lon="123.4472376109319">
        <time>2017-08-23T22:35:06.268000Z</time>
      </trkpt>
      <trkpt lat="41.68182611003675" lon="123.4470880777793">
        <time>2017-08-23T22:35:09.250000Z</time>
      </trkpt>
      <trkpt lat="41.68181617748149" lon="123.4469419812071">
        <time>2017-08-23T22:35:12.217000Z</time>
      </trkpt>
      <trkpt lat="41.68181680612422" lon="123.4467999079483">
        <ele>46.83521083270718</ele>
        <time>2017-08-23T22:35:15.243000Z</time>
      </trkpt>
      <trkpt lat="41.68180368844576" lon="123.446645764749">
        <time>2017-08-23T22:35:18.266000Z</time>
      </trkpt>
      <trkpt lat="41.68180364653625" lon="123.4464944713967">
        <time>2017-08-23T22:35:21.213000Z</time>
      </trkpt>
      <trkpt lat="41.68180720884509" lon="123.4463523143189">
        <ele>48.64316408658238</ele>
        <time>2017-08-23T22:35:24.248000Z</time>
      </trkpt>
      <trkpt lat="41.68181994933791" lon="123.4461923876064">
        <time>2017-08-23T22:35:28.220000Z</time>
      </trkpt>
      <trkpt lat="41.68181797959067" lon="123.4460373223978">
        <time>2017-08-23T22:35:31.282000Z</time>
      </trkpt>
      <trkpt lat="41.68182728350319" lon="123.4458907229113">
        <ele>48.85067029259234</ele>
        <time>2017-08-23T22:35:35.298000Z</time>
      </trkpt>
      <trkpt lat="41.68183516249217" lon="123.4457559419083">
        <time>2017-08-23T22:35:38.231000Z</time>
      </trkpt>
      <trkpt lat="41.68183436621137" lon="123.4456106835263">
        <time>2017-08-23T22:35:41.226000Z</time>
      </trkpt>
      <trkpt lat="41.68183264792122" lon="123.4454526008325">
        <ele>48.85192147639468</ele>
        <time>2017-08-23T22:35:44.317000Z</time>
      </trkpt>
      <trkpt lat="41.68182011697598" lon="123.4453126230495">
        <time>2017-08-23T22:35:47.248000Z</time>
      </trkpt>
      <trkpt lat="41.68181290853925" lon="123.4451759980278">
        <time>2017-08-23T22:35:50.266000Z</time>
      </trkpt>
      <trkpt lat="41.68180943004943" lon="123.4450286441701">
        <ele>48.85319766274414</ele>
        <time>2017-08-23T22:35:53.251000Z</time>
      </trkpt>
      <trkpt lat="41.68180377226479" lon="123.4448801168459">
        <time>2017-08-23T22:35:56.277000Z</time>
      </trkpt>
      <trkpt lat="41.6818053648264" lon="123.4447552264886">
        <time>2017-08-23T22:35:59.256000Z</time>
      </trkpt>
      <trkpt lat="41.68180817276396" lon="123.4446090460973">
        <time>2017-08-23T22:36:02.271000Z</time>
      </trkpt>
      <trkpt lat="41.68179974895127" lon="123.4444544838028">
        <ele>48.8548576910144</ele>
        <time>2017-08-23T22:36:05.238000Z</time>
      </trkpt>
      <trkpt lat="41.68179648000903" lon="123.4443034419077">
        <time>2017-08-23T22:36:08.261000Z</time>
      </trkpt>
      <trkpt lat="41.68179765347548" lon="123.4441710916566">
        <time>2017-08-23T22:36:11.270000Z</time>
      </trkpt>
      <trkpt lat="41.6818051133693" lon="123.4440357239204">
        <ele>48.85614092033489</ele>
        <time>2017-08-23T22:36:14.212000Z</time>
      </trkpt>
      <trkpt lat="41.68180482000269" lon="123.4438936506616">
        <time>2017-08-23T22:36:17.249000Z</time>
      </trkpt>
      <trkpt lat="41.68180435899801" lon="123.443765239905">
        <time>2017-08-23T22:36:20.414000Z</time>
      </trkpt>
      <trkpt lat="41.68181098070152" lon="123.4436189756947">
        <ele>48.85732977384367</ele>
        <time>2017-08-23T22:36:23.278000Z</time>
      </trkpt>
      <trkpt lat="41.68181684803374" lon="123.4434714541989">
        <time>2017-08-23T22:36:26.256000Z</time>
      </trkpt>
      <trkpt lat="41.68181211225845" lon="123.4433125333148">
        <time>2017-08-23T22:36:29.218000Z</time>
      </trkpt>
      <trkpt lat="41.6818061611072" lon="123.4431535286116">
        <time>2017-08-23T22:36:32.218000Z</time>
      </trkpt>
      <trkpt lat="41.68181416582473" lon="123.4430310690063">
        <ele>48.8591225621177</ele>
        <time>2017-08-23T22:36:35.236000Z</time>
      </trkpt>
      <trkpt lat="41.68182158380903" lon="123.4428995569455">
        <time>2017-08-23T22:36:38.445000Z</time>
      </trkpt>
      <trkpt lat="41.68183621023007" lon="123.4427694698083">
        <time>2017-08-23T22:36:41.245000Z</time>
      </trkpt>
      <trkpt lat="41.68182707395561" lon="123.4426099621909">
        <ele>48.86025295896699</ele>
        <time>2017-08-23T22:36:45.328000Z</time>
      </trkpt>
      <trkpt lat="41.68180871758766" lon="123.4424637817996">
        <time>2017-08-23T22:36:49.226000Z</time>
      </trkpt>
      <trkpt lat="41.68180507145978" lon="123.4423162603038">
        <ele>48.86115516355511</ele>
        <time>2017-08-23T22:36:53.410000Z</time>
      </trkpt>
      <trkpt lat="41.68179346252389" lon="123.4421781265395">
        <time>2017-08-23T22:36:57.246000Z</time>
      </trkpt>
      <trkpt lat="41.6818006290511" lon="123.4420568404006">
        <time>2017-08-23T22:37:01.242000Z</time>
      </trkpt>
      <trkpt lat="41.68181416582473" lon="123.441915102418">
        <ele>48.86235000358926</ele>
        <time>2017-08-23T22:37:05.275000Z</time>
      </trkpt>
      <trkpt lat="41.68182669676997" lon="123.4417586961048">
        <time>2017-08-23T22:37:09.229000Z</time>
      </trkpt>
      <trkpt lat="41.68184069454826" lon="123.4416262620347">
        <time>2017-08-23T22:37:12.210000Z</time>
      </trkpt>
      <trkpt lat="41.68184840589918" lon="123.4414867871659">
        <ele>48.86362020341336</ele>
        <time>2017-08-23T22:37:15.243000Z</time>
      </trkpt>
      <trkpt lat="41.68184769343741" lon="123.4413446300881">
        <time>2017-08-23T22:37:18.356000Z</time>
      </trkpt>
      <trkpt lat="41.68184014972456" lon="123.4412056581336">
        <time>2017-08-23T22:37:21.238000Z</time>
      </trkpt>
      <trkpt lat="41.68184425685711" lon="123.4410512634771">
        <ele>48.86485307549103</ele>
        <time>2017-08-23T22:37:25.390000Z</time>
      </trkpt>
      <trkpt lat="41.68184509504743" lon="123.4409211763399">
        <time>2017-08-23T22:37:28.449000Z</time>
      </trkpt>
      <trkpt lat="41.68184991464175" lon="123.4407890775459">
        <time>2017-08-23T22:37:31.318000Z</time>
      </trkpt>
      <trkpt lat="41.68185825463541" lon="123.4406503570484">
        <ele>48.86607291807231</ele>
        <time>2017-08-23T22:37:34.420000Z</time>
      </trkpt>
      <trkpt lat="41.6818645829723" lon="123.4405149054932">
        <time>2017-08-23T22:37:37.396000Z</time>
      </trkpt>
      <trkpt lat="41.68187137231387" lon="123.4403855727272">
        <time>2017-08-23T22:37:40.320000Z</time>
      </trkpt>
      <trkpt lat="41.68186500206746" lon="123.4402627778458">
        <ele>48.86725684150137</ele>
        <time>2017-08-23T22:37:43.419000Z</time>
      </trkpt>
      <trkpt lat="41.68185582388349" lon="123.4401171841877">
        <time>2017-08-23T22:37:46.431000Z</time>
      </trkpt>
      <trkpt lat="41.68187124658532" lon="123.4399640468167">
        <time>2017-08-23T22:37:49.316000Z</time>
      </trkpt>
      <trkpt lat="41.68188935149617" lon="123.4398310260134">
        <time>2017-08-23T22:37:52.379000Z</time>
      </trkpt>
      <trkpt lat="41.68189299762405" lon="123.4397037887233">
        <ele>48.86889257152158</ele>
        <time>2017-08-23T22:37:55.220000Z</time>
      </trkpt>
      <trkpt lat="41.68189408727147" lon="123.4395679180729">
        <time>2017-08-23T22:37:58.187000Z</time>
      </trkpt>
      <trkpt lat="41.68188771702506" lon="123.4394201451199">
        <time>2017-08-23T22:38:01.240000Z</time>
      </trkpt>
      <trkpt lat="41.68187174949951" lon="123.4392613918739">
        <ele>48.87009586312097</ele>
        <time>2017-08-23T22:38:04.240000Z</time>
      </trkpt>
      <trkpt lat="41.68185879945911" lon="123.439111020531">
        <time>2017-08-23T22:38:07.257000Z</time>
      </trkpt>
      <trkpt lat="41.68185519524075" lon="123.4389674385296">
        <time>2017-08-23T22:38:10.280000Z</time>
      </trkpt>
      <trkpt lat="41.68187183331855" lon="123.4388325737076">
        <ele>48.87142804109007</ele>
        <time>2017-08-23T22:38:13.254000Z</time>
      </trkpt>
      <trkpt lat="41.6818846576304" lon="123.4387090244549">
        <time>2017-08-23T22:38:16.254000Z</time>
      </trkpt>
      <trkpt lat="41.68186340950586" lon="123.4385665321009">
        <time>2017-08-23T22:38:19.808000Z</time>
      </trkpt>
      <trkpt lat="41.68187045030452" lon="123.4384114668923">
        <ele>48.8726186553416</ele>
        <time>2017-08-23T22:38:23.289000Z</time>
      </trkpt>
      <trkpt lat="41.68187891602673" lon="123.4382698965477">
        <time>2017-08-23T22:38:26.392000Z</time>
      </trkpt>
      <trkpt lat="41.68187468316562" lon="123.4381296673076">
        <time>2017-08-23T22:38:29.358000Z</time>
      </trkpt>
      <trkpt lat="41.68186772618599" lon="123.4379915335434">
        <time>2017-08-23T22:38:32.464000Z</time>
      </trkpt>
      <trkpt lat="41.68186353523441" lon="123.4378517233985">
        <ele>48.87430474260464</ele>
        <time>2017-08-23T22:38:35.329000Z</time>
      </trkpt>
      <trkpt lat="41.68186424769618" lon="123.4376943112569">
        <time>2017-08-23T22:38:38.322000Z</time>
      </trkpt>
      <trkpt lat="41.68188503481604" lon="123.4375721869277">
        <time>2017-08-23T22:38:41.319000Z</time>
      </trkpt>
      <trkpt lat="41.68189924214192" lon="123.4374467098372">
        <ele>48.87554148831637</ele>
        <time>2017-08-23T22:38:44.209000Z</time>
      </trkpt>
      <trkpt lat="41.68189144697197" lon="123.4373009485411">
        <time>2017-08-23T22:38:47.238000Z</time>
      </trkpt>
      <trkpt lat="41.68187288105644" lon="123.4371461347895">
        <time>2017-08-23T22:38:50.354000Z</time>
      </trkpt>
      <trkpt lat="41.68186156548716" lon="123.4370025527882">
        <ele>48.87679936294118</ele>
        <time>2017-08-23T22:38:54.208000Z</time>
      </trkpt>
      <trkpt lat="41.68184614278533" lon="123.4368743096696">
        <time>2017-08-23T22:38:58.229000Z</time>
      </trkpt>
      <trkpt lat="41.68182066179968" lon="123.4367321525919">
        <time>2017-08-23T22:39:02.415000Z</time>
      </trkpt>
      <trkpt lat="41.68182367928483" lon="123.436587145667">
        <ele>48.878029769979</ele>
        <time>2017-08-23T22:39:05.312000Z</time>
      </trkpt>
      <trkpt lat="41.68183616832055" lon="123.4364455753224">
        <time>2017-08-23T22:39:08.194000Z</time>
      </trkpt>
      <trkpt lat="41.68183394711621" lon="123.4363158234613">
        <time>2017-08-23T22:39:11.205000Z</time>
      </trkpt>
      <trkpt lat="41.68182497847982" lon="123.4361731634693">
        <ele>48.87925172545159</ele>
        <time>2017-08-23T22:39:14.237000Z</time>
      </trkpt>
      <trkpt lat="41.68183931153424" lon="123.4360292461919">
        <time>2017-08-23T22:39:17.254000Z</time>
      </trkpt>
      <trkpt lat="41.68182854078866" lon="123.4358565789866">
        <time>2017-08-23T22:39:20.254000Z</time>
      </trkpt>
      <trkpt lat="41.68180980723508" lon="123.4357048665392">
        <ele>48.88060291944246</ele>
        <time>2017-08-23T22:39:23.229000Z</time>
      </trkpt>
      <trkpt lat="41.68182787023641" lon="123.4355746955829">
        <time>2017-08-23T22:39:26.231000Z</time>
      </trkpt>
      <trkpt lat="41.68185343504108" lon="123.4354443569886">
        <time>2017-08-23T22:39:29.244000Z</time>
      </trkpt>
      <trkpt lat="41.68186127212055" lon="123.4352911357986">
        <time>2017-08-23T22:39:32.232000Z</time>
      </trkpt>
      <trkpt lat="41.68185674589284" lon="123.4351597075569">
        <ele>48.88228407662578</ele>
        <time>2017-08-23T22:39:35.332000Z</time>
      </trkpt>
      <trkpt lat="41.6818606015683" lon="123.4350270220297">
        <time>2017-08-23T22:39:38.366000Z</time>
      </trkpt>
      <trkpt lat="41.68187531180836" lon="123.4348646645652">
        <time>2017-08-23T22:39:41.230000Z</time>
      </trkpt>
      <trkpt lat="41.68187229432322" lon="123.4347386845606">
        <ele>49.00872505109413</ele>
        <time>2017-08-23T22:39:44.243000Z</time>
      </trkpt>
      <trkpt lat="41.6818682710097" lon="123.4345790093052">
        <time>2017-08-23T22:39:47.225000Z</time>
      </trkpt>
      <trkpt lat="41.68186781000502" lon="123.4344164003836">
        <time>2017-08-23T22:39:50.270000Z</time>
      </trkpt>
      <trkpt lat="41.68187744919367" lon="123.4342494328724">
        <ele>49.53470659520489</ele>
        <time>2017-08-23T22:39:53.238000Z</time>
      </trkpt>
      <trkpt lat="41.68187418025143" lon="123.4341110476511">
        <time>2017-08-23T22:39:56.226000Z</time>
      </trkpt>
      <trkpt lat="41.68186781000502" lon="123.433949528377">
        <time>2017-08-23T22:39:59.427000Z</time>
      </trkpt>
      <trkpt lat="41.68186391242005" lon="123.4337865003603">
        <time>2017-08-23T22:40:02.379000Z</time>
      </trkpt>
      <trkpt lat="41.68185750026412" lon="123.4336502944337">
        <ele>49.67841077658106</ele>
        <time>2017-08-23T22:40:05.325000Z</time>
      </trkpt>
      <trkpt lat="41.68186030820168" lon="123.4335249849813">
        <time>2017-08-23T22:40:08.307000Z</time>
      </trkpt>
      <trkpt lat="41.68186123021103" lon="123.4333833308177">
        <time>2017-08-23T22:40:11.243000Z</time>
      </trkpt>
      <trkpt lat="41.68186521161504" lon="123.4332356416839">
        <ele>49.67882136407685</ele>
        <time>2017-08-23T22:40:14.213000Z</time>
      </trkpt>
      <trkpt lat="41.68186613362439" lon="123.433098513748">
        <time>2017-08-23T22:40:17.257000Z</time>
      </trkpt>
      <trkpt lat="41.68186630126245" lon="123.4329509922521">
        <time>2017-08-23T22:40:20.240000Z</time>
      </trkpt>
      <trkpt lat="41.68185024991788" lon="123.4327861202168">
        <ele>49.67926146293158</ele>
        <time>2017-08-23T22:40:23.229000Z</time>
      </trkpt>
      <trkpt lat="41.68183105535962" lon="123.4326443822341">
        <time>2017-08-23T22:40:26.224000Z</time>
      </trkpt>
      <trkpt lat="41.68182217054225" lon="123.4325202462482">
        <time>2017-08-23T22:40:29.233000Z</time>
      </trkpt>
      <trkpt lat="41.68182120662339" lon="123.4323847108739">
        <time>2017-08-23T22:40:32.309000Z</time>
      </trkpt>
      <trkpt lat="41.68182196099468" lon="123.4322595690595">
        <ele>49.67984201626221</ele>
        <time>2017-08-23T22:40:35.232000Z</time>
      </trkpt>
      <trkpt lat="41.68184283193357" lon="123.4321411327677">
        <time>2017-08-23T22:40:38.232000Z</time>
      </trkpt>
      <trkpt lat="41.68186014056362" lon="123.4319900908726">
        <time>2017-08-23T22:40:41.263000Z</time>
      </trkpt>
      <trkpt lat="41.6818796284885" lon="123.4318481852519">
        <ele>49.68024868523731</ele>
        <time>2017-08-23T22:40:45.295000Z</time>
      </trkpt>
      <trkpt lat="41.68188113723107" lon="123.4317248874562">
        <time>2017-08-23T22:40:49.412000Z</time>
      </trkpt>
      <trkpt lat="41.68188164014526" lon="123.4315904417293">
        <ele>49.6805210224251</ele>
        <time>2017-08-23T22:40:54.280000Z</time>
      </trkpt>
      <trkpt lat="41.68188616637297" lon="123.4314236418562">
        <time>2017-08-23T22:40:58.397000Z</time>
      </trkpt>
      <trkpt lat="41.68188486717798" lon="123.4312854242729">
        <time>2017-08-23T22:41:01.330000Z</time>
      </trkpt>
      <trkpt lat="41.6818783292935" lon="123.4311346338349">
        <ele>49.68096834605235</ele>
        <time>2017-08-23T22:41:04.292000Z</time>
      </trkpt>
      <trkpt lat="41.68187598236062" lon="123.4309747909414">
        <time>2017-08-23T22:41:07.398000Z</time>
      </trkpt>
      <trkpt lat="41.68187715582706" lon="123.4308147804098">
        <time>2017-08-23T22:41:10.422000Z</time>
      </trkpt>
      <trkpt lat="41.68187719773658" lon="123.4306240082937">
        <ele>49.68144763011394</ele>
        <time>2017-08-23T22:41:13.235000Z</time>
      </trkpt>
      <trkpt lat="41.68186965402372" lon="123.4304746427791">
        <time>2017-08-23T22:41:17.237000Z</time>
      </trkpt>
      <trkpt lat="41.68187267150886" lon="123.4303512611645">
        <time>2017-08-23T22:41:20.255000Z</time>
      </trkpt>
      <trkpt lat="41.68187631763674" lon="123.4302136303144">
        <ele>49.68191981185681</ele>
        <time>2017-08-23T22:41:23.244000Z</time>
      </trkpt>
      <trkpt lat="41.68188457381137" lon="123.4300780111211">
        <time>2017-08-23T22:41:26.283000Z</time>
      </trkpt>
      <trkpt lat="41.68188654355861" lon="123.4299534560399">
        <time>2017-08-23T22:41:29.230000Z</time>
      </trkpt>
      <trkpt lat="41.68188327461637" lon="123.4298068565535">
        <time>2017-08-23T22:41:32.326000Z</time>
      </trkpt>
      <trkpt lat="41.68188231069751" lon="123.4296597541528">
        <ele>49.68247452744164</ele>
        <time>2017-08-23T22:41:35.201000Z</time>
      </trkpt>
      <trkpt lat="41.68188394516863" lon="123.4295382165568">
        <time>2017-08-23T22:41:38.375000Z</time>
      </trkpt>
      <trkpt lat="41.68188432235427" lon="123.4293999151545">
        <time>2017-08-23T22:41:41.323000Z</time>
      </trkpt>
      <trkpt lat="41.68187589854158" lon="123.4292525612967">
        <ele>49.68288866609682</ele>
        <time>2017-08-23T22:41:45.253000Z</time>
      </trkpt>
      <trkpt lat="41.68187116276629" lon="123.429123731445">
        <time>2017-08-23T22:41:48.224000Z</time>
      </trkpt>
      <trkpt lat="41.68186596598633" lon="123.4289775510537">
        <time>2017-08-23T22:41:51.234000Z</time>
      </trkpt>
      <trkpt lat="41.68186328377731" lon="123.4288315383004">
        <ele>49.68331921355737</ele>
        <time>2017-08-23T22:41:54.243000Z</time>
      </trkpt>
      <trkpt lat="41.6818690672905" lon="123.4286799934911">
        <time>2017-08-23T22:41:57.221000Z</time>
      </trkpt>
      <trkpt lat="41.68185959573992" lon="123.4285514150964">
        <time>2017-08-23T22:42:00.234000Z</time>
      </trkpt>
      <trkpt lat="41.6818526806698" lon="123.4284058214383">
        <ele>49.68375380199237</ele>
        <time>2017-08-23T22:42:03.233000Z</time>
      </trkpt>
      <trkpt lat="41.68184597514726" lon="123.4282479902016">
        <time>2017-08-23T22:42:06.283000Z</time>
      </trkpt>
      <trkpt lat="41.68184341866679" lon="123.4281160590457">
        <time>2017-08-23T22:42:09.246000Z</time>
      </trkpt>
      <trkpt lat="41.68183696460135" lon="123.4279859719085">
        <time>2017-08-23T22:42:12.242000Z</time>
      </trkpt>
      <trkpt lat="41.6818381380678" lon="123.4278459103065">
        <ele>49.684330069441</ele>
        <time>2017-08-23T22:42:15.242000Z</time>
      </trkpt>
      <trkpt lat="41.68184165846713" lon="123.4277004004674">
        <time>2017-08-23T22:42:18.260000Z</time>
      </trkpt>
      <trkpt lat="41.6818497889132" lon="123.4275450838017">
        <time>2017-08-23T22:42:22.281000Z</time>
      </trkpt>
      <trkpt lat="41.68185527905978" lon="123.4273857438224">
        <ele>49.68477922987481</ele>
        <time>2017-08-23T22:42:26.238000Z</time>
      </trkpt>
      <trkpt lat="41.68184823826112" lon="123.4272413236307">
        <time>2017-08-23T22:42:30.227000Z</time>
      </trkpt>
      <trkpt lat="41.6818368388728" lon="123.4270986636387">
        <ele>49.6850889154629</ele>
        <time>2017-08-23T22:42:34.244000Z</time>
      </trkpt>
      <trkpt lat="41.68183914389618" lon="123.4269541596281">
        <time>2017-08-23T22:42:37.220000Z</time>
      </trkpt>
      <trkpt lat="41.68184945363708" lon="123.4267975856768">
        <time>2017-08-23T22:42:40.223000Z</time>
      </trkpt>
      <trkpt lat="41.68185498569317" lon="123.4266550095039">
        <ele>49.68554187196364</ele>
        <time>2017-08-23T22:42:43.257000Z</time>
      </trkpt>
      <trkpt lat="41.68185733262606" lon="123.4265177139299">
        <time>2017-08-23T22:42:46.205000Z</time>
      </trkpt>
      <trkpt lat="41.68185624297865" lon="123.4263758921283">
        <time>2017-08-23T22:42:49.246000Z</time>
      </trkpt>
      <trkpt lat="41.6818606015683" lon="123.4262505826758">
        <time>2017-08-23T22:42:52.263000Z</time>
      </trkpt>
      <trkpt lat="41.68185842227347" lon="123.4261045699226">
        <ele>49.68609879171636</ele>
        <time>2017-08-23T22:42:55.278000Z</time>
      </trkpt>
      <trkpt lat="41.68186009865411" lon="123.4259484150665">
        <time>2017-08-23T22:42:58.317000Z</time>
      </trkpt>
      <trkpt lat="41.68185892518766" lon="123.4257810284602">
        <time>2017-08-23T22:43:01.241000Z</time>
      </trkpt>
      <trkpt lat="41.68185963764943" lon="123.4256294836508">
        <ele>49.68657672878648</ele>
        <time>2017-08-23T22:43:04.232000Z</time>
      </trkpt>
      <trkpt lat="41.68187078558065" lon="123.425489841144">
        <time>2017-08-23T22:43:08.346000Z</time>
      </trkpt>
      <trkpt lat="41.68188088577397" lon="123.4253531323033">
        <time>2017-08-23T22:43:11.212000Z</time>
      </trkpt>
      <trkpt lat="41.68188260406412" lon="123.4252186027574">
        <ele>49.68701364384314</ele>
        <time>2017-08-23T22:43:14.220000Z</time>
      </trkpt>
      <trkpt lat="41.68188390325911" lon="123.4250632860916">
        <time>2017-08-23T22:43:17.228000Z</time>
      </trkpt>
      <trkpt lat="41.68188939340569" lon="123.4249009286272">
        <time>2017-08-23T22:43:21.268000Z</time>
      </trkpt>
      <trkpt lat="41.68188951913424" lon="123.4247362242298">
        <ele>49.68747407002394</ele>
        <time>2017-08-23T22:43:24.271000Z</time>
      </trkpt>
      <trkpt lat="41.6818907345102" lon="123.4245919716763">
        <time>2017-08-23T22:43:27.264000Z</time>
      </trkpt>
      <trkpt lat="41.68188868094392" lon="123.424438079934">
        <time>2017-08-23T22:43:30.272000Z</time>
      </trkpt>
      <trkpt lat="41.68188645973958" lon="123.4243027121978">
        <ele>49.68794514968285</ele>
        <time>2017-08-23T22:43:33.252000Z</time>
      </trkpt>
      <trkpt lat="41.68188553773023" lon="123.4241747205364">
        <time>2017-08-23T22:43:36.426000Z</time>
      </trkpt>
      <trkpt lat="41.68188331652589" lon="123.4240538534926">
        <time>2017-08-23T22:43:39.390000Z</time>
      </trkpt>
      <trkpt lat="41.68188482526846" lon="123.4239303042399">
        <time>2017-08-23T22:43:42.234000Z</time>
      </trkpt>
      <trkpt lat="41.68189299762405" lon="123.4238076769965">
        <ele>49.6884620270523</ele>
        <time>2017-08-23T22:43:45.282000Z</time>
      </trkpt>
      <trkpt lat="41.68191877197631" lon="123.4236694594132">
        <time>2017-08-23T22:43:49.499000Z</time>
      </trkpt>
      <trkpt lat="41.68192778252222" lon="123.4235377797144">
        <time>2017-08-23T22:43:52.224000Z</time>
      </trkpt>
      <trkpt lat="41.68193432040669" lon="123.4233776015448">
        <ele>49.68886685922084</ele>
        <time>2017-08-23T22:43:55.264000Z</time>
      </trkpt>
      <trkpt lat="41.68193553578265" lon="123.4232520406352">
        <time>2017-08-23T22:43:58.307000Z</time>
      </trkpt>
      <trkpt lat="41.68194785718031" lon="123.4231168405371">
        <time>2017-08-23T22:44:02.302000Z</time>
      </trkpt>
      <trkpt lat="41.68194626461871" lon="123.4229615238713">
        <ele>49.68929642705122</ele>
        <time>2017-08-23T22:44:05.236000Z</time>
      </trkpt>
      <trkpt lat="41.68192124463774" lon="123.4228000884162">
        <time>2017-08-23T22:44:08.219000Z</time>
      </trkpt>
      <trkpt lat="41.68192480694659" lon="123.4226596077191">
        <time>2017-08-23T22:44:11.273000Z</time>
      </trkpt>
      <trkpt lat="41.68196390852489" lon="123.4225141816991">
        <ele>49.68976530254224</ele>
        <time>2017-08-23T22:44:14.280000Z</time>
      </trkpt>
      <trkpt lat="41.68198046278365" lon="123.4223865253138">
        <time>2017-08-23T22:44:17.253000Z</time>
      </trkpt>
      <trkpt lat="41.6819840250925" lon="123.422207571681">
        <time>2017-08-23T22:44:20.220000Z</time>
      </trkpt>
      <trkpt lat="41.68198406700201" lon="123.4220585414427">
        <ele>49.69023674956247</ele>
        <time>2017-08-23T22:44:24.229000Z</time>
      </trkpt>
      <trkpt lat="41.68199609503306" lon="123.4219064937191">
        <time>2017-08-23T22:44:27.257000Z</time>
      </trkpt>
      <trkpt lat="41.68201910335727" lon="123.4217526857959">
        <time>2017-08-23T22:44:30.252000Z</time>
      </trkpt>
      <trkpt lat="41.68202681470819" lon="123.4216194135355">
        <ele>49.69070378824692</ele>
        <time>2017-08-23T22:44:33.280000Z</time>
      </trkpt>
      <trkpt lat="41.68204408142872" lon="123.42147273023">
        <time>2017-08-23T22:44:37.225000Z</time>
      </trkpt>
      <trkpt lat="41.68205204423673" lon="123.4213332553612">
        <time>2017-08-23T22:44:41.239000Z</time>
      </trkpt>
      <trkpt lat="41.68205866594024" lon="123.4211495240437">
        <ele>50.04234931155834</ele>
        <time>2017-08-23T22:44:44.267000Z</time>
      </trkpt>
      <trkpt lat="41.68206428181536" lon="123.4210067802327">
        <time>2017-08-23T22:44:47.360000Z</time>
      </trkpt>
      <trkpt lat="41.68206977196194" lon="123.4208800458567">
        <time>2017-08-23T22:44:50.390000Z</time>
      </trkpt>
      <trkpt lat="41.68207756713189" lon="123.4206997511195">
        <ele>50.64913115676457</ele>
        <time>2017-08-23T22:44:53.225000Z</time>
      </trkpt>
      <trkpt lat="41.68208435647346" lon="123.4205782135235">
        <time>2017-08-23T22:44:55.242000Z</time>
      </trkpt>
      <trkpt lat="41.68209470812388" lon="123.4204357211696">
        <time>2017-08-23T22:44:58.213000Z</time>
      </trkpt>
      <trkpt lat="41.68210669424541" lon="123.4202717711436">
        <time>2017-08-23T22:45:01.208000Z</time>
      </trkpt>
      <trkpt lat="41.68212404478498" lon="123.4201482218908">
        <ele>52.01617421988614</ele>
        <time>2017-08-23T22:45:04.250000Z</time>
      </trkpt>
      <trkpt lat="41.6821462987379" lon="123.4200046398895">
        <time>2017-08-23T22:45:07.224000Z</time>
      </trkpt>
      <trkpt lat="41.68213791683473" lon="123.4198618122595">
        <time>2017-08-23T22:45:11.272000Z</time>
      </trkpt>
      <trkpt lat="41.68212458960868" lon="123.4197342396932">
        <ele>52.906983273347</ele>
        <time>2017-08-23T22:45:14.270000Z</time>
      </trkpt>
      <trkpt lat="41.68214135341503" lon="123.4196028114515">
        <time>2017-08-23T22:45:18.234000Z</time>
      </trkpt>
      <trkpt lat="41.68215836867846" lon="123.4194163141059">
        <time>2017-08-23T22:45:22.275000Z</time>
      </trkpt>
      <trkpt lat="41.68216913942404" lon="123.4192604945259">
        <ele>52.91103329206964</ele>
        <time>2017-08-23T22:45:25.416000Z</time>
      </trkpt>
      <trkpt lat="41.68218053881235" lon="123.4191064351456">
        <time>2017-08-23T22:45:28.233000Z</time>
      </trkpt>
      <trkpt lat="41.68218841780133" lon="123.4189603385734">
        <time>2017-08-23T22:45:31.208000Z</time>
      </trkpt>
      <trkpt lat="41.68218862734891" lon="123.4187913594054">
        <ele>52.9151536988182</ele>
        <time>2017-08-23T22:45:35.217000Z</time>
      </trkpt>
      <trkpt lat="41.6821928183005" lon="123.4186329414355">
        <time>2017-08-23T22:45:38.238000Z</time>
      </trkpt>
      <trkpt lat="41.6821970511616" lon="123.4184850008445">
        <time>2017-08-23T22:45:41.214000Z</time>
      </trkpt>
      <trkpt lat="41.68220174502738" lon="123.4183617868679">
        <ele>52.91943220790193</ele>
        <time>2017-08-23T22:45:45.255000Z</time>
      </trkpt>
      <trkpt lat="41.68222169395693" lon="123.4182074760305">
        <time>2017-08-23T22:45:50.303000Z</time>
      </trkpt>
      <trkpt lat="41.68223200369783" lon="123.4180814960258">
        <time>2017-08-23T22:45:52.397000Z</time>
      </trkpt>
      <trkpt lat="41.68223380580701" lon="123.4179513250696">
        <ele>52.92309130235749</ele>
        <time>2017-08-23T22:45:54.381000Z</time>
      </trkpt>
      <trkpt lat="41.6822422296197" lon="123.4177919012712">
        <time>2017-08-23T22:45:57.440000Z</time>
      </trkpt>
      <trkpt lat="41.68225295845576" lon="123.4176346567677">
        <time>2017-08-23T22:46:01.359000Z</time>
      </trkpt>
      <trkpt lat="41.68226276528247" lon="123.4174840339678">
        <ele>52.93095965635467</ele>
        <time>2017-08-23T22:46:05.410000Z</time>
      </trkpt>
      <trkpt lat="41.68227336838998" lon="123.4173518513547">
        <time>2017-08-23T22:46:08.263000Z</time>
      </trkpt>
      <trkpt lat="41.6822816245646" lon="123.4172222671317">
        <time>2017-08-23T22:46:11.293000Z</time>
      </trkpt>
      <trkpt lat="41.68228707280166" lon="123.4170815349775">
        <ele>52.93095965635467</ele>
        <time>2017-08-23T22:46:14.241000Z</time>
      </trkpt>
      <trkpt lat="41.68229830455191" lon="123.4169474245267">
        <time>2017-08-23T22:46:17.256000Z</time>
      </trkpt>
      <trkpt lat="41.68231008112587" lon="123.4168127273427">
        <time>2017-08-23T22:46:20.230000Z</time>
      </trkpt>
      <trkpt lat="41.68231791820534" lon="123.4166279063778">
        <ele>48.84587798433871</ele>
        <time>2017-08-23T22:46:28.574000Z</time>
      </trkpt>
      <trkpt lat="41.6823188821242" lon="123.4166090470957">
        <time>2017-08-23T22:46:29.232000Z</time>
      </trkpt>
    </trkseg>
  </trk>
</gpx>