<?xml version="1.0" encoding="UTF-8"?>
<gpx xmlns="http://www.topografix.com/GPX/1/1" xmlns:gpxtpx="http://www.garmin.com/xmlschemas/TrackPointExtension/v1" xmlns:xsi="http://www.w3.org/2001/XMLSchema-instance" xsi:schemaLocation="http://www.topografix.com/GPX/1/1 http://www.topografix.com/GPX/1/1/gpx.xsd" version="1.1" creator="gpx.py -- https://github.com/tkrajina/gpxpy">
  <trk>
    <name>星期二  上午跑</name>
    <trkseg>
      <trkpt lat="41.68397929523297" lon="123.4154484887825">
        <time>2017-08-21T22:08:21.293000Z</time>
      </trkpt>
      <trkpt lat="41.68388428636052" lon="123.4154802561956">
        <time>2017-08-21T22:08:26.237000Z</time>
      </trkpt>
      <trkpt lat="41.68378102131344" lon="123.4154855367946">
        <ele>46.91739866712179</ele>
        <time>2017-08-21T22:08:33.229000Z</time>
      </trkpt>
      <trkpt lat="41.68368898801662" lon="123.4154856206136">
        <ele>46.94908338532712</ele>
        <time>2017-08-21T22:08:38.226000Z</time>
      </trkpt>
      <trkpt lat="41.68358442377455" lon="123.4154890571939">
        <time>2017-08-21T22:08:43.238000Z</time>
      </trkpt>
      <trkpt lat="41.68349088173516" lon="123.4155009594964">
        <time>2017-08-21T22:08:47.222000Z</time>
      </trkpt>
      <trkpt lat="41.68339138854451" lon="123.4155562800573">
        <ele>47.03815877137741</ele>
        <time>2017-08-21T22:08:52.223000Z</time>
      </trkpt>
      <trkpt lat="41.68329801414318" lon="123.4156281967865">
        <time>2017-08-21T22:08:56.246000Z</time>
      </trkpt>
      <trkpt lat="41.68320866305537" lon="123.4156760574537">
        <ele>47.10422829681774</ele>
        <time>2017-08-21T22:09:02.236000Z</time>
      </trkpt>
      <trkpt lat="41.68316461615421" lon="123.4158028756486">
        <ele>47.13373641264202</ele>
        <time>2017-08-21T22:09:43.226000Z</time>
      </trkpt>
      <trkpt lat="41.68313733305938" lon="123.4159353935378">
        <ele>47.16575175399383</ele>
        <time>2017-08-21T22:09:48.223000Z</time>
      </trkpt>
      <trkpt lat="41.68305229865171" lon="123.4159840923952">
        <time>2017-08-21T22:09:53.229000Z</time>
      </trkpt>
      <trkpt lat="41.68296227701165" lon="123.4159804043578">
        <time>2017-08-21T22:09:57.230000Z</time>
      </trkpt>
      <trkpt lat="41.68286630422033" lon="123.4159778059678">
        <ele>47.25317402431167</ele>
        <time>2017-08-21T22:10:00.243000Z</time>
      </trkpt>
      <trkpt lat="41.6827533580751" lon="123.4160044604199">
        <time>2017-08-21T22:10:04.230000Z</time>
      </trkpt>
      <trkpt lat="41.68265684046008" lon="123.4160370660233">
        <ele>47.31775574559279</ele>
        <time>2017-08-21T22:10:08.232000Z</time>
      </trkpt>
      <trkpt lat="41.6825461574287" lon="123.4160634690182">
        <time>2017-08-21T22:10:12.233000Z</time>
      </trkpt>
      <trkpt lat="41.68246560733922" lon="123.4161287640439">
        <time>2017-08-21T22:10:16.230000Z</time>
      </trkpt>
      <trkpt lat="41.68241053823538" lon="123.4162327834623">
        <ele>47.41162516726719</ele>
        <time>2017-08-21T22:10:20.230000Z</time>
      </trkpt>
      <trkpt lat="41.68236590460099" lon="123.4163546563344">
        <time>2017-08-21T22:10:23.254000Z</time>
      </trkpt>
      <trkpt lat="41.68233832813956" lon="123.416482983272">
        <time>2017-08-21T22:10:26.263000Z</time>
      </trkpt>
      <trkpt lat="41.68233040724106" lon="123.4166391381281">
        <ele>47.50249142869431</ele>
        <time>2017-08-21T22:10:30.228000Z</time>
      </trkpt>
      <trkpt lat="41.68229591570951" lon="123.416779032092">
        <time>2017-08-21T22:10:35.217000Z</time>
      </trkpt>
      <trkpt lat="41.6822818760217" lon="123.4169312474536">
        <ele>47.57206004910166</ele>
        <time>2017-08-21T22:10:40.229000Z</time>
      </trkpt>
      <trkpt lat="41.68227571532287" lon="123.4170900845187">
        <time>2017-08-21T22:10:44.239000Z</time>
      </trkpt>
      <trkpt lat="41.6822721111045" lon="123.4172145557808">
        <time>2017-08-21T22:10:47.244000Z</time>
      </trkpt>
      <trkpt lat="41.68227726597495" lon="123.41733668011">
        <ele>47.67212865477276</ele>
        <time>2017-08-21T22:10:51.232000Z</time>
      </trkpt>
      <trkpt lat="41.68226833924808" lon="123.4174694494562">
        <time>2017-08-21T22:10:56.237000Z</time>
      </trkpt>
      <trkpt lat="41.68226134035893" lon="123.4176178929614">
        <ele>47.73064895170156</ele>
        <time>2017-08-21T22:11:00.237000Z</time>
      </trkpt>
      <trkpt lat="41.68225706558831" lon="123.4177667555617">
        <time>2017-08-21T22:11:04.232000Z</time>
      </trkpt>
      <trkpt lat="41.68224625293322" lon="123.4179186356472">
        <ele>47.79881242373633</ele>
        <time>2017-08-21T22:11:08.217000Z</time>
      </trkpt>
      <trkpt lat="41.68224780358531" lon="123.4180517402696">
        <time>2017-08-21T22:11:11.259000Z</time>
      </trkpt>
      <trkpt lat="41.68224327735759" lon="123.4181910475003">
        <time>2017-08-21T22:11:14.227000Z</time>
      </trkpt>
      <trkpt lat="41.68224323544808" lon="123.418322391923">
        <time>2017-08-21T22:11:17.247000Z</time>
      </trkpt>
      <trkpt lat="41.6822514916227" lon="123.4184435104238">
        <ele>47.92621254285063</ele>
        <time>2017-08-21T22:11:21.222000Z</time>
      </trkpt>
      <trkpt lat="41.68224709112354" lon="123.4185869247871">
        <time>2017-08-21T22:11:26.230000Z</time>
      </trkpt>
      <trkpt lat="41.68224231343873" lon="123.4187389725106">
        <ele>47.98693699408936</ele>
        <time>2017-08-21T22:11:30.245000Z</time>
      </trkpt>
      <trkpt lat="41.68223967313923" lon="123.4188793693887">
        <time>2017-08-21T22:11:35.240000Z</time>
      </trkpt>
      <trkpt lat="41.68222609445609" lon="123.4190310818361">
        <ele>48.05394328511142</ele>
        <time>2017-08-21T22:11:39.259000Z</time>
      </trkpt>
      <trkpt lat="41.68221251577295" lon="123.4191713948952">
        <time>2017-08-21T22:11:44.232000Z</time>
      </trkpt>
      <trkpt lat="41.68219818271853" lon="123.4192970396238">
        <ele>48.12133530313771</ele>
        <time>2017-08-21T22:11:49.218000Z</time>
      </trkpt>
      <trkpt lat="41.68220773808815" lon="123.4194368497687">
        <time>2017-08-21T22:11:54.235000Z</time>
      </trkpt>
      <trkpt lat="41.68220061347045" lon="123.4195570462601">
        <ele>48.18258324102506</ele>
        <time>2017-08-21T22:11:58.216000Z</time>
      </trkpt>
      <trkpt lat="41.6821867414207" lon="123.4196768236565">
        <time>2017-08-21T22:12:01.230000Z</time>
      </trkpt>
      <trkpt lat="41.68217819187947" lon="123.4198188130962">
        <time>2017-08-21T22:12:04.238000Z</time>
      </trkpt>
      <trkpt lat="41.68217953298397" lon="123.419979577999">
        <time>2017-08-21T22:12:07.248000Z</time>
      </trkpt>
      <trkpt lat="41.68219420131452" lon="123.4201330506461">
        <ele>48.30736592689631</ele>
        <time>2017-08-21T22:12:10.237000Z</time>
      </trkpt>
      <trkpt lat="41.68218711860634" lon="123.4202816617893">
        <time>2017-08-21T22:12:14.219000Z</time>
      </trkpt>
      <trkpt lat="41.68217198927112" lon="123.420407641794">
        <ele>48.3769069953748</ele>
        <time>2017-08-21T22:12:19.213000Z</time>
      </trkpt>
      <trkpt lat="41.6821513278798" lon="123.420529347028">
        <time>2017-08-21T22:12:23.215000Z</time>
      </trkpt>
      <trkpt lat="41.68212169785209" lon="123.4206709173726">
        <ele>48.434683390224</ele>
        <time>2017-08-21T22:12:28.221000Z</time>
      </trkpt>
      <trkpt lat="41.68211784217663" lon="123.4207940475302">
        <time>2017-08-21T22:12:31.210000Z</time>
      </trkpt>
      <trkpt lat="41.68210623324074" lon="123.4209191055255">
        <time>2017-08-21T22:12:34.224000Z</time>
      </trkpt>
      <trkpt lat="41.68209726460434" lon="123.4210670461165">
        <time>2017-08-21T22:12:37.213000Z</time>
      </trkpt>
      <trkpt lat="41.68209085244842" lon="123.4212162439929">
        <ele>48.5594109722375</ele>
        <time>2017-08-21T22:12:40.219000Z</time>
      </trkpt>
      <trkpt lat="41.6820847336591" lon="123.4213410505312">
        <time>2017-08-21T22:12:43.199000Z</time>
      </trkpt>
      <trkpt lat="41.68206143196829" lon="123.4214902484076">
        <time>2017-08-21T22:12:46.218000Z</time>
      </trkpt>
      <trkpt lat="41.68204747609951" lon="123.4216541984337">
        <ele>48.65716521588315</ele>
        <time>2017-08-21T22:12:49.214000Z</time>
      </trkpt>
      <trkpt lat="41.68205967176862" lon="123.4217926674741">
        <time>2017-08-21T22:12:55.234000Z</time>
      </trkpt>
      <trkpt lat="41.68205413971253" lon="123.4219400213318">
        <ele>48.72687159593488</ele>
        <time>2017-08-21T22:12:59.226000Z</time>
      </trkpt>
      <trkpt lat="41.68206746693857" lon="123.4220737126874">
        <time>2017-08-21T22:13:02.232000Z</time>
      </trkpt>
      <trkpt lat="41.68205694765009" lon="123.4221997765111">
        <time>2017-08-21T22:13:07.235000Z</time>
      </trkpt>
      <trkpt lat="41.68203813027747" lon="123.4223367368089">
        <ele>48.82057570603604</ele>
        <time>2017-08-21T22:13:12.241000Z</time>
      </trkpt>
      <trkpt lat="41.68203917801537" lon="123.4224722721832">
        <time>2017-08-21T22:13:15.249000Z</time>
      </trkpt>
      <trkpt lat="41.6820331849546" lon="123.422614345442">
        <ele>48.88347675965584</ele>
        <time>2017-08-21T22:13:18.218000Z</time>
      </trkpt>
      <trkpt lat="41.68201537341036" lon="123.4227490426259">
        <time>2017-08-21T22:13:22.220000Z</time>
      </trkpt>
      <trkpt lat="41.68198909614392" lon="123.4228690714793">
        <time>2017-08-21T22:13:27.236000Z</time>
      </trkpt>
      <trkpt lat="41.68196307033457" lon="123.4230077919768">
        <ele>48.97602368874427</ele>
        <time>2017-08-21T22:13:32.256000Z</time>
      </trkpt>
      <trkpt lat="41.68192924935527" lon="123.4231260606306">
        <time>2017-08-21T22:13:36.231000Z</time>
      </trkpt>
      <trkpt lat="41.68192220855661" lon="123.4232835565912">
        <ele>49.03776756135136</ele>
        <time>2017-08-21T22:13:40.229000Z</time>
      </trkpt>
      <trkpt lat="41.68190200816996" lon="123.4234278929638">
        <time>2017-08-21T22:13:43.240000Z</time>
      </trkpt>
      <trkpt lat="41.68189190797664" lon="123.423573905717">
        <time>2017-08-21T22:13:46.215000Z</time>
      </trkpt>
      <trkpt lat="41.68189215943374" lon="123.4237041604923">
        <ele>49.14108729462961</ele>
        <time>2017-08-21T22:13:49.233000Z</time>
      </trkpt>
      <trkpt lat="41.68189492546178" lon="123.423851346712">
        <time>2017-08-21T22:13:53.239000Z</time>
      </trkpt>
      <trkpt lat="41.68189643420435" lon="123.4239817691254">
        <time>2017-08-21T22:13:57.238000Z</time>
      </trkpt>
      <trkpt lat="41.68189329099066" lon="123.4241139517384">
        <ele>49.23448833351314</ele>
        <time>2017-08-21T22:14:01.439000Z</time>
      </trkpt>
      <trkpt lat="41.68187954466946" lon="123.4242333938586">
        <time>2017-08-21T22:14:04.285000Z</time>
      </trkpt>
      <trkpt lat="41.6818682710097" lon="123.424374545108">
        <ele>49.2924300399356</ele>
        <time>2017-08-21T22:14:08.210000Z</time>
      </trkpt>
      <trkpt lat="41.68186902538098" lon="123.4245004412936">
        <time>2017-08-21T22:14:11.423000Z</time>
      </trkpt>
      <trkpt lat="41.68187208477564" lon="123.4246325400876">
        <time>2017-08-21T22:14:14.203000Z</time>
      </trkpt>
      <trkpt lat="41.68186630126245" lon="123.424773691337">
        <ele>49.38401265151343</ele>
        <time>2017-08-21T22:14:19.231000Z</time>
      </trkpt>
      <trkpt lat="41.6818492440895" lon="123.4248967376756">
        <ele>49.41638616794062</ele>
        <time>2017-08-21T22:14:31.988000Z</time>
      </trkpt>
      <trkpt lat="41.68186370287247" lon="123.4250351228969">
        <ele>49.44504017396978</ele>
        <time>2017-08-21T22:14:38.239000Z</time>
      </trkpt>
      <trkpt lat="41.68187107894726" lon="123.4251973127233">
        <time>2017-08-21T22:14:42.259000Z</time>
      </trkpt>
      <trkpt lat="41.68186479251988" lon="123.4253570717977">
        <time>2017-08-21T22:14:46.291000Z</time>
      </trkpt>
      <trkpt lat="41.6818645829723" lon="123.4255131428348">
        <ele>49.55086713277558</ele>
        <time>2017-08-21T22:14:50.285000Z</time>
      </trkpt>
      <trkpt lat="41.68186093684442" lon="123.4256456607239">
        <time>2017-08-21T22:14:53.263000Z</time>
      </trkpt>
      <trkpt lat="41.68186185885377" lon="123.4257796873557">
        <time>2017-08-21T22:14:57.234000Z</time>
      </trkpt>
      <trkpt lat="41.68186089493491" lon="123.4259137139874">
        <ele>49.64765705891065</ele>
        <time>2017-08-21T22:15:02.323000Z</time>
      </trkpt>
      <trkpt lat="41.68186487633891" lon="123.4260567092555">
        <time>2017-08-21T22:15:05.305000Z</time>
      </trkpt>
      <trkpt lat="41.68185967955895" lon="123.4262100980835">
        <ele>49.71110915110793</ele>
        <time>2017-08-21T22:15:08.253000Z</time>
      </trkpt>
      <trkpt lat="41.68185867373057" lon="123.4263516684281">
        <time>2017-08-21T22:15:11.229000Z</time>
      </trkpt>
      <trkpt lat="41.68184907645144" lon="123.4264912271159">
        <time>2017-08-21T22:15:14.285000Z</time>
      </trkpt>
      <trkpt lat="41.68184798680402" lon="123.4266219848054">
        <time>2017-08-21T22:15:17.288000Z</time>
      </trkpt>
      <trkpt lat="41.6818587575496" lon="123.4267625493216">
        <ele>49.84074097646104</ele>
        <time>2017-08-21T22:15:21.285000Z</time>
      </trkpt>
      <trkpt lat="41.68186743281938" lon="123.4269112442838">
        <time>2017-08-21T22:15:26.284000Z</time>
      </trkpt>
      <trkpt lat="41.68186818719067" lon="123.4270521440761">
        <ele>49.90722378083449</ele>
        <time>2017-08-21T22:15:31.258000Z</time>
      </trkpt>
      <trkpt lat="41.68187338397063" lon="123.4271978215533">
        <time>2017-08-21T22:15:35.250000Z</time>
      </trkpt>
      <trkpt lat="41.68188222687848" lon="123.4273601790177">
        <ele>49.9728800273417</ele>
        <time>2017-08-21T22:15:39.242000Z</time>
      </trkpt>
      <trkpt lat="41.6818891419486" lon="123.4274885897743">
        <time>2017-08-21T22:15:42.291000Z</time>
      </trkpt>
      <trkpt lat="41.68188780084409" lon="123.4276478459345">
        <time>2017-08-21T22:15:46.250000Z</time>
      </trkpt>
      <trkpt lat="41.68187816165544" lon="123.4277941939639">
        <ele>50.07611710483333</ele>
        <time>2017-08-21T22:15:50.227000Z</time>
      </trkpt>
      <trkpt lat="41.68187485080369" lon="123.4279411287265">
        <time>2017-08-21T22:15:53.260000Z</time>
      </trkpt>
      <trkpt lat="41.68189798485644" lon="123.4280630854177">
        <ele>50.143426467073</ele>
        <time>2017-08-21T22:16:01.262000Z</time>
      </trkpt>
      <trkpt lat="41.68189442254759" lon="123.4281886463272">
        <ele>50.17224578467542</ele>
        <time>2017-08-21T22:16:11.231000Z</time>
      </trkpt>
      <trkpt lat="41.68190330736495" lon="123.4283085913616">
        <ele>50.20100999842008</ele>
        <time>2017-08-21T22:16:19.357000Z</time>
      </trkpt>
      <trkpt lat="41.68190267872222" lon="123.4284463898497">
        <time>2017-08-21T22:16:25.246000Z</time>
      </trkpt>
      <trkpt lat="41.68190259490319" lon="123.4285913967746">
        <ele>50.26016398971299</ele>
        <time>2017-08-21T22:16:29.258000Z</time>
      </trkpt>
      <trkpt lat="41.68188754938699" lon="123.4287338053094">
        <time>2017-08-21T22:16:34.227000Z</time>
      </trkpt>
      <trkpt lat="41.68187912557431" lon="123.4288663231986">
        <ele>50.32628861901107</ele>
        <time>2017-08-21T22:16:38.261000Z</time>
      </trkpt>
      <trkpt lat="41.68187438979901" lon="123.4290109948473">
        <time>2017-08-21T22:16:42.328000Z</time>
      </trkpt>
      <trkpt lat="41.68188210114993" lon="123.4291670658844">
        <time>2017-08-21T22:16:46.232000Z</time>
      </trkpt>
      <trkpt lat="41.68187472507514" lon="123.4293376376139">
        <ele>50.42569597838919</ele>
        <time>2017-08-21T22:16:50.214000Z</time>
      </trkpt>
      <trkpt lat="41.68187296487547" lon="123.4294940439271">
        <time>2017-08-21T22:16:53.323000Z</time>
      </trkpt>
      <trkpt lat="41.68184794489451" lon="123.4296236281501">
        <time>2017-08-21T22:16:57.222000Z</time>
      </trkpt>
      <trkpt lat="41.68182087134726" lon="123.4297629353809">
        <ele>50.53127496983512</ele>
        <time>2017-08-21T22:17:01.231000Z</time>
      </trkpt>
      <trkpt lat="41.68181810531922" lon="123.4299081099438">
        <time>2017-08-21T22:17:05.228000Z</time>
      </trkpt>
      <trkpt lat="41.68183516249217" lon="123.4300569725441">
        <ele>50.59748225491982</ele>
        <time>2017-08-21T22:17:09.375000Z</time>
      </trkpt>
      <trkpt lat="41.68183985635795" lon="123.4301843774723">
        <time>2017-08-21T22:17:12.276000Z</time>
      </trkpt>
      <trkpt lat="41.68182963043608" lon="123.4303049092399">
        <time>2017-08-21T22:17:15.354000Z</time>
      </trkpt>
      <trkpt lat="41.68183885052957" lon="123.4304382653194">
        <ele>50.68895465878217</ele>
        <time>2017-08-21T22:17:19.228000Z</time>
      </trkpt>
      <trkpt lat="41.68184513695694" lon="123.4305789974736">
        <time>2017-08-21T22:17:22.328000Z</time>
      </trkpt>
      <trkpt lat="41.68187522798933" lon="123.4307396785574">
        <time>2017-08-21T22:17:25.254000Z</time>
      </trkpt>
      <trkpt lat="41.68189777530886" lon="123.4308882058816">
        <ele>50.78984982231949</ele>
        <time>2017-08-21T22:17:29.242000Z</time>
      </trkpt>
      <trkpt lat="41.68189588938065" lon="123.4310352244633">
        <time>2017-08-21T22:17:32.387000Z</time>
      </trkpt>
      <trkpt lat="41.68190846223541" lon="123.4311868530916">
        <time>2017-08-21T22:17:36.405000Z</time>
      </trkpt>
      <trkpt lat="41.68189500928082" lon="123.4313295969026">
        <ele>50.89316955559774</ele>
        <time>2017-08-21T22:17:40.414000Z</time>
      </trkpt>
      <trkpt lat="41.68187552135594" lon="123.431478543322">
        <time>2017-08-21T22:17:44.207000Z</time>
      </trkpt>
      <trkpt lat="41.68184631042339" lon="123.4316078760879">
        <ele>50.96075443712615</ele>
        <time>2017-08-21T22:17:48.255000Z</time>
      </trkpt>
      <trkpt lat="41.68183331847347" lon="123.4317652882295">
        <time>2017-08-21T22:17:52.431000Z</time>
      </trkpt>
      <trkpt lat="41.68183000762172" lon="123.4318918549674">
        <time>2017-08-21T22:17:55.377000Z</time>
      </trkpt>
      <trkpt lat="41.68181408200569" lon="123.4320120514589">
        <ele>51.05693822082598</ele>
        <time>2017-08-21T22:17:58.246000Z</time>
      </trkpt>
      <trkpt lat="41.68179849166579" lon="123.4321429767864">
        <time>2017-08-21T22:18:01.369000Z</time>
      </trkpt>
      <trkpt lat="41.68178617026813" lon="123.4322944377767">
        <time>2017-08-21T22:18:04.431000Z</time>
      </trkpt>
      <trkpt lat="41.6817731364087" lon="123.4324205854195">
        <time>2017-08-21T22:18:07.231000Z</time>
      </trkpt>
      <trkpt lat="41.68175100818433" lon="123.4325767402755">
        <ele>51.17926878502743</ele>
        <time>2017-08-21T22:18:11.243000Z</time>
      </trkpt>
      <trkpt lat="41.68174698487081" lon="123.4327150416779">
        <time>2017-08-21T22:18:15.441000Z</time>
      </trkpt>
      <trkpt lat="41.68173420246847" lon="123.4328619764405">
        <ele>51.24734960127558</ele>
        <time>2017-08-21T22:18:20.355000Z</time>
      </trkpt>
      <trkpt lat="41.68172087524243" lon="123.4330078215556">
        <time>2017-08-21T22:18:24.235000Z</time>
      </trkpt>
      <trkpt lat="41.68171957604743" lon="123.433135645579">
        <ele>51.31485182701737</ele>
        <time>2017-08-21T22:18:28.353000Z</time>
      </trkpt>
      <trkpt lat="41.68170385997899" lon="123.4332866036551">
        <time>2017-08-21T22:18:33.409000Z</time>
      </trkpt>
      <trkpt lat="41.6816851264254" lon="123.4334061295944">
        <time>2017-08-21T22:18:36.339000Z</time>
      </trkpt>
      <trkpt lat="41.68166630905278" lon="123.4335694928872">
        <ele>51.4069854771727</ele>
        <time>2017-08-21T22:18:40.222000Z</time>
      </trkpt>
      <trkpt lat="41.68165067680336" lon="123.4337204509633">
        <time>2017-08-21T22:18:44.246000Z</time>
      </trkpt>
      <trkpt lat="41.68165566403575" lon="123.4338579141753">
        <time>2017-08-21T22:18:47.436000Z</time>
      </trkpt>
      <trkpt lat="41.68166559659101" lon="123.4339844809132">
        <ele>51.51126952796155</ele>
        <time>2017-08-21T22:18:50.387000Z</time>
      </trkpt>
      <trkpt lat="41.68163466736831" lon="123.4341326729613">
        <time>2017-08-21T22:18:54.229000Z</time>
      </trkpt>
      <trkpt lat="41.68163466736831" lon="123.4341326729613">
        <ele>51.57565838574055</ele>
        <time>2017-08-21T22:18:58.229000Z</time>
      </trkpt>
      <trkpt lat="41.68169736400403" lon="123.4347898979889">
        <time>2017-08-21T22:19:06.406000Z</time>
      </trkpt>
      <trkpt lat="41.68181538120069" lon="123.4354025312918">
        <ele>51.72741440997964</ele>
        <time>2017-08-21T22:19:21.452000Z</time>
      </trkpt>
      <trkpt lat="41.68179631237097" lon="123.4355265834587">
        <ele>51.87233755585794</ele>
        <time>2017-08-21T22:19:29.279000Z</time>
      </trkpt>
      <trkpt lat="41.68181257326312" lon="123.4356761166113">
        <time>2017-08-21T22:19:33.273000Z</time>
      </trkpt>
      <trkpt lat="41.68182745114125" lon="123.4358197824316">
        <time>2017-08-21T22:19:37.419000Z</time>
      </trkpt>
      <trkpt lat="41.68181613557197" lon="123.4359469359027">
        <ele>54.17634067056231</ele>
        <time>2017-08-21T22:19:40.440000Z</time>
      </trkpt>
      <trkpt lat="41.6817816021309" lon="123.4361043480443">
        <time>2017-08-21T22:19:43.241000Z</time>
      </trkpt>
      <trkpt lat="41.68180611919768" lon="123.4362872411715">
        <time>2017-08-21T22:19:46.213000Z</time>
      </trkpt>
      <trkpt lat="41.68184190992422" lon="123.4364185017752">
        <ele>54.2123588562297</ele>
        <time>2017-08-21T22:19:48.338000Z</time>
      </trkpt>
      <trkpt lat="41.6819052771122" lon="123.4366349225151">
        <time>2017-08-21T22:19:51.462000Z</time>
      </trkpt>
      <trkpt lat="41.68188293934025" lon="123.4367626627194">
        <time>2017-08-21T22:19:54.449000Z</time>
      </trkpt>
      <trkpt lat="41.68185947001137" lon="123.4368950967895">
        <ele>54.25029994679799</ele>
        <time>2017-08-21T22:20:02.356000Z</time>
      </trkpt>
      <trkpt lat="41.68186081111588" lon="123.437020490061">
        <time>2017-08-21T22:20:06.234000Z</time>
      </trkpt>
      <trkpt lat="41.68185829654492" lon="123.4371734597938">
        <ele>54.27000972203225</ele>
        <time>2017-08-21T22:20:10.285000Z</time>
      </trkpt>
      <trkpt lat="41.68185410559334" lon="123.4373017029124">
        <time>2017-08-21T22:20:13.306000Z</time>
      </trkpt>
      <trkpt lat="41.68185829654492" lon="123.4374416806953">
        <time>2017-08-21T22:20:17.431000Z</time>
      </trkpt>
      <trkpt lat="41.68184220329083" lon="123.4375611228155">
        <ele>54.30178300442783</ele>
        <time>2017-08-21T22:20:20.413000Z</time>
      </trkpt>
      <trkpt lat="41.68183235455461" lon="123.4377047886359">
        <time>2017-08-21T22:20:23.218000Z</time>
      </trkpt>
      <trkpt lat="41.68183386329718" lon="123.4378284217077">
        <time>2017-08-21T22:20:26.245000Z</time>
      </trkpt>
      <trkpt lat="41.68183495294459" lon="123.4379515518653">
        <ele>54.33112544477888</ele>
        <time>2017-08-21T22:20:29.288000Z</time>
      </trkpt>
      <trkpt lat="41.68183570731588" lon="123.4380733409183">
        <time>2017-08-21T22:20:32.221000Z</time>
      </trkpt>
      <trkpt lat="41.68183855716295" lon="123.4382029251414">
        <time>2017-08-21T22:20:35.436000Z</time>
      </trkpt>
      <trkpt lat="41.68183336038299" lon="123.438323624547">
        <ele>55.32769094419858</ele>
        <time>2017-08-21T22:20:38.246000Z</time>
      </trkpt>
      <trkpt lat="41.68183553967781" lon="123.4384524543988">
        <time>2017-08-21T22:20:42.288000Z</time>
      </trkpt>
      <trkpt lat="41.68184987273224" lon="123.4386015684562">
        <time>2017-08-21T22:20:46.225000Z</time>
      </trkpt>
      <trkpt lat="41.68186315804876" lon="123.4387453180956">
        <ele>56.13412381214175</ele>
        <time>2017-08-21T22:20:49.246000Z</time>
      </trkpt>
      <trkpt lat="41.6818714561329" lon="123.438875991966">
        <time>2017-08-21T22:20:52.222000Z</time>
      </trkpt>
      <trkpt lat="41.68186760045744" lon="123.4389981162953">
        <time>2017-08-21T22:20:56.237000Z</time>
      </trkpt>
      <trkpt lat="41.68186588216729" lon="123.4391220008241">
        <ele>55.8450962056874</ele>
        <time>2017-08-21T22:20:59.345000Z</time>
      </trkpt>
      <trkpt lat="41.68185926046379" lon="123.4392753896522">
        <time>2017-08-21T22:21:03.445000Z</time>
      </trkpt>
      <trkpt lat="41.68186630126245" lon="123.4394277726518">
        <time>2017-08-21T22:21:07.437000Z</time>
      </trkpt>
      <trkpt lat="41.68187082749017" lon="123.4395508189904">
        <ele>55.53284160729442</ele>
        <time>2017-08-21T22:21:10.368000Z</time>
      </trkpt>
      <trkpt lat="41.68187233623274" lon="123.4396954906391">
        <time>2017-08-21T22:21:14.412000Z</time>
      </trkpt>
      <trkpt lat="41.68185284830786" lon="123.4398151842164">
        <ele>55.33846835896591</ele>
        <time>2017-08-21T22:21:18.283000Z</time>
      </trkpt>
      <trkpt lat="41.68182619385578" lon="123.4399577603894">
        <time>2017-08-21T22:21:22.253000Z</time>
      </trkpt>
      <trkpt lat="41.68182401456095" lon="123.4400926252114">
        <time>2017-08-21T22:21:25.230000Z</time>
      </trkpt>
      <trkpt lat="41.68182263154693" lon="123.440218353759">
        <ele>55.04507477658324</ele>
        <time>2017-08-21T22:21:28.230000Z</time>
      </trkpt>
      <trkpt lat="41.68182933706947" lon="123.4403391369837">
        <time>2017-08-21T22:21:31.229000Z</time>
      </trkpt>
      <trkpt lat="41.68183009144075" lon="123.4404745047199">
        <time>2017-08-21T22:21:34.274000Z</time>
      </trkpt>
      <trkpt lat="41.68182179335661" lon="123.4406008200007">
        <ele>54.76774798561677</ele>
        <time>2017-08-21T22:21:38.270000Z</time>
      </trkpt>
      <trkpt lat="41.68182443365611" lon="123.4407262970912">
        <time>2017-08-21T22:21:41.227000Z</time>
      </trkpt>
      <trkpt lat="41.68183017525978" lon="123.440863425027">
        <time>2017-08-21T22:21:45.539000Z</time>
      </trkpt>
      <trkpt lat="41.68184417303808" lon="123.4410004691439">
        <ele>54.48500738449918</ele>
        <time>2017-08-21T22:21:48.214000Z</time>
      </trkpt>
      <trkpt lat="41.68184392158098" lon="123.441153857972">
        <time>2017-08-21T22:21:52.243000Z</time>
      </trkpt>
      <trkpt lat="41.68184140701003" lon="123.4413026367532">
        <time>2017-08-21T22:21:55.226000Z</time>
      </trkpt>
      <trkpt lat="41.6818352463112" lon="123.4414305445956">
        <ele>54.16533062702808</ele>
        <time>2017-08-21T22:21:58.235000Z</time>
      </trkpt>
      <trkpt lat="41.68183721605845" lon="123.4415808321195">
        <time>2017-08-21T22:22:02.247000Z</time>
      </trkpt>
      <trkpt lat="41.68184199374326" lon="123.4417312872814">
        <time>2017-08-21T22:22:06.283000Z</time>
      </trkpt>
      <trkpt lat="41.68184165846713" lon="123.4418814071672">
        <ele>53.85403654333932</ele>
        <time>2017-08-21T22:22:10.296000Z</time>
      </trkpt>
      <trkpt lat="41.68183369565912" lon="123.4420073033529">
        <time>2017-08-21T22:22:14.315000Z</time>
      </trkpt>
      <trkpt lat="41.68183009144075" lon="123.4421646316754">
        <ele>53.65337628967404</ele>
        <time>2017-08-21T22:22:18.272000Z</time>
      </trkpt>
      <trkpt lat="41.68182623576529" lon="123.4423046932774">
        <time>2017-08-21T22:22:21.223000Z</time>
      </trkpt>
      <trkpt lat="41.6818251880274" lon="123.4424696491318">
        <time>2017-08-21T22:22:25.288000Z</time>
      </trkpt>
      <trkpt lat="41.68183306701638" lon="123.4426297434824">
        <ele>53.31772006030531</ele>
        <time>2017-08-21T22:22:28.234000Z</time>
      </trkpt>
      <trkpt lat="41.68184442449517" lon="123.442768715437">
        <time>2017-08-21T22:22:31.284000Z</time>
      </trkpt>
      <trkpt lat="41.68185947001137" lon="123.4428935219752">
        <time>2017-08-21T22:22:34.296000Z</time>
      </trkpt>
      <trkpt lat="41.68185335122205" lon="123.4430460726129">
        <ele>53.00808504746931</ele>
        <time>2017-08-21T22:22:38.312000Z</time>
      </trkpt>
      <trkpt lat="41.68184987273224" lon="123.4432036523926">
        <time>2017-08-21T22:22:42.265000Z</time>
      </trkpt>
      <trkpt lat="41.68184333484776" lon="123.4433494975077">
        <time>2017-08-21T22:22:46.278000Z</time>
      </trkpt>
      <trkpt lat="41.68183507867314" lon="123.4435116873341">
        <ele>52.67679479402889</ele>
        <time>2017-08-21T22:22:50.279000Z</time>
      </trkpt>
      <trkpt lat="41.68183172591187" lon="123.4436632321435">
        <time>2017-08-21T22:22:54.295000Z</time>
      </trkpt>
      <trkpt lat="41.68184102982439" lon="123.4438226559418">
        <ele>52.44880353105236</ele>
        <time>2017-08-21T22:22:58.320000Z</time>
      </trkpt>
      <trkpt lat="41.68184626851387" lon="123.4439472948419">
        <time>2017-08-21T22:23:01.304000Z</time>
      </trkpt>
      <trkpt lat="41.68185087856062" lon="123.4440887813675">
        <time>2017-08-21T22:23:05.238000Z</time>
      </trkpt>
      <trkpt lat="41.6818310134501" lon="123.4442111571538">
        <ele>52.13943047677206</ele>
        <time>2017-08-21T22:23:10.264000Z</time>
      </trkpt>
      <trkpt lat="41.68181202843942" lon="123.4443577566402">
        <time>2017-08-21T22:23:14.278000Z</time>
      </trkpt>
      <trkpt lat="41.68181756049551" lon="123.4444957227664">
        <time>2017-08-21T22:23:17.218000Z</time>
      </trkpt>
      <trkpt lat="41.68182250581838" lon="123.4446232953327">
        <ele>51.84027380616403</ele>
        <time>2017-08-21T22:23:20.335000Z</time>
      </trkpt>
      <trkpt lat="41.68182036843307" lon="123.4447742534088">
        <time>2017-08-21T22:23:24.283000Z</time>
      </trkpt>
      <trkpt lat="41.6818053648264" lon="123.444909537326">
        <ele>51.63795448164598</ele>
        <time>2017-08-21T22:23:28.237000Z</time>
      </trkpt>
      <trkpt lat="41.68179815638967" lon="123.4450563044506">
        <time>2017-08-21T22:23:32.246000Z</time>
      </trkpt>
      <trkpt lat="41.68178168594994" lon="123.4452065081554">
        <time>2017-08-21T22:23:36.460000Z</time>
      </trkpt>
      <trkpt lat="41.6817826498688" lon="123.4453547840225">
        <ele>51.32177050491752</ele>
        <time>2017-08-21T22:23:40.373000Z</time>
      </trkpt>
      <trkpt lat="41.68178914584376" lon="123.4454970249193">
        <time>2017-08-21T22:23:44.376000Z</time>
      </trkpt>
      <trkpt lat="41.68180146724142" lon="123.445649575557">
        <ele>51.11080654806141</ele>
        <time>2017-08-21T22:23:48.332000Z</time>
      </trkpt>
      <trkpt lat="41.68181496210553" lon="123.4457994439857">
        <time>2017-08-21T22:23:52.232000Z</time>
      </trkpt>
      <trkpt lat="41.68181257326312" lon="123.4459352308171">
        <time>2017-08-21T22:23:55.233000Z</time>
      </trkpt>
      <trkpt lat="41.68181441728182" lon="123.4460657370495">
        <ele>51.09261848240989</ele>
        <time>2017-08-21T22:23:58.221000Z</time>
      </trkpt>
      <trkpt lat="41.68181688994326" lon="123.4461874422836">
        <time>2017-08-21T22:24:01.222000Z</time>
      </trkpt>
      <trkpt lat="41.68181072924443" lon="123.4463421722161">
        <time>2017-08-21T22:24:05.312000Z</time>
      </trkpt>
      <trkpt lat="41.68180150915094" lon="123.4464641289073">
        <ele>51.07578780930152</ele>
        <time>2017-08-21T22:24:08.215000Z</time>
      </trkpt>
      <trkpt lat="41.68181274090119" lon="123.4466222116011">
        <time>2017-08-21T22:24:12.231000Z</time>
      </trkpt>
      <trkpt lat="41.68180662211187" lon="123.4467597586321">
        <time>2017-08-21T22:24:15.234000Z</time>
      </trkpt>
      <trkpt lat="41.68180238925077" lon="123.4469106328892">
        <ele>51.05846489494124</ele>
        <time>2017-08-21T22:24:19.259000Z</time>
      </trkpt>
      <trkpt lat="41.68181148361571" lon="123.4470695537733">
        <time>2017-08-21T22:24:23.254000Z</time>
      </trkpt>
      <trkpt lat="41.68181035205878" lon="123.4472091124611">
        <time>2017-08-21T22:24:26.225000Z</time>
      </trkpt>
      <trkpt lat="41.68178943921037" lon="123.4473446478354">
        <ele>51.03986911431339</ele>
        <time>2017-08-21T22:24:29.247000Z</time>
      </trkpt>
      <trkpt lat="41.68176718525745" lon="123.4474780039149">
        <time>2017-08-21T22:24:32.225000Z</time>
      </trkpt>
      <trkpt lat="41.68176630515762" lon="123.4476323147523">
        <time>2017-08-21T22:24:35.259000Z</time>
      </trkpt>
      <trkpt lat="41.68176789771922" lon="123.4477694426882">
        <ele>51.02212854070906</ele>
        <time>2017-08-21T22:24:38.205000Z</time>
      </trkpt>
      <trkpt lat="41.68176793962873" lon="123.4479001165586">
        <time>2017-08-21T22:24:41.221000Z</time>
      </trkpt>
      <trkpt lat="41.68177896183141" lon="123.4480392561512">
        <time>2017-08-21T22:24:44.241000Z</time>
      </trkpt>
      <trkpt lat="41.68178788855828" lon="123.4481823352384">
        <time>2017-08-21T22:24:47.251000Z</time>
      </trkpt>
      <trkpt lat="41.68177070565678" lon="123.4483085667001">
        <ele>50.99934622337301</ele>
        <time>2017-08-21T22:24:50.277000Z</time>
      </trkpt>
      <trkpt lat="41.68175318747915" lon="123.4484332894193">
        <time>2017-08-21T22:24:53.215000Z</time>
      </trkpt>
      <trkpt lat="41.68175025381304" lon="123.448559185605">
        <time>2017-08-21T22:24:56.225000Z</time>
      </trkpt>
      <trkpt lat="41.68175348084576" lon="123.4486927931415">
        <ele>50.59820144116998</ele>
        <time>2017-08-21T22:24:59.246000Z</time>
      </trkpt>
      <trkpt lat="41.68175783943541" lon="123.4488198627936">
        <time>2017-08-21T22:25:02.214000Z</time>
      </trkpt>
      <trkpt lat="41.6817625752107" lon="123.448952967416">
        <time>2017-08-21T22:25:05.223000Z</time>
      </trkpt>
      <trkpt lat="41.68176814917631" lon="123.4490885027903">
        <ele>50.53193384165992</ele>
        <time>2017-08-21T22:25:08.394000Z</time>
      </trkpt>
      <trkpt lat="41.68176953219034" lon="123.4492196795749">
        <time>2017-08-21T22:25:11.225000Z</time>
      </trkpt>
      <trkpt lat="41.6817681072668" lon="123.4493428935515">
        <time>2017-08-21T22:25:14.293000Z</time>
      </trkpt>
      <trkpt lat="41.68176571842439" lon="123.4494853859054">
        <ele>48.34665566816206</ele>
        <time>2017-08-21T22:25:18.402000Z</time>
      </trkpt>
      <trkpt lat="41.68176576033391" lon="123.4496339970487">
        <time>2017-08-21T22:25:22.426000Z</time>
      </trkpt>
      <trkpt lat="41.6817617789299" lon="123.4497765732216">
        <time>2017-08-21T22:25:26.198000Z</time>
      </trkpt>
      <trkpt lat="41.6817549057693" lon="123.4499106836724">
        <ele>47.26952464060458</ele>
        <time>2017-08-21T22:25:30.210000Z</time>
      </trkpt>
      <trkpt lat="41.68174057271488" lon="123.4500478116082">
        <time>2017-08-21T22:25:34.199000Z</time>
      </trkpt>
      <trkpt lat="41.68174543421872" lon="123.450184520449">
        <ele>47.01532708614018</ele>
        <time>2017-08-21T22:25:38.200000Z</time>
      </trkpt>
      <trkpt lat="41.68174585331388" lon="123.4503133503007">
        <time>2017-08-21T22:25:41.246000Z</time>
      </trkpt>
      <trkpt lat="41.68174162045278" lon="123.4504430183428">
        <time>2017-08-21T22:25:44.211000Z</time>
      </trkpt>
      <trkpt lat="41.68175272647448" lon="123.450602274503">
        <ele>45.94791586544042</ele>
        <time>2017-08-21T22:25:48.329000Z</time>
      </trkpt>
      <trkpt lat="41.68176064737298" lon="123.4507270810413">
        <time>2017-08-21T22:25:51.208000Z</time>
      </trkpt>
      <trkpt lat="41.68176194656797" lon="123.4508846608209">
        <time>2017-08-21T22:25:55.316000Z</time>
      </trkpt>
      <trkpt lat="41.68174732014693" lon="123.4510383849251">
        <ele>44.6589647635243</ele>
        <time>2017-08-21T22:25:59.365000Z</time>
      </trkpt>
      <trkpt lat="41.68173558548249" lon="123.4511661251294">
        <time>2017-08-21T22:26:03.337000Z</time>
      </trkpt>
      <trkpt lat="41.68173751332022" lon="123.4513038397985">
        <ele>44.43877339174837</ele>
        <time>2017-08-21T22:26:11.419000Z</time>
      </trkpt>
      <trkpt lat="41.68174006980069" lon="123.4514359385925">
        <ele>44.43746182519227</ele>
        <time>2017-08-21T22:26:19.225000Z</time>
      </trkpt>
      <trkpt lat="41.68170268651254" lon="123.4515547101604">
        <ele>44.43620409586596</ele>
        <time>2017-08-21T22:26:47.250000Z</time>
      </trkpt>
      <trkpt lat="41.68170268651254" lon="123.4515547101604">
        <ele>44.43497729430998</ele>
        <time>2017-08-21T22:30:11.359000Z</time>
      </trkpt>
      <trkpt lat="41.68179685719468" lon="123.4514730704235">
        <time>2017-08-21T22:30:11.367000Z</time>
      </trkpt>
      <trkpt lat="41.6817868827299" lon="123.4513273929464">
        <ele>44.43354774403747</ele>
        <time>2017-08-21T22:30:15.281000Z</time>
      </trkpt>
      <trkpt lat="41.68177690826513" lon="123.4512013291227">
        <time>2017-08-21T22:30:18.210000Z</time>
      </trkpt>
      <trkpt lat="41.68178499680169" lon="123.451064704101">
        <time>2017-08-21T22:30:21.303000Z</time>
      </trkpt>
      <trkpt lat="41.68178990021504" lon="123.45092455868">
        <ele>44.42964397213944</ele>
        <time>2017-08-21T22:30:24.217000Z</time>
      </trkpt>
      <trkpt lat="41.68179048694827" lon="123.4507793841171">
        <time>2017-08-21T22:30:27.238000Z</time>
      </trkpt>
      <trkpt lat="41.68178156022139" lon="123.4506533202934">
        <time>2017-08-21T22:30:30.286000Z</time>
      </trkpt>
      <trkpt lat="41.68178231459267" lon="123.4505197965758">
        <time>2017-08-21T22:30:33.213000Z</time>
      </trkpt>
      <trkpt lat="41.68178352996863" lon="123.4503734485465">
        <ele>44.42445039767184</ele>
        <time>2017-08-21T22:30:37.219000Z</time>
      </trkpt>
      <trkpt lat="41.68177384887047" lon="123.4502219037371">
        <time>2017-08-21T22:30:41.290000Z</time>
      </trkpt>
      <trkpt lat="41.68177221439935" lon="123.4500945826279">
        <ele>44.4216096246944</ele>
        <time>2017-08-21T22:30:44.294000Z</time>
      </trkpt>
      <trkpt lat="41.68176697570987" lon="123.4499633220243">
        <time>2017-08-21T22:30:47.381000Z</time>
      </trkpt>
      <trkpt lat="41.68177129239" lon="123.4498032276737">
        <time>2017-08-21T22:30:51.429000Z</time>
      </trkpt>
      <trkpt lat="41.68176894545712" lon="123.4496723023462">
        <ele>44.41762223326923</ele>
        <time>2017-08-21T22:30:54.222000Z</time>
      </trkpt>
      <trkpt lat="41.68176982555695" lon="123.4495400359141">
        <time>2017-08-21T22:30:57.215000Z</time>
      </trkpt>
      <trkpt lat="41.68176349722005" lon="123.4494008963215">
        <time>2017-08-21T22:31:00.280000Z</time>
      </trkpt>
      <trkpt lat="41.68176517360069" lon="123.4492689651655">
        <time>2017-08-21T22:31:03.224000Z</time>
      </trkpt>
      <trkpt lat="41.68176131792523" lon="123.4491175879943">
        <ele>44.41253404231529</ele>
        <time>2017-08-21T22:31:07.275000Z</time>
      </trkpt>
      <trkpt lat="41.68176219802506" lon="123.448984818648">
        <time>2017-08-21T22:31:10.348000Z</time>
      </trkpt>
      <trkpt lat="41.68176341340102" lon="123.4488475230741">
        <time>2017-08-21T22:31:13.368000Z</time>
      </trkpt>
      <trkpt lat="41.68176479641505" lon="123.4486991633879">
        <ele>44.40852145048467</ele>
        <time>2017-08-21T22:31:17.260000Z</time>
      </trkpt>
      <trkpt lat="41.68176006063975" lon="123.4485421703415">
        <time>2017-08-21T22:31:21.222000Z</time>
      </trkpt>
      <trkpt lat="41.68177401650853" lon="123.4483902902561">
        <ele>44.40561309460173</ele>
        <time>2017-08-21T22:31:25.314000Z</time>
      </trkpt>
      <trkpt lat="41.68177950665511" lon="123.4482582752811">
        <time>2017-08-21T22:31:28.286000Z</time>
      </trkpt>
      <trkpt lat="41.68175721079268" lon="123.4481340554761">
        <time>2017-08-21T22:31:31.423000Z</time>
      </trkpt>
      <trkpt lat="41.68175729461171" lon="123.4479994421112">
        <ele>44.40168068587934</ele>
        <time>2017-08-21T22:31:34.485000Z</time>
      </trkpt>
      <trkpt lat="41.68174732014693" lon="123.4478699417072">
        <time>2017-08-21T22:31:37.419000Z</time>
      </trkpt>
      <trkpt lat="41.68176835872389" lon="123.4477323108571">
        <time>2017-08-21T22:31:40.286000Z</time>
      </trkpt>
      <trkpt lat="41.68180674784042" lon="123.4475987871396">
        <time>2017-08-21T22:31:43.446000Z</time>
      </trkpt>
      <trkpt lat="41.68180100623675" lon="123.4474552889573">
        <ele>44.39646076553331</ele>
        <time>2017-08-21T22:31:46.402000Z</time>
      </trkpt>
      <trkpt lat="41.68177267540403" lon="123.4473086894708">
        <time>2017-08-21T22:31:49.220000Z</time>
      </trkpt>
      <trkpt lat="41.68175444476463" lon="123.4471783508765">
        <time>2017-08-21T22:31:52.324000Z</time>
      </trkpt>
      <trkpt lat="41.68174996044643" lon="123.4470230342107">
        <ele>44.392388609108</ele>
        <time>2017-08-21T22:31:56.311000Z</time>
      </trkpt>
      <trkpt lat="41.68175209783174" lon="123.4468686395543">
        <time>2017-08-21T22:32:00.224000Z</time>
      </trkpt>
      <trkpt lat="41.68176064737298" lon="123.4467258119243">
        <time>2017-08-21T22:32:03.439000Z</time>
      </trkpt>
      <trkpt lat="41.68175373230286" lon="123.4466001671957">
        <ele>44.38807475788501</ele>
        <time>2017-08-21T22:32:06.454000Z</time>
      </trkpt>
      <trkpt lat="41.68175033763207" lon="123.4464594350415">
        <time>2017-08-21T22:32:09.434000Z</time>
      </trkpt>
      <trkpt lat="41.68176567651488" lon="123.4463089798795">
        <time>2017-08-21T22:32:13.333000Z</time>
      </trkpt>
      <trkpt lat="41.6817704961092" lon="123.4461751208859">
        <ele>44.38408965740578</ele>
        <time>2017-08-21T22:32:16.229000Z</time>
      </trkpt>
      <trkpt lat="41.6817749804274" lon="123.4460491408812">
        <time>2017-08-21T22:32:19.397000Z</time>
      </trkpt>
      <trkpt lat="41.68177787218399" lon="123.4459160362589">
        <time>2017-08-21T22:32:22.318000Z</time>
      </trkpt>
      <trkpt lat="41.68178227268316" lon="123.4457704426008">
        <ele>44.38034510625125</ele>
        <time>2017-08-21T22:32:25.243000Z</time>
      </trkpt>
      <trkpt lat="41.68178382333524" lon="123.4456401040065">
        <time>2017-08-21T22:32:28.342000Z</time>
      </trkpt>
      <trkpt lat="41.68177904565044" lon="123.4455126990783">
        <time>2017-08-21T22:32:31.238000Z</time>
      </trkpt>
      <trkpt lat="41.68178126685478" lon="123.4453759064185">
        <ele>44.37650318989387</ele>
        <time>2017-08-21T22:32:34.232000Z</time>
      </trkpt>
      <trkpt lat="41.6817889782057" lon="123.4452112020212">
        <time>2017-08-21T22:32:38.252000Z</time>
      </trkpt>
      <trkpt lat="41.68178864292957" lon="123.4450683743911">
        <time>2017-08-21T22:32:41.229000Z</time>
      </trkpt>
      <trkpt lat="41.68178642172523" lon="123.4449371976065">
        <ele>44.37226952177911</ele>
        <time>2017-08-21T22:32:44.219000Z</time>
      </trkpt>
      <trkpt lat="41.68177640535094" lon="123.4447906819391">
        <time>2017-08-21T22:32:47.227000Z</time>
      </trkpt>
      <trkpt lat="41.68178059630252" lon="123.4446357843684">
        <time>2017-08-21T22:32:50.259000Z</time>
      </trkpt>
      <trkpt lat="41.6817776207269" lon="123.4444992431658">
        <time>2017-08-21T22:32:53.241000Z</time>
      </trkpt>
      <trkpt lat="41.68177715972222" lon="123.4443437588619">
        <ele>44.28206805817119</ele>
        <time>2017-08-21T22:32:56.218000Z</time>
      </trkpt>
      <trkpt lat="41.68178168594994" lon="123.4441901185768">
        <time>2017-08-21T22:33:00.213000Z</time>
      </trkpt>
      <trkpt lat="41.68178231459267" lon="123.4440529906409">
        <time>2017-08-21T22:33:03.212000Z</time>
      </trkpt>
      <trkpt lat="41.68177971620269" lon="123.4439115879344">
        <ele>44.09121766029007</ele>
        <time>2017-08-21T22:33:06.261000Z</time>
      </trkpt>
      <trkpt lat="41.68179002594359" lon="123.4437576123732">
        <time>2017-08-21T22:33:10.271000Z</time>
      </trkpt>
      <trkpt lat="41.68180490382172" lon="123.4436214064466">
        <time>2017-08-21T22:33:13.260000Z</time>
      </trkpt>
      <trkpt lat="41.68180632874526" lon="123.4434889723765">
        <ele>43.55357798599883</ele>
        <time>2017-08-21T22:33:16.249000Z</time>
      </trkpt>
      <trkpt lat="41.68179782111354" lon="123.443352850269">
        <time>2017-08-21T22:33:19.242000Z</time>
      </trkpt>
      <trkpt lat="41.68178973257698" lon="123.4432182369041">
        <time>2017-08-21T22:33:22.224000Z</time>
      </trkpt>
      <trkpt lat="41.68178742755361" lon="123.4430744872647">
        <ele>43.5082576676396</ele>
        <time>2017-08-21T22:33:25.214000Z</time>
      </trkpt>
      <trkpt lat="41.68179371398099" lon="123.442945825051">
        <time>2017-08-21T22:33:28.218000Z</time>
      </trkpt>
      <trkpt lat="41.68181860823341" lon="123.4428284784066">
        <time>2017-08-21T22:33:31.258000Z</time>
      </trkpt>
      <trkpt lat="41.6818059096501" lon="123.4426664562183">
        <ele>43.4639900547098</ele>
        <time>2017-08-21T22:33:35.275000Z</time>
      </trkpt>
      <trkpt lat="41.6817800095693" lon="123.4425262269782">
        <time>2017-08-21T22:33:38.224000Z</time>
      </trkpt>
      <trkpt lat="41.68178327851154" lon="123.4423725866931">
        <time>2017-08-21T22:33:42.220000Z</time>
      </trkpt>
      <trkpt lat="41.68179124131955" lon="123.4422326089101">
        <ele>43.41228602265673</ele>
        <time>2017-08-21T22:33:46.299000Z</time>
      </trkpt>
      <trkpt lat="41.68178822383441" lon="123.4420900327372">
        <time>2017-08-21T22:33:50.445000Z</time>
      </trkpt>
      <trkpt lat="41.6817868827299" lon="123.4419691656935">
        <time>2017-08-21T22:33:53.368000Z</time>
      </trkpt>
      <trkpt lat="41.68178969066746" lon="123.441825248416">
        <ele>43.3669926967444</ele>
        <time>2017-08-21T22:33:57.218000Z</time>
      </trkpt>
      <trkpt lat="41.68179224714793" lon="123.4416922276127">
        <time>2017-08-21T22:34:00.221000Z</time>
      </trkpt>
      <trkpt lat="41.68178889438666" lon="123.441537162404">
        <time>2017-08-21T22:34:03.245000Z</time>
      </trkpt>
      <trkpt lat="41.68178717609651" lon="123.4413933289456">
        <ele>43.98280358835577</ele>
        <time>2017-08-21T22:34:06.281000Z</time>
      </trkpt>
      <trkpt lat="41.6817884752915" lon="123.4412469809162">
        <time>2017-08-21T22:34:10.240000Z</time>
      </trkpt>
      <trkpt lat="41.68179325297631" lon="123.4411241022157">
        <time>2017-08-21T22:34:13.523000Z</time>
      </trkpt>
      <trkpt lat="41.68181056160636" lon="123.4409835376995">
        <ele>45.06343100069357</ele>
        <time>2017-08-21T22:34:16.343000Z</time>
      </trkpt>
      <trkpt lat="41.68181827295728" lon="123.4408426379072">
        <time>2017-08-21T22:34:19.343000Z</time>
      </trkpt>
      <trkpt lat="41.6818299657122" lon="123.4406982177155">
        <time>2017-08-21T22:34:22.413000Z</time>
      </trkpt>
      <trkpt lat="41.68182426601805" lon="123.4405635205316">
        <ele>46.18560889902864</ele>
        <time>2017-08-21T22:34:25.444000Z</time>
      </trkpt>
      <trkpt lat="41.68181550692923" lon="123.4404134006458">
        <time>2017-08-21T22:34:29.373000Z</time>
      </trkpt>
      <trkpt lat="41.6818138305486" lon="123.4402729199486">
        <time>2017-08-21T22:34:32.222000Z</time>
      </trkpt>
      <trkpt lat="41.68181374672957" lon="123.4401384742217">
        <ele>47.29991738713694</ele>
        <time>2017-08-21T22:34:35.223000Z</time>
      </trkpt>
      <trkpt lat="41.68182845696963" lon="123.4399836604702">
        <time>2017-08-21T22:34:38.224000Z</time>
      </trkpt>
      <trkpt lat="41.68185180056997" lon="123.4398455267059">
        <time>2017-08-21T22:34:41.442000Z</time>
      </trkpt>
      <trkpt lat="41.68185615915962" lon="123.4396901262211">
        <ele>48.43027947210783</ele>
        <time>2017-08-21T22:34:44.424000Z</time>
      </trkpt>
      <trkpt lat="41.68185058519401" lon="123.43955257919">
        <time>2017-08-21T22:34:47.219000Z</time>
      </trkpt>
      <trkpt lat="41.68184735816128" lon="123.4394139425116">
        <time>2017-08-21T22:34:50.326000Z</time>
      </trkpt>
      <trkpt lat="41.681836042592" lon="123.4392714501577">
        <time>2017-08-21T22:34:53.332000Z</time>
      </trkpt>
      <trkpt lat="41.68183055244543" lon="123.4391206597196">
        <ele>49.88126600920685</ele>
        <time>2017-08-21T22:34:56.444000Z</time>
      </trkpt>
      <trkpt lat="41.68184547223307" lon="123.4389794246512">
        <time>2017-08-21T22:34:59.426000Z</time>
      </trkpt>
      <trkpt lat="41.68187422216095" lon="123.4388523549991">
        <time>2017-08-21T22:35:02.378000Z</time>
      </trkpt>
      <trkpt lat="41.68183864098199" lon="123.4386966192382">
        <ele>50.5257916607513</ele>
        <time>2017-08-21T22:35:06.233000Z</time>
      </trkpt>
      <trkpt lat="41.68181802150018" lon="123.4385743272709">
        <time>2017-08-21T22:35:09.231000Z</time>
      </trkpt>
      <trkpt lat="41.68181848250486" lon="123.4384283145177">
        <time>2017-08-21T22:35:13.218000Z</time>
      </trkpt>
      <trkpt lat="41.68182321828015" lon="123.4382961319046">
        <ele>50.48536743937755</ele>
        <time>2017-08-21T22:35:16.418000Z</time>
      </trkpt>
      <trkpt lat="41.68183486912556" lon="123.4381450900095">
        <time>2017-08-21T22:35:20.249000Z</time>
      </trkpt>
      <trkpt lat="41.68184073645778" lon="123.4379922040956">
        <ele>50.35643827381261</ele>
        <time>2017-08-21T22:35:24.281000Z</time>
      </trkpt>
      <trkpt lat="41.6818431672097" lon="123.4378642962532">
        <time>2017-08-21T22:35:27.444000Z</time>
      </trkpt>
      <trkpt lat="41.68183453384943" lon="123.4377291799741">
        <time>2017-08-21T22:35:30.340000Z</time>
      </trkpt>
      <trkpt lat="41.6818407783673" lon="123.437583418678">
        <ele>50.16746588973732</ele>
        <time>2017-08-21T22:35:34.235000Z</time>
      </trkpt>
      <trkpt lat="41.68188557963975" lon="123.4374483023988">
        <time>2017-08-21T22:35:38.299000Z</time>
      </trkpt>
      <trkpt lat="41.6819155868531" lon="123.4372951650279">
        <time>2017-08-21T22:35:42.253000Z</time>
      </trkpt>
      <trkpt lat="41.68190364264108" lon="123.4371608031201">
        <ele>49.96233642140835</ele>
        <time>2017-08-21T22:35:45.458000Z</time>
      </trkpt>
      <trkpt lat="41.68187987994559" lon="123.4370307159828">
        <time>2017-08-21T22:35:48.301000Z</time>
      </trkpt>
      <trkpt lat="41.68185272257931" lon="123.4369074181872">
        <time>2017-08-21T22:35:51.242000Z</time>
      </trkpt>
      <trkpt lat="41.68183729987748" lon="123.4367464856463">
        <ele>49.78193384215681</ele>
        <time>2017-08-21T22:35:54.335000Z</time>
      </trkpt>
      <trkpt lat="41.68182983998366" lon="123.4366166499662">
        <time>2017-08-21T22:35:57.310000Z</time>
      </trkpt>
      <trkpt lat="41.68183662932523" lon="123.4364511073785">
        <time>2017-08-21T22:36:01.440000Z</time>
      </trkpt>
      <trkpt lat="41.68184631042339" lon="123.4363029991495">
        <ele>49.5740751366228</ele>
        <time>2017-08-21T22:36:05.197000Z</time>
      </trkpt>
      <trkpt lat="41.68184098791487" lon="123.4361545556443">
        <time>2017-08-21T22:36:08.429000Z</time>
      </trkpt>
      <trkpt lat="41.68182049416162" lon="123.436000496264">
        <time>2017-08-21T22:36:11.441000Z</time>
      </trkpt>
      <trkpt lat="41.68179182805277" lon="123.435844592865">
        <ele>49.36823606662053</ele>
        <time>2017-08-21T22:36:14.220000Z</time>
      </trkpt>
      <trkpt lat="41.68178499680169" lon="123.4356882703709">
        <time>2017-08-21T22:36:17.279000Z</time>
      </trkpt>
      <trkpt lat="41.68179995849885" lon="123.4355622903662">
        <time>2017-08-21T22:36:20.222000Z</time>
      </trkpt>
      <trkpt lat="41.68181232180603" lon="123.4354100750046">
        <time>2017-08-21T22:36:23.310000Z</time>
      </trkpt>
      <trkpt lat="41.68182242199935" lon="123.4352832568096">
        <ele>49.09711364267427</ele>
        <time>2017-08-21T22:36:26.445000Z</time>
      </trkpt>
      <trkpt lat="41.6818291694314" lon="123.4351297003435">
        <time>2017-08-21T22:36:30.428000Z</time>
      </trkpt>
      <trkpt lat="41.68183130681671" lon="123.4349927400457">
        <ele>48.96949451096773</ele>
        <time>2017-08-21T22:36:34.353000Z</time>
      </trkpt>
      <trkpt lat="41.68183147445477" lon="123.4348684364217">
        <time>2017-08-21T22:36:37.252000Z</time>
      </trkpt>
      <trkpt lat="41.6818344500304" lon="123.4347007983582">
        <time>2017-08-21T22:36:40.242000Z</time>
      </trkpt>
      <trkpt lat="41.68184073645778" lon="123.4345325735616">
        <time>2017-08-21T22:36:43.274000Z</time>
      </trkpt>
      <trkpt lat="41.68184086218633" lon="123.4343848006087">
        <ele>48.69848125650967</ele>
        <time>2017-08-21T22:36:47.423000Z</time>
      </trkpt>
      <trkpt lat="41.68183277364977" lon="123.4342407995122">
        <ele>48.63145119075448</ele>
        <time>2017-08-21T22:36:54.264000Z</time>
      </trkpt>
      <trkpt lat="41.68182615194626" lon="123.4340941162067">
        <time>2017-08-21T22:36:59.260000Z</time>
      </trkpt>
      <trkpt lat="41.68182401456095" lon="123.4339709860491">
        <time>2017-08-21T22:37:02.240000Z</time>
      </trkpt>
      <trkpt lat="41.68181839868583" lon="123.4338314273613">
        <ele>48.443461332073</ele>
        <time>2017-08-21T22:37:06.226000Z</time>
      </trkpt>
      <trkpt lat="41.68181047778733" lon="123.433674685772">
        <time>2017-08-21T22:37:10.262000Z</time>
      </trkpt>
      <trkpt lat="41.68181060351588" lon="123.4335397371309">
        <time>2017-08-21T22:37:13.224000Z</time>
      </trkpt>
      <trkpt lat="41.68181529738165" lon="123.4334049561279">
        <ele>48.24761127024107</ele>
        <time>2017-08-21T22:37:16.341000Z</time>
      </trkpt>
      <trkpt lat="41.68182057798065" lon="123.4332600330221">
        <time>2017-08-21T22:37:19.297000Z</time>
      </trkpt>
      <trkpt lat="41.68182745114125" lon="123.4331243300097">
        <time>2017-08-21T22:37:22.211000Z</time>
      </trkpt>
      <trkpt lat="41.68183491103508" lon="123.4330026247757">
        <ele>48.05891180988628</ele>
        <time>2017-08-21T22:37:25.424000Z</time>
      </trkpt>
      <trkpt lat="41.68183989826746" lon="123.4328700230675">
        <time>2017-08-21T22:37:28.259000Z</time>
      </trkpt>
      <trkpt lat="41.68183956299134" lon="123.4327300452845">
        <time>2017-08-21T22:37:31.360000Z</time>
      </trkpt>
      <trkpt lat="41.68183981444843" lon="123.4325870500164">
        <ele>47.87981926449315</ele>
        <time>2017-08-21T22:37:34.302000Z</time>
      </trkpt>
      <trkpt lat="41.68184928599901" lon="123.4324342479216">
        <time>2017-08-21T22:37:37.230000Z</time>
      </trkpt>
      <trkpt lat="41.68185255494125" lon="123.4322787636178">
        <time>2017-08-21T22:37:40.300000Z</time>
      </trkpt>
      <trkpt lat="41.68185628488816" lon="123.4321563878315">
        <time>2017-08-21T22:37:43.325000Z</time>
      </trkpt>
      <trkpt lat="41.68184299957164" lon="123.4320356046068">
        <ele>47.61928628090236</ele>
        <time>2017-08-21T22:37:46.418000Z</time>
      </trkpt>
      <trkpt lat="41.68184371203341" lon="123.431909373145">
        <time>2017-08-21T22:37:50.267000Z</time>
      </trkpt>
      <trkpt lat="41.68184970509417" lon="123.4317555652218">
        <ele>47.50667795382341</ele>
        <time>2017-08-21T22:37:54.392000Z</time>
      </trkpt>
      <trkpt lat="41.68185125574626" lon="123.4315980692612">
        <time>2017-08-21T22:37:58.337000Z</time>
      </trkpt>
      <trkpt lat="41.68184153273858" lon="123.4314525594222">
        <time>2017-08-21T22:38:01.460000Z</time>
      </trkpt>
      <trkpt lat="41.6818354977683" lon="123.4313161858576">
        <ele>47.29909217200991</ele>
        <time>2017-08-21T22:38:04.263000Z</time>
      </trkpt>
      <trkpt lat="41.68183885052957" lon="123.4311866016345">
        <time>2017-08-21T22:38:07.369000Z</time>
      </trkpt>
      <trkpt lat="41.68184170037664" lon="123.4310494736986">
        <time>2017-08-21T22:38:10.313000Z</time>
      </trkpt>
      <trkpt lat="41.68185469232656" lon="123.4309215658563">
        <ele>47.11606952504156</ele>
        <time>2017-08-21T22:38:14.243000Z</time>
      </trkpt>
      <trkpt lat="41.68186387051053" lon="123.4307727032559">
        <time>2017-08-21T22:38:18.426000Z</time>
      </trkpt>
      <trkpt lat="41.68185967955895" lon="123.4306113516199">
        <time>2017-08-21T22:38:21.292000Z</time>
      </trkpt>
      <trkpt lat="41.68185142338432" lon="123.4304725473034">
        <ele>46.91650770061081</ele>
        <time>2017-08-21T22:38:24.381000Z</time>
      </trkpt>
      <trkpt lat="41.68184425685711" lon="123.4303365090149">
        <time>2017-08-21T22:38:27.307000Z</time>
      </trkpt>
      <trkpt lat="41.68184048500068" lon="123.4302026500212">
        <time>2017-08-21T22:38:30.444000Z</time>
      </trkpt>
      <trkpt lat="41.68184547223307" lon="123.4300565534489">
        <ele>46.73075581643744</ele>
        <time>2017-08-21T22:38:34.326000Z</time>
      </trkpt>
      <trkpt lat="41.68184874117531" lon="123.429932501282">
        <time>2017-08-21T22:38:37.271000Z</time>
      </trkpt>
      <trkpt lat="41.68185423132189" lon="123.4297873267191">
        <time>2017-08-21T22:38:40.225000Z</time>
      </trkpt>
      <trkpt lat="41.68186093684442" lon="123.4296521266209">
        <time>2017-08-21T22:38:43.233000Z</time>
      </trkpt>
      <trkpt lat="41.6818632418678" lon="123.4295238835024">
        <ele>46.48070310371391</ele>
        <time>2017-08-21T22:38:46.289000Z</time>
      </trkpt>
      <trkpt lat="41.68185951192088" lon="123.4293938801842">
        <time>2017-08-21T22:38:49.202000Z</time>
      </trkpt>
      <trkpt lat="41.68185578197397" lon="123.4292618652093">
        <time>2017-08-21T22:38:52.316000Z</time>
      </trkpt>
      <trkpt lat="41.68185423132189" lon="123.4291194566744">
        <ele>46.30357560910839</ele>
        <time>2017-08-21T22:38:55.221000Z</time>
      </trkpt>
      <trkpt lat="41.68185481805511" lon="123.4289896209942">
        <time>2017-08-21T22:38:58.195000Z</time>
      </trkpt>
      <trkpt lat="41.68185951192088" lon="123.4288371541756">
        <time>2017-08-21T22:39:03.449000Z</time>
      </trkpt>
      <trkpt lat="41.68186328377731" lon="123.4287079052286">
        <ele>46.11083687769018</ele>
        <time>2017-08-21T22:39:06.354000Z</time>
      </trkpt>
      <trkpt lat="41.68187200095661" lon="123.4285670054363">
        <time>2017-08-21T22:39:09.407000Z</time>
      </trkpt>
      <trkpt lat="41.68188155632622" lon="123.4284210765021">
        <time>2017-08-21T22:39:12.250000Z</time>
      </trkpt>
      <trkpt lat="41.68188977059133" lon="123.4282961023258">
        <ele>45.92159156989438</ele>
        <time>2017-08-21T22:39:15.402000Z</time>
      </trkpt>
      <trkpt lat="41.68189459018566" lon="123.4281620756941">
        <time>2017-08-21T22:39:18.231000Z</time>
      </trkpt>
      <trkpt lat="41.68188591491587" lon="123.4280231875586">
        <time>2017-08-21T22:39:21.231000Z</time>
      </trkpt>
      <trkpt lat="41.68187652718432" lon="123.4278858081656">
        <ele>45.74058855845774</ele>
        <time>2017-08-21T22:39:24.338000Z</time>
      </trkpt>
      <trkpt lat="41.68186525352456" lon="123.4277563915806">
        <time>2017-08-21T22:39:27.341000Z</time>
      </trkpt>
      <trkpt lat="41.68186927683808" lon="123.4276215267586">
        <time>2017-08-21T22:39:30.237000Z</time>
      </trkpt>
      <trkpt lat="41.68187003120936" lon="123.4274812136995">
        <time>2017-08-21T22:39:33.405000Z</time>
      </trkpt>
      <trkpt lat="41.68187254578032" lon="123.4273606819319">
        <ele>45.49402926935662</ele>
        <time>2017-08-21T22:39:36.284000Z</time>
      </trkpt>
      <trkpt lat="41.68187367733724" lon="123.4272307624327">
        <time>2017-08-21T22:39:39.217000Z</time>
      </trkpt>
      <trkpt lat="41.68187443170853" lon="123.42709941801">
        <time>2017-08-21T22:39:42.323000Z</time>
      </trkpt>
      <trkpt lat="41.68187774256028" lon="123.4269505554097">
        <ele>45.32077729158222</ele>
        <time>2017-08-21T22:39:46.244000Z</time>
      </trkpt>
      <trkpt lat="41.68187703009851" lon="123.4268082306939">
        <time>2017-08-21T22:39:50.226000Z</time>
      </trkpt>
      <trkpt lat="41.68187883220769" lon="123.4266788141089">
        <time>2017-08-21T22:39:53.300000Z</time>
      </trkpt>
      <trkpt lat="41.6818777844698" lon="123.4265335557269">
        <ele>44.5796033766795</ele>
        <time>2017-08-21T22:39:57.403000Z</time>
      </trkpt>
      <trkpt lat="41.68187141422339" lon="123.4263939132201">
        <time>2017-08-21T22:40:00.467000Z</time>
      </trkpt>
      <trkpt lat="41.68186810337163" lon="123.4262452182578">
        <time>2017-08-21T22:40:03.376000Z</time>
      </trkpt>
      <trkpt lat="41.68186864819534" lon="123.42610565957">
        <ele>44.36233897603704</ele>
        <time>2017-08-21T22:40:06.247000Z</time>
      </trkpt>
      <trkpt lat="41.68186030820168" lon="123.4259703756528">
        <time>2017-08-21T22:40:09.300000Z</time>
      </trkpt>
      <trkpt lat="41.68186345141537" lon="123.4258170706438">
        <time>2017-08-21T22:40:13.327000Z</time>
      </trkpt>
      <trkpt lat="41.68186793573357" lon="123.4256863967734">
        <ele>44.10227529754854</ele>
        <time>2017-08-21T22:40:16.319000Z</time>
      </trkpt>
      <trkpt lat="41.6818735516087" lon="123.4255258833276">
        <time>2017-08-21T22:40:20.335000Z</time>
      </trkpt>
      <trkpt lat="41.6818759404511" lon="123.4254007415133">
        <time>2017-08-21T22:40:23.233000Z</time>
      </trkpt>
      <trkpt lat="41.6818709113092" lon="123.4252766893463">
        <ele>44.00576829809742</ele>
        <time>2017-08-21T22:40:26.288000Z</time>
      </trkpt>
      <trkpt lat="41.68187275532789" lon="123.4251459316569">
        <time>2017-08-21T22:40:29.237000Z</time>
      </trkpt>
      <trkpt lat="41.68187212668516" lon="123.4249806405263">
        <time>2017-08-21T22:40:32.287000Z</time>
      </trkpt>
      <trkpt lat="41.68187707200803" lon="123.4248167743193">
        <ele>43.92336688522793</ele>
        <time>2017-08-21T22:40:35.263000Z</time>
      </trkpt>
      <trkpt lat="41.6818743478895" lon="123.4246791434692">
        <time>2017-08-21T22:40:38.276000Z</time>
      </trkpt>
      <trkpt lat="41.6818785807506" lon="123.4245394171434">
        <time>2017-08-21T22:40:41.285000Z</time>
      </trkpt>
      <trkpt lat="41.6819087136925" lon="123.4243811668115">
        <ele>42.68251548729425</ele>
        <time>2017-08-21T22:40:45.232000Z</time>
      </trkpt>
      <trkpt lat="41.68192157991387" lon="123.4242468887227">
        <time>2017-08-21T22:40:48.209000Z</time>
      </trkpt>
      <trkpt lat="41.68192329820402" lon="123.424070701118">
        <time>2017-08-21T22:40:51.244000Z</time>
      </trkpt>
      <trkpt lat="41.68193184774525" lon="123.4239222576128">
        <ele>41.74915891103233</ele>
        <time>2017-08-21T22:40:54.237000Z</time>
      </trkpt>
      <trkpt lat="41.68195397596963" lon="123.4237982054459">
        <time>2017-08-21T22:40:57.244000Z</time>
      </trkpt>
      <trkpt lat="41.68198050469316" lon="123.4236697946893">
        <time>2017-08-21T22:41:00.204000Z</time>
      </trkpt>
      <trkpt lat="41.68199647221871" lon="123.4235299007254">
        <time>2017-08-21T22:41:03.253000Z</time>
      </trkpt>
      <trkpt lat="41.68200820688315" lon="123.4233929404276">
        <ele>40.08649936787402</ele>
        <time>2017-08-21T22:41:06.277000Z</time>
      </trkpt>
      <trkpt lat="41.68200891934492" lon="123.4232481011408">
        <time>2017-08-21T22:41:09.273000Z</time>
      </trkpt>
      <trkpt lat="41.68200535703607" lon="123.4230870009618">
        <time>2017-08-21T22:41:12.228000Z</time>
      </trkpt>
      <trkpt lat="41.68201135009684" lon="123.4229434189605">
        <ele>39.14364829585973</ele>
        <time>2017-08-21T22:41:15.273000Z</time>
      </trkpt>
      <trkpt lat="41.68201348748214" lon="123.4227901977705">
        <time>2017-08-21T22:41:18.351000Z</time>
      </trkpt>
      <trkpt lat="41.68200196236528" lon="123.4226613679187">
        <time>2017-08-21T22:41:20.412000Z</time>
      </trkpt>
      <trkpt lat="41.68197543364175" lon="123.4224732780116">
        <time>2017-08-21T22:41:23.434000Z</time>
      </trkpt>
      <trkpt lat="41.6819829773546" lon="123.4223330487715">
        <ele>39.11232203621095</ele>
        <time>2017-08-21T22:41:26.299000Z</time>
      </trkpt>
      <trkpt lat="41.6819943348334" lon="123.4222026263582">
        <time>2017-08-21T22:41:29.422000Z</time>
      </trkpt>
      <trkpt lat="41.68199542448081" lon="123.4220794123815">
        <time>2017-08-21T22:41:32.367000Z</time>
      </trkpt>
      <trkpt lat="41.68200376447447" lon="123.4219097626614">
        <ele>38.89980344105643</ele>
        <time>2017-08-21T22:41:35.344000Z</time>
      </trkpt>
      <trkpt lat="41.6820268566177" lon="123.4217303899335">
        <time>2017-08-21T22:41:38.221000Z</time>
      </trkpt>
      <trkpt lat="41.68205183468915" lon="123.4215771687435">
        <time>2017-08-21T22:41:41.285000Z</time>
      </trkpt>
      <trkpt lat="41.6820675507576" lon="123.4214340058373">
        <ele>39.71165719256894</ele>
        <time>2017-08-21T22:41:44.231000Z</time>
      </trkpt>
      <trkpt lat="41.68207308281369" lon="123.4212757555055">
        <time>2017-08-21T22:41:47.319000Z</time>
      </trkpt>
      <trkpt lat="41.68208200954057" lon="123.4211354424464">
        <time>2017-08-21T22:41:50.431000Z</time>
      </trkpt>
      <trkpt lat="41.68209546249516" lon="123.4210107197272">
        <ele>40.84267539691569</ele>
        <time>2017-08-21T22:41:54.415000Z</time>
      </trkpt>
      <trkpt lat="41.6821100889162" lon="123.4208429978447">
        <time>2017-08-21T22:41:58.381000Z</time>
      </trkpt>
      <trkpt lat="41.68211599815793" lon="123.4206853342461">
        <time>2017-08-21T22:42:01.427000Z</time>
      </trkpt>
      <trkpt lat="41.68211788408615" lon="123.4205303528564">
        <ele>41.99576224915215</ele>
        <time>2017-08-21T22:42:04.326000Z</time>
      </trkpt>
      <trkpt lat="41.68212530207045" lon="123.4203826637225">
        <time>2017-08-21T22:42:07.252000Z</time>
      </trkpt>
      <trkpt lat="41.68213200759299" lon="123.4202237428384">
        <time>2017-08-21T22:42:10.390000Z</time>
      </trkpt>
      <trkpt lat="41.68213883884408" lon="123.4200582002508">
        <time>2017-08-21T22:42:13.421000Z</time>
      </trkpt>
      <trkpt lat="41.68214671783306" lon="123.4198882152544">
        <ele>43.59543271215641</ele>
        <time>2017-08-21T22:42:16.462000Z</time>
      </trkpt>
      <trkpt lat="41.68215673420735" lon="123.4197298811035">
        <time>2017-08-21T22:42:19.375000Z</time>
      </trkpt>
      <trkpt lat="41.68216113470651" lon="123.4195554536985">
        <time>2017-08-21T22:42:22.301000Z</time>
      </trkpt>
      <trkpt lat="41.68216574475326" lon="123.4193974548238">
        <ele>44.04049354389389</ele>
        <time>2017-08-21T22:42:25.399000Z</time>
      </trkpt>
      <trkpt lat="41.68216997761436" lon="123.4192455747383">
        <time>2017-08-21T22:42:28.329000Z</time>
      </trkpt>
      <trkpt lat="41.68217169590451" lon="123.4191068542408">
        <time>2017-08-21T22:42:31.459000Z</time>
      </trkpt>
      <trkpt lat="41.6821774794177" lon="123.4189579078214">
        <ele>44.05577240853368</ele>
        <time>2017-08-21T22:42:34.456000Z</time>
      </trkpt>
      <trkpt lat="41.68218401730217" lon="123.4188109730588">
        <time>2017-08-21T22:42:37.269000Z</time>
      </trkpt>
      <trkpt lat="41.68219478804775" lon="123.4186648764866">
        <time>2017-08-21T22:42:40.400000Z</time>
      </trkpt>
      <trkpt lat="41.68220384050317" lon="123.4185184446382">
        <time>2017-08-21T22:42:43.376000Z</time>
      </trkpt>
      <trkpt lat="41.68221389878698" lon="123.4183741920846">
        <ele>44.07585612792482</ele>
        <time>2017-08-21T22:42:46.345000Z</time>
      </trkpt>
      <trkpt lat="41.68221909556694" lon="123.4182399978148">
        <time>2017-08-21T22:42:49.218000Z</time>
      </trkpt>
      <trkpt lat="41.6822229512424" lon="123.4181017802315">
        <ele>44.0886359485736</ele>
        <time>2017-08-21T22:42:55.223000Z</time>
      </trkpt>
      <trkpt lat="41.68222948912688" lon="123.4179504868792">
        <time>2017-08-21T22:43:00.345000Z</time>
      </trkpt>
      <trkpt lat="41.68223682329215" lon="123.4177970142322">
        <time>2017-08-21T22:43:03.236000Z</time>
      </trkpt>
      <trkpt lat="41.68224642057128" lon="123.4176508338409">
        <ele>44.1145335911207</ele>
        <time>2017-08-21T22:43:06.351000Z</time>
      </trkpt>
      <trkpt lat="41.68224939614691" lon="123.4175091796773">
        <time>2017-08-21T22:43:09.209000Z</time>
      </trkpt>
      <trkpt lat="41.68225693985976" lon="123.4173851275103">
        <time>2017-08-21T22:43:12.239000Z</time>
      </trkpt>
      <trkpt lat="41.68226540558197" lon="123.4172255360739">
        <ele>44.33882565101219</ele>
        <time>2017-08-21T22:43:16.212000Z</time>
      </trkpt>
      <trkpt lat="41.68227102145709" lon="123.4171018191831">
        <time>2017-08-21T22:43:19.204000Z</time>
      </trkpt>
      <trkpt lat="41.68227940336026" lon="123.4169732407885">
        <time>2017-08-21T22:43:22.207000Z</time>
      </trkpt>
      <trkpt lat="41.6822816245646" lon="123.4168455844032">
        <ele>44.9929758831136</ele>
        <time>2017-08-21T22:43:25.265000Z</time>
      </trkpt>
    </trkseg>
  </trk>
</gpx>