<?xml version="1.0" encoding="UTF-8"?>
<gpx xmlns="http://www.topografix.com/GPX/1/1" xmlns:gpxtpx="http://www.garmin.com/xmlschemas/TrackPointExtension/v1" xmlns:xsi="http://www.w3.org/2001/XMLSchema-instance" xsi:schemaLocation="http://www.topografix.com/GPX/1/1 http://www.topografix.com/GPX/1/1/gpx.xsd" version="1.1" creator="gpx.py -- https://github.com/tkrajina/gpxpy">
  <trk>
    <name>星期六  上午跑</name>
    <trkseg>
      <trkpt lat="41.68339792642899" lon="123.4133532644468">
        <time>2018-01-05T23:10:47.280000Z</time>
      </trkpt>
      <trkpt lat="41.68341297194518" lon="123.4134779033469">
        <time>2018-01-05T23:10:52.226000Z</time>
      </trkpt>
      <trkpt lat="41.68343790810712" lon="123.4136623052167">
        <ele>58.34519617345978</ele>
        <time>2018-01-05T23:11:01.069000Z</time>
      </trkpt>
      <trkpt lat="41.68345408518024" lon="123.413792559992">
        <ele>57.9999112720572</ele>
        <time>2018-01-05T23:11:10.185000Z</time>
      </trkpt>
      <trkpt lat="41.68346527502097" lon="123.4139126726644">
        <ele>57.75663732418396</ele>
        <time>2018-01-05T23:11:18.225000Z</time>
      </trkpt>
      <trkpt lat="41.6834605811552" lon="123.4140359704601">
        <ele>57.53354380407414</ele>
        <time>2018-01-05T23:11:27.228000Z</time>
      </trkpt>
      <trkpt lat="41.68352281678624" lon="123.4141312726991">
        <time>2018-01-05T23:11:31.244000Z</time>
      </trkpt>
      <trkpt lat="41.68352893557556" lon="123.4143128247218">
        <ele>57.07272040965246</ele>
        <time>2018-01-05T23:11:34.262000Z</time>
      </trkpt>
      <trkpt lat="41.68351799719192" lon="123.4144418222116">
        <time>2018-01-05T23:11:36.221000Z</time>
      </trkpt>
      <trkpt lat="41.68353861667372" lon="123.4145893437075">
        <time>2018-01-05T23:11:39.256000Z</time>
      </trkpt>
      <trkpt lat="41.68356749233015" lon="123.414704343419">
        <time>2018-01-05T23:11:42.248000Z</time>
      </trkpt>
      <trkpt lat="41.68360416315652" lon="123.4148270544814">
        <ele>55.99850071639999</ele>
        <time>2018-01-05T23:11:45.223000Z</time>
      </trkpt>
      <trkpt lat="41.68362956032313" lon="123.4149504360961">
        <time>2018-01-05T23:11:49.215000Z</time>
      </trkpt>
      <trkpt lat="41.68366384230711" lon="123.4150802717762">
        <ele>55.51927099775453</ele>
        <time>2018-01-05T23:11:53.281000Z</time>
      </trkpt>
      <trkpt lat="41.68360743209876" lon="123.4151891526984">
        <time>2018-01-05T23:11:58.234000Z</time>
      </trkpt>
      <trkpt lat="41.68359087784" lon="123.4153274541007">
        <time>2018-01-05T23:12:01.206000Z</time>
      </trkpt>
      <trkpt lat="41.68358149010844" lon="123.4154483211445">
        <ele>54.76328112692512</ele>
        <time>2018-01-05T23:12:04.232000Z</time>
      </trkpt>
      <trkpt lat="41.68347914707072" lon="123.4155484010683">
        <time>2018-01-05T23:12:09.246000Z</time>
      </trkpt>
      <trkpt lat="41.68339377738692" lon="123.4156198987024">
        <time>2018-01-05T23:12:12.235000Z</time>
      </trkpt>
      <trkpt lat="41.68328359726973" lon="123.4156516661154">
        <ele>53.97824031063409</ele>
        <time>2018-01-05T23:12:16.257000Z</time>
      </trkpt>
      <trkpt lat="41.68320275381364" lon="123.4157262650536">
        <time>2018-01-05T23:12:20.270000Z</time>
      </trkpt>
      <trkpt lat="41.68315707244135" lon="123.4158615489708">
        <ele>53.45798444763444</ele>
        <time>2018-01-05T23:12:23.256000Z</time>
      </trkpt>
      <trkpt lat="41.68307417541899" lon="123.4159601201521">
        <time>2018-01-05T23:12:27.243000Z</time>
      </trkpt>
      <trkpt lat="41.68297631669946" lon="123.415980991091">
        <time>2018-01-05T23:12:32.353000Z</time>
      </trkpt>
      <trkpt lat="41.68286953125305" lon="123.4160167818176">
        <ele>51.69038985868757</ele>
        <time>2018-01-05T23:12:36.301000Z</time>
      </trkpt>
      <trkpt lat="41.68276471555389" lon="123.416052153449">
        <time>2018-01-05T23:12:39.261000Z</time>
      </trkpt>
      <trkpt lat="41.68266870085306" lon="123.4160690848934">
        <time>2018-01-05T23:12:42.246000Z</time>
      </trkpt>
      <trkpt lat="41.68257201559998" lon="123.4160832503097">
        <ele>50.66374250954044</ele>
        <time>2018-01-05T23:12:45.249000Z</time>
      </trkpt>
      <trkpt lat="41.68247570753254" lon="123.4161177837508">
        <time>2018-01-05T23:12:49.280000Z</time>
      </trkpt>
      <trkpt lat="41.68240789793588" lon="123.4162218869882">
        <ele>50.56594644582226</ele>
        <time>2018-01-05T23:12:53.297000Z</time>
      </trkpt>
      <trkpt lat="41.68236762289114" lon="123.416369492303">
        <time>2018-01-05T23:12:58.241000Z</time>
      </trkpt>
      <trkpt lat="41.68235475666977" lon="123.4165354539858">
        <time>2018-01-05T23:13:02.243000Z</time>
      </trkpt>
      <trkpt lat="41.68235886380233" lon="123.4166795389013">
        <ele>50.3945020456664</ele>
        <time>2018-01-05T23:13:06.228000Z</time>
      </trkpt>
      <trkpt lat="41.68236074973054" lon="123.4168296587872">
        <time>2018-01-05T23:13:10.247000Z</time>
      </trkpt>
      <trkpt lat="41.68234867978997" lon="123.4169537947731">
        <ele>50.28532396631695</ele>
        <time>2018-01-05T23:13:13.234000Z</time>
      </trkpt>
      <trkpt lat="41.68233497537829" lon="123.4171034955638">
        <time>2018-01-05T23:13:17.299000Z</time>
      </trkpt>
      <trkpt lat="41.68231875639565" lon="123.4172595666008">
        <time>2018-01-05T23:13:21.249000Z</time>
      </trkpt>
      <trkpt lat="41.68230760846443" lon="123.4174040706115">
        <ele>50.12450278075028</ele>
        <time>2018-01-05T23:13:25.223000Z</time>
      </trkpt>
      <trkpt lat="41.68229926847078" lon="123.4175284580546">
        <time>2018-01-05T23:13:28.292000Z</time>
      </trkpt>
      <trkpt lat="41.68228946164407" lon="123.4176794161307">
        <time>2018-01-05T23:13:32.252000Z</time>
      </trkpt>
      <trkpt lat="41.68228577360667" lon="123.4178236686843">
        <ele>48.8709687069824</ele>
        <time>2018-01-05T23:13:36.294000Z</time>
      </trkpt>
      <trkpt lat="41.68228183411218" lon="123.4179607128011">
        <time>2018-01-05T23:13:40.264000Z</time>
      </trkpt>
      <trkpt lat="41.68228204365976" lon="123.4181048815357">
        <ele>48.63764149299557</ele>
        <time>2018-01-05T23:13:44.253000Z</time>
      </trkpt>
      <trkpt lat="41.68227575723238" lon="123.4182265867697">
        <time>2018-01-05T23:13:47.221000Z</time>
      </trkpt>
      <trkpt lat="41.68227521240868" lon="123.4183689114856">
        <time>2018-01-05T23:13:51.275000Z</time>
      </trkpt>
      <trkpt lat="41.68227479331352" lon="123.418496819328">
        <ele>48.29897287756791</ele>
        <time>2018-01-05T23:13:55.230000Z</time>
      </trkpt>
      <trkpt lat="41.68227441612787" lon="123.4186281637507">
        <time>2018-01-05T23:13:59.321000Z</time>
      </trkpt>
      <trkpt lat="41.68226217854924" lon="123.4187473544138">
        <time>2018-01-05T23:14:02.271000Z</time>
      </trkpt>
      <trkpt lat="41.6822488513232" lon="123.4189070296692">
        <ele>47.75379377746659</ele>
        <time>2018-01-05T23:14:06.325000Z</time>
      </trkpt>
      <trkpt lat="41.68224994097061" lon="123.4190512822228">
        <time>2018-01-05T23:14:10.301000Z</time>
      </trkpt>
      <trkpt lat="41.68224285826243" lon="123.4191994742708">
        <ele>47.23304377930053</ele>
        <time>2018-01-05T23:14:15.289000Z</time>
      </trkpt>
      <trkpt lat="41.68222190350451" lon="123.4193303995984">
        <time>2018-01-05T23:14:19.249000Z</time>
      </trkpt>
      <trkpt lat="41.68220216412254" lon="123.419466940801">
        <ele>46.94845353264154</ele>
        <time>2018-01-05T23:14:23.235000Z</time>
      </trkpt>
      <trkpt lat="41.68218648996361" lon="123.4196101037072">
        <time>2018-01-05T23:14:27.290000Z</time>
      </trkpt>
      <trkpt lat="41.68218263428815" lon="123.4197586310314">
        <time>2018-01-05T23:14:31.246000Z</time>
      </trkpt>
      <trkpt lat="41.68216339782037" lon="123.4198792466181">
        <ele>46.27255598490831</ele>
        <time>2018-01-05T23:14:34.281000Z</time>
      </trkpt>
      <trkpt lat="41.68215996124007" lon="123.4200146143543">
        <time>2018-01-05T23:14:38.266000Z</time>
      </trkpt>
      <trkpt lat="41.68216209862538" lon="123.4201389179783">
        <time>2018-01-05T23:14:41.309000Z</time>
      </trkpt>
      <trkpt lat="41.682159793602" lon="123.4202864394741">
        <ele>46.02570215805497</ele>
        <time>2018-01-05T23:14:45.260000Z</time>
      </trkpt>
      <trkpt lat="41.68216008696862" lon="123.420412922393">
        <time>2018-01-05T23:14:48.257000Z</time>
      </trkpt>
      <trkpt lat="41.68217303700902" lon="123.4205611982601">
        <time>2018-01-05T23:14:52.240000Z</time>
      </trkpt>
      <trkpt lat="41.68217672504641" lon="123.4207123239743">
        <ele>45.3341255094547</ele>
        <time>2018-01-05T23:14:56.286000Z</time>
      </trkpt>
      <trkpt lat="41.68215753048815" lon="123.4208605160223">
        <time>2018-01-05T23:15:00.268000Z</time>
      </trkpt>
      <trkpt lat="41.68215036396094" lon="123.4210051038521">
        <ele>44.55290340517654</ele>
        <time>2018-01-05T23:15:04.257000Z</time>
      </trkpt>
      <trkpt lat="41.68214198205776" lon="123.4211492725866">
        <time>2018-01-05T23:15:08.270000Z</time>
      </trkpt>
      <trkpt lat="41.68212710417964" lon="123.4212747496771">
        <time>2018-01-05T23:15:11.321000Z</time>
      </trkpt>
      <trkpt lat="41.6821140703202" lon="123.4214128834413">
        <ele>44.30842508077629</ele>
        <time>2018-01-05T23:15:15.243000Z</time>
      </trkpt>
      <trkpt lat="41.68210174892254" lon="123.4215552081572">
        <time>2018-01-05T23:15:19.267000Z</time>
      </trkpt>
      <trkpt lat="41.68209458239533" lon="123.4216809367048">
        <time>2018-01-05T23:15:22.271000Z</time>
      </trkpt>
      <trkpt lat="41.68208653576828" lon="123.4218381812083">
        <ele>43.22961267763324</ele>
        <time>2018-01-05T23:15:26.254000Z</time>
      </trkpt>
      <trkpt lat="41.68207760904141" lon="123.4219753929632">
        <time>2018-01-05T23:15:30.254000Z</time>
      </trkpt>
      <trkpt lat="41.68207928542204" lon="123.4221141972797">
        <ele>42.75693605265397</ele>
        <time>2018-01-05T23:15:34.268000Z</time>
      </trkpt>
      <trkpt lat="41.68208397928782" lon="123.4222535883295">
        <time>2018-01-05T23:15:38.276000Z</time>
      </trkpt>
      <trkpt lat="41.68208594903506" lon="123.4223863576757">
        <time>2018-01-05T23:15:42.291000Z</time>
      </trkpt>
      <trkpt lat="41.68209319938131" lon="123.4225278442012">
        <ele>42.18785223541731</ele>
        <time>2018-01-05T23:15:46.268000Z</time>
      </trkpt>
      <trkpt lat="41.68207966260768" lon="123.4226750304209">
        <time>2018-01-05T23:15:50.251000Z</time>
      </trkpt>
      <trkpt lat="41.68207999788381" lon="123.4228067101197">
        <ele>42.13742992797982</ele>
        <time>2018-01-05T23:15:54.261000Z</time>
      </trkpt>
      <trkpt lat="41.6820691433192" lon="123.4229555727201">
        <time>2018-01-05T23:15:58.298000Z</time>
      </trkpt>
      <trkpt lat="41.68205807920702" lon="123.4231001605498">
        <time>2018-01-05T23:16:02.279000Z</time>
      </trkpt>
      <trkpt lat="41.68205598373122" lon="123.4232358635621">
        <ele>41.3921640590371</ele>
        <time>2018-01-05T23:16:06.276000Z</time>
      </trkpt>
      <trkpt lat="41.68203699872054" lon="123.4233733267741">
        <time>2018-01-05T23:16:09.295000Z</time>
      </trkpt>
      <trkpt lat="41.68203486133523" lon="123.4235132207381">
        <ele>41.81044865784804</ele>
        <time>2018-01-05T23:16:13.252000Z</time>
      </trkpt>
      <trkpt lat="41.68202497068949" lon="123.4236490913885">
        <time>2018-01-05T23:16:16.266000Z</time>
      </trkpt>
      <trkpt lat="41.68200401593156" lon="123.423790410276">
        <time>2018-01-05T23:16:19.257000Z</time>
      </trkpt>
      <trkpt lat="41.68198209725477" lon="123.4239237663554">
        <time>2018-01-05T23:16:22.276000Z</time>
      </trkpt>
      <trkpt lat="41.68196256742038" lon="123.4240644146906">
        <ele>42.65596804994229</ele>
        <time>2018-01-05T23:16:26.271000Z</time>
      </trkpt>
      <trkpt lat="41.68195271868415" lon="123.424184275906">
        <time>2018-01-05T23:16:30.262000Z</time>
      </trkpt>
      <trkpt lat="41.68193914000101" lon="123.4243183863567">
        <ele>43.05616960277843</ele>
        <time>2018-01-05T23:16:34.246000Z</time>
      </trkpt>
      <trkpt lat="41.68192329820402" lon="123.4244480543988">
        <time>2018-01-05T23:16:37.262000Z</time>
      </trkpt>
      <trkpt lat="41.68192107699968" lon="123.4245800693737">
        <time>2018-01-05T23:16:40.228000Z</time>
      </trkpt>
      <trkpt lat="41.68192618996061" lon="123.4247296863454">
        <ele>43.66149500035898</ele>
        <time>2018-01-05T23:16:44.340000Z</time>
      </trkpt>
      <trkpt lat="41.6819171794147" lon="123.4248697479474">
        <time>2018-01-05T23:16:48.270000Z</time>
      </trkpt>
      <trkpt lat="41.6818960151092" lon="123.4249939677524">
        <time>2018-01-05T23:16:52.295000Z</time>
      </trkpt>
      <trkpt lat="41.68189190797664" lon="123.4251322691547">
        <ele>44.29568020868719</ele>
        <time>2018-01-05T23:16:56.241000Z</time>
      </trkpt>
      <trkpt lat="41.68190096043207" lon="123.4252641164916">
        <time>2018-01-05T23:17:00.248000Z</time>
      </trkpt>
      <trkpt lat="41.68190645057864" lon="123.4253884201156">
        <ele>44.70665852629618</ele>
        <time>2018-01-05T23:17:04.270000Z</time>
      </trkpt>
      <trkpt lat="41.68190804314025" lon="123.4255383723633">
        <time>2018-01-05T23:17:09.302000Z</time>
      </trkpt>
      <trkpt lat="41.68190787550218" lon="123.4256626759874">
        <ele>45.1232992118367</ele>
        <time>2018-01-05T23:17:13.287000Z</time>
      </trkpt>
      <trkpt lat="41.68190544475026" lon="123.4257915058391">
        <time>2018-01-05T23:17:17.267000Z</time>
      </trkpt>
      <trkpt lat="41.68192099318065" lon="123.4259245266425">
        <time>2018-01-05T23:17:22.263000Z</time>
      </trkpt>
      <trkpt lat="41.681920615995" lon="123.4260861297356">
        <ele>45.71200281968282</ele>
        <time>2018-01-05T23:17:26.274000Z</time>
      </trkpt>
      <trkpt lat="41.68190913278766" lon="123.4262212460147">
        <time>2018-01-05T23:17:29.276000Z</time>
      </trkpt>
      <trkpt lat="41.68191391047247" lon="123.4263520037042">
        <ele>46.16371365499263</ele>
        <time>2018-01-05T23:17:33.267000Z</time>
      </trkpt>
      <trkpt lat="41.68192304674692" lon="123.4264831804889">
        <time>2018-01-05T23:17:37.268000Z</time>
      </trkpt>
      <trkpt lat="41.68192241810419" lon="123.4266379942404">
        <time>2018-01-05T23:17:41.272000Z</time>
      </trkpt>
      <trkpt lat="41.6819184786097" lon="123.4267594480174">
        <ele>46.73062300737874</ele>
        <time>2018-01-05T23:17:44.262000Z</time>
      </trkpt>
      <trkpt lat="41.68192313056596" lon="123.4269102384554">
        <time>2018-01-05T23:17:48.288000Z</time>
      </trkpt>
      <trkpt lat="41.68191738896228" lon="123.4270342068034">
        <time>2018-01-05T23:17:51.255000Z</time>
      </trkpt>
      <trkpt lat="41.68191617358632" lon="123.4271832370417">
        <ele>47.44819525128815</ele>
        <time>2018-01-05T23:17:55.283000Z</time>
      </trkpt>
      <trkpt lat="41.68192912362672" lon="123.4273166769402">
        <time>2018-01-05T23:17:59.242000Z</time>
      </trkpt>
      <trkpt lat="41.68192929126479" lon="123.4274397232788">
        <time>2018-01-05T23:18:02.245000Z</time>
      </trkpt>
      <trkpt lat="41.68193214111187" lon="123.4275791143285">
        <ele>47.71266294638833</ele>
        <time>2018-01-05T23:18:06.246000Z</time>
      </trkpt>
      <trkpt lat="41.68193515859701" lon="123.4277049266951">
        <time>2018-01-05T23:18:09.259000Z</time>
      </trkpt>
      <trkpt lat="41.6819441272334" lon="123.427841970812">
        <ele>47.71406734464772</ele>
        <time>2018-01-05T23:18:13.284000Z</time>
      </trkpt>
      <trkpt lat="41.68194882109918" lon="123.4279771709102">
        <time>2018-01-05T23:18:17.252000Z</time>
      </trkpt>
      <trkpt lat="41.68195552662171" lon="123.4281123710083">
        <time>2018-01-05T23:18:21.241000Z</time>
      </trkpt>
      <trkpt lat="41.68195271868415" lon="123.428262323256">
        <ele>47.71622903521116</ele>
        <time>2018-01-05T23:18:25.257000Z</time>
      </trkpt>
      <trkpt lat="41.68195527516462" lon="123.428399535011">
        <time>2018-01-05T23:18:29.233000Z</time>
      </trkpt>
      <trkpt lat="41.68196013666846" lon="123.428550325449">
        <ele>47.71774998897236</ele>
        <time>2018-01-05T23:18:33.242000Z</time>
      </trkpt>
      <trkpt lat="41.68194295376696" lon="123.4287020378964">
        <time>2018-01-05T23:18:36.219000Z</time>
      </trkpt>
      <trkpt lat="41.68194194793858" lon="123.4288545885342">
        <time>2018-01-05T23:18:40.221000Z</time>
      </trkpt>
      <trkpt lat="41.68195167094625" lon="123.4290036187725">
        <ele>47.72016835640588</ele>
        <time>2018-01-05T23:18:44.255000Z</time>
      </trkpt>
      <trkpt lat="41.68194395959534" lon="123.4291331191765">
        <time>2018-01-05T23:18:47.268000Z</time>
      </trkpt>
      <trkpt lat="41.68192945890285" lon="123.4292551596867">
        <time>2018-01-05T23:18:50.228000Z</time>
      </trkpt>
      <trkpt lat="41.6819266928748" lon="123.4294041899251">
        <ele>47.72230202269567</ele>
        <time>2018-01-05T23:18:54.248000Z</time>
      </trkpt>
      <trkpt lat="41.68193004563607" lon="123.4295312595772">
        <time>2018-01-05T23:18:57.251000Z</time>
      </trkpt>
      <trkpt lat="41.68191323992021" lon="123.4296957125174">
        <time>2018-01-05T23:19:00.237000Z</time>
      </trkpt>
      <trkpt lat="41.68189798485644" lon="123.4298473411458">
        <ele>47.72464268646132</ele>
        <time>2018-01-05T23:19:03.272000Z</time>
      </trkpt>
      <trkpt lat="41.68188461572088" lon="123.4299670347231">
        <time>2018-01-05T23:19:06.291000Z</time>
      </trkpt>
      <trkpt lat="41.68187317442305" lon="123.4300967865842">
        <time>2018-01-05T23:19:09.264000Z</time>
      </trkpt>
      <trkpt lat="41.68187208477564" lon="123.4302456491845">
        <ele>47.72678463265015</ele>
        <time>2018-01-05T23:19:13.271000Z</time>
      </trkpt>
      <trkpt lat="41.68187703009851" lon="123.4303868842529">
        <time>2018-01-05T23:19:17.282000Z</time>
      </trkpt>
      <trkpt lat="41.6818817658738" lon="123.4305384290623">
        <time>2018-01-05T23:19:21.222000Z</time>
      </trkpt>
      <trkpt lat="41.68188528627314" lon="123.4306816757875">
        <ele>47.72912402258518</ele>
        <time>2018-01-05T23:19:25.212000Z</time>
      </trkpt>
      <trkpt lat="41.68189136315294" lon="123.4308122658389">
        <time>2018-01-05T23:19:29.254000Z</time>
      </trkpt>
      <trkpt lat="41.68188851330586" lon="123.4309359827297">
        <time>2018-01-05T23:19:32.230000Z</time>
      </trkpt>
      <trkpt lat="41.68188235260703" lon="123.4310761281507">
        <ele>47.73123030151662</ele>
        <time>2018-01-05T23:19:36.250000Z</time>
      </trkpt>
      <trkpt lat="41.68189027350552" lon="123.4312203807043">
        <time>2018-01-05T23:19:40.244000Z</time>
      </trkpt>
      <trkpt lat="41.68189790103741" lon="123.4313694109427">
        <ele>47.73273915388693</ele>
        <time>2018-01-05T23:19:44.258000Z</time>
      </trkpt>
      <trkpt lat="41.6819129465536" lon="123.4315093887257">
        <time>2018-01-05T23:19:48.252000Z</time>
      </trkpt>
      <trkpt lat="41.6819198197142" lon="123.4316574131357">
        <time>2018-01-05T23:19:52.241000Z</time>
      </trkpt>
      <trkpt lat="41.68191784996696" lon="123.4317853209781">
        <ele>47.76181833892343</ele>
        <time>2018-01-05T23:19:55.252000Z</time>
      </trkpt>
      <trkpt lat="41.68190862987347" lon="123.4319087025928">
        <time>2018-01-05T23:19:58.256000Z</time>
      </trkpt>
      <trkpt lat="41.68190414555527" lon="123.4320532904225">
        <time>2018-01-05T23:20:01.259000Z</time>
      </trkpt>
      <trkpt lat="41.68189852968015" lon="123.432178767513">
        <ele>47.78176895646961</ele>
        <time>2018-01-05T23:20:04.240000Z</time>
      </trkpt>
      <trkpt lat="41.68189806867547" lon="123.4323435557293">
        <time>2018-01-05T23:20:08.244000Z</time>
      </trkpt>
      <trkpt lat="41.68189341671921" lon="123.4324830305981">
        <time>2018-01-05T23:20:11.243000Z</time>
      </trkpt>
      <trkpt lat="41.68187761683173" lon="123.4326313064652">
        <ele>47.803408355052</ele>
        <time>2018-01-05T23:20:15.246000Z</time>
      </trkpt>
      <trkpt lat="41.68185909282573" lon="123.4327515029567">
        <time>2018-01-05T23:20:18.275000Z</time>
      </trkpt>
      <trkpt lat="41.6818569135309" lon="123.432911010574">
        <ele>47.81711835163637</ele>
        <time>2018-01-05T23:20:24.265000Z</time>
      </trkpt>
      <trkpt lat="41.6818447597713" lon="123.4330327996271">
        <time>2018-01-05T23:20:27.253000Z</time>
      </trkpt>
      <trkpt lat="41.6818008805082" lon="123.4331793991136">
        <time>2018-01-05T23:20:31.231000Z</time>
      </trkpt>
      <trkpt lat="41.68180016804643" lon="123.4333400801974">
        <ele>47.83927225340184</ele>
        <time>2018-01-05T23:20:35.221000Z</time>
      </trkpt>
      <trkpt lat="41.68179329488583" lon="123.4335101490127">
        <time>2018-01-05T23:20:38.237000Z</time>
      </trkpt>
      <trkpt lat="41.6817879304678" lon="123.4336576705085">
        <time>2018-01-05T23:20:41.247000Z</time>
      </trkpt>
      <trkpt lat="41.68178206313558" lon="123.4337880091029">
        <ele>47.86334494939128</ele>
        <time>2018-01-05T23:20:45.235000Z</time>
      </trkpt>
      <trkpt lat="41.68177732736029" lon="123.4339143243837">
        <time>2018-01-05T23:20:49.239000Z</time>
      </trkpt>
      <trkpt lat="41.68174832597531" lon="123.4340401367503">
        <ele>47.8762741117331</ele>
        <time>2018-01-05T23:20:53.272000Z</time>
      </trkpt>
      <trkpt lat="41.68174832597531" lon="123.4340401367503">
        <time>2018-01-05T23:20:56.245000Z</time>
      </trkpt>
      <trkpt lat="41.68179756965645" lon="123.4346963559496">
        <ele>47.88289607034824</ele>
        <time>2018-01-05T23:21:08.235000Z</time>
      </trkpt>
      <trkpt lat="41.68181772813357" lon="123.4348501638728">
        <time>2018-01-05T23:21:12.229000Z</time>
      </trkpt>
      <trkpt lat="41.68182753496028" lon="123.4349782393532">
        <ele>47.92394131840062</ele>
        <time>2018-01-05T23:21:16.231000Z</time>
      </trkpt>
      <trkpt lat="41.68181089688249" lon="123.4351058119195">
        <time>2018-01-05T23:21:20.244000Z</time>
      </trkpt>
      <trkpt lat="41.68182359546579" lon="123.4352496453779">
        <ele>47.93693101052868</ele>
        <time>2018-01-05T23:21:24.305000Z</time>
      </trkpt>
      <trkpt lat="41.6818389343486" lon="123.4353845101999">
        <time>2018-01-05T23:21:29.233000Z</time>
      </trkpt>
      <trkpt lat="41.68186395432956" lon="123.4355249908971">
        <ele>47.95108287455264</ele>
        <time>2018-01-05T23:21:33.274000Z</time>
      </trkpt>
      <trkpt lat="41.68185825463541" lon="123.435664717223">
        <time>2018-01-05T23:21:38.291000Z</time>
      </trkpt>
      <trkpt lat="41.68189194988616" lon="123.4357971512931">
        <time>2018-01-05T23:21:42.233000Z</time>
      </trkpt>
      <trkpt lat="41.68189882304676" lon="123.4359175154226">
        <ele>47.97242567718244</ele>
        <time>2018-01-05T23:21:45.274000Z</time>
      </trkpt>
      <trkpt lat="41.68190121188916" lon="123.4360699822413">
        <time>2018-01-05T23:21:49.243000Z</time>
      </trkpt>
      <trkpt lat="41.68188939340569" lon="123.4362058528917">
        <time>2018-01-05T23:21:52.223000Z</time>
      </trkpt>
      <trkpt lat="41.68189676948048" lon="123.4363454115795">
        <ele>47.99304817535593</ele>
        <time>2018-01-05T23:21:56.279000Z</time>
      </trkpt>
      <trkpt lat="41.68189438063808" lon="123.4364741576122">
        <time>2018-01-05T23:21:59.332000Z</time>
      </trkpt>
      <trkpt lat="41.68189505119033" lon="123.4366226011174">
        <ele>48.00656447662433</ele>
        <time>2018-01-05T23:22:03.283000Z</time>
      </trkpt>
      <trkpt lat="41.68191269509651" lon="123.4367438872563">
        <time>2018-01-05T23:22:07.268000Z</time>
      </trkpt>
      <trkpt lat="41.68190565429784" lon="123.4368676041471">
        <time>2018-01-05T23:22:10.256000Z</time>
      </trkpt>
      <trkpt lat="41.68189287189551" lon="123.4370030557024">
        <ele>48.29755416259812</ele>
        <time>2018-01-05T23:22:13.285000Z</time>
      </trkpt>
      <trkpt lat="41.6819111025349" lon="123.437144793685">
        <time>2018-01-05T23:22:18.242000Z</time>
      </trkpt>
      <trkpt lat="41.68190955188282" lon="123.4372946621137">
        <time>2018-01-05T23:22:22.246000Z</time>
      </trkpt>
      <trkpt lat="41.6818973562137" lon="123.4374156129765">
        <ele>48.57637654345882</ele>
        <time>2018-01-05T23:22:25.256000Z</time>
      </trkpt>
      <trkpt lat="41.68187987994559" lon="123.4375723545658">
        <time>2018-01-05T23:22:29.234000Z</time>
      </trkpt>
      <trkpt lat="41.68187195904709" lon="123.4377219715374">
        <ele>49.50576535306834</ele>
        <time>2018-01-05T23:22:33.242000Z</time>
      </trkpt>
      <trkpt lat="41.68187116276629" lon="123.43786630791">
        <time>2018-01-05T23:22:37.267000Z</time>
      </trkpt>
      <trkpt lat="41.68186873201437" lon="123.4380023461985">
        <time>2018-01-05T23:22:41.333000Z</time>
      </trkpt>
      <trkpt lat="41.68186873201437" lon="123.4381318466025">
        <ele>50.08575648860094</ele>
        <time>2018-01-05T23:22:45.278000Z</time>
      </trkpt>
      <trkpt lat="41.68186894156195" lon="123.4382693098145">
        <time>2018-01-05T23:22:49.238000Z</time>
      </trkpt>
      <trkpt lat="41.68188314888783" lon="123.4384004027801">
        <ele>51.16686926276419</ele>
        <time>2018-01-05T23:22:54.245000Z</time>
      </trkpt>
      <trkpt lat="41.68188210114993" lon="123.4385360219734">
        <time>2018-01-05T23:22:58.284000Z</time>
      </trkpt>
      <trkpt lat="41.68189190797664" lon="123.4386869800495">
        <ele>51.61964535429101</ele>
        <time>2018-01-05T23:23:03.273000Z</time>
      </trkpt>
      <trkpt lat="41.68188134677865" lon="123.438830897327">
        <time>2018-01-05T23:23:07.241000Z</time>
      </trkpt>
      <trkpt lat="41.68187430597998" lon="123.4389918298679">
        <time>2018-01-05T23:23:11.245000Z</time>
      </trkpt>
      <trkpt lat="41.68186927683808" lon="123.4391235933857">
        <ele>51.81513531245442</ele>
        <time>2018-01-05T23:23:14.305000Z</time>
      </trkpt>
      <trkpt lat="41.68186550498165" lon="123.4392525908755">
        <time>2018-01-05T23:23:17.285000Z</time>
      </trkpt>
      <trkpt lat="41.68186621744342" lon="123.4393789899754">
        <time>2018-01-05T23:23:20.244000Z</time>
      </trkpt>
      <trkpt lat="41.68186785191454" lon="123.4395356477456">
        <ele>51.94354551829844</ele>
        <time>2018-01-05T23:23:24.239000Z</time>
      </trkpt>
      <trkpt lat="41.68189794294693" lon="123.4396881983834">
        <time>2018-01-05T23:23:28.244000Z</time>
      </trkpt>
      <trkpt lat="41.68190364264108" lon="123.4398279247092">
        <time>2018-01-05T23:23:32.263000Z</time>
      </trkpt>
      <trkpt lat="41.68186345141537" lon="123.4399701656061">
        <ele>52.13815549998556</ele>
        <time>2018-01-05T23:23:36.254000Z</time>
      </trkpt>
      <trkpt lat="41.68184664569952" lon="123.4401193634825">
        <time>2018-01-05T23:23:40.278000Z</time>
      </trkpt>
      <trkpt lat="41.68184195183374" lon="123.4402745963292">
        <ele>52.26792984688391</ele>
        <time>2018-01-05T23:23:44.290000Z</time>
      </trkpt>
      <trkpt lat="41.68183985635795" lon="123.4404248000341">
        <time>2018-01-05T23:23:48.261000Z</time>
      </trkpt>
      <trkpt lat="41.68184534650452" lon="123.4405727406251">
        <time>2018-01-05T23:23:52.264000Z</time>
      </trkpt>
      <trkpt lat="41.68184811253257" lon="123.4407276381957">
        <ele>53.46315895617849</ele>
        <time>2018-01-05T23:23:56.237000Z</time>
      </trkpt>
      <trkpt lat="41.6818508366511" lon="123.440876584615">
        <time>2018-01-05T23:24:00.262000Z</time>
      </trkpt>
      <trkpt lat="41.68185636870719" lon="123.441027207415">
        <ele>54.54180481549417</ele>
        <time>2018-01-05T23:24:04.236000Z</time>
      </trkpt>
      <trkpt lat="41.68185779363073" lon="123.441188307594">
        <time>2018-01-05T23:24:08.324000Z</time>
      </trkpt>
      <trkpt lat="41.68184874117531" lon="123.4413462226497">
        <time>2018-01-05T23:24:12.267000Z</time>
      </trkpt>
      <trkpt lat="41.68183729987748" lon="123.4414682631599">
        <ele>55.63960978770537</ele>
        <time>2018-01-05T23:24:15.338000Z</time>
      </trkpt>
      <trkpt lat="41.68184375394292" lon="123.441608660038">
        <time>2018-01-05T23:24:19.225000Z</time>
      </trkpt>
      <trkpt lat="41.68185699734993" lon="123.4417586961048">
        <ele>55.95415852130003</ele>
        <time>2018-01-05T23:24:23.285000Z</time>
      </trkpt>
      <trkpt lat="41.68185414750285" lon="123.441902026649">
        <time>2018-01-05T23:24:27.259000Z</time>
      </trkpt>
      <trkpt lat="41.68184568178065" lon="123.4420510568874">
        <time>2018-01-05T23:24:31.290000Z</time>
      </trkpt>
      <trkpt lat="41.68184802871354" lon="123.4421974049168">
        <ele>55.52456446938869</ele>
        <time>2018-01-05T23:24:35.250000Z</time>
      </trkpt>
      <trkpt lat="41.68185146529384" lon="123.4423180205034">
        <time>2018-01-05T23:24:38.294000Z</time>
      </trkpt>
      <trkpt lat="41.68184991464175" lon="123.4424719960647">
        <time>2018-01-05T23:24:42.302000Z</time>
      </trkpt>
      <trkpt lat="41.68184903454192" lon="123.4425979760694">
        <ele>54.88805183481026</ele>
        <time>2018-01-05T23:24:45.239000Z</time>
      </trkpt>
      <trkpt lat="41.68184484359033" lon="123.4427206871318">
        <time>2018-01-05T23:24:48.280000Z</time>
      </trkpt>
      <trkpt lat="41.68183851525344" lon="123.4428436496513">
        <time>2018-01-05T23:24:52.257000Z</time>
      </trkpt>
      <trkpt lat="41.68184647806145" lon="123.4429653548854">
        <ele>54.32557768044715</ele>
        <time>2018-01-05T23:24:56.304000Z</time>
      </trkpt>
      <trkpt lat="41.68185146529384" lon="123.443107092868">
        <time>2018-01-05T23:25:00.246000Z</time>
      </trkpt>
      <trkpt lat="41.68185377031721" lon="123.4432300553875">
        <ele>53.92646115565005</ele>
        <time>2018-01-05T23:25:03.244000Z</time>
      </trkpt>
      <trkpt lat="41.68185330931254" lon="123.4433816840159">
        <time>2018-01-05T23:25:07.255000Z</time>
      </trkpt>
      <trkpt lat="41.68184895072289" lon="123.4435255174743">
        <time>2018-01-05T23:25:11.272000Z</time>
      </trkpt>
      <trkpt lat="41.68184061072923" lon="123.4436834325301">
        <ele>53.29376868835546</ele>
        <time>2018-01-05T23:25:15.253000Z</time>
      </trkpt>
      <trkpt lat="41.68183063626446" lon="123.4438356478917">
        <time>2018-01-05T23:25:19.238000Z</time>
      </trkpt>
      <trkpt lat="41.68182690631755" lon="123.4439706803518">
        <ele>52.82334237426006</ele>
        <time>2018-01-05T23:25:23.294000Z</time>
      </trkpt>
      <trkpt lat="41.6818249365703" lon="123.4440977500039">
        <time>2018-01-05T23:25:27.284000Z</time>
      </trkpt>
      <trkpt lat="41.68181718330987" lon="123.4442476184326">
        <time>2018-01-05T23:25:31.245000Z</time>
      </trkpt>
      <trkpt lat="41.68181772813357" lon="123.4443925415384">
        <ele>52.19992745608336</ele>
        <time>2018-01-05T23:25:35.326000Z</time>
      </trkpt>
      <trkpt lat="41.68181181889184" lon="123.4445251432466">
        <time>2018-01-05T23:25:38.274000Z</time>
      </trkpt>
      <trkpt lat="41.68180989105411" lon="123.4446486924993">
        <time>2018-01-05T23:25:41.246000Z</time>
      </trkpt>
      <trkpt lat="41.68181072924443" lon="123.4447942023384">
        <ele>51.59324850886443</ele>
        <time>2018-01-05T23:25:45.256000Z</time>
      </trkpt>
      <trkpt lat="41.68181131597765" lon="123.4449428973006">
        <time>2018-01-05T23:25:49.294000Z</time>
      </trkpt>
      <trkpt lat="41.68181077115394" lon="123.4450973757761">
        <ele>51.14847188938907</ele>
        <time>2018-01-05T23:25:53.258000Z</time>
      </trkpt>
      <trkpt lat="41.6818199074284" lon="123.4452333302455">
        <time>2018-01-05T23:25:57.253000Z</time>
      </trkpt>
      <trkpt lat="41.68182208672322" lon="123.4453734756666">
        <time>2018-01-05T23:26:01.265000Z</time>
      </trkpt>
      <trkpt lat="41.68182443365611" lon="123.4455245175617">
        <ele>50.13146709867794</ele>
        <time>2018-01-05T23:26:05.241000Z</time>
      </trkpt>
      <trkpt lat="41.68182036843307" lon="123.4456774872946">
        <time>2018-01-05T23:26:09.241000Z</time>
      </trkpt>
      <trkpt lat="41.68182053607114" lon="123.4458338936078">
        <ele>49.56600124740578</ele>
        <time>2018-01-05T23:26:13.260000Z</time>
      </trkpt>
      <trkpt lat="41.68181881778099" lon="123.4459855222362">
        <time>2018-01-05T23:26:17.263000Z</time>
      </trkpt>
      <trkpt lat="41.68182895988382" lon="123.4461306129801">
        <time>2018-01-05T23:26:21.366000Z</time>
      </trkpt>
      <trkpt lat="41.68182095516629" lon="123.4462771286475">
        <ele>49.53250414296672</ele>
        <time>2018-01-05T23:26:25.256000Z</time>
      </trkpt>
      <trkpt lat="41.68181236371554" lon="123.4464269132572">
        <time>2018-01-05T23:26:29.214000Z</time>
      </trkpt>
      <trkpt lat="41.68180825658299" lon="123.4465641250121">
        <ele>49.51057246679062</ele>
        <time>2018-01-05T23:26:33.262000Z</time>
      </trkpt>
      <trkpt lat="41.68180641256429" lon="123.4467104730415">
        <time>2018-01-05T23:26:37.258000Z</time>
      </trkpt>
      <trkpt lat="41.68180586774059" lon="123.4468540550428">
        <time>2018-01-05T23:26:41.237000Z</time>
      </trkpt>
      <trkpt lat="41.68180465236463" lon="123.4469993972438">
        <ele>49.42403119143322</ele>
        <time>2018-01-05T23:26:45.251000Z</time>
      </trkpt>
      <trkpt lat="41.68180058714159" lon="123.447124119963">
        <time>2018-01-05T23:26:48.231000Z</time>
      </trkpt>
      <trkpt lat="41.68180389799334" lon="123.447280191">
        <time>2018-01-05T23:26:52.244000Z</time>
      </trkpt>
      <trkpt lat="41.68180758603074" lon="123.4474156425553">
        <ele>48.9221136318857</ele>
        <time>2018-01-05T23:26:55.279000Z</time>
      </trkpt>
      <trkpt lat="41.68181630321003" lon="123.4475736414301">
        <time>2018-01-05T23:26:59.228000Z</time>
      </trkpt>
      <trkpt lat="41.68178646363474" lon="123.4476887249606">
        <ele>48.56779228509975</ele>
        <time>2018-01-05T23:27:06.222000Z</time>
      </trkpt>
      <trkpt lat="41.68176110837765" lon="123.4475692828404">
        <ele>48.45564501961584</ele>
        <time>2018-01-05T23:27:38.256000Z</time>
      </trkpt>
      <trkpt lat="41.68176110837765" lon="123.4475692828404">
        <ele>48.41253311307963</ele>
        <time>2018-01-05T23:28:04.254000Z</time>
      </trkpt>
      <trkpt lat="41.68174652386613" lon="123.4477621504324">
        <time>2018-01-05T23:28:04.262000Z</time>
      </trkpt>
      <trkpt lat="41.68176312003441" lon="123.4479233344304">
        <time>2018-01-05T23:28:08.257000Z</time>
      </trkpt>
      <trkpt lat="41.68178218886413" lon="123.4480469675022">
        <ele>48.28875348220095</ele>
        <time>2018-01-05T23:28:11.261000Z</time>
      </trkpt>
      <trkpt lat="41.68180469427414" lon="123.4481818323242">
        <time>2018-01-05T23:28:14.242000Z</time>
      </trkpt>
      <trkpt lat="41.68178646363474" lon="123.4483131767469">
        <time>2018-01-05T23:28:17.270000Z</time>
      </trkpt>
      <trkpt lat="41.68176722716697" lon="123.4484418389606">
        <ele>47.62252630280462</ele>
        <time>2018-01-05T23:28:20.250000Z</time>
      </trkpt>
      <trkpt lat="41.68176923882373" lon="123.4485668969559">
        <time>2018-01-05T23:28:23.259000Z</time>
      </trkpt>
      <trkpt lat="41.68177007701404" lon="123.4487174359369">
        <time>2018-01-05T23:28:26.229000Z</time>
      </trkpt>
      <trkpt lat="41.68176923882373" lon="123.4488536418634">
        <time>2018-01-05T23:28:29.230000Z</time>
      </trkpt>
      <trkpt lat="41.68176286857732" lon="123.4489849024671">
        <ele>46.96168486107381</ele>
        <time>2018-01-05T23:28:32.250000Z</time>
      </trkpt>
      <trkpt lat="41.68175620496429" lon="123.4491069429772">
        <time>2018-01-05T23:28:35.232000Z</time>
      </trkpt>
      <trkpt lat="41.68175591159768" lon="123.449238538857">
        <time>2018-01-05T23:28:38.260000Z</time>
      </trkpt>
      <trkpt lat="41.68175549250252" lon="123.4493700509178">
        <ele>46.80273806905515</ele>
        <time>2018-01-05T23:28:41.275000Z</time>
      </trkpt>
      <trkpt lat="41.68174958326079" lon="123.4495272954213">
        <time>2018-01-05T23:28:45.252000Z</time>
      </trkpt>
      <trkpt lat="41.68175389994092" lon="123.4496650939094">
        <time>2018-01-05T23:28:48.265000Z</time>
      </trkpt>
      <trkpt lat="41.68175762988783" lon="123.4497883917051">
        <ele>46.11427015379692</ele>
        <time>2018-01-05T23:28:51.274000Z</time>
      </trkpt>
      <trkpt lat="41.68175750415929" lon="123.4499552753972">
        <time>2018-01-05T23:28:55.278000Z</time>
      </trkpt>
      <trkpt lat="41.68176056355394" lon="123.4501107597011">
        <time>2018-01-05T23:28:59.240000Z</time>
      </trkpt>
      <trkpt lat="41.68176358103909" lon="123.4502390028196">
        <ele>46.07767440217948</ele>
        <time>2018-01-05T23:29:02.243000Z</time>
      </trkpt>
      <trkpt lat="41.68176710143842" lon="123.4503652342813">
        <time>2018-01-05T23:29:05.323000Z</time>
      </trkpt>
      <trkpt lat="41.68177007701404" lon="123.450488448258">
        <time>2018-01-05T23:29:08.258000Z</time>
      </trkpt>
      <trkpt lat="41.68177242394693" lon="123.4506088962065">
        <ele>46.04665937921626</ele>
        <time>2018-01-05T23:29:11.233000Z</time>
      </trkpt>
      <trkpt lat="41.68176923882373" lon="123.4507534002172">
        <time>2018-01-05T23:29:15.232000Z</time>
      </trkpt>
      <trkpt lat="41.6817760281653" lon="123.4508749378132">
        <time>2018-01-05T23:29:19.255000Z</time>
      </trkpt>
      <trkpt lat="41.68177213058032" lon="123.4510051087695">
        <ele>46.01490355156442</ele>
        <time>2018-01-05T23:29:23.255000Z</time>
      </trkpt>
      <trkpt lat="41.68177183721371" lon="123.4511418176102">
        <time>2018-01-05T23:29:28.274000Z</time>
      </trkpt>
      <trkpt lat="41.68178189549752" lon="123.4512778558987">
        <ele>45.99298561017735</ele>
        <time>2018-01-05T23:29:33.317000Z</time>
      </trkpt>
      <trkpt lat="41.6817794647456" lon="123.4514167440342">
        <time>2018-01-05T23:29:38.263000Z</time>
      </trkpt>
      <trkpt lat="41.68181433346279" lon="123.4515638464349">
        <ele>45.97036637368506</ele>
        <time>2018-01-05T23:29:42.247000Z</time>
      </trkpt>
      <trkpt lat="41.68186760045744" lon="123.4516643454539">
        <time>2018-01-05T23:29:45.289000Z</time>
      </trkpt>
      <trkpt lat="41.6819554847122" lon="123.4517585580456">
        <time>2018-01-05T23:29:49.247000Z</time>
      </trkpt>
      <trkpt lat="41.68205895930685" lon="123.4517997131901">
        <ele>45.93520284446561</ele>
        <time>2018-01-05T23:29:53.270000Z</time>
      </trkpt>
      <trkpt lat="41.68215451300301" lon="123.4518054128843">
        <time>2018-01-05T23:29:57.250000Z</time>
      </trkpt>
      <trkpt lat="41.68225450910784" lon="123.4517996293711">
        <ele>45.91283054286952</ele>
        <time>2018-01-05T23:30:01.271000Z</time>
      </trkpt>
      <trkpt lat="41.68235777415492" lon="123.4518132918733">
        <time>2018-01-05T23:30:05.255000Z</time>
      </trkpt>
      <trkpt lat="41.6824726900474" lon="123.4518538602846">
        <time>2018-01-05T23:30:09.282000Z</time>
      </trkpt>
      <trkpt lat="41.6823846800641" lon="123.4518142138826">
        <ele>45.51534735067392</ele>
        <time>2018-01-05T23:30:26.124000Z</time>
      </trkpt>
      <trkpt lat="41.6821098374591" lon="123.4518521000849">
        <ele>46.56363296202439</ele>
        <time>2018-01-05T23:31:19.324000Z</time>
      </trkpt>
      <trkpt lat="41.68202258184709" lon="123.4518206679481">
        <time>2018-01-05T23:31:23.354000Z</time>
      </trkpt>
      <trkpt lat="41.68193549387313" lon="123.4517819435554">
        <time>2018-01-05T23:31:26.255000Z</time>
      </trkpt>
      <trkpt lat="41.68183633595861" lon="123.4517345019835">
        <ele>49.64252797154742</ele>
        <time>2018-01-05T23:31:30.329000Z</time>
      </trkpt>
      <trkpt lat="41.6817784170077" lon="123.4516265430706">
        <time>2018-01-05T23:31:34.255000Z</time>
      </trkpt>
      <trkpt lat="41.68176596988149" lon="123.451498132314">
        <ele>51.93636280754168</ele>
        <time>2018-01-05T23:31:38.231000Z</time>
      </trkpt>
      <trkpt lat="41.68175339702673" lon="123.4513731581377">
        <time>2018-01-05T23:31:42.252000Z</time>
      </trkpt>
      <trkpt lat="41.6817480326087" lon="123.4512098786639">
        <time>2018-01-05T23:31:46.270000Z</time>
      </trkpt>
      <trkpt lat="41.68175213974126" lon="123.4510864970493">
        <ele>52.81077451734998</ele>
        <time>2018-01-05T23:31:49.304000Z</time>
      </trkpt>
      <trkpt lat="41.68175955772556" lon="123.4509326891261">
        <time>2018-01-05T23:31:53.255000Z</time>
      </trkpt>
      <trkpt lat="41.68176110837765" lon="123.4507794679361">
        <time>2018-01-05T23:31:57.316000Z</time>
      </trkpt>
      <trkpt lat="41.68175771370687" lon="123.450641753267">
        <ele>51.97226608173845</ele>
        <time>2018-01-05T23:32:01.287000Z</time>
      </trkpt>
      <trkpt lat="41.68175708506413" lon="123.4504895379054">
        <time>2018-01-05T23:32:05.268000Z</time>
      </trkpt>
      <trkpt lat="41.68175607923575" lon="123.4503605404156">
        <ele>51.40779531921785</ele>
        <time>2018-01-05T23:32:08.312000Z</time>
      </trkpt>
      <trkpt lat="41.68175947390653" lon="123.450237410258">
        <time>2018-01-05T23:32:11.310000Z</time>
      </trkpt>
      <trkpt lat="41.68175486385979" lon="123.4500883800196">
        <time>2018-01-05T23:32:15.238000Z</time>
      </trkpt>
      <trkpt lat="41.68174799069919" lon="123.4499680997091">
        <ele>50.62643662055862</ele>
        <time>2018-01-05T23:32:18.257000Z</time>
      </trkpt>
      <trkpt lat="41.68173910588182" lon="123.4498361685532">
        <time>2018-01-05T23:32:21.260000Z</time>
      </trkpt>
      <trkpt lat="41.68173424437799" lon="123.4496790916877">
        <time>2018-01-05T23:32:25.290000Z</time>
      </trkpt>
      <trkpt lat="41.68173520829685" lon="123.4495384433525">
        <ele>49.82774562462698</ele>
        <time>2018-01-05T23:32:29.257000Z</time>
      </trkpt>
      <trkpt lat="41.68173545975394" lon="123.4493951966273">
        <time>2018-01-05T23:32:33.235000Z</time>
      </trkpt>
      <trkpt lat="41.68174090799101" lon="123.4492608347195">
        <time>2018-01-05T23:32:37.261000Z</time>
      </trkpt>
      <trkpt lat="41.68175159491755" lon="123.4491242096978">
        <ele>49.0133618730568</ele>
        <time>2018-01-05T23:32:41.175000Z</time>
      </trkpt>
      <trkpt lat="41.68176236566313" lon="123.4489884228664">
        <time>2018-01-05T23:32:45.207000Z</time>
      </trkpt>
      <trkpt lat="41.68176081501104" lon="123.448836794238">
        <ele>48.48004240157987</ele>
        <time>2018-01-05T23:32:49.252000Z</time>
      </trkpt>
      <trkpt lat="41.68176001873024" lon="123.4487144184517">
        <time>2018-01-05T23:32:52.229000Z</time>
      </trkpt>
      <trkpt lat="41.6817636229486" lon="123.4485899471896">
        <time>2018-01-05T23:32:55.252000Z</time>
      </trkpt>
      <trkpt lat="41.6817665147052" lon="123.4484605306046">
        <ele>47.71910092926028</ele>
        <time>2018-01-05T23:32:58.263000Z</time>
      </trkpt>
      <trkpt lat="41.68177875228383" lon="123.4483344667809">
        <time>2018-01-05T23:33:01.279000Z</time>
      </trkpt>
      <trkpt lat="41.681787134187" lon="123.4481824190574">
        <time>2018-01-05T23:33:05.272000Z</time>
      </trkpt>
      <trkpt lat="41.68175993491121" lon="123.4480357357519">
        <ele>49.52554846242363</ele>
        <time>2018-01-05T23:33:09.296000Z</time>
      </trkpt>
      <trkpt lat="41.68175084054626" lon="123.4478789103436">
        <time>2018-01-05T23:33:13.298000Z</time>
      </trkpt>
      <trkpt lat="41.6817522654698" lon="123.4477521759676">
        <time>2018-01-05T23:33:16.273000Z</time>
      </trkpt>
      <trkpt lat="41.68176550887681" lon="123.4476136231082">
        <ele>51.4473237727851</ele>
        <time>2018-01-05T23:33:19.282000Z</time>
      </trkpt>
      <trkpt lat="41.68179346252389" lon="123.4474983719396">
        <time>2018-01-05T23:33:22.277000Z</time>
      </trkpt>
      <trkpt lat="41.68179312724777" lon="123.4473667760598">
        <time>2018-01-05T23:33:25.292000Z</time>
      </trkpt>
      <trkpt lat="41.68178005147882" lon="123.4472427238929">
        <ele>53.18096068163442</ele>
        <time>2018-01-05T23:33:28.298000Z</time>
      </trkpt>
      <trkpt lat="41.68176312003441" lon="123.4471158218788">
        <time>2018-01-05T23:33:31.316000Z</time>
      </trkpt>
      <trkpt lat="41.68176450304843" lon="123.4469808732378">
        <time>2018-01-05T23:33:35.249000Z</time>
      </trkpt>
      <trkpt lat="41.68176902927615" lon="123.4468296637046">
        <ele>54.15241580069181</ele>
        <time>2018-01-05T23:33:39.222000Z</time>
      </trkpt>
      <trkpt lat="41.6817739326895" lon="123.4466745984959">
        <time>2018-01-05T23:33:43.242000Z</time>
      </trkpt>
      <trkpt lat="41.68176944837131" lon="123.44654526573">
        <time>2018-01-05T23:33:46.240000Z</time>
      </trkpt>
      <trkpt lat="41.68176328767247" lon="123.4464244825053">
        <ele>55.0689229128654</ele>
        <time>2018-01-05T23:33:49.281000Z</time>
      </trkpt>
      <trkpt lat="41.6817628266678" lon="123.446302190538">
        <time>2018-01-05T23:33:52.238000Z</time>
      </trkpt>
      <trkpt lat="41.68177254967548" lon="123.4461399168926">
        <time>2018-01-05T23:33:56.236000Z</time>
      </trkpt>
      <trkpt lat="41.68177598625578" lon="123.4460059740799">
        <ele>55.83641233263096</ele>
        <time>2018-01-05T23:33:59.250000Z</time>
      </trkpt>
      <trkpt lat="41.68177099902339" lon="123.4458699357914">
        <time>2018-01-05T23:34:02.261000Z</time>
      </trkpt>
      <trkpt lat="41.68176182083942" lon="123.4457482305574">
        <time>2018-01-05T23:34:05.259000Z</time>
      </trkpt>
      <trkpt lat="41.68176370676763" lon="123.4456000385093">
        <ele>55.91920022881774</ele>
        <time>2018-01-05T23:34:09.270000Z</time>
      </trkpt>
      <trkpt lat="41.68176479641505" lon="123.4454774950849">
        <time>2018-01-05T23:34:12.220000Z</time>
      </trkpt>
      <trkpt lat="41.68177175339468" lon="123.4453272913801">
        <time>2018-01-05T23:34:16.237000Z</time>
      </trkpt>
      <trkpt lat="41.68177242394693" lon="123.445184379931">
        <ele>56.30127187925761</ele>
        <time>2018-01-05T23:34:20.227000Z</time>
      </trkpt>
      <trkpt lat="41.68177451942272" lon="123.4450447374242">
        <time>2018-01-05T23:34:24.262000Z</time>
      </trkpt>
      <trkpt lat="41.68177372314192" lon="123.4448865709113">
        <ele>56.65667180412038</ele>
        <time>2018-01-05T23:34:28.260000Z</time>
      </trkpt>
      <trkpt lat="41.68177829127915" lon="123.4447344393688">
        <time>2018-01-05T23:34:32.313000Z</time>
      </trkpt>
      <trkpt lat="41.6817773692698" lon="123.4446103033828">
        <time>2018-01-05T23:34:35.275000Z</time>
      </trkpt>
      <trkpt lat="41.68177539952256" lon="123.444452220689">
        <ele>56.69530647910717</ele>
        <time>2018-01-05T23:34:39.241000Z</time>
      </trkpt>
      <trkpt lat="41.68177041229017" lon="123.4442984965848">
        <time>2018-01-05T23:34:43.252000Z</time>
      </trkpt>
      <trkpt lat="41.68176337149151" lon="123.4441731033134">
        <time>2018-01-05T23:34:46.231000Z</time>
      </trkpt>
      <trkpt lat="41.68177200485177" lon="123.4440392443197">
        <ele>56.73421925529819</ele>
        <time>2018-01-05T23:34:50.282000Z</time>
      </trkpt>
      <trkpt lat="41.68177162766613" lon="123.4438930639284">
        <time>2018-01-05T23:34:54.280000Z</time>
      </trkpt>
      <trkpt lat="41.68177426796563" lon="123.4437575285541">
        <ele>56.75915209787688</ele>
        <time>2018-01-05T23:34:58.270000Z</time>
      </trkpt>
      <trkpt lat="41.68178826574393" lon="123.4436359909581">
        <time>2018-01-05T23:35:02.268000Z</time>
      </trkpt>
      <trkpt lat="41.68182170953758" lon="123.4435134475338">
        <time>2018-01-05T23:35:06.249000Z</time>
      </trkpt>
      <trkpt lat="41.68183776088215" lon="123.4433728830176">
        <ele>54.86633281387942</ele>
        <time>2018-01-05T23:35:10.247000Z</time>
      </trkpt>
      <trkpt lat="41.68183692269184" lon="123.4432308935779">
        <time>2018-01-05T23:35:14.252000Z</time>
      </trkpt>
      <trkpt lat="41.68183906007715" lon="123.4430767503785">
        <ele>53.4834564919487</ele>
        <time>2018-01-05T23:35:18.258000Z</time>
      </trkpt>
      <trkpt lat="41.68183734178699" lon="123.4429488425361">
        <time>2018-01-05T23:35:21.291000Z</time>
      </trkpt>
      <trkpt lat="41.68184207756229" lon="123.4428221919792">
        <time>2018-01-05T23:35:24.249000Z</time>
      </trkpt>
      <trkpt lat="41.68183541394927" lon="123.442679029073">
        <ele>51.49403492466649</ele>
        <time>2018-01-05T23:35:28.270000Z</time>
      </trkpt>
      <trkpt lat="41.68181269899167" lon="123.4425279871779">
        <time>2018-01-05T23:35:32.251000Z</time>
      </trkpt>
      <trkpt lat="41.68181110643007" lon="123.4423706588554">
        <time>2018-01-05T23:35:36.288000Z</time>
      </trkpt>
      <trkpt lat="41.681816219391" lon="123.4422435892033">
        <ele>49.90628947500859</ele>
        <time>2018-01-05T23:35:39.266000Z</time>
      </trkpt>
      <trkpt lat="41.68182007506646" lon="123.4421150108086">
        <time>2018-01-05T23:35:42.228000Z</time>
      </trkpt>
      <trkpt lat="41.68182330209918" lon="123.4419850913095">
        <time>2018-01-05T23:35:45.267000Z</time>
      </trkpt>
      <trkpt lat="41.68182359546579" lon="123.4418612905996">
        <ele>47.61749847613116</ele>
        <time>2018-01-05T23:35:48.248000Z</time>
      </trkpt>
      <trkpt lat="41.68182145808048" lon="123.4417389986324">
        <time>2018-01-05T23:35:51.252000Z</time>
      </trkpt>
      <trkpt lat="41.68181747667648" lon="123.4415882920133">
        <time>2018-01-05T23:35:55.248000Z</time>
      </trkpt>
      <trkpt lat="41.68181722521938" lon="123.4414679278838">
        <ele>45.83443401202786</ele>
        <time>2018-01-05T23:35:58.265000Z</time>
      </trkpt>
      <trkpt lat="41.68181994933791" lon="123.4413194005596">
        <time>2018-01-05T23:36:02.271000Z</time>
      </trkpt>
      <trkpt lat="41.68182552330352" lon="123.4411590547519">
        <time>2018-01-05T23:36:06.250000Z</time>
      </trkpt>
      <trkpt lat="41.68182967234559" lon="123.4410021455245">
        <ele>46.31348504938006</ele>
        <time>2018-01-05T23:36:10.307000Z</time>
      </trkpt>
      <trkpt lat="41.68183352802105" lon="123.4408453201162">
        <time>2018-01-05T23:36:14.306000Z</time>
      </trkpt>
      <trkpt lat="41.681832061188" lon="123.4407242854344">
        <time>2018-01-05T23:36:17.262000Z</time>
      </trkpt>
      <trkpt lat="41.68183327656396" lon="123.4406004009055">
        <ele>47.33471108090943</ele>
        <time>2018-01-05T23:36:20.300000Z</time>
      </trkpt>
      <trkpt lat="41.68183432430185" lon="123.4404444136875">
        <time>2018-01-05T23:36:24.315000Z</time>
      </trkpt>
      <trkpt lat="41.6818362940491" lon="123.4402892646598">
        <ele>47.99179870174963</ele>
        <time>2018-01-05T23:36:28.311000Z</time>
      </trkpt>
      <trkpt lat="41.68183520440169" lon="123.4401325230705">
        <time>2018-01-05T23:36:32.321000Z</time>
      </trkpt>
      <trkpt lat="41.68183306701638" lon="123.4399835766511">
        <time>2018-01-05T23:36:36.265000Z</time>
      </trkpt>
      <trkpt lat="41.68184719052322" lon="123.4398307745563">
        <ele>49.07404404802598</ele>
        <time>2018-01-05T23:36:40.246000Z</time>
      </trkpt>
      <trkpt lat="41.68185142338432" lon="123.4396722727673">
        <time>2018-01-05T23:36:44.255000Z</time>
      </trkpt>
      <trkpt lat="41.68184714861371" lon="123.4395478015052">
        <ele>49.80797080595498</ele>
        <time>2018-01-05T23:36:48.240000Z</time>
      </trkpt>
      <trkpt lat="41.68183872480102" lon="123.4394107573884">
        <time>2018-01-05T23:36:53.252000Z</time>
      </trkpt>
      <trkpt lat="41.68184543032356" lon="123.439251249771">
        <time>2018-01-05T23:36:57.327000Z</time>
      </trkpt>
      <trkpt lat="41.68185892518766" lon="123.439089898135">
        <ele>50.79840468328332</ele>
        <time>2018-01-05T23:37:01.244000Z</time>
      </trkpt>
      <trkpt lat="41.68186592407681" lon="123.4389660974251">
        <time>2018-01-05T23:37:04.307000Z</time>
      </trkpt>
      <trkpt lat="41.68188687883474" lon="123.4388435540008">
        <time>2018-01-05T23:37:07.292000Z</time>
      </trkpt>
      <trkpt lat="41.68187418025143" lon="123.4387202562051">
        <ele>51.72642581132835</ele>
        <time>2018-01-05T23:37:10.244000Z</time>
      </trkpt>
      <trkpt lat="41.6818386828915" lon="123.4385999758946">
        <time>2018-01-05T23:37:13.249000Z</time>
      </trkpt>
      <trkpt lat="41.68182271536596" lon="123.4384797794031">
        <time>2018-01-05T23:37:16.271000Z</time>
      </trkpt>
      <trkpt lat="41.68182749305077" lon="123.4383373708682">
        <ele>52.2012918293423</ele>
        <time>2018-01-05T23:37:20.274000Z</time>
      </trkpt>
      <trkpt lat="41.681841323191" lon="123.4381948785143">
        <time>2018-01-05T23:37:24.264000Z</time>
      </trkpt>
      <trkpt lat="41.68184115555294" lon="123.4380351194399">
        <ele>52.21893527225687</ele>
        <time>2018-01-05T23:37:28.320000Z</time>
      </trkpt>
      <trkpt lat="41.68183968871988" lon="123.4379048646646">
        <time>2018-01-05T23:37:31.289000Z</time>
      </trkpt>
      <trkpt lat="41.68183298319735" lon="123.4377735202419">
        <time>2018-01-05T23:37:34.266000Z</time>
      </trkpt>
      <trkpt lat="41.681857164988" lon="123.4376264178412">
        <ele>52.24492949983805</ele>
        <time>2018-01-05T23:37:38.265000Z</time>
      </trkpt>
      <trkpt lat="41.68187606617965" lon="123.4374759626793">
        <time>2018-01-05T23:37:42.238000Z</time>
      </trkpt>
      <trkpt lat="41.68188268788315" lon="123.4373303690212">
        <time>2018-01-05T23:37:46.266000Z</time>
      </trkpt>
      <trkpt lat="41.68187275532789" lon="123.4372059815781">
        <ele>52.27260723374188</ele>
        <time>2018-01-05T23:37:49.230000Z</time>
      </trkpt>
      <trkpt lat="41.68185527905978" lon="123.4370827676015">
        <time>2018-01-05T23:37:52.230000Z</time>
      </trkpt>
      <trkpt lat="41.68184836398967" lon="123.4369494115221">
        <time>2018-01-05T23:37:55.235000Z</time>
      </trkpt>
      <trkpt lat="41.68184492740937" lon="123.4368200787561">
        <ele>53.9701386920437</ele>
        <time>2018-01-05T23:37:58.274000Z</time>
      </trkpt>
      <trkpt lat="41.68183491103508" lon="123.4366893210667">
        <time>2018-01-05T23:38:01.251000Z</time>
      </trkpt>
      <trkpt lat="41.68182812169351" lon="123.4365511034834">
        <time>2018-01-05T23:38:04.281000Z</time>
      </trkpt>
      <trkpt lat="41.68181898541905" lon="123.4364242014693">
        <time>2018-01-05T23:38:07.267000Z</time>
      </trkpt>
      <trkpt lat="41.68182212863274" lon="123.4362695553558">
        <ele>55.77402297002502</ele>
        <time>2018-01-05T23:38:11.247000Z</time>
      </trkpt>
      <trkpt lat="41.68182548139401" lon="123.4361301643061">
        <time>2018-01-05T23:38:15.256000Z</time>
      </trkpt>
      <trkpt lat="41.68182606812723" lon="123.4359907732563">
        <ele>56.51228604384466</ele>
        <time>2018-01-05T23:38:20.271000Z</time>
      </trkpt>
      <trkpt lat="41.68181236371554" lon="123.4358446766841">
        <time>2018-01-05T23:38:25.257000Z</time>
      </trkpt>
      <trkpt lat="41.68179694101371" lon="123.4356895276564">
        <ele>57.40434353508296</ele>
        <time>2018-01-05T23:38:29.283000Z</time>
      </trkpt>
      <trkpt lat="41.68177770454593" lon="123.4355694149839">
        <time>2018-01-05T23:38:33.282000Z</time>
      </trkpt>
      <trkpt lat="41.68176990937598" lon="123.4354114161091">
        <time>2018-01-05T23:38:37.310000Z</time>
      </trkpt>
      <trkpt lat="41.68178172785945" lon="123.4352665768223">
        <ele>57.61669969827966</ele>
        <time>2018-01-05T23:38:41.230000Z</time>
      </trkpt>
      <trkpt lat="41.68178533207782" lon="123.4351116792517">
        <time>2018-01-05T23:38:45.239000Z</time>
      </trkpt>
      <trkpt lat="41.68178394906379" lon="123.4349660855936">
        <ele>57.35790678271851</ele>
        <time>2018-01-05T23:38:49.253000Z</time>
      </trkpt>
      <trkpt lat="41.6817731364087" lon="123.4348151275175">
        <time>2018-01-05T23:38:53.263000Z</time>
      </trkpt>
      <trkpt lat="41.6817549057693" lon="123.4346619063275">
        <time>2018-01-05T23:38:57.305000Z</time>
      </trkpt>
      <trkpt lat="41.68174949944176" lon="123.4345142171936">
        <ele>56.96863004418533</ele>
        <time>2018-01-05T23:39:01.283000Z</time>
      </trkpt>
      <trkpt lat="41.68175016999401" lon="123.4343924281406">
        <time>2018-01-05T23:39:04.277000Z</time>
      </trkpt>
      <trkpt lat="41.68175063099869" lon="123.4342475050347">
        <ele>56.73655524475654</ele>
        <time>2018-01-05T23:39:08.291000Z</time>
      </trkpt>
      <trkpt lat="41.68175871953525" lon="123.4341067728805">
        <time>2018-01-05T23:39:12.298000Z</time>
      </trkpt>
      <trkpt lat="41.68176793962873" lon="123.4339429066735">
        <time>2018-01-05T23:39:16.219000Z</time>
      </trkpt>
      <trkpt lat="41.68177460324176" lon="123.4338224587249">
        <ele>56.34893544365793</ele>
        <time>2018-01-05T23:39:19.236000Z</time>
      </trkpt>
      <trkpt lat="41.6817720886708" lon="123.4336734284865">
        <time>2018-01-05T23:39:23.283000Z</time>
      </trkpt>
      <trkpt lat="41.68177263349451" lon="123.4335124959456">
        <time>2018-01-05T23:39:27.230000Z</time>
      </trkpt>
      <trkpt lat="41.68177003510453" lon="123.4333788884091">
        <ele>55.97809213408429</ele>
        <time>2018-01-05T23:39:30.244000Z</time>
      </trkpt>
      <trkpt lat="41.68176949028082" lon="123.4332485498147">
        <time>2018-01-05T23:39:33.381000Z</time>
      </trkpt>
      <trkpt lat="41.68177020274259" lon="123.4331126791643">
        <time>2018-01-05T23:39:36.253000Z</time>
      </trkpt>
      <trkpt lat="41.68177011892356" lon="123.4329730366575">
        <ele>55.63396694064302</ele>
        <time>2018-01-05T23:39:39.257000Z</time>
      </trkpt>
      <trkpt lat="41.68177397459902" lon="123.4328437038915">
        <time>2018-01-05T23:39:42.253000Z</time>
      </trkpt>
      <trkpt lat="41.68177611198433" lon="123.4327199031817">
        <time>2018-01-05T23:39:45.243000Z</time>
      </trkpt>
      <trkpt lat="41.68178512253024" lon="123.4325650894301">
        <ele>55.29584814540205</ele>
        <time>2018-01-05T23:39:49.239000Z</time>
      </trkpt>
      <trkpt lat="41.68178805619635" lon="123.4324428812819">
        <time>2018-01-05T23:39:52.251000Z</time>
      </trkpt>
      <trkpt lat="41.68179530654259" lon="123.4322919232058">
        <time>2018-01-05T23:39:56.232000Z</time>
      </trkpt>
      <trkpt lat="41.68180155106045" lon="123.4321325832265">
        <ele>54.92686889044231</ele>
        <time>2018-01-05T23:40:00.280000Z</time>
      </trkpt>
      <trkpt lat="41.68180004231788" lon="123.4319930245387">
        <time>2018-01-05T23:40:04.297000Z</time>
      </trkpt>
      <trkpt lat="41.68179949749418" lon="123.4318396357106">
        <ele>54.66942223654673</ele>
        <time>2018-01-05T23:40:08.240000Z</time>
      </trkpt>
      <trkpt lat="41.68180758603074" lon="123.4316880070823">
        <time>2018-01-05T23:40:12.239000Z</time>
      </trkpt>
      <trkpt lat="41.6818088014067" lon="123.4315357079016">
        <time>2018-01-05T23:40:16.232000Z</time>
      </trkpt>
      <trkpt lat="41.6818095976875" lon="123.4313846660065">
        <ele>54.27548536147884</ele>
        <time>2018-01-05T23:40:20.232000Z</time>
      </trkpt>
      <trkpt lat="41.68181332763441" lon="123.4312615358489">
        <time>2018-01-05T23:40:23.244000Z</time>
      </trkpt>
      <trkpt lat="41.68181655466713" lon="123.4311162774669">
        <time>2018-01-05T23:40:27.226000Z</time>
      </trkpt>
      <trkpt lat="41.68182078752823" lon="123.4309620504486">
        <ele>53.91437655933328</ele>
        <time>2018-01-05T23:40:31.238000Z</time>
      </trkpt>
      <trkpt lat="41.68182158380903" lon="123.4308397584813">
        <time>2018-01-05T23:40:34.235000Z</time>
      </trkpt>
      <trkpt lat="41.68182242199935" lon="123.4306837712633">
        <ele>53.67629536170419</ele>
        <time>2018-01-05T23:40:38.295000Z</time>
      </trkpt>
      <trkpt lat="41.68182129044242" lon="123.4305591323631">
        <time>2018-01-05T23:40:41.289000Z</time>
      </trkpt>
      <trkpt lat="41.68183059435494" lon="123.4303997923838">
        <time>2018-01-05T23:40:45.281000Z</time>
      </trkpt>
      <trkpt lat="41.68183654550619" lon="123.4302749020266">
        <ele>53.29727092354739</ele>
        <time>2018-01-05T23:40:48.270000Z</time>
      </trkpt>
      <trkpt lat="41.68185024991788" lon="123.4301237763124">
        <time>2018-01-05T23:40:52.255000Z</time>
      </trkpt>
      <trkpt lat="41.68185645252623" lon="123.4299653583424">
        <time>2018-01-05T23:40:56.223000Z</time>
      </trkpt>
      <trkpt lat="41.68185444086946" lon="123.4298396297949">
        <ele>52.92207815320803</ele>
        <time>2018-01-05T23:40:59.255000Z</time>
      </trkpt>
      <trkpt lat="41.68185075283207" lon="123.4296861571478">
        <time>2018-01-05T23:41:03.325000Z</time>
      </trkpt>
      <trkpt lat="41.68185720689751" lon="123.4295312595772">
        <time>2018-01-05T23:41:07.260000Z</time>
      </trkpt>
      <trkpt lat="41.68185724880703" lon="123.4293845762717">
        <ele>52.3748906301083</ele>
        <time>2018-01-05T23:41:11.242000Z</time>
      </trkpt>
      <trkpt lat="41.68185343504108" lon="123.4292288405108">
        <time>2018-01-05T23:41:15.228000Z</time>
      </trkpt>
      <trkpt lat="41.68185351886012" lon="123.42909213167">
        <ele>52.23550555963998</ele>
        <time>2018-01-05T23:41:18.257000Z</time>
      </trkpt>
      <trkpt lat="41.68185766790219" lon="123.4289646429228">
        <time>2018-01-05T23:41:21.293000Z</time>
      </trkpt>
      <trkpt lat="41.68186340950586" lon="123.4288352263378">
        <time>2018-01-05T23:41:24.318000Z</time>
      </trkpt>
      <trkpt lat="41.6818680195526" lon="123.4286814184146">
        <ele>52.05403883901835</ele>
        <time>2018-01-05T23:41:28.282000Z</time>
      </trkpt>
      <trkpt lat="41.68187313251354" lon="123.4285567795145">
        <time>2018-01-05T23:41:32.323000Z</time>
      </trkpt>
      <trkpt lat="41.68187028266646" lon="123.4283954278784">
        <time>2018-01-05T23:41:36.274000Z</time>
      </trkpt>
      <trkpt lat="41.68187120467581" lon="123.428270202245">
        <ele>50.52647740911404</ele>
        <time>2018-01-05T23:41:39.256000Z</time>
      </trkpt>
      <trkpt lat="41.68187342588015" lon="123.4281022289055">
        <time>2018-01-05T23:41:43.258000Z</time>
      </trkpt>
      <trkpt lat="41.68188080195494" lon="123.4279507679152">
        <time>2018-01-05T23:41:47.227000Z</time>
      </trkpt>
      <trkpt lat="41.68187828738399" lon="123.4277954512494">
        <ele>50.45408566566958</ele>
        <time>2018-01-05T23:41:51.245000Z</time>
      </trkpt>
      <trkpt lat="41.68187887411721" lon="123.4276370332795">
        <time>2018-01-05T23:41:55.233000Z</time>
      </trkpt>
      <trkpt lat="41.68187686246045" lon="123.4275055212187">
        <ele>50.44984117145903</ele>
        <time>2018-01-05T23:41:58.255000Z</time>
      </trkpt>
      <trkpt lat="41.68187711391754" lon="123.4273750988053">
        <time>2018-01-05T23:42:01.299000Z</time>
      </trkpt>
      <trkpt lat="41.68187258768983" lon="123.4272253141957">
        <time>2018-01-05T23:42:05.300000Z</time>
      </trkpt>
      <trkpt lat="41.68187837120302" lon="123.4270760325002">
        <ele>50.4442702728077</ele>
        <time>2018-01-05T23:42:09.324000Z</time>
      </trkpt>
      <trkpt lat="41.68188771702506" lon="123.4269243200528">
        <time>2018-01-05T23:42:13.242000Z</time>
      </trkpt>
      <trkpt lat="41.68189429681905" lon="123.4267985915052">
        <time>2018-01-05T23:42:16.301000Z</time>
      </trkpt>
      <trkpt lat="41.68189526073791" lon="123.4266772215473">
        <ele>50.43848617295176</ele>
        <time>2018-01-05T23:42:19.247000Z</time>
      </trkpt>
      <trkpt lat="41.68190028987981" lon="123.426523162167">
        <time>2018-01-05T23:42:23.243000Z</time>
      </trkpt>
      <trkpt lat="41.68190133761771" lon="123.4264007863807">
        <time>2018-01-05T23:42:26.253000Z</time>
      </trkpt>
      <trkpt lat="41.68190510947414" lon="123.4262787458705">
        <ele>50.43310406315334</ele>
        <time>2018-01-05T23:42:29.293000Z</time>
      </trkpt>
      <trkpt lat="41.68190510947414" lon="123.426142623763">
        <time>2018-01-05T23:42:33.292000Z</time>
      </trkpt>
      <trkpt lat="41.68190640866913" lon="123.4260057472842">
        <time>2018-01-05T23:42:37.277000Z</time>
      </trkpt>
      <trkpt lat="41.68190619912155" lon="123.4258523584562">
        <ele>50.42775938562748</ele>
        <time>2018-01-05T23:42:41.299000Z</time>
      </trkpt>
      <trkpt lat="41.68190741449751" lon="123.4257264622705">
        <time>2018-01-05T23:42:44.346000Z</time>
      </trkpt>
      <trkpt lat="41.68190557047881" lon="123.4255707265096">
        <ele>50.42398198107891</ele>
        <time>2018-01-05T23:42:48.321000Z</time>
      </trkpt>
      <trkpt lat="41.68190477419801" lon="123.4254206066238">
        <time>2018-01-05T23:42:52.254000Z</time>
      </trkpt>
      <trkpt lat="41.68190305590786" lon="123.425259841721">
        <time>2018-01-05T23:42:56.275000Z</time>
      </trkpt>
      <trkpt lat="41.68190313972689" lon="123.4251307604121">
        <ele>50.41767057442689</ele>
        <time>2018-01-05T23:42:59.229000Z</time>
      </trkpt>
      <trkpt lat="41.68190112807013" lon="123.425006121512">
        <time>2018-01-05T23:43:02.253000Z</time>
      </trkpt>
      <trkpt lat="41.6818999965132" lon="123.4248787165837">
        <time>2018-01-05T23:43:05.265000Z</time>
      </trkpt>
      <trkpt lat="41.68189764958031" lon="123.4247511440175">
        <ele>50.41251468575395</ele>
        <time>2018-01-05T23:43:08.267000Z</time>
      </trkpt>
      <trkpt lat="41.68188482526846" lon="123.4246119206058">
        <time>2018-01-05T23:43:11.265000Z</time>
      </trkpt>
      <trkpt lat="41.68188553773023" lon="123.4244797379928">
        <time>2018-01-05T23:43:14.270000Z</time>
      </trkpt>
      <trkpt lat="41.68189282998599" lon="123.4243464657324">
        <time>2018-01-05T23:43:17.267000Z</time>
      </trkpt>
      <trkpt lat="41.68189664375193" lon="123.4242204019087">
        <ele>50.40529839459998</ele>
        <time>2018-01-05T23:43:20.331000Z</time>
      </trkpt>
      <trkpt lat="41.68189299762405" lon="123.4240863752769">
        <time>2018-01-05T23:43:24.284000Z</time>
      </trkpt>
      <trkpt lat="41.68190041560836" lon="123.4239375126766">
        <ele>50.40177976097912</ele>
        <time>2018-01-05T23:43:28.302000Z</time>
      </trkpt>
      <trkpt lat="41.6819044808314" lon="123.4238055815207">
        <time>2018-01-05T23:43:31.300000Z</time>
      </trkpt>
      <trkpt lat="41.68191608976729" lon="123.4236840439247">
        <time>2018-01-05T23:43:34.324000Z</time>
      </trkpt>
      <trkpt lat="41.68193176392622" lon="123.4235510231214">
        <time>2018-01-05T23:43:37.330000Z</time>
      </trkpt>
      <trkpt lat="41.68193993628181" lon="123.4234044236349">
        <ele>50.3944983702207</ele>
        <time>2018-01-05T23:43:40.288000Z</time>
      </trkpt>
      <trkpt lat="41.68194919828482" lon="123.4232776054399">
        <time>2018-01-05T23:43:43.262000Z</time>
      </trkpt>
      <trkpt lat="41.68195921465911" lon="123.4231373761999">
        <time>2018-01-05T23:43:46.253000Z</time>
      </trkpt>
      <trkpt lat="41.68196793183841" lon="123.423013491671">
        <ele>50.38888027435613</ele>
        <time>2018-01-05T23:43:49.251000Z</time>
      </trkpt>
      <trkpt lat="41.6819753079132" lon="123.4228784592109">
        <time>2018-01-05T23:43:52.319000Z</time>
      </trkpt>
      <trkpt lat="41.68197819966979" lon="123.422738649066">
        <time>2018-01-05T23:43:55.244000Z</time>
      </trkpt>
      <trkpt lat="41.68198649775393" lon="123.4225931392269">
        <ele>50.38347537969615</ele>
        <time>2018-01-05T23:43:58.269000Z</time>
      </trkpt>
      <trkpt lat="41.68199177835293" lon="123.4224456177311">
        <time>2018-01-05T23:44:01.240000Z</time>
      </trkpt>
      <trkpt lat="41.68199140116729" lon="123.4223040473865">
        <time>2018-01-05T23:44:04.285000Z</time>
      </trkpt>
      <trkpt lat="41.68199643030919" lon="123.4221613035755">
        <time>2018-01-05T23:44:07.294000Z</time>
      </trkpt>
      <trkpt lat="41.68201130818732" lon="123.4220245109158">
        <ele>50.37565691720096</ele>
        <time>2018-01-05T23:44:10.268000Z</time>
      </trkpt>
      <trkpt lat="41.68201625351019" lon="123.4218672664123">
        <time>2018-01-05T23:44:13.327000Z</time>
      </trkpt>
      <trkpt lat="41.68202559933223" lon="123.4217125364797">
        <time>2018-01-05T23:44:16.263000Z</time>
      </trkpt>
      <trkpt lat="41.68203410696395" lon="123.4215729777919">
        <ele>50.36955871175353</ele>
        <time>2018-01-05T23:44:19.241000Z</time>
      </trkpt>
      <trkpt lat="41.68204144112922" lon="123.421441046636">
        <time>2018-01-05T23:44:22.293000Z</time>
      </trkpt>
      <trkpt lat="41.68204810474224" lon="123.4213072714614">
        <time>2018-01-05T23:44:25.230000Z</time>
      </trkpt>
      <trkpt lat="41.68205824684508" lon="123.4211762623148">
        <ele>50.3640626776473</ele>
        <time>2018-01-05T23:44:28.245000Z</time>
      </trkpt>
      <trkpt lat="41.68206553910084" lon="123.4210281540858">
        <time>2018-01-05T23:44:31.233000Z</time>
      </trkpt>
      <trkpt lat="41.68207748331286" lon="123.4208788723903">
        <time>2018-01-05T23:44:35.259000Z</time>
      </trkpt>
      <trkpt lat="41.68208448220201" lon="123.4207563289659">
        <ele>50.35824114551881</ele>
        <time>2018-01-05T23:44:38.263000Z</time>
      </trkpt>
      <trkpt lat="41.68209114581503" lon="123.4205775429713">
        <time>2018-01-05T23:44:41.274000Z</time>
      </trkpt>
      <trkpt lat="41.68209600731887" lon="123.4204336256938">
        <time>2018-01-05T23:44:44.326000Z</time>
      </trkpt>
      <trkpt lat="41.68210543695994" lon="123.4202918038922">
        <time>2018-01-05T23:44:47.249000Z</time>
      </trkpt>
      <trkpt lat="41.68211231012054" lon="123.4201478027957">
        <ele>50.12590160967187</ele>
        <time>2018-01-05T23:44:50.252000Z</time>
      </trkpt>
      <trkpt lat="41.68211993765242" lon="123.4200074897366">
        <time>2018-01-05T23:44:53.263000Z</time>
      </trkpt>
      <trkpt lat="41.68214223351486" lon="123.4198740498381">
        <time>2018-01-05T23:44:57.309000Z</time>
      </trkpt>
      <trkpt lat="41.68215778194524" lon="123.4197411966728">
        <ele>48.87881556166778</ele>
        <time>2018-01-05T23:45:01.220000Z</time>
      </trkpt>
      <trkpt lat="41.68217312082805" lon="123.4196057451176">
        <time>2018-01-05T23:45:06.265000Z</time>
      </trkpt>
      <trkpt lat="41.6821833048404" lon="123.419448416795">
        <ele>47.94561480038469</ele>
        <time>2018-01-05T23:45:10.301000Z</time>
      </trkpt>
      <trkpt lat="41.68218359820701" lon="123.4193022364037">
        <time>2018-01-05T23:45:13.248000Z</time>
      </trkpt>
      <trkpt lat="41.68218267619766" lon="123.4191658628391">
        <time>2018-01-05T23:45:16.243000Z</time>
      </trkpt>
      <trkpt lat="41.68217521630384" lon="123.4190361947971">
        <ele>47.64811440110056</ele>
        <time>2018-01-05T23:45:19.297000Z</time>
      </trkpt>
      <trkpt lat="41.68217157017596" lon="123.4189095442401">
        <time>2018-01-05T23:45:22.251000Z</time>
      </trkpt>
      <trkpt lat="41.68218523267813" lon="123.4187609330969">
        <time>2018-01-05T23:45:25.292000Z</time>
      </trkpt>
      <trkpt lat="41.68219788935192" lon="123.4186146688866">
        <ele>47.64811440110056</ele>
        <time>2018-01-05T23:45:28.250000Z</time>
      </trkpt>
      <trkpt lat="41.6822142340631" lon="123.4184582625734">
        <time>2018-01-05T23:45:31.254000Z</time>
      </trkpt>
      <trkpt lat="41.68222781274624" lon="123.4183030297266">
        <time>2018-01-05T23:45:34.275000Z</time>
      </trkpt>
      <trkpt lat="41.68224122379132" lon="123.418137570958">
        <time>2018-01-05T23:45:37.303000Z</time>
      </trkpt>
      <trkpt lat="41.68224935423739" lon="123.4179877863484">
        <ele>47.64811440110056</ele>
        <time>2018-01-05T23:45:40.266000Z</time>
      </trkpt>
      <trkpt lat="41.682254928203" lon="123.4178379179197">
        <time>2018-01-05T23:45:43.275000Z</time>
      </trkpt>
      <trkpt lat="41.68226096317328" lon="123.4176839423584">
        <time>2018-01-05T23:45:46.232000Z</time>
      </trkpt>
      <trkpt lat="41.68226737532921" lon="123.4175498319076">
        <ele>47.64811440110056</ele>
        <time>2018-01-05T23:45:49.244000Z</time>
      </trkpt>
      <trkpt lat="41.6822826723025" lon="123.4174094350295">
        <time>2018-01-05T23:45:52.287000Z</time>
      </trkpt>
      <trkpt lat="41.68229373641469" lon="123.4172658530282">
        <time>2018-01-05T23:45:55.293000Z</time>
      </trkpt>
      <trkpt lat="41.68230102867044" lon="123.4171227739411">
        <ele>47.64811440110056</ele>
        <time>2018-01-05T23:45:58.327000Z</time>
      </trkpt>
      <trkpt lat="41.68230836283572" lon="123.416974498074">
        <time>2018-01-05T23:46:01.256000Z</time>
      </trkpt>
      <trkpt lat="41.68230987157829" lon="123.4168335982816">
        <time>2018-01-05T23:46:04.247000Z</time>
      </trkpt>
      <trkpt lat="41.68232202533789" lon="123.4166748450356">
        <ele>47.64811440110056</ele>
        <time>2018-01-05T23:46:08.273000Z</time>
      </trkpt>
      <trkpt lat="41.68232994623639" lon="123.4165461828219">
        <time>2018-01-05T23:46:13.256000Z</time>
      </trkpt>
      <trkpt lat="41.68233996261068" lon="123.4164134134757">
        <ele>47.64811440110056</ele>
        <time>2018-01-05T23:46:20.258000Z</time>
      </trkpt>
      <trkpt lat="41.68236154601134" lon="123.4162833263384">
        <time>2018-01-05T23:46:27.278000Z</time>
      </trkpt>
    </trkseg>
  </trk>
</gpx>