<?xml version="1.0" encoding="UTF-8"?>
<gpx xmlns="http://www.topografix.com/GPX/1/1" xmlns:gpxtpx="http://www.garmin.com/xmlschemas/TrackPointExtension/v1" xmlns:xsi="http://www.w3.org/2001/XMLSchema-instance" xsi:schemaLocation="http://www.topografix.com/GPX/1/1 http://www.topografix.com/GPX/1/1/gpx.xsd" version="1.1" creator="gpx.py -- https://github.com/tkrajina/gpxpy">
  <trk>
    <name>星期四 晚间跑</name>
    <trkseg>
      <trkpt lat="41.68287036944337" lon="123.41606489394178">
        <time>2018-08-09T10:53:30.067000Z</time>
      </trkpt>
      <trkpt lat="41.68287036944337" lon="123.41606489394178">
        <ele>49.158563475657</ele>
        <time>2018-08-09T10:53:38.131000Z</time>
      </trkpt>
      <trkpt lat="41.68275658510782" lon="123.41608165774812">
        <time>2018-08-09T10:53:38.138000Z</time>
      </trkpt>
      <trkpt lat="41.68266375553019" lon="123.41607914317717">
        <time>2018-08-09T10:53:45.117000Z</time>
      </trkpt>
      <trkpt lat="41.68255655098863" lon="123.41608031664362">
        <ele>48.27338586335231</ele>
        <time>2018-08-09T10:53:52.109000Z</time>
      </trkpt>
      <trkpt lat="41.68246342804439" lon="123.41613052424361">
        <ele>49.51263604645778</ele>
        <time>2018-08-09T10:53:57.140000Z</time>
      </trkpt>
      <trkpt lat="41.6823973786474" lon="123.4162364714997">
        <time>2018-08-09T10:54:01.113000Z</time>
      </trkpt>
      <trkpt lat="41.68232860513188" lon="123.41636488225629">
        <ele>49.61568627839137</ele>
        <time>2018-08-09T10:54:06.129000Z</time>
      </trkpt>
      <trkpt lat="41.682307692283466" lon="123.41649538848867">
        <time>2018-08-09T10:54:10.128000Z</time>
      </trkpt>
      <trkpt lat="41.68229964565642" lon="123.41661826718916">
        <time>2018-08-09T10:54:13.129000Z</time>
      </trkpt>
      <trkpt lat="41.682295454704835" lon="123.41674877342155">
        <ele>49.37787805085231</ele>
        <time>2018-08-09T10:54:16.197000Z</time>
      </trkpt>
      <trkpt lat="41.68227869089849" lon="123.41689411562254">
        <time>2018-08-09T10:54:20.122000Z</time>
      </trkpt>
      <trkpt lat="41.68225698176928" lon="123.41704406787028">
        <time>2018-08-09T10:54:24.127000Z</time>
      </trkpt>
      <trkpt lat="41.6822480550424" lon="123.41718857188096">
        <ele>49.23519311432887</ele>
        <time>2018-08-09T10:54:28.113000Z</time>
      </trkpt>
      <trkpt lat="41.68223841585375" lon="123.41731362987628">
        <time>2018-08-09T10:54:31.118000Z</time>
      </trkpt>
      <trkpt lat="41.68222546581335" lon="123.41744447138478">
        <time>2018-08-09T10:54:35.115000Z</time>
      </trkpt>
      <trkpt lat="41.682218676471784" lon="123.41757950384488">
        <ele>49.08722100739528</ele>
        <time>2018-08-09T10:54:39.138000Z</time>
      </trkpt>
      <trkpt lat="41.68221440170117" lon="123.41770171199312">
        <time>2018-08-09T10:54:43.140000Z</time>
      </trkpt>
      <trkpt lat="41.682220688128545" lon="123.41783364314904">
        <ele>49.203485350657</ele>
        <time>2018-08-09T10:54:47.130000Z</time>
      </trkpt>
      <trkpt lat="41.682212809139564" lon="123.41795576747825">
        <time>2018-08-09T10:54:51.136000Z</time>
      </trkpt>
      <trkpt lat="41.68219906281836" lon="123.41807789180746">
        <time>2018-08-09T10:54:55.149000Z</time>
      </trkpt>
      <trkpt lat="41.68218607086845" lon="123.41820261452665">
        <ele>48.949823241282</ele>
        <time>2018-08-09T10:54:59.122000Z</time>
      </trkpt>
      <trkpt lat="41.68217794042237" lon="123.41832700196971">
        <time>2018-08-09T10:55:03.118000Z</time>
      </trkpt>
      <trkpt lat="41.682175761127546" lon="123.41846899140944">
        <ele>48.88112054352809</ele>
        <time>2018-08-09T10:55:07.111000Z</time>
      </trkpt>
      <trkpt lat="41.682179323436394" lon="123.41860804718306">
        <time>2018-08-09T10:55:11.126000Z</time>
      </trkpt>
      <trkpt lat="41.68217630595125" lon="123.41875858616402">
        <time>2018-08-09T10:55:15.138000Z</time>
      </trkpt>
      <trkpt lat="41.6821703548" lon="123.4188806266742">
        <ele>48.66974053864528</ele>
        <time>2018-08-09T10:55:19.115000Z</time>
      </trkpt>
      <trkpt lat="41.682166960129216" lon="123.41900836687853">
        <time>2018-08-09T10:55:23.126000Z</time>
      </trkpt>
      <trkpt lat="41.68217144444741" lon="123.41915463108887">
        <ele>48.611604552317154</ele>
        <time>2018-08-09T10:55:27.123000Z</time>
      </trkpt>
      <trkpt lat="41.68217236645676" lon="123.41930885810723">
        <time>2018-08-09T10:55:32.127000Z</time>
      </trkpt>
      <trkpt lat="41.682165032291486" lon="123.41943919670155">
        <ele>48.61689172272731</ele>
        <time>2018-08-09T10:55:36.119000Z</time>
      </trkpt>
      <trkpt lat="41.682156943754926" lon="123.41956861328651">
        <time>2018-08-09T10:55:40.126000Z</time>
      </trkpt>
      <trkpt lat="41.68215862013556" lon="123.41971705679168">
        <time>2018-08-09T10:55:44.128000Z</time>
      </trkpt>
      <trkpt lat="41.68215455491252" lon="123.41984588664343">
        <ele>48.548189024973404</ele>
        <time>2018-08-09T10:55:49.125000Z</time>
      </trkpt>
      <trkpt lat="41.68213016357429" lon="123.41998184111287">
        <time>2018-08-09T10:55:54.116000Z</time>
      </trkpt>
      <trkpt lat="41.6821011202798" lon="123.42012349527647">
        <ele>48.73315606598903</ele>
        <time>2018-08-09T10:55:59.115000Z</time>
      </trkpt>
      <trkpt lat="41.682088547425046" lon="123.4202723578768">
        <time>2018-08-09T10:56:03.127000Z</time>
      </trkpt>
      <trkpt lat="41.6820839373783" lon="123.42041627515425">
        <ele>48.91811547761012</ele>
        <time>2018-08-09T10:56:08.131000Z</time>
      </trkpt>
      <trkpt lat="41.682092612648084" lon="123.42054569173922">
        <time>2018-08-09T10:56:12.132000Z</time>
      </trkpt>
      <trkpt lat="41.68209915053256" lon="123.42067217465808">
        <ele>49.05287347321559</ele>
        <time>2018-08-09T10:56:16.129000Z</time>
      </trkpt>
      <trkpt lat="41.682105562688484" lon="123.42082011524906">
        <time>2018-08-09T10:56:21.122000Z</time>
      </trkpt>
      <trkpt lat="41.68209164872922" lon="123.4209563211756">
        <ele>49.06872735505153</ele>
        <time>2018-08-09T10:56:26.144000Z</time>
      </trkpt>
      <trkpt lat="41.68210531123139" lon="123.42109495785405">
        <time>2018-08-09T10:56:31.125000Z</time>
      </trkpt>
      <trkpt lat="41.682082680092826" lon="123.42124398809244">
        <time>2018-08-09T10:56:35.119000Z</time>
      </trkpt>
      <trkpt lat="41.68206273116328" lon="123.42136661533584">
        <ele>49.34881005768825</ele>
        <time>2018-08-09T10:56:39.115000Z</time>
      </trkpt>
      <trkpt lat="41.68204663790919" lon="123.42151455592682">
        <time>2018-08-09T10:56:43.119000Z</time>
      </trkpt>
      <trkpt lat="41.682023797223046" lon="123.4216540307956">
        <ele>49.364663939524185</ele>
        <time>2018-08-09T10:56:47.129000Z</time>
      </trkpt>
      <trkpt lat="41.682014199943914" lon="123.42178135190477">
        <time>2018-08-09T10:56:51.148000Z</time>
      </trkpt>
      <trkpt lat="41.6820123140157" lon="123.42191294778456">
        <time>2018-08-09T10:56:55.140000Z</time>
      </trkpt>
      <trkpt lat="41.682009045073464" lon="123.42204110708406">
        <ele>49.412225585032</ele>
        <time>2018-08-09T10:56:59.119000Z</time>
      </trkpt>
      <trkpt lat="41.68199630458064" lon="123.42217354115417">
        <time>2018-08-09T10:57:03.126000Z</time>
      </trkpt>
      <trkpt lat="41.68198318690218" lon="123.42232584033479">
        <ele>49.52056298737575</ele>
        <time>2018-08-09T10:57:07.125000Z</time>
      </trkpt>
      <trkpt lat="41.68198067233123" lon="123.42246229771843">
        <time>2018-08-09T10:57:11.126000Z</time>
      </trkpt>
      <trkpt lat="41.68198146861203" lon="123.4225848411428">
        <time>2018-08-09T10:57:15.129000Z</time>
      </trkpt>
      <trkpt lat="41.68198938951053" lon="123.42271140788068">
        <ele>49.35145745759059</ele>
        <time>2018-08-09T10:57:19.142000Z</time>
      </trkpt>
      <trkpt lat="41.681984653735235" lon="123.42285054747333">
        <time>2018-08-09T10:57:24.131000Z</time>
      </trkpt>
      <trkpt lat="41.68196415998198" lon="123.42298650194277">
        <ele>49.57869897370387</ele>
        <time>2018-08-09T10:57:29.120000Z</time>
      </trkpt>
      <trkpt lat="41.681955610440745" lon="123.42311541561355">
        <time>2018-08-09T10:57:35.135000Z</time>
      </trkpt>
      <trkpt lat="41.681953389236405" lon="123.42323753994276">
        <ele>49.570772032785904</ele>
        <time>2018-08-09T10:57:41.124000Z</time>
      </trkpt>
      <trkpt lat="41.68192447167046" lon="123.42338229541053">
        <ele>49.391092162180435</ele>
        <time>2018-08-09T10:57:46.123000Z</time>
      </trkpt>
      <trkpt lat="41.681907456407025" lon="123.4235339240389">
        <time>2018-08-09T10:57:50.107000Z</time>
      </trkpt>
      <trkpt lat="41.6819139942915" lon="123.4236620833384">
        <time>2018-08-09T10:57:53.131000Z</time>
      </trkpt>
      <trkpt lat="41.68191227600135" lon="123.42381555598547">
        <ele>49.3303164053445</ele>
        <time>2018-08-09T10:57:57.115000Z</time>
      </trkpt>
      <trkpt lat="41.68190909087814" lon="123.42395737778713">
        <time>2018-08-09T10:58:01.124000Z</time>
      </trkpt>
      <trkpt lat="41.68190540284075" lon="123.42408914130499">
        <time>2018-08-09T10:58:05.124000Z</time>
      </trkpt>
      <trkpt lat="41.68188197542138" lon="123.42420657176842">
        <ele>49.420152525949966</ele>
        <time>2018-08-09T10:58:09.123000Z</time>
      </trkpt>
      <trkpt lat="41.681868899652436" lon="123.42432911519279">
        <time>2018-08-09T10:58:12.126000Z</time>
      </trkpt>
      <trkpt lat="41.68187413834192" lon="123.42445375409295">
        <ele>48.949823241282</ele>
        <time>2018-08-09T10:58:16.121000Z</time>
      </trkpt>
      <trkpt lat="41.681848154442086" lon="123.42458769690563">
        <time>2018-08-09T10:58:20.134000Z</time>
      </trkpt>
      <trkpt lat="41.6818328574688" lon="123.42473999608626">
        <time>2018-08-09T10:58:24.121000Z</time>
      </trkpt>
      <trkpt lat="41.68184308339067" lon="123.42486279096772">
        <ele>48.904901366282</ele>
        <time>2018-08-09T10:58:27.133000Z</time>
      </trkpt>
      <trkpt lat="41.68185662016429" lon="123.4250157607006">
        <time>2018-08-09T10:58:31.128000Z</time>
      </trkpt>
      <trkpt lat="41.6818516329319" lon="123.42517543595602">
        <time>2018-08-09T10:58:35.122000Z</time>
      </trkpt>
      <trkpt lat="41.68184568178065" lon="123.42531063605418">
        <ele>48.939256529856216</ele>
        <time>2018-08-09T10:58:39.122000Z</time>
      </trkpt>
      <trkpt lat="41.68185641061671" lon="123.42544885363748">
        <time>2018-08-09T10:58:43.122000Z</time>
      </trkpt>
      <trkpt lat="41.68184568178065" lon="123.425598219152">
        <ele>48.85469995026637</ele>
        <time>2018-08-09T10:58:47.115000Z</time>
      </trkpt>
      <trkpt lat="41.68185527905978" lon="123.42574263934365">
        <time>2018-08-09T10:58:51.127000Z</time>
      </trkpt>
      <trkpt lat="41.681859889106526" lon="123.4258733132141">
        <time>2018-08-09T10:58:55.129000Z</time>
      </trkpt>
      <trkpt lat="41.68185356076963" lon="123.42601764958671">
        <ele>48.738435607004654</ele>
        <time>2018-08-09T10:58:59.125000Z</time>
      </trkpt>
      <trkpt lat="41.68184760961838" lon="123.42616559017769">
        <time>2018-08-09T10:59:03.129000Z</time>
      </trkpt>
      <trkpt lat="41.6818545246885" lon="123.4263101780074">
        <ele>48.71730218415309</ele>
        <time>2018-08-09T10:59:07.121000Z</time>
      </trkpt>
      <trkpt lat="41.68185305785544" lon="123.42645736422709">
        <time>2018-08-09T10:59:11.140000Z</time>
      </trkpt>
      <trkpt lat="41.68185167484142" lon="123.4265987669336">
        <time>2018-08-09T10:59:15.122000Z</time>
      </trkpt>
      <trkpt lat="41.68185213584609" lon="123.42674008582107">
        <ele>48.61953149323512</ele>
        <time>2018-08-09T10:59:19.109000Z</time>
      </trkpt>
      <trkpt lat="41.681853728407695" lon="123.42688492510787">
        <time>2018-08-09T10:59:23.115000Z</time>
      </trkpt>
      <trkpt lat="41.681843502485826" lon="123.42703496117464">
        <ele>48.75164971833278</ele>
        <time>2018-08-09T10:59:27.117000Z</time>
      </trkpt>
      <trkpt lat="41.681845430323555" lon="123.42717736970953">
        <time>2018-08-09T10:59:31.117000Z</time>
      </trkpt>
      <trkpt lat="41.68184467595227" lon="123.42730485845676">
        <time>2018-08-09T10:59:34.119000Z</time>
      </trkpt>
      <trkpt lat="41.681857081168964" lon="123.42745061975292">
        <ele>48.76221642975856</ele>
        <time>2018-08-09T10:59:38.132000Z</time>
      </trkpt>
      <trkpt lat="41.68185976337798" lon="123.42758171271852">
        <ele>48.764863829660904</ele>
        <time>2018-08-09T10:59:46.124000Z</time>
      </trkpt>
      <trkpt lat="41.68187049221404" lon="123.42770777654222">
        <time>2018-08-09T10:59:50.132000Z</time>
      </trkpt>
      <trkpt lat="41.681859386192336" lon="123.42783291835657">
        <time>2018-08-09T10:59:54.125000Z</time>
      </trkpt>
      <trkpt lat="41.681853435041084" lon="123.42796124529413">
        <ele>48.820352416086685</ele>
        <time>2018-08-09T10:59:58.121000Z</time>
      </trkpt>
      <trkpt lat="41.681867893824055" lon="123.42810155835322">
        <time>2018-08-09T11:00:02.112000Z</time>
      </trkpt>
      <trkpt lat="41.68187028266646" lon="123.4282270354437">
        <ele>48.820352416086685</ele>
        <time>2018-08-09T11:00:06.176000Z</time>
      </trkpt>
      <trkpt lat="41.681849495546594" lon="123.42836801905504">
        <time>2018-08-09T11:00:10.111000Z</time>
      </trkpt>
      <trkpt lat="41.681842496657445" lon="123.42850062076322">
        <time>2018-08-09T11:00:14.149000Z</time>
      </trkpt>
      <trkpt lat="41.68185674589284" lon="123.42863238428107">
        <ele>48.865266661692154</ele>
        <time>2018-08-09T11:00:18.126000Z</time>
      </trkpt>
      <trkpt lat="41.6818674747289" lon="123.42877269734016">
        <time>2018-08-09T11:00:22.119000Z</time>
      </trkpt>
      <trkpt lat="41.681856662073805" lon="123.42891133401862">
        <ele>48.973604064035904</ele>
        <time>2018-08-09T11:00:26.116000Z</time>
      </trkpt>
      <trkpt lat="41.681844634042754" lon="123.4290526529061">
        <time>2018-08-09T11:00:30.116000Z</time>
      </trkpt>
      <trkpt lat="41.681842412838414" lon="123.42919229541293">
        <time>2018-08-09T11:00:34.126000Z</time>
      </trkpt>
      <trkpt lat="41.68185720689751" lon="123.42933562595717">
        <ele>48.93660912995387</ele>
        <time>2018-08-09T11:00:38.130000Z</time>
      </trkpt>
      <trkpt lat="41.68185037564643" lon="123.42948138725332">
        <time>2018-08-09T11:00:42.125000Z</time>
      </trkpt>
      <trkpt lat="41.68184626851387" lon="123.42963125568203">
        <ele>49.31182275300075</ele>
        <time>2018-08-09T11:00:46.135000Z</time>
      </trkpt>
      <trkpt lat="41.68184865735628" lon="123.42978573415748">
        <time>2018-08-09T11:00:50.122000Z</time>
      </trkpt>
      <trkpt lat="41.681853015945926" lon="123.42993652459553">
        <time>2018-08-09T11:00:54.120000Z</time>
      </trkpt>
      <trkpt lat="41.68186085302539" lon="123.43008094478718">
        <ele>49.16913781647731</ele>
        <time>2018-08-09T11:00:58.120000Z</time>
      </trkpt>
      <trkpt lat="41.6818682710097" lon="123.43021069664827">
        <time>2018-08-09T11:01:01.155000Z</time>
      </trkpt>
      <trkpt lat="41.681857584083154" lon="123.43036894698015">
        <time>2018-08-09T11:01:05.133000Z</time>
      </trkpt>
      <trkpt lat="41.681855237150266" lon="123.43050263833574">
        <ele>49.29596887116481</ele>
        <time>2018-08-09T11:01:09.141000Z</time>
      </trkpt>
      <trkpt lat="41.681860308201685" lon="123.43063716788164">
        <time>2018-08-09T11:01:13.128000Z</time>
      </trkpt>
      <trkpt lat="41.68186558880068" lon="123.43076817702821">
        <ele>49.49678216462184</ele>
        <time>2018-08-09T11:01:17.178000Z</time>
      </trkpt>
      <trkpt lat="41.68186705563374" lon="123.43089046899549">
        <time>2018-08-09T11:01:22.119000Z</time>
      </trkpt>
      <trkpt lat="41.681872755327895" lon="123.43103312898747">
        <ele>49.10572228913356</ele>
        <time>2018-08-09T11:01:27.118000Z</time>
      </trkpt>
      <trkpt lat="41.681877113917544" lon="123.43115642678312">
        <time>2018-08-09T11:01:30.126000Z</time>
      </trkpt>
      <trkpt lat="41.68188767511554" lon="123.43128416698745">
        <time>2018-08-09T11:01:34.117000Z</time>
      </trkpt>
      <trkpt lat="41.6818984039516" lon="123.43143093411199">
        <ele>49.066087584543716</ele>
        <time>2018-08-09T11:01:38.121000Z</time>
      </trkpt>
      <trkpt lat="41.68189961932756" lon="123.43155683029762">
        <time>2018-08-09T11:01:42.155000Z</time>
      </trkpt>
      <trkpt lat="41.68189484164275" lon="123.43168222356907">
        <ele>48.830919127512466</ele>
        <time>2018-08-09T11:01:46.112000Z</time>
      </trkpt>
      <trkpt lat="41.68189454827614" lon="123.43180828739277">
        <time>2018-08-09T11:01:49.139000Z</time>
      </trkpt>
      <trkpt lat="41.6818751441703" lon="123.43196100566855">
        <time>2018-08-09T11:01:53.111000Z</time>
      </trkpt>
      <trkpt lat="41.681862529406025" lon="123.4320850578355">
        <ele>48.68294702057887</ele>
        <time>2018-08-09T11:01:56.116000Z</time>
      </trkpt>
      <trkpt lat="41.68184459213324" lon="123.4322278016465">
        <time>2018-08-09T11:01:59.135000Z</time>
      </trkpt>
      <trkpt lat="41.6818386828915" lon="123.43236082244984">
        <time>2018-08-09T11:02:02.116000Z</time>
      </trkpt>
      <trkpt lat="41.68183729987748" lon="123.43249409471026">
        <time>2018-08-09T11:02:05.114000Z</time>
      </trkpt>
      <trkpt lat="41.68183264792122" lon="123.43261479411593">
        <ele>48.31038079743434</ele>
        <time>2018-08-09T11:02:08.120000Z</time>
      </trkpt>
      <trkpt lat="41.68182900179334" lon="123.43275988485983">
        <time>2018-08-09T11:02:12.122000Z</time>
      </trkpt>
      <trkpt lat="41.681827032046094" lon="123.43288846325449">
        <time>2018-08-09T11:02:15.123000Z</time>
      </trkpt>
      <trkpt lat="41.6818241402895" lon="123.4330330510842">
        <ele>48.38172326569606</ele>
        <time>2018-08-09T11:02:19.139000Z</time>
      </trkpt>
      <trkpt lat="41.681829756164625" lon="123.43316774826816">
        <time>2018-08-09T11:02:23.129000Z</time>
      </trkpt>
      <trkpt lat="41.681826822498515" lon="123.43329314153961">
        <ele>48.421357970285904</ele>
        <time>2018-08-09T11:02:27.133000Z</time>
      </trkpt>
      <trkpt lat="41.68182351164676" lon="123.43343462806514">
        <time>2018-08-09T11:02:31.147000Z</time>
      </trkpt>
      <trkpt lat="41.68182208672322" lon="123.43355750676564">
        <time>2018-08-09T11:02:34.143000Z</time>
      </trkpt>
      <trkpt lat="41.68181240562506" lon="123.43370553117565">
        <ele>48.3156679678445</ele>
        <time>2018-08-09T11:02:38.135000Z</time>
      </trkpt>
      <trkpt lat="41.68181018442072" lon="123.43386252422205">
        <time>2018-08-09T11:02:42.107000Z</time>
      </trkpt>
      <trkpt lat="41.68180980723508" lon="123.43400786642304">
        <ele>48.305093627024185</ele>
        <time>2018-08-09T11:02:46.112000Z</time>
      </trkpt>
      <trkpt lat="41.681803856083825" lon="123.4341515322434">
        <time>2018-08-09T11:02:50.156000Z</time>
      </trkpt>
      <trkpt lat="41.68180968150653" lon="123.43428120028547">
        <time>2018-08-09T11:02:54.131000Z</time>
      </trkpt>
      <trkpt lat="41.68180519718833" lon="123.43443098489514">
        <ele>48.313020567942154</ele>
        <time>2018-08-09T11:02:58.111000Z</time>
      </trkpt>
      <trkpt lat="41.681809513868465" lon="123.43456836428813">
        <time>2018-08-09T11:03:02.261000Z</time>
      </trkpt>
      <trkpt lat="41.68181827295728" lon="123.43469861906341">
        <ele>48.13070092682887</ele>
        <time>2018-08-09T11:03:06.127000Z</time>
      </trkpt>
      <trkpt lat="41.681820033156946" lon="123.43484521854988">
        <time>2018-08-09T11:03:10.136000Z</time>
      </trkpt>
      <trkpt lat="41.681831684002354" lon="123.43497765261999">
        <time>2018-08-09T11:03:14.137000Z</time>
      </trkpt>
      <trkpt lat="41.6818196559713" lon="123.43511612166039">
        <ele>48.622178893137466</ele>
        <time>2018-08-09T11:03:18.132000Z</time>
      </trkpt>
      <trkpt lat="41.68182129044242" lon="123.43526741501263">
        <time>2018-08-09T11:03:22.132000Z</time>
      </trkpt>
      <trkpt lat="41.68182443365611" lon="123.435413763042">
        <ele>48.72522912507106</ele>
        <time>2018-08-09T11:03:26.117000Z</time>
      </trkpt>
      <trkpt lat="41.68183436621137" lon="123.43557176191679">
        <time>2018-08-09T11:03:30.112000Z</time>
      </trkpt>
      <trkpt lat="41.68185863182105" lon="123.4357094765859">
        <time>2018-08-09T11:03:34.129000Z</time>
      </trkpt>
      <trkpt lat="41.68184383776195" lon="123.43585850682429">
        <ele>49.147996764231216</ele>
        <time>2018-08-09T11:03:51.157000Z</time>
      </trkpt>
      <trkpt lat="41.681837048420384" lon="123.43600703414849">
        <time>2018-08-09T11:03:55.123000Z</time>
      </trkpt>
      <trkpt lat="41.68183922771521" lon="123.43616042297653">
        <ele>49.182344298410904</ele>
        <time>2018-08-09T11:03:59.111000Z</time>
      </trkpt>
      <trkpt lat="41.681841071733906" lon="123.43632118787936">
        <time>2018-08-09T11:04:02.115000Z</time>
      </trkpt>
      <trkpt lat="41.681851088108196" lon="123.43646460224262">
        <time>2018-08-09T11:04:05.147000Z</time>
      </trkpt>
      <trkpt lat="41.68185309976496" lon="123.43660919007233">
        <ele>49.31182275300075</ele>
        <time>2018-08-09T11:04:10.149000Z</time>
      </trkpt>
      <trkpt lat="41.68184517886646" lon="123.43673114676348">
        <time>2018-08-09T11:04:14.151000Z</time>
      </trkpt>
      <trkpt lat="41.68183859907247" lon="123.43687028635613">
        <ele>49.507356505442154</ele>
        <time>2018-08-09T11:04:18.129000Z</time>
      </trkpt>
      <trkpt lat="41.681832983197346" lon="123.43703499075345">
        <time>2018-08-09T11:04:22.186000Z</time>
      </trkpt>
      <trkpt lat="41.68183570731588" lon="123.43719257053307">
        <ele>49.761018614817154</ele>
        <time>2018-08-09T11:04:26.127000Z</time>
      </trkpt>
      <trkpt lat="41.68181969788082" lon="123.43735559854976">
        <time>2018-08-09T11:04:30.108000Z</time>
      </trkpt>
      <trkpt lat="41.68181152552523" lon="123.43748417694441">
        <time>2018-08-09T11:04:33.121000Z</time>
      </trkpt>
      <trkpt lat="41.6818156745673" lon="123.43761954468063">
        <ele>49.755731444407</ele>
        <time>2018-08-09T11:04:37.127000Z</time>
      </trkpt>
      <trkpt lat="41.68181106452055" lon="123.43777402315608">
        <time>2018-08-09T11:04:42.120000Z</time>
      </trkpt>
      <trkpt lat="41.68180813085444" lon="123.43789732095173">
        <ele>49.816507201242935</ele>
        <time>2018-08-09T11:04:46.107000Z</time>
      </trkpt>
      <trkpt lat="41.6818032693506" lon="123.43804626737109">
        <time>2018-08-09T11:04:50.141000Z</time>
      </trkpt>
      <trkpt lat="41.681816093662455" lon="123.43817241501382">
        <time>2018-08-09T11:04:53.126000Z</time>
      </trkpt>
      <trkpt lat="41.68181181889184" lon="123.43833033006958">
        <ele>49.80329308991481</ele>
        <time>2018-08-09T11:04:57.117000Z</time>
      </trkpt>
      <trkpt lat="41.681809430049434" lon="123.43846779328159">
        <time>2018-08-09T11:05:01.121000Z</time>
      </trkpt>
      <trkpt lat="41.68179857548483" lon="123.438608944531">
        <time>2018-08-09T11:05:05.099000Z</time>
      </trkpt>
      <trkpt lat="41.68181139979668" lon="123.43874640774301">
        <ele>49.465074400949966</ele>
        <time>2018-08-09T11:05:09.120000Z</time>
      </trkpt>
      <trkpt lat="41.681833905206695" lon="123.43888613406888">
        <time>2018-08-09T11:05:13.111000Z</time>
      </trkpt>
      <trkpt lat="41.68182355355628" lon="123.43900850985519">
        <ele>49.46772180085231</ele>
        <time>2018-08-09T11:05:17.116000Z</time>
      </trkpt>
      <trkpt lat="41.68182137426145" lon="123.43916374270192">
        <time>2018-08-09T11:05:21.123000Z</time>
      </trkpt>
      <trkpt lat="41.681836838872805" lon="123.43930967163614">
        <time>2018-08-09T11:05:25.140000Z</time>
      </trkpt>
      <trkpt lat="41.681838850529566" lon="123.43946113262645">
        <ele>49.364663939524185</ele>
        <time>2018-08-09T11:05:29.118000Z</time>
      </trkpt>
      <trkpt lat="41.681836335958614" lon="123.43960144568554">
        <time>2018-08-09T11:05:33.054000Z</time>
      </trkpt>
      <trkpt lat="41.68183457575895" lon="123.43973010789922">
        <ele>49.13478265290309</ele>
        <time>2018-08-09T11:05:36.113000Z</time>
      </trkpt>
      <trkpt lat="41.681864457243755" lon="123.43985022057167">
        <time>2018-08-09T11:05:40.115000Z</time>
      </trkpt>
      <trkpt lat="41.681814082005694" lon="123.43997737404278">
        <time>2018-08-09T11:05:45.129000Z</time>
      </trkpt>
      <trkpt lat="41.68179689910419" lon="123.44011919584445">
        <ele>48.984170775461685</ele>
        <time>2018-08-09T11:05:49.139000Z</time>
      </trkpt>
      <trkpt lat="41.68180402372189" lon="123.44026386749319">
        <time>2018-08-09T11:05:53.125000Z</time>
      </trkpt>
      <trkpt lat="41.68180963959701" lon="123.44041993853024">
        <ele>48.88640771393825</ele>
        <time>2018-08-09T11:05:57.117000Z</time>
      </trkpt>
      <trkpt lat="41.68180423326947" lon="123.4405638558077">
        <time>2018-08-09T11:06:01.099000Z</time>
      </trkpt>
      <trkpt lat="41.68180813085444" lon="123.4407158197122">
        <time>2018-08-09T11:06:05.120000Z</time>
      </trkpt>
      <trkpt lat="41.681793839709535" lon="123.44083953660301">
        <ele>48.66974053864528</ele>
        <time>2018-08-09T11:06:08.124000Z</time>
      </trkpt>
      <trkpt lat="41.681795767547264" lon="123.44100105587714">
        <time>2018-08-09T11:06:12.131000Z</time>
      </trkpt>
      <trkpt lat="41.681787259915545" lon="123.44115369033389">
        <ele>48.651239256907</ele>
        <time>2018-08-09T11:06:16.115000Z</time>
      </trkpt>
      <trkpt lat="41.681776950174644" lon="123.44127321627312">
        <time>2018-08-09T11:06:19.109000Z</time>
      </trkpt>
      <trkpt lat="41.68177565097965" lon="123.44140196230583">
        <time>2018-08-09T11:06:22.134000Z</time>
      </trkpt>
      <trkpt lat="41.68180201206513" lon="123.44154546048813">
        <ele>48.767503600168716</ele>
        <time>2018-08-09T11:06:26.257000Z</time>
      </trkpt>
      <trkpt lat="41.6818191111476" lon="123.44166976411216">
        <time>2018-08-09T11:06:30.103000Z</time>
      </trkpt>
      <trkpt lat="41.68182082943775" lon="123.44179465446942">
        <time>2018-08-09T11:06:33.114000Z</time>
      </trkpt>
      <trkpt lat="41.68181672230519" lon="123.44194125395589">
        <ele>48.81770501618434</ele>
        <time>2018-08-09T11:06:37.127000Z</time>
      </trkpt>
      <trkpt lat="41.68181722521938" lon="123.44208709907107">
        <time>2018-08-09T11:06:41.134000Z</time>
      </trkpt>
      <trkpt lat="41.6818233440087" lon="123.44223026197724">
        <time>2018-08-09T11:06:45.114000Z</time>
      </trkpt>
      <trkpt lat="41.68182707395561" lon="123.44238239351981">
        <ele>48.849412779856216</ele>
        <time>2018-08-09T11:06:49.115000Z</time>
      </trkpt>
      <trkpt lat="41.68181617748149" lon="123.44252195220761">
        <time>2018-08-09T11:06:53.118000Z</time>
      </trkpt>
      <trkpt lat="41.68181240562506" lon="123.44267047953181">
        <ele>49.04494653229762</ele>
        <time>2018-08-09T11:06:57.114000Z</time>
      </trkpt>
      <trkpt lat="41.68182036843307" lon="123.44281640846603">
        <time>2018-08-09T11:07:01.180000Z</time>
      </trkpt>
      <trkpt lat="41.68183671314426" lon="123.44296719890409">
        <time>2018-08-09T11:07:05.128000Z</time>
      </trkpt>
      <trkpt lat="41.68182900179334" lon="123.44311245728605">
        <ele>49.129503111887466</ele>
        <time>2018-08-09T11:07:09.132000Z</time>
      </trkpt>
      <trkpt lat="41.68182481084175" lon="123.44323399488204">
        <time>2018-08-09T11:07:12.120000Z</time>
      </trkpt>
      <trkpt lat="41.6818302171693" lon="123.44337615195982">
        <ele>49.18499169831325</ele>
        <time>2018-08-09T11:07:16.149000Z</time>
      </trkpt>
      <trkpt lat="41.68182891797431" lon="123.4434968513655">
        <time>2018-08-09T11:07:19.123000Z</time>
      </trkpt>
      <trkpt lat="41.68183201927848" lon="123.44362643558853">
        <time>2018-08-09T11:07:23.119000Z</time>
      </trkpt>
      <trkpt lat="41.68181475255795" lon="123.44375182885997">
        <ele>49.33295617585231</ele>
        <time>2018-08-09T11:07:26.121000Z</time>
      </trkpt>
      <trkpt lat="41.681803353169634" lon="123.44389742251806">
        <time>2018-08-09T11:07:30.130000Z</time>
      </trkpt>
      <trkpt lat="41.68180469427414" lon="123.44404217798584">
        <time>2018-08-09T11:07:34.126000Z</time>
      </trkpt>
      <trkpt lat="41.68180477809317" lon="123.44417670753174">
        <ele>49.80593286042262</ele>
        <time>2018-08-09T11:07:38.120000Z</time>
      </trkpt>
      <trkpt lat="41.68181026823975" lon="123.44433143746429">
        <time>2018-08-09T11:07:42.149000Z</time>
      </trkpt>
      <trkpt lat="41.68180553246446" lon="123.44448382046394">
        <ele>49.91955743317653</ele>
        <time>2018-08-09T11:07:46.148000Z</time>
      </trkpt>
      <trkpt lat="41.681805281007364" lon="123.44462991703622">
        <time>2018-08-09T11:07:50.124000Z</time>
      </trkpt>
      <trkpt lat="41.68179388161905" lon="123.44477886345558">
        <time>2018-08-09T11:07:54.123000Z</time>
      </trkpt>
      <trkpt lat="41.68179371398099" lon="123.44490274798446">
        <ele>50.10451684479762</ele>
        <time>2018-08-09T11:07:57.138000Z</time>
      </trkpt>
      <trkpt lat="41.68179128322907" lon="123.44503736134939">
        <time>2018-08-09T11:08:01.137000Z</time>
      </trkpt>
      <trkpt lat="41.681810016782656" lon="123.44519334856741">
        <time>2018-08-09T11:08:05.121000Z</time>
      </trkpt>
      <trkpt lat="41.6818154231102" lon="123.44533659529262">
        <ele>50.16793237214137</ele>
        <time>2018-08-09T11:08:09.125000Z</time>
      </trkpt>
      <trkpt lat="41.68181433346279" lon="123.44548629608326">
        <time>2018-08-09T11:08:13.135000Z</time>
      </trkpt>
      <trkpt lat="41.68180280834593" lon="123.44562317256205">
        <ele>50.20227990632106</ele>
        <time>2018-08-09T11:08:17.126000Z</time>
      </trkpt>
      <trkpt lat="41.681806789749935" lon="123.44576993968658">
        <time>2018-08-09T11:08:21.127000Z</time>
      </trkpt>
      <trkpt lat="41.68180645447381" lon="123.44592575926654">
        <time>2018-08-09T11:08:25.111000Z</time>
      </trkpt>
      <trkpt lat="41.681813159996345" lon="123.44605601404183">
        <ele>50.09395013337184</ele>
        <time>2018-08-09T11:08:28.138000Z</time>
      </trkpt>
      <trkpt lat="41.681815171653106" lon="123.44620898377471">
        <time>2018-08-09T11:08:32.116000Z</time>
      </trkpt>
      <trkpt lat="41.681819320695176" lon="123.44635231431894">
        <ele>50.09395013337184</ele>
        <time>2018-08-09T11:08:37.119000Z</time>
      </trkpt>
      <trkpt lat="41.68180544864543" lon="123.44647603120976">
        <time>2018-08-09T11:08:40.112000Z</time>
      </trkpt>
      <trkpt lat="41.68177942283608" lon="123.44663503591292">
        <time>2018-08-09T11:08:44.133000Z</time>
      </trkpt>
      <trkpt lat="41.68178135067381" lon="123.44675741169922">
        <ele>49.94597802643825</ele>
        <time>2018-08-09T11:08:47.119000Z</time>
      </trkpt>
      <trkpt lat="41.681782817506864" lon="123.44688632537">
        <time>2018-08-09T11:08:50.129000Z</time>
      </trkpt>
      <trkpt lat="41.681777033993676" lon="123.44704717409186">
        <time>2018-08-09T11:08:54.124000Z</time>
      </trkpt>
      <trkpt lat="41.681779883840754" lon="123.44716954987817">
        <ele>49.91163049225856</ele>
        <time>2018-08-09T11:08:57.133000Z</time>
      </trkpt>
      <trkpt lat="41.681790989862456" lon="123.44729997229152">
        <time>2018-08-09T11:09:01.119000Z</time>
      </trkpt>
      <trkpt lat="41.68179731819935" lon="123.44742720958166">
        <time>2018-08-09T11:09:04.142000Z</time>
      </trkpt>
      <trkpt lat="41.68180645447381" lon="123.44757523399167">
        <ele>49.90105615143825</ele>
        <time>2018-08-09T11:09:08.120000Z</time>
      </trkpt>
      <trkpt lat="41.68179396543808" lon="123.44769811269217">
        <time>2018-08-09T11:09:12.125000Z</time>
      </trkpt>
      <trkpt lat="41.68175884526379" lon="123.44783289369516">
        <ele>49.589265685129654</ele>
        <time>2018-08-09T11:09:16.117000Z</time>
      </trkpt>
      <trkpt lat="41.68175746224977" lon="123.44796298083239">
        <time>2018-08-09T11:09:20.140000Z</time>
      </trkpt>
      <trkpt lat="41.681766933800354" lon="123.44810605991952">
        <time>2018-08-09T11:09:24.114000Z</time>
      </trkpt>
      <trkpt lat="41.681815590748265" lon="123.44823396776192">
        <ele>49.49414239411403</ele>
        <time>2018-08-09T11:09:28.117000Z</time>
      </trkpt>
      <trkpt lat="41.681826319584324" lon="123.44836371962302">
        <time>2018-08-09T11:09:32.131000Z</time>
      </trkpt>
      <trkpt lat="41.681777956003025" lon="123.44849590223603">
        <ele>49.51263604645778</ele>
        <time>2018-08-09T11:09:36.165000Z</time>
      </trkpt>
      <trkpt lat="41.68176726907648" lon="123.44863554474287">
        <time>2018-08-09T11:09:40.115000Z</time>
      </trkpt>
      <trkpt lat="41.681772801132574" lon="123.44877795327776">
        <time>2018-08-09T11:09:44.115000Z</time>
      </trkpt>
      <trkpt lat="41.68178021911688" lon="123.4489173443275">
        <ele>49.372590880442154</ele>
        <time>2018-08-09T11:09:48.115000Z</time>
      </trkpt>
      <trkpt lat="41.68178093157865" lon="123.44903980393283">
        <time>2018-08-09T11:09:51.119000Z</time>
      </trkpt>
      <trkpt lat="41.68177942283608" lon="123.44919143256121">
        <time>2018-08-09T11:09:55.102000Z</time>
      </trkpt>
      <trkpt lat="41.68178323660202" lon="123.44933602039092">
        <ele>49.60247979645778</ele>
        <time>2018-08-09T11:09:59.130000Z</time>
      </trkpt>
      <trkpt lat="41.6817731364087" lon="123.4494731483268">
        <time>2018-08-09T11:10:03.126000Z</time>
      </trkpt>
      <trkpt lat="41.68175310366012" lon="123.44962092127972">
        <ele>49.861421446848404</ele>
        <time>2018-08-09T11:10:07.130000Z</time>
      </trkpt>
      <trkpt lat="41.681752558836415" lon="123.44975343916886">
        <time>2018-08-09T11:10:11.117000Z</time>
      </trkpt>
      <trkpt lat="41.68176353912957" lon="123.44989693735116">
        <time>2018-08-09T11:10:15.123000Z</time>
      </trkpt>
      <trkpt lat="41.681766933800354" lon="123.45004336919956">
        <ele>49.94597802643825</ele>
        <time>2018-08-09T11:10:19.129000Z</time>
      </trkpt>
      <trkpt lat="41.68176110837765" lon="123.45018544245832">
        <time>2018-08-09T11:10:23.115000Z</time>
      </trkpt>
      <trkpt lat="41.68176374867715" lon="123.45031083572977">
        <ele>49.94069085602809</ele>
        <time>2018-08-09T11:10:26.118000Z</time>
      </trkpt>
      <trkpt lat="41.681757713706865" lon="123.45046271581523">
        <time>2018-08-09T11:10:30.107000Z</time>
      </trkpt>
      <trkpt lat="41.681749122256115" lon="123.45061845157616">
        <time>2018-08-09T11:10:34.117000Z</time>
      </trkpt>
      <trkpt lat="41.68175000235595" lon="123.45076387759619">
        <ele>49.951265196848404</ele>
        <time>2018-08-09T11:10:38.114000Z</time>
      </trkpt>
      <trkpt lat="41.681761569382324" lon="123.45091332692974">
        <time>2018-08-09T11:10:42.126000Z</time>
      </trkpt>
      <trkpt lat="41.68177569288917" lon="123.4510432464289">
        <ele>49.420152525949966</ele>
        <time>2018-08-09T11:10:47.123000Z</time>
      </trkpt>
      <trkpt lat="41.681769364552274" lon="123.45116771769099">
        <time>2018-08-09T11:10:55.097000Z</time>
      </trkpt>
      <trkpt lat="41.681771082842424" lon="123.45129000965827">
        <ele>49.80329308991481</ele>
        <time>2018-08-09T11:11:00.115000Z</time>
      </trkpt>
    </trkseg>
  </trk>
</gpx>