<?xml version="1.0" encoding="UTF-8"?>
<gpx xmlns="http://www.topografix.com/GPX/1/1" xmlns:gpxtpx="http://www.garmin.com/xmlschemas/TrackPointExtension/v1" xmlns:xsi="http://www.w3.org/2001/XMLSchema-instance" xsi:schemaLocation="http://www.topografix.com/GPX/1/1 http://www.topografix.com/GPX/1/1/gpx.xsd" version="1.1" creator="gpx.py -- https://github.com/tkrajina/gpxpy">
  <trk>
    <name>星期四 晚间跑</name>
    <trkseg>
      <trkpt lat="41.68180389799334" lon="123.45170809898846">
        <time>2018-08-09T11:19:24.089000Z</time>
      </trkpt>
      <trkpt lat="41.6817842424304" lon="123.45183525245957">
        <ele>47.36024672719493</ele>
        <time>2018-08-09T11:19:34.096000Z</time>
      </trkpt>
      <trkpt lat="41.68179249860503" lon="123.45195989135973">
        <ele>47.78301436635508</ele>
        <time>2018-08-09T11:19:44.108000Z</time>
      </trkpt>
      <trkpt lat="41.68178302705444" lon="123.45211110089295">
        <time>2018-08-09T11:19:49.103000Z</time>
      </trkpt>
      <trkpt lat="41.68179471980937" lon="123.45223071065121">
        <ele>48.625917503562114</ele>
        <time>2018-08-09T11:19:52.129000Z</time>
      </trkpt>
      <trkpt lat="41.68180783748783" lon="123.4523868655073">
        <time>2018-08-09T11:19:56.098000Z</time>
      </trkpt>
      <trkpt lat="41.68183516249217" lon="123.4525195510345">
        <ele>49.06453902455821</ele>
        <time>2018-08-09T11:20:00.094000Z</time>
      </trkpt>
      <trkpt lat="41.68181865014292" lon="123.45266170811229">
        <time>2018-08-09T11:20:04.110000Z</time>
      </trkpt>
      <trkpt lat="41.68180289216496" lon="123.45279447745853">
        <time>2018-08-09T11:20:07.105000Z</time>
      </trkpt>
      <trkpt lat="41.68179149277665" lon="123.45293168921344">
        <ele>49.170236656394145</ele>
        <time>2018-08-09T11:20:11.110000Z</time>
      </trkpt>
      <trkpt lat="41.681784829163625" lon="123.45306211162679">
        <time>2018-08-09T11:20:16.119000Z</time>
      </trkpt>
      <trkpt lat="41.68178034484543" lon="123.45321742829256">
        <ele>49.315561363425395</ele>
        <time>2018-08-09T11:20:20.129000Z</time>
      </trkpt>
      <trkpt lat="41.68176525741972" lon="123.45336453069322">
        <time>2018-08-09T11:20:24.113000Z</time>
      </trkpt>
      <trkpt lat="41.6817617789299" lon="123.4534984735059">
        <time>2018-08-09T11:20:28.115000Z</time>
      </trkpt>
      <trkpt lat="41.681763497220054" lon="123.45362336386316">
        <ele>49.50316817494883</ele>
        <time>2018-08-09T11:20:31.122000Z</time>
      </trkpt>
      <trkpt lat="41.68176856827147" lon="123.4537746572154">
        <time>2018-08-09T11:20:35.116000Z</time>
      </trkpt>
      <trkpt lat="41.68176366485812" lon="123.45389904465847">
        <time>2018-08-09T11:20:39.119000Z</time>
      </trkpt>
      <trkpt lat="41.6817636229486" lon="123.45402485702508">
        <ele>49.5480824205543</ele>
        <time>2018-08-09T11:20:42.155000Z</time>
      </trkpt>
      <trkpt lat="41.68175297793157" lon="123.4541446344214">
        <time>2018-08-09T11:20:45.118000Z</time>
      </trkpt>
      <trkpt lat="41.68174493130453" lon="123.4542857856708">
        <time>2018-08-09T11:20:49.113000Z</time>
      </trkpt>
      <trkpt lat="41.681731520259454" lon="123.45443875540369">
        <ele>49.587717125144145</ele>
        <time>2018-08-09T11:20:53.095000Z</time>
      </trkpt>
      <trkpt lat="41.68172196488984" lon="123.45456079591386">
        <time>2018-08-09T11:20:56.111000Z</time>
      </trkpt>
      <trkpt lat="41.68172276117064" lon="123.45469306234591">
        <ele>49.43710524770274</ele>
        <time>2018-08-09T11:21:00.098000Z</time>
      </trkpt>
      <trkpt lat="41.68172649111755" lon="123.45484117057495">
        <time>2018-08-09T11:21:04.101000Z</time>
      </trkpt>
      <trkpt lat="41.68172770649351" lon="123.45499279920332">
        <time>2018-08-09T11:21:08.143000Z</time>
      </trkpt>
      <trkpt lat="41.68173755522974" lon="123.4551428352701">
        <ele>49.35519606801524</ele>
        <time>2018-08-09T11:21:12.117000Z</time>
      </trkpt>
      <trkpt lat="41.68174593713291" lon="123.45528725546174">
        <time>2018-08-09T11:21:16.106000Z</time>
      </trkpt>
      <trkpt lat="41.681746984870806" lon="123.45544709835522">
        <ele>49.02226454946055</ele>
        <time>2018-08-09T11:21:20.259000Z</time>
      </trkpt>
      <trkpt lat="41.68173986025311" lon="123.45558305282466">
        <time>2018-08-09T11:21:23.106000Z</time>
      </trkpt>
      <trkpt lat="41.68174866125144" lon="123.45572889793985">
        <time>2018-08-09T11:21:27.135000Z</time>
      </trkpt>
      <trkpt lat="41.68176404204376" lon="123.45586175110512">
        <ele>49.07775313588633</ele>
        <time>2018-08-09T11:21:31.097000Z</time>
      </trkpt>
      <trkpt lat="41.68176433541037" lon="123.45600080687873">
        <time>2018-08-09T11:21:35.114000Z</time>
      </trkpt>
      <trkpt lat="41.6817551572264" lon="123.45613223512046">
        <time>2018-08-09T11:21:38.119000Z</time>
      </trkpt>
      <trkpt lat="41.68175000235595" lon="123.45629727479393">
        <ele>48.97206313344493</ele>
        <time>2018-08-09T11:21:42.113000Z</time>
      </trkpt>
      <trkpt lat="41.681753271298184" lon="123.45645284291679">
        <time>2018-08-09T11:21:46.126000Z</time>
      </trkpt>
      <trkpt lat="41.68178013529785" lon="123.45662232499892">
        <ele>48.46737868520274</ele>
        <time>2018-08-09T11:21:50.116000Z</time>
      </trkpt>
      <trkpt lat="41.681771376209035" lon="123.45677152287537">
        <time>2018-08-09T11:21:54.114000Z</time>
      </trkpt>
      <trkpt lat="41.68176265902974" lon="123.45690898608738">
        <time>2018-08-09T11:21:57.112000Z</time>
      </trkpt>
      <trkpt lat="41.681739105881825" lon="123.45706162054414">
        <ele>48.517580101218364</ele>
        <time>2018-08-09T11:22:01.126000Z</time>
      </trkpt>
      <trkpt lat="41.68172297071822" lon="123.45722850423628">
        <time>2018-08-09T11:22:05.119000Z</time>
      </trkpt>
      <trkpt lat="41.68172653302707" lon="123.45735205348903">
        <time>2018-08-09T11:22:08.116000Z</time>
      </trkpt>
      <trkpt lat="41.68174388356663" lon="123.45748155389303">
        <ele>48.26655776235118</ele>
        <time>2018-08-09T11:22:11.110000Z</time>
      </trkpt>
      <trkpt lat="41.68174438648082" lon="123.45762086112374">
        <time>2018-08-09T11:22:15.095000Z</time>
      </trkpt>
      <trkpt lat="41.681738393420055" lon="123.45775228936547">
        <time>2018-08-09T11:22:18.144000Z</time>
      </trkpt>
      <trkpt lat="41.681736968496516" lon="123.45790333126062">
        <ele>48.08952529164805</ele>
        <time>2018-08-09T11:22:23.138000Z</time>
      </trkpt>
      <trkpt lat="41.68174581140436" lon="123.45803786080653">
        <time>2018-08-09T11:22:27.124000Z</time>
      </trkpt>
      <trkpt lat="41.68174400929518" lon="123.45815864403123">
        <ele>47.666750023093364</ele>
        <time>2018-08-09T11:22:31.120000Z</time>
      </trkpt>
      <trkpt lat="41.68175926435895" lon="123.45830054965192">
        <time>2018-08-09T11:22:35.122000Z</time>
      </trkpt>
      <trkpt lat="41.6817654669673" lon="123.45842661347562">
        <time>2018-08-09T11:22:39.122000Z</time>
      </trkpt>
      <trkpt lat="41.68176006063975" lon="123.45855276111836">
        <ele>47.71431929799571</ele>
        <time>2018-08-09T11:22:43.117000Z</time>
      </trkpt>
      <trkpt lat="41.68175566014059" lon="123.45867387961918">
        <time>2018-08-09T11:22:47.126000Z</time>
      </trkpt>
      <trkpt lat="41.68175029572256" lon="123.45879902143353">
        <ele>47.79622847768321</ele>
        <time>2018-08-09T11:22:51.138000Z</time>
      </trkpt>
      <trkpt lat="41.68174237482406" lon="123.45895492483253">
        <time>2018-08-09T11:22:55.133000Z</time>
      </trkpt>
      <trkpt lat="41.6817430034668" lon="123.45908442523653">
        <time>2018-08-09T11:22:58.126000Z</time>
      </trkpt>
      <trkpt lat="41.68172833513625" lon="123.45923588622684">
        <ele>48.020822593894145</ele>
        <time>2018-08-09T11:23:02.129000Z</time>
      </trkpt>
      <trkpt lat="41.681720372328236" lon="123.45936647627825">
        <time>2018-08-09T11:23:06.118000Z</time>
      </trkpt>
      <trkpt lat="41.68171291243441" lon="123.45948960643584">
        <time>2018-08-09T11:23:09.126000Z</time>
      </trkpt>
      <trkpt lat="41.68169866319902" lon="123.45961323950762">
        <ele>48.002328941550395</ele>
        <time>2018-08-09T11:23:13.130000Z</time>
      </trkpt>
      <trkpt lat="41.68168206703074" lon="123.45974307518775">
        <time>2018-08-09T11:23:17.120000Z</time>
      </trkpt>
      <trkpt lat="41.68168684471555" lon="123.45988053839976">
        <ele>48.03139693471446</ele>
        <time>2018-08-09T11:23:21.132000Z</time>
      </trkpt>
      <trkpt lat="41.68171303816296" lon="123.46003149647588">
        <time>2018-08-09T11:23:25.120000Z</time>
      </trkpt>
      <trkpt lat="41.68171773202874" lon="123.46017113898272">
        <time>2018-08-09T11:23:29.119000Z</time>
      </trkpt>
      <trkpt lat="41.681700255760624" lon="123.46029778953964">
        <ele>48.18728835317149</ele>
        <time>2018-08-09T11:23:33.118000Z</time>
      </trkpt>
      <trkpt lat="41.68171031404443" lon="123.46041848894531">
        <time>2018-08-09T11:23:38.117000Z</time>
      </trkpt>
      <trkpt lat="41.68175591159768" lon="123.46071663324112">
        <ele>48.10009200307383</ele>
        <time>2018-08-09T11:24:48.098000Z</time>
      </trkpt>
      <trkpt lat="41.6817525169269" lon="123.46086080197567">
        <ele>48.27184493276133</ele>
        <time>2018-08-09T11:24:52.099000Z</time>
      </trkpt>
      <trkpt lat="41.681756204964294" lon="123.46101419080371">
        <time>2018-08-09T11:24:56.110000Z</time>
      </trkpt>
      <trkpt lat="41.681785541625395" lon="123.46116037119502">
        <ele>48.09481246205821</ele>
        <time>2018-08-09T11:25:00.109000Z</time>
      </trkpt>
      <trkpt lat="41.68179094795294" lon="123.4612855968284">
        <time>2018-08-09T11:25:03.104000Z</time>
      </trkpt>
      <trkpt lat="41.681756917426064" lon="123.46140939753825">
        <time>2018-08-09T11:25:07.105000Z</time>
      </trkpt>
      <trkpt lat="41.68173822578199" lon="123.46153629955226">
        <ele>48.37489516469493</ele>
        <time>2018-08-09T11:25:11.100000Z</time>
      </trkpt>
      <trkpt lat="41.681733741463795" lon="123.46168776054257">
        <time>2018-08-09T11:25:15.104000Z</time>
      </trkpt>
      <trkpt lat="41.68172561101772" lon="123.46184098173255">
        <time>2018-08-09T11:25:19.105000Z</time>
      </trkpt>
      <trkpt lat="41.68172359936096" lon="123.46199596312219">
        <ele>48.599489280905864</ele>
        <time>2018-08-09T11:25:23.101000Z</time>
      </trkpt>
      <trkpt lat="41.68172020469017" lon="123.46214750793153">
        <time>2018-08-09T11:25:29.105000Z</time>
      </trkpt>
      <trkpt lat="41.6817186959476" lon="123.46230064530248">
        <ele>48.78445632192149</ele>
        <time>2018-08-09T11:25:33.120000Z</time>
      </trkpt>
      <trkpt lat="41.681712283791676" lon="123.46245973382467">
        <time>2018-08-09T11:25:37.112000Z</time>
      </trkpt>
      <trkpt lat="41.68171412781037" lon="123.4625893180477">
        <ele>48.662904808249614</ele>
        <time>2018-08-09T11:25:41.114000Z</time>
      </trkpt>
      <trkpt lat="41.68171458881505" lon="123.46271663915688">
        <time>2018-08-09T11:25:45.099000Z</time>
      </trkpt>
      <trkpt lat="41.68171844449051" lon="123.46285158779794">
        <time>2018-08-09T11:25:49.102000Z</time>
      </trkpt>
      <trkpt lat="41.681718570219054" lon="123.46299667854184">
        <ele>48.80031020375743</ele>
        <time>2018-08-09T11:25:54.108000Z</time>
      </trkpt>
      <trkpt lat="41.6817326937259" lon="123.4631540906834">
        <time>2018-08-09T11:25:59.107000Z</time>
      </trkpt>
      <trkpt lat="41.68173432819702" lon="123.46327772375518">
        <ele>48.853159019675395</ele>
        <time>2018-08-09T11:26:02.103000Z</time>
      </trkpt>
      <trkpt lat="41.681720288509204" lon="123.46340722415918">
        <time>2018-08-09T11:26:06.108000Z</time>
      </trkpt>
      <trkpt lat="41.68171383444376" lon="123.46353705983931">
        <ele>48.689333030905864</ele>
        <time>2018-08-09T11:26:10.120000Z</time>
      </trkpt>
      <trkpt lat="41.681711822787" lon="123.46366412949139">
        <time>2018-08-09T11:26:14.120000Z</time>
      </trkpt>
      <trkpt lat="41.68171408590086" lon="123.46380838204497">
        <time>2018-08-09T11:26:19.105000Z</time>
      </trkpt>
      <trkpt lat="41.68170750610687" lon="123.4639450908857">
        <ele>48.53079421254649</ele>
        <time>2018-08-09T11:26:23.053000Z</time>
      </trkpt>
      <trkpt lat="41.681696106718555" lon="123.46408925962025">
        <time>2018-08-09T11:26:27.061000Z</time>
      </trkpt>
      <trkpt lat="41.68167682834126" lon="123.46423678111607">
        <ele>48.536073753562114</ele>
        <time>2018-08-09T11:26:31.057000Z</time>
      </trkpt>
      <trkpt lat="41.68167649306513" lon="123.4643890802967">
        <time>2018-08-09T11:26:35.107000Z</time>
      </trkpt>
      <trkpt lat="41.681670206637754" lon="123.46453140501255">
        <ele>48.274484703269145</ele>
        <time>2018-08-09T11:26:40.106000Z</time>
      </trkpt>
      <trkpt lat="41.681669494175985" lon="123.46467280771905">
        <time>2018-08-09T11:26:45.104000Z</time>
      </trkpt>
      <trkpt lat="41.68167381085612" lon="123.46480155375177">
        <ele>48.21635634633555</ele>
        <time>2018-08-09T11:26:50.106000Z</time>
      </trkpt>
      <trkpt lat="41.68168571315862" lon="123.46494136389667">
        <time>2018-08-09T11:26:55.110000Z</time>
      </trkpt>
      <trkpt lat="41.68168764099635" lon="123.46506650571102">
        <ele>48.26127822133555</ele>
        <time>2018-08-09T11:27:00.097000Z</time>
      </trkpt>
      <trkpt lat="41.68169501707114" lon="123.46519114461118">
        <time>2018-08-09T11:27:07.101000Z</time>
      </trkpt>
      <trkpt lat="41.68170432098366" lon="123.4650587943601">
        <ele>48.591562339987895</ele>
        <time>2018-08-09T11:27:13.112000Z</time>
      </trkpt>
      <trkpt lat="41.68170101013191" lon="123.46492493536645">
        <time>2018-08-09T11:27:18.098000Z</time>
      </trkpt>
      <trkpt lat="41.6816988727466" lon="123.4647947644102">
        <ele>48.211069175925395</ele>
        <time>2018-08-09T11:27:23.100000Z</time>
      </trkpt>
      <trkpt lat="41.68170331515528" lon="123.46465579245562">
        <time>2018-08-09T11:27:28.098000Z</time>
      </trkpt>
      <trkpt lat="41.68170993685879" lon="123.46451623376781">
        <ele>48.17143447133555</ele>
        <time>2018-08-09T11:27:33.122000Z</time>
      </trkpt>
      <trkpt lat="41.68168470733024" lon="123.46437927346999">
        <time>2018-08-09T11:27:38.119000Z</time>
      </trkpt>
      <trkpt lat="41.68168156411655" lon="123.46425723295981">
        <ele>48.29826552602305</ele>
        <time>2018-08-09T11:27:42.119000Z</time>
      </trkpt>
      <trkpt lat="41.681684455873146" lon="123.46413083385998">
        <time>2018-08-09T11:27:47.103000Z</time>
      </trkpt>
      <trkpt lat="41.681678001807704" lon="123.46398331236416">
        <ele>48.255991050925395</ele>
        <time>2018-08-09T11:27:51.127000Z</time>
      </trkpt>
      <trkpt lat="41.681684162506535" lon="123.46385850582594">
        <time>2018-08-09T11:27:54.117000Z</time>
      </trkpt>
      <trkpt lat="41.681694681795015" lon="123.46370385971242">
        <time>2018-08-09T11:27:58.121000Z</time>
      </trkpt>
      <trkpt lat="41.68169635817565" lon="123.46355038706535">
        <ele>48.54664809438243</ele>
        <time>2018-08-09T11:28:03.131000Z</time>
      </trkpt>
      <trkpt lat="41.6816999204845" lon="123.46342247922296">
        <time>2018-08-09T11:28:07.126000Z</time>
      </trkpt>
      <trkpt lat="41.681687599086835" lon="123.46328392636353">
        <ele>48.52550704213633</ele>
        <time>2018-08-09T11:28:11.140000Z</time>
      </trkpt>
      <trkpt lat="41.681686174163296" lon="123.46315610234016">
        <time>2018-08-09T11:28:14.125000Z</time>
      </trkpt>
      <trkpt lat="41.68168399486847" lon="123.46302031550879">
        <time>2018-08-09T11:28:18.131000Z</time>
      </trkpt>
      <trkpt lat="41.68168713808216" lon="123.46289936464602">
        <ele>48.54664809438243</ele>
        <time>2018-08-09T11:28:21.172000Z</time>
      </trkpt>
      <trkpt lat="41.68167259548016" lon="123.46274580817992">
        <time>2018-08-09T11:28:25.132000Z</time>
      </trkpt>
      <trkpt lat="41.681661908553615" lon="123.4626019747215">
        <time>2018-08-09T11:28:29.131000Z</time>
      </trkpt>
      <trkpt lat="41.68167326603241" lon="123.4624724743175">
        <ele>48.60477645131602</ele>
        <time>2018-08-09T11:28:33.172000Z</time>
      </trkpt>
      <trkpt lat="41.681701974050775" lon="123.46233014960164">
        <time>2018-08-09T11:28:38.134000Z</time>
      </trkpt>
      <trkpt lat="41.68171123605378" lon="123.46219888899797">
        <ele>48.53872115346446</ele>
        <time>2018-08-09T11:28:42.133000Z</time>
      </trkpt>
      <trkpt lat="41.68170658409752" lon="123.46204457816059">
        <time>2018-08-09T11:28:46.129000Z</time>
      </trkpt>
      <trkpt lat="41.68169099375762" lon="123.46191834669882">
        <time>2018-08-09T11:28:49.131000Z</time>
      </trkpt>
      <trkpt lat="41.68170629073091" lon="123.4617948812651">
        <ele>48.50701338979258</ele>
        <time>2018-08-09T11:28:53.141000Z</time>
      </trkpt>
      <trkpt lat="41.68171995323308" lon="123.461641324799">
        <time>2018-08-09T11:28:58.137000Z</time>
      </trkpt>
      <trkpt lat="41.68172468900837" lon="123.46148885798031">
        <ele>48.20842940541758</ele>
        <time>2018-08-09T11:29:01.118000Z</time>
      </trkpt>
      <trkpt lat="41.68173214890219" lon="123.46135650772923">
        <time>2018-08-09T11:29:04.156000Z</time>
      </trkpt>
      <trkpt lat="41.681753858031406" lon="123.46123974781806">
        <time>2018-08-09T11:29:07.130000Z</time>
      </trkpt>
      <trkpt lat="41.681764083953276" lon="123.46111821022207">
        <ele>47.86757094594493</ele>
        <time>2018-08-09T11:29:10.134000Z</time>
      </trkpt>
      <trkpt lat="41.68172338981338" lon="123.46099508006448">
        <time>2018-08-09T11:29:14.126000Z</time>
      </trkpt>
      <trkpt lat="41.68175654024042" lon="123.46060104679638">
        <ele>47.33381850453868</ele>
        <time>2018-08-09T11:30:43.135000Z</time>
      </trkpt>
      <trkpt lat="41.68175381612189" lon="123.46045805152828">
        <ele>47.63504225942149</ele>
        <time>2018-08-09T11:30:47.130000Z</time>
      </trkpt>
      <trkpt lat="41.681751050093844" lon="123.46032804821009">
        <time>2018-08-09T11:30:50.128000Z</time>
      </trkpt>
      <trkpt lat="41.681787134187" lon="123.46018387947554">
        <ele>47.46064955922618</ele>
        <time>2018-08-09T11:30:54.129000Z</time>
      </trkpt>
      <trkpt lat="41.68176861018099" lon="123.46004918229157">
        <time>2018-08-09T11:30:58.130000Z</time>
      </trkpt>
      <trkpt lat="41.68173260990687" lon="123.45989654783482">
        <time>2018-08-09T11:31:02.142000Z</time>
      </trkpt>
      <trkpt lat="41.68172334790386" lon="123.45975514512831">
        <ele>47.394594261374614</ele>
        <time>2018-08-09T11:31:06.121000Z</time>
      </trkpt>
      <trkpt lat="41.681713918262794" lon="123.4596176819163">
        <time>2018-08-09T11:31:10.120000Z</time>
      </trkpt>
      <trkpt lat="41.68171052359201" lon="123.45949203718776">
        <time>2018-08-09T11:31:13.148000Z</time>
      </trkpt>
      <trkpt lat="41.68168554552056" lon="123.45935566362316">
        <ele>47.00881392690196</ele>
        <time>2018-08-09T11:31:17.123000Z</time>
      </trkpt>
      <trkpt lat="41.681690029838755" lon="123.459231024723">
        <time>2018-08-09T11:31:20.152000Z</time>
      </trkpt>
      <trkpt lat="41.68168080974527" lon="123.45909976411933">
        <time>2018-08-09T11:31:23.123000Z</time>
      </trkpt>
      <trkpt lat="41.68168403677799" lon="123.45896204945022">
        <ele>46.715517112937114</ele>
        <time>2018-08-09T11:31:26.137000Z</time>
      </trkpt>
      <trkpt lat="41.681685587430074" lon="123.4588179645347">
        <time>2018-08-09T11:31:30.120000Z</time>
      </trkpt>
      <trkpt lat="41.68170121967949" lon="123.45867924403721">
        <ele>46.59926039906993</ele>
        <time>2018-08-09T11:31:34.150000Z</time>
      </trkpt>
      <trkpt lat="41.68169212531455" lon="123.45855250966126">
        <time>2018-08-09T11:31:38.126000Z</time>
      </trkpt>
      <trkpt lat="41.68169036511488" lon="123.45840691600317">
        <time>2018-08-09T11:31:42.121000Z</time>
      </trkpt>
      <trkpt lat="41.681698327922895" lon="123.45825050968999">
        <ele>46.49356276723399</ele>
        <time>2018-08-09T11:31:46.146000Z</time>
      </trkpt>
      <trkpt lat="41.68169313114293" lon="123.45810231764192">
        <time>2018-08-09T11:31:50.128000Z</time>
      </trkpt>
      <trkpt lat="41.681704991535916" lon="123.45795915473575">
        <ele>46.615114280905864</ele>
        <time>2018-08-09T11:31:54.112000Z</time>
      </trkpt>
      <trkpt lat="41.68169572953291" lon="123.45782546338016">
        <time>2018-08-09T11:31:58.145000Z</time>
      </trkpt>
      <trkpt lat="41.68168060019769" lon="123.45767165545696">
        <time>2018-08-09T11:32:02.144000Z</time>
      </trkpt>
      <trkpt lat="41.681684874968305" lon="123.45754466962391">
        <ele>46.63624770375743</ele>
        <time>2018-08-09T11:32:05.116000Z</time>
      </trkpt>
      <trkpt lat="41.681683156678154" lon="123.4574072064119">
        <time>2018-08-09T11:32:09.122000Z</time>
      </trkpt>
      <trkpt lat="41.681695603804364" lon="123.45726815063828">
        <time>2018-08-09T11:32:12.144000Z</time>
      </trkpt>
      <trkpt lat="41.68170972731121" lon="123.45711534854347">
        <ele>46.61246688100352</ele>
        <time>2018-08-09T11:32:16.121000Z</time>
      </trkpt>
      <trkpt lat="41.68170796711154" lon="123.45695332635516">
        <time>2018-08-09T11:32:20.123000Z</time>
      </trkpt>
      <trkpt lat="41.68170650027849" lon="123.45680052426034">
        <ele>46.90841109487071</ele>
        <time>2018-08-09T11:32:24.148000Z</time>
      </trkpt>
      <trkpt lat="41.68169958520837" lon="123.45664830889875">
        <time>2018-08-09T11:32:28.119000Z</time>
      </trkpt>
      <trkpt lat="41.68168110311188" lon="123.45652325090343">
        <time>2018-08-09T11:32:31.129000Z</time>
      </trkpt>
      <trkpt lat="41.6816626629249" lon="123.45637313101763">
        <ele>46.81328780385508</ele>
        <time>2018-08-09T11:32:35.207000Z</time>
      </trkpt>
      <trkpt lat="41.681659477801695" lon="123.45625167724066">
        <time>2018-08-09T11:32:38.116000Z</time>
      </trkpt>
      <trkpt lat="41.681662201920226" lon="123.45611614186637">
        <time>2018-08-09T11:32:41.133000Z</time>
      </trkpt>
      <trkpt lat="41.68166844643809" lon="123.45596903946571">
        <ele>47.04316909047618</ele>
        <time>2018-08-09T11:32:45.117000Z</time>
      </trkpt>
      <trkpt lat="41.68167355939902" lon="123.45584046107106">
        <time>2018-08-09T11:32:48.123000Z</time>
      </trkpt>
      <trkpt lat="41.68169987857498" lon="123.45572034839861">
        <time>2018-08-09T11:32:52.120000Z</time>
      </trkpt>
      <trkpt lat="41.68174178809084" lon="123.45560736034386">
        <ele>47.28097731801524</ele>
        <time>2018-08-09T11:32:56.128000Z</time>
      </trkpt>
      <trkpt lat="41.68173055634059" lon="123.45544911001198">
        <time>2018-08-09T11:33:00.111000Z</time>
      </trkpt>
      <trkpt lat="41.68173135262139" lon="123.45529756520264">
        <ele>47.405160972800395</ele>
        <time>2018-08-09T11:33:04.135000Z</time>
      </trkpt>
      <trkpt lat="41.68171111032523" lon="123.45517778780632">
        <time>2018-08-09T11:33:07.128000Z</time>
      </trkpt>
      <trkpt lat="41.681688730643764" lon="123.45503655273788">
        <time>2018-08-09T11:33:11.126000Z</time>
      </trkpt>
      <trkpt lat="41.68169380169518" lon="123.45489850279264">
        <ele>47.584840843405864</ele>
        <time>2018-08-09T11:33:15.143000Z</time>
      </trkpt>
      <trkpt lat="41.681690742300525" lon="123.45475684862905">
        <time>2018-08-09T11:33:19.129000Z</time>
      </trkpt>
      <trkpt lat="41.68167167347081" lon="123.45462282199733">
        <time>2018-08-09T11:33:23.125000Z</time>
      </trkpt>
      <trkpt lat="41.68168160602607" lon="123.454473959397">
        <ele>47.640329429831645</ele>
        <time>2018-08-09T11:33:27.124000Z</time>
      </trkpt>
      <trkpt lat="41.68169229295261" lon="123.45431621197932">
        <time>2018-08-09T11:33:31.127000Z</time>
      </trkpt>
      <trkpt lat="41.68171090077765" lon="123.45418914232724">
        <ele>47.48179061147227</ele>
        <time>2018-08-09T11:33:35.122000Z</time>
      </trkpt>
      <trkpt lat="41.68172217443742" lon="123.45405419368618">
        <time>2018-08-09T11:33:39.114000Z</time>
      </trkpt>
      <trkpt lat="41.68172586247481" lon="123.45390767801874">
        <time>2018-08-09T11:33:43.119000Z</time>
      </trkpt>
      <trkpt lat="41.68174065653391" lon="123.45378563750856">
        <ele>47.513498375144145</ele>
        <time>2018-08-09T11:33:46.139000Z</time>
      </trkpt>
      <trkpt lat="41.68174279391922" lon="123.45362747099571">
        <time>2018-08-09T11:33:49.120000Z</time>
      </trkpt>
      <trkpt lat="41.68173378337331" lon="123.45349838968687">
        <time>2018-08-09T11:33:52.126000Z</time>
      </trkpt>
      <trkpt lat="41.681733448097184" lon="123.45337701972895">
        <ele>47.36024672719493</ele>
        <time>2018-08-09T11:33:55.124000Z</time>
      </trkpt>
      <trkpt lat="41.681731520259454" lon="123.45323159370892">
        <time>2018-08-09T11:33:59.127000Z</time>
      </trkpt>
      <trkpt lat="41.68173290327348" lon="123.45309798617237">
        <time>2018-08-09T11:34:03.128000Z</time>
      </trkpt>
      <trkpt lat="41.681724647098854" lon="123.45296957541578">
        <ele>47.16735274526133</ele>
        <time>2018-08-09T11:34:06.155000Z</time>
      </trkpt>
      <trkpt lat="41.68172548528917" lon="123.45282699924283">
        <time>2018-08-09T11:34:10.114000Z</time>
      </trkpt>
      <trkpt lat="41.6817334900067" lon="123.45266623434">
        <ele>46.99296004506602</ele>
        <time>2018-08-09T11:34:14.115000Z</time>
      </trkpt>
      <trkpt lat="41.681754277126565" lon="123.45253807504051">
        <time>2018-08-09T11:34:18.105000Z</time>
      </trkpt>
      <trkpt lat="41.68175536677398" lon="123.45241117302649">
        <time>2018-08-09T11:34:22.128000Z</time>
      </trkpt>
      <trkpt lat="41.68174493130453" lon="123.45229089271598">
        <ele>46.71023757192149</ele>
        <time>2018-08-09T11:34:27.120000Z</time>
      </trkpt>
      <trkpt lat="41.681749415622726" lon="123.45216114085488">
        <time>2018-08-09T11:34:31.124000Z</time>
      </trkpt>
      <trkpt lat="41.68174874507047" lon="123.45200875785522">
        <ele>46.68116957875743</ele>
        <time>2018-08-09T11:34:36.136000Z</time>
      </trkpt>
      <trkpt lat="41.68178839147247" lon="123.45188059855573">
        <time>2018-08-09T11:34:40.145000Z</time>
      </trkpt>
      <trkpt lat="41.68182376310386" lon="123.45173978258245">
        <ele>46.38787276479258</ele>
        <time>2018-08-09T11:34:44.128000Z</time>
      </trkpt>
      <trkpt lat="41.68178738564409" lon="123.45159091998212">
        <time>2018-08-09T11:34:48.127000Z</time>
      </trkpt>
      <trkpt lat="41.68176697570987" lon="123.45144616451435">
        <time>2018-08-09T11:34:52.123000Z</time>
      </trkpt>
      <trkpt lat="41.68176756244309" lon="123.45132521365159">
        <ele>46.3323841783668</ele>
        <time>2018-08-09T11:34:55.128000Z</time>
      </trkpt>
      <trkpt lat="41.68177254967548" lon="123.4512039275127">
        <time>2018-08-09T11:34:58.122000Z</time>
      </trkpt>
      <trkpt lat="41.681785038711205" lon="123.45106747012906">
        <time>2018-08-09T11:35:02.119000Z</time>
      </trkpt>
      <trkpt lat="41.681787259915545" lon="123.45093838882022">
        <ele>46.31124312612071</ele>
        <time>2018-08-09T11:35:06.108000Z</time>
      </trkpt>
      <trkpt lat="41.6817836976067" lon="123.45078793365829">
        <time>2018-08-09T11:35:10.113000Z</time>
      </trkpt>
      <trkpt lat="41.68178495489217" lon="123.45063990924828">
        <ele>46.17648513051524</ele>
        <time>2018-08-09T11:35:14.122000Z</time>
      </trkpt>
      <trkpt lat="41.681799916589334" lon="123.45050948683493">
        <time>2018-08-09T11:35:19.125000Z</time>
      </trkpt>
      <trkpt lat="41.681793923528566" lon="123.45037269417517">
        <ele>46.22140700551524</ele>
        <time>2018-08-09T11:35:26.106000Z</time>
      </trkpt>
      <trkpt lat="41.68179115750052" lon="123.45023858372443">
        <time>2018-08-09T11:35:33.123000Z</time>
      </trkpt>
      <trkpt lat="41.681781895497515" lon="123.45010304835014">
        <ele>46.14213759633555</ele>
        <time>2018-08-09T11:35:40.112000Z</time>
      </trkpt>
      <trkpt lat="41.681776447260454" lon="123.44997514050775">
        <ele>46.11042983266368</ele>
        <time>2018-08-09T11:35:47.120000Z</time>
      </trkpt>
      <trkpt lat="41.68179530654259" lon="123.44985167507403">
        <time>2018-08-09T11:35:53.135000Z</time>
      </trkpt>
      <trkpt lat="41.681776028165295" lon="123.44971010472946">
        <ele>46.00737960073008</ele>
        <time>2018-08-09T11:36:00.133000Z</time>
      </trkpt>
      <trkpt lat="41.68176395822473" lon="123.44958856713347">
        <time>2018-08-09T11:36:03.120000Z</time>
      </trkpt>
      <trkpt lat="41.681763078124895" lon="123.44942629348807">
        <ele>46.200265953269145</ele>
        <time>2018-08-09T11:36:06.135000Z</time>
      </trkpt>
      <trkpt lat="41.68176555078633" lon="123.4492817894774">
        <time>2018-08-09T11:36:10.129000Z</time>
      </trkpt>
      <trkpt lat="41.68176127601571" lon="123.44914466154151">
        <time>2018-08-09T11:36:13.118000Z</time>
      </trkpt>
      <trkpt lat="41.681761569382324" lon="123.44901599932783">
        <ele>45.8250599596168</ele>
        <time>2018-08-09T11:36:16.122000Z</time>
      </trkpt>
      <trkpt lat="41.68176504787214" lon="123.44888901349478">
        <time>2018-08-09T11:36:19.120000Z</time>
      </trkpt>
      <trkpt lat="41.681770579928234" lon="123.44874098908477">
        <time>2018-08-09T11:36:23.122000Z</time>
      </trkpt>
      <trkpt lat="41.681771376209035" lon="123.44858483422868">
        <ele>45.54232985707774</ele>
        <time>2018-08-09T11:36:27.120000Z</time>
      </trkpt>
      <trkpt lat="41.681772088670805" lon="123.44846078206174">
        <time>2018-08-09T11:36:30.110000Z</time>
      </trkpt>
      <trkpt lat="41.68180766984977" lon="123.4483094887095">
        <ele>45.52383620473399</ele>
        <time>2018-08-09T11:36:34.128000Z</time>
      </trkpt>
      <trkpt lat="41.68181592602439" lon="123.44815928500466">
        <time>2018-08-09T11:36:38.125000Z</time>
      </trkpt>
      <trkpt lat="41.68176739480503" lon="123.44805568468146">
        <time>2018-08-09T11:36:42.128000Z</time>
      </trkpt>
      <trkpt lat="41.68176739480503" lon="123.44805568468146">
        <ele>45.222604820456645</ele>
        <time>2018-08-09T11:37:13.111000Z</time>
      </trkpt>
      <trkpt lat="41.681778752283826" lon="123.44783121731453">
        <ele>45.204111168112895</ele>
        <time>2018-08-09T11:37:16.133000Z</time>
      </trkpt>
      <trkpt lat="41.6817932110668" lon="123.44766575854592">
        <time>2018-08-09T11:37:20.137000Z</time>
      </trkpt>
      <trkpt lat="41.681823595465794" lon="123.44751907524042">
        <time>2018-08-09T11:37:24.127000Z</time>
      </trkpt>
      <trkpt lat="41.68181177698232" lon="123.44739669945412">
        <ele>45.62423903676524</ele>
        <time>2018-08-09T11:37:27.112000Z</time>
      </trkpt>
      <trkpt lat="41.68179518081404" lon="123.44723995786481">
        <time>2018-08-09T11:37:31.139000Z</time>
      </trkpt>
      <trkpt lat="41.681782398411706" lon="123.44709252018802">
        <ele>45.566110679831645</ele>
        <time>2018-08-09T11:37:35.130000Z</time>
      </trkpt>
      <trkpt lat="41.68177950665511" lon="123.44694960873895">
        <time>2018-08-09T11:37:38.127000Z</time>
      </trkpt>
      <trkpt lat="41.68178172785945" lon="123.44681985687785">
        <time>2018-08-09T11:37:41.126000Z</time>
      </trkpt>
      <trkpt lat="41.68177569288917" lon="123.44665582303278">
        <ele>45.72464949819102</ele>
        <time>2018-08-09T11:37:45.120000Z</time>
      </trkpt>
      <trkpt lat="41.68177858464576" lon="123.44652674172394">
        <time>2018-08-09T11:37:48.132000Z</time>
      </trkpt>
      <trkpt lat="41.68176588606246" lon="123.44637813058071">
        <time>2018-08-09T11:37:52.123000Z</time>
      </trkpt>
      <trkpt lat="41.68176555078633" lon="123.44625516806119">
        <ele>45.68765456410899</ele>
        <time>2018-08-09T11:37:55.125000Z</time>
      </trkpt>
      <trkpt lat="41.681746398137584" lon="123.44611770484917">
        <time>2018-08-09T11:37:59.128000Z</time>
      </trkpt>
      <trkpt lat="41.68174107562907" lon="123.445963980745">
        <time>2018-08-09T11:38:03.133000Z</time>
      </trkpt>
      <trkpt lat="41.68176265902974" lon="123.44583615672164">
        <ele>45.94924361440196</ele>
        <time>2018-08-09T11:38:06.125000Z</time>
      </trkpt>
      <trkpt lat="41.681763874405696" lon="123.44568570155971">
        <time>2018-08-09T11:38:10.131000Z</time>
      </trkpt>
      <trkpt lat="41.681766514705195" lon="123.44554597523384">
        <time>2018-08-09T11:38:14.127000Z</time>
      </trkpt>
      <trkpt lat="41.68178197931655" lon="123.44539342459612">
        <ele>45.838266441550395</ele>
        <time>2018-08-09T11:38:18.150000Z</time>
      </trkpt>
      <trkpt lat="41.68178910393424" lon="123.4452440590816">
        <time>2018-08-09T11:38:22.137000Z</time>
      </trkpt>
      <trkpt lat="41.68180197015561" lon="123.44509880069964">
        <ele>45.8250599596168</ele>
        <time>2018-08-09T11:38:26.128000Z</time>
      </trkpt>
      <trkpt lat="41.681796480009034" lon="123.44494306493871">
        <time>2018-08-09T11:38:30.140000Z</time>
      </trkpt>
      <trkpt lat="41.681800000408366" lon="123.44481633056276">
        <time>2018-08-09T11:38:33.135000Z</time>
      </trkpt>
      <trkpt lat="41.68181177698232" lon="123.44468934472971">
        <ele>45.72464949819102</ele>
        <time>2018-08-09T11:38:36.130000Z</time>
      </trkpt>
      <trkpt lat="41.68180083859868" lon="123.44453268695943">
        <time>2018-08-09T11:38:40.139000Z</time>
      </trkpt>
      <trkpt lat="41.681791911871805" lon="123.44439086515777">
        <time>2018-08-09T11:38:44.130000Z</time>
      </trkpt>
      <trkpt lat="41.68179371398099" lon="123.44426589098148">
        <ele>45.51326186391368</ele>
        <time>2018-08-09T11:38:47.120000Z</time>
      </trkpt>
      <trkpt lat="41.68179580945678" lon="123.44412239279919">
        <time>2018-08-09T11:38:50.122000Z</time>
      </trkpt>
      <trkpt lat="41.681792330966964" lon="123.44397378165596">
        <time>2018-08-09T11:38:54.123000Z</time>
      </trkpt>
      <trkpt lat="41.68177959047414" lon="123.44381134037249">
        <ele>45.45248610707774</ele>
        <time>2018-08-09T11:38:58.136000Z</time>
      </trkpt>
      <trkpt lat="41.68177275922306" lon="123.44365585606866">
        <time>2018-08-09T11:39:02.131000Z</time>
      </trkpt>
      <trkpt lat="41.68178248223074" lon="123.44350447889738">
        <ele>45.15654952260508</ele>
        <time>2018-08-09T11:39:05.112000Z</time>
      </trkpt>
      <trkpt lat="41.681784326249435" lon="123.44335980724864">
        <time>2018-08-09T11:39:08.133000Z</time>
      </trkpt>
      <trkpt lat="41.68178700845845" lon="123.44323625799589">
        <time>2018-08-09T11:39:11.125000Z</time>
      </trkpt>
      <trkpt lat="41.68179103177197" lon="123.44309024524264">
        <time>2018-08-09T11:39:14.130000Z</time>
      </trkpt>
      <trkpt lat="41.68179254051454" lon="123.44293995771878">
        <ele>44.69414717885508</ele>
        <time>2018-08-09T11:39:18.129000Z</time>
      </trkpt>
      <trkpt lat="41.68181756049551" lon="123.44282059941762">
        <time>2018-08-09T11:39:21.139000Z</time>
      </trkpt>
      <trkpt lat="41.681808214673474" lon="123.44267693359726">
        <ele>44.44048506948008</ele>
        <time>2018-08-09T11:39:25.121000Z</time>
      </trkpt>
      <trkpt lat="41.68179518081404" lon="123.442536201443">
        <time>2018-08-09T11:39:29.108000Z</time>
      </trkpt>
      <trkpt lat="41.68180134151287" lon="123.44241240073316">
        <time>2018-08-09T11:39:32.108000Z</time>
      </trkpt>
      <trkpt lat="41.68179995849885" lon="123.44225708406739">
        <ele>44.38234908315196</ele>
        <time>2018-08-09T11:39:36.110000Z</time>
      </trkpt>
      <trkpt lat="41.681792833881154" lon="123.44213093642466">
        <time>2018-08-09T11:39:39.110000Z</time>
      </trkpt>
      <trkpt lat="41.68180134151287" lon="123.44197771523469">
        <time>2018-08-09T11:39:43.108000Z</time>
      </trkpt>
      <trkpt lat="41.68180834040202" lon="123.4418524896013">
        <ele>44.23173720571055</ele>
        <time>2018-08-09T11:39:46.133000Z</time>
      </trkpt>
      <trkpt lat="41.68180645447381" lon="123.44169532891684">
        <time>2018-08-09T11:39:50.136000Z</time>
      </trkpt>
      <trkpt lat="41.68180448472656" lon="123.44154126953654">
        <time>2018-08-09T11:39:54.130000Z</time>
      </trkpt>
      <trkpt lat="41.68179073840536" lon="123.44138897035592">
        <ele>44.144540855612895</ele>
        <time>2018-08-09T11:39:58.138000Z</time>
      </trkpt>
      <trkpt lat="41.68177560907014" lon="123.44126089487546">
        <time>2018-08-09T11:40:01.113000Z</time>
      </trkpt>
      <trkpt lat="41.68177707590319" lon="123.44113826763206">
        <time>2018-08-09T11:40:04.135000Z</time>
      </trkpt>
      <trkpt lat="41.68178227268316" lon="123.44100365426712">
        <ele>43.943727562155864</ele>
        <time>2018-08-09T11:40:07.131000Z</time>
      </trkpt>
      <trkpt lat="41.681786966548934" lon="123.440844817202">
        <time>2018-08-09T11:40:11.126000Z</time>
      </trkpt>
      <trkpt lat="41.681782817506864" lon="123.44070073228649">
        <ele>44.00185591908946</ele>
        <time>2018-08-09T11:40:15.122000Z</time>
      </trkpt>
      <trkpt lat="41.68178591881104" lon="123.44057559047214">
        <time>2018-08-09T11:40:18.156000Z</time>
      </trkpt>
      <trkpt lat="41.68178441006847" lon="123.44041742395929">
        <time>2018-08-09T11:40:22.129000Z</time>
      </trkpt>
      <trkpt lat="41.6817966476471" lon="123.44025800016097">
        <ele>43.84331710073008</ele>
        <time>2018-08-09T11:40:26.133000Z</time>
      </trkpt>
      <trkpt lat="41.68181332763441" lon="123.44013319362274">
        <time>2018-08-09T11:40:29.129000Z</time>
      </trkpt>
      <trkpt lat="41.68181718330987" lon="123.44000008900038">
        <time>2018-08-09T11:40:32.124000Z</time>
      </trkpt>
      <trkpt lat="41.68182615194626" lon="123.4398727678912">
        <ele>43.82217604848399</ele>
        <time>2018-08-09T11:40:36.114000Z</time>
      </trkpt>
      <trkpt lat="41.68184140701003" lon="123.43975416396133">
        <time>2018-08-09T11:40:39.126000Z</time>
      </trkpt>
      <trkpt lat="41.6818283731506" lon="123.43962474737636">
        <time>2018-08-09T11:40:42.161000Z</time>
      </trkpt>
      <trkpt lat="41.681839982086494" lon="123.43949030164949">
        <ele>43.663637230124614</ele>
        <time>2018-08-09T11:40:45.138000Z</time>
      </trkpt>
      <trkpt lat="41.68185259685077" lon="123.43936733912996">
        <time>2018-08-09T11:40:48.115000Z</time>
      </trkpt>
      <trkpt lat="41.6818492440895" lon="123.43924563389591">
        <time>2018-08-09T11:40:51.113000Z</time>
      </trkpt>
      <trkpt lat="41.68184279002406" lon="123.4390992020475">
        <ele>44.02034957143321</ele>
        <time>2018-08-09T11:40:55.120000Z</time>
      </trkpt>
      <trkpt lat="41.68183273174025" lon="123.43893776659242">
        <time>2018-08-09T11:40:59.132000Z</time>
      </trkpt>
      <trkpt lat="41.681844005400016" lon="123.43881673191062">
        <time>2018-08-09T11:41:02.132000Z</time>
      </trkpt>
      <trkpt lat="41.68183792852022" lon="123.43866904277674">
        <ele>43.91994673940196</ele>
        <time>2018-08-09T11:41:06.124000Z</time>
      </trkpt>
      <trkpt lat="41.681816512757614" lon="123.43853803363017">
        <time>2018-08-09T11:41:09.117000Z</time>
      </trkpt>
      <trkpt lat="41.68180875949718" lon="123.43839562509528">
        <time>2018-08-09T11:41:12.119000Z</time>
      </trkpt>
      <trkpt lat="41.68180532291688" lon="123.43826537032">
        <ele>44.28458602162852</ele>
        <time>2018-08-09T11:41:16.124000Z</time>
      </trkpt>
      <trkpt lat="41.68180691547848" lon="123.43811466370097">
        <time>2018-08-09T11:41:20.122000Z</time>
      </trkpt>
      <trkpt lat="41.681818817780986" lon="123.4379786254125">
        <time>2018-08-09T11:41:24.137000Z</time>
      </trkpt>
      <trkpt lat="41.681817099490836" lon="123.43784786772302">
        <ele>44.271371910300395</ele>
        <time>2018-08-09T11:41:29.117000Z</time>
      </trkpt>
      <trkpt lat="41.681797779204025" lon="123.43770612974039">
        <time>2018-08-09T11:41:33.141000Z</time>
      </trkpt>
      <trkpt lat="41.68179874312289" lon="123.43754662212304">
        <ele>44.271371910300395</ele>
        <time>2018-08-09T11:41:37.108000Z</time>
      </trkpt>
      <trkpt lat="41.681811651253774" lon="123.43740941036812">
        <time>2018-08-09T11:41:41.111000Z</time>
      </trkpt>
      <trkpt lat="41.68180746030219" lon="123.43728099961153">
        <ele>44.197389671530864</ele>
        <time>2018-08-09T11:41:45.112000Z</time>
      </trkpt>
      <trkpt lat="41.681797066742256" lon="123.43714227911404">
        <time>2018-08-09T11:41:49.136000Z</time>
      </trkpt>
      <trkpt lat="41.68180373035528" lon="123.43701185670069">
        <time>2018-08-09T11:41:53.116000Z</time>
      </trkpt>
      <trkpt lat="41.68181060351588" lon="123.43686844233743">
        <ele>44.18417556020274</ele>
        <time>2018-08-09T11:41:57.121000Z</time>
      </trkpt>
      <trkpt lat="41.681822254361286" lon="123.43671019200555">
        <time>2018-08-09T11:42:01.118000Z</time>
      </trkpt>
      <trkpt lat="41.68184480168082" lon="123.436589827876">
        <time>2018-08-09T11:42:04.112000Z</time>
      </trkpt>
      <trkpt lat="41.681827828326895" lon="123.43643543321959">
        <ele>43.872385093894145</ele>
        <time>2018-08-09T11:42:08.132000Z</time>
      </trkpt>
      <trkpt lat="41.6817955999092" lon="123.43627944600156">
        <time>2018-08-09T11:42:12.119000Z</time>
      </trkpt>
      <trkpt lat="41.681791115591004" lon="123.43614324007503">
        <ele>43.72970015737071</ele>
        <time>2018-08-09T11:42:16.131000Z</time>
      </trkpt>
      <trkpt lat="41.6817966476471" lon="123.43600586068204">
        <time>2018-08-09T11:42:19.130000Z</time>
      </trkpt>
      <trkpt lat="41.681788265743926" lon="123.43586093757621">
        <time>2018-08-09T11:42:23.123000Z</time>
      </trkpt>
      <trkpt lat="41.681803143622055" lon="123.43571534391812">
        <ele>43.346559593405864</ele>
        <time>2018-08-09T11:42:29.115000Z</time>
      </trkpt>
      <trkpt lat="41.681809430049434" lon="123.4355916270273">
        <ele>43.08233077260508</ele>
        <time>2018-08-09T11:42:35.117000Z</time>
      </trkpt>
      <trkpt lat="41.68181617748149" lon="123.43543899257055">
        <time>2018-08-09T11:42:39.126000Z</time>
      </trkpt>
      <trkpt lat="41.681814165824726" lon="123.435289543237">
        <time>2018-08-09T11:42:42.145000Z</time>
      </trkpt>
      <trkpt lat="41.68180926241137" lon="123.4351571091669">
        <ele>43.320139000144145</ele>
        <time>2018-08-09T11:42:45.123000Z</time>
      </trkpt>
      <trkpt lat="41.68181554883875" lon="123.43501511972717">
        <time>2018-08-09T11:42:49.114000Z</time>
      </trkpt>
      <trkpt lat="41.681820661799684" lon="123.4348751419442">
        <time>2018-08-09T11:42:53.125000Z</time>
      </trkpt>
      <trkpt lat="41.681833486111536" lon="123.43473751109413">
        <ele>42.85244948598399</ele>
        <time>2018-08-09T11:42:57.116000Z</time>
      </trkpt>
      <trkpt lat="41.68183608450152" lon="123.43459066015056">
        <time>2018-08-09T11:43:01.148000Z</time>
      </trkpt>
      <trkpt lat="41.681831684002354" lon="123.4344593995469">
        <time>2018-08-09T11:43:04.144000Z</time>
      </trkpt>
      <trkpt lat="41.68183310892589" lon="123.4343383648651">
        <ele>42.77845961781993</ele>
        <time>2018-08-09T11:43:07.119000Z</time>
      </trkpt>
      <trkpt lat="41.681825397574976" lon="123.4341935255783">
        <time>2018-08-09T11:43:11.116000Z</time>
      </trkpt>
      <trkpt lat="41.681822380089834" lon="123.43405564327112">
        <time>2018-08-09T11:43:14.139000Z</time>
      </trkpt>
      <trkpt lat="41.68180834040202" lon="123.4339017515289">
        <ele>42.67540938588633</ele>
        <time>2018-08-09T11:43:18.117000Z</time>
      </trkpt>
      <trkpt lat="41.68181341145344" lon="123.43376219284109">
        <time>2018-08-09T11:43:22.142000Z</time>
      </trkpt>
      <trkpt lat="41.6818397306294" lon="123.43361760501138">
        <ele>42.567079612937114</ele>
        <time>2018-08-09T11:43:26.122000Z</time>
      </trkpt>
      <trkpt lat="41.68186198458232" lon="123.43347930360905">
        <time>2018-08-09T11:43:31.120000Z</time>
      </trkpt>
      <trkpt lat="41.68183637786813" lon="123.43334619898668">
        <ele>42.38475997182383</ele>
        <time>2018-08-09T11:43:35.131000Z</time>
      </trkpt>
      <trkpt lat="41.681810645425394" lon="123.43320915486983">
        <time>2018-08-09T11:43:39.126000Z</time>
      </trkpt>
      <trkpt lat="41.68180054523207" lon="123.43307445768586">
        <time>2018-08-09T11:43:42.116000Z</time>
      </trkpt>
      <trkpt lat="41.68179794684209" lon="123.43294445436767">
        <ele>42.41646773549571</ele>
        <time>2018-08-09T11:43:45.131000Z</time>
      </trkpt>
      <trkpt lat="41.681798491665795" lon="123.43278788041643">
        <time>2018-08-09T11:43:49.133000Z</time>
      </trkpt>
      <trkpt lat="41.68180896904476" lon="123.43263809580675">
        <time>2018-08-09T11:43:53.119000Z</time>
      </trkpt>
      <trkpt lat="41.68181860823341" lon="123.43250063259474">
        <ele>42.27642256948008</ele>
        <time>2018-08-09T11:43:57.125000Z</time>
      </trkpt>
      <trkpt lat="41.681823469737246" lon="123.43234900396637">
        <time>2018-08-09T11:44:01.104000Z</time>
      </trkpt>
      <trkpt lat="41.6818352463112" lon="123.43221137311629">
        <time>2018-08-09T11:44:04.137000Z</time>
      </trkpt>
      <trkpt lat="41.68183742560603" lon="123.43206192378274">
        <ele>42.47195632192149</ele>
        <time>2018-08-09T11:44:08.138000Z</time>
      </trkpt>
      <trkpt lat="41.6818484478087" lon="123.43191658158175">
        <time>2018-08-09T11:44:12.119000Z</time>
      </trkpt>
      <trkpt lat="41.681830761993005" lon="123.43178515334002">
        <ele>42.85244948598399</ele>
        <time>2018-08-09T11:44:16.123000Z</time>
      </trkpt>
      <trkpt lat="41.68181156743474" lon="123.43162933376006">
        <time>2018-08-09T11:44:20.113000Z</time>
      </trkpt>
      <trkpt lat="41.681803856083825" lon="123.43148767959646">
        <time>2018-08-09T11:44:24.122000Z</time>
      </trkpt>
      <trkpt lat="41.68180603537865" lon="123.431343762319">
        <ele>42.794313499655864</ele>
        <time>2018-08-09T11:44:28.138000Z</time>
      </trkpt>
      <trkpt lat="41.68180595155962" lon="123.43119406152836">
        <time>2018-08-09T11:44:32.129000Z</time>
      </trkpt>
      <trkpt lat="41.68181307617731" lon="123.43104637239448">
        <ele>42.913217613425395</ele>
        <time>2018-08-09T11:44:36.112000Z</time>
      </trkpt>
      <trkpt lat="41.68181697376229" lon="123.43089030135742">
        <time>2018-08-09T11:44:40.125000Z</time>
      </trkpt>
      <trkpt lat="41.681820661799684" lon="123.43073674489132">
        <time>2018-08-09T11:44:44.121000Z</time>
      </trkpt>
      <trkpt lat="41.6818362940491" lon="123.43058109294942">
        <ele>43.01626784535899</ele>
        <time>2018-08-09T11:44:48.141000Z</time>
      </trkpt>
      <trkpt lat="41.68183759324409" lon="123.43043256562522">
        <time>2018-08-09T11:44:52.117000Z</time>
      </trkpt>
      <trkpt lat="41.68183059435494" lon="123.43027599167398">
        <ele>43.021555015769145</ele>
        <time>2018-08-09T11:44:56.108000Z</time>
      </trkpt>
      <trkpt lat="41.68182820551254" lon="123.43015344824961">
        <time>2018-08-09T11:44:59.148000Z</time>
      </trkpt>
      <trkpt lat="41.68181005869217" lon="123.43001321900955">
        <time>2018-08-09T11:45:03.114000Z</time>
      </trkpt>
      <trkpt lat="41.681794342623725" lon="123.42987039137951">
        <ele>43.092897484030864</ele>
        <time>2018-08-09T11:45:07.118000Z</time>
      </trkpt>
      <trkpt lat="41.68178788855828" lon="123.42971901420823">
        <time>2018-08-09T11:45:11.133000Z</time>
      </trkpt>
      <trkpt lat="41.68180402372189" lon="123.4295788687872">
        <time>2018-08-09T11:45:14.117000Z</time>
      </trkpt>
      <trkpt lat="41.68181177698232" lon="123.42945087712577">
        <ele>42.966066429343364</ele>
        <time>2018-08-09T11:45:18.121000Z</time>
      </trkpt>
      <trkpt lat="41.68182250581838" lon="123.42932590294949">
        <time>2018-08-09T11:45:21.128000Z</time>
      </trkpt>
      <trkpt lat="41.68182895988382" lon="123.42918802064231">
        <time>2018-08-09T11:45:24.113000Z</time>
      </trkpt>
      <trkpt lat="41.681829043702855" lon="123.42906044807604">
        <ele>42.704477379050395</ele>
        <time>2018-08-09T11:45:27.135000Z</time>
      </trkpt>
      <trkpt lat="41.68183809615828" lon="123.42889633041194">
        <time>2018-08-09T11:45:31.117000Z</time>
      </trkpt>
      <trkpt lat="41.68184258047648" lon="123.42875090439192">
        <ele>42.44817549916758</ele>
        <time>2018-08-09T11:45:35.144000Z</time>
      </trkpt>
      <trkpt lat="41.68183960490085" lon="123.42862844478658">
        <time>2018-08-09T11:45:38.140000Z</time>
      </trkpt>
      <trkpt lat="41.681851213836744" lon="123.42848327022365">
        <time>2018-08-09T11:45:42.121000Z</time>
      </trkpt>
      <trkpt lat="41.681858589911535" lon="123.42833130631915">
        <ele>42.44817549916758</ele>
        <time>2018-08-09T11:45:46.119000Z</time>
      </trkpt>
      <trkpt lat="41.68186307422973" lon="123.42820809234253">
        <time>2018-08-09T11:45:49.126000Z</time>
      </trkpt>
      <trkpt lat="41.681851800569966" lon="123.42807884339562">
        <time>2018-08-09T11:45:53.126000Z</time>
      </trkpt>
      <trkpt lat="41.68185033373691" lon="123.42794406239263">
        <ele>42.23414809438243</ele>
        <time>2018-08-09T11:45:57.131000Z</time>
      </trkpt>
      <trkpt lat="41.681847567708864" lon="123.42780534189514">
        <time>2018-08-09T11:46:01.106000Z</time>
      </trkpt>
      <trkpt lat="41.68184840589918" lon="123.42767408129147">
        <time>2018-08-09T11:46:04.139000Z</time>
      </trkpt>
      <trkpt lat="41.68185041755594" lon="123.42750946071318">
        <ele>42.13901717397227</ele>
        <time>2018-08-09T11:46:08.112000Z</time>
      </trkpt>
      <trkpt lat="41.681844005400016" lon="123.42737652372888">
        <time>2018-08-09T11:46:11.126000Z</time>
      </trkpt>
      <trkpt lat="41.68184429876663" lon="123.42722020123473">
        <ele>42.03861434194102</ele>
        <time>2018-08-09T11:46:15.119000Z</time>
      </trkpt>
      <trkpt lat="41.68185205202706" lon="123.42707100335828">
        <time>2018-08-09T11:46:18.122000Z</time>
      </trkpt>
      <trkpt lat="41.681859092825725" lon="123.42691308830253">
        <time>2018-08-09T11:46:22.122000Z</time>
      </trkpt>
      <trkpt lat="41.68186164930619" lon="123.42679054487816">
        <ele>41.9672718736793</ele>
        <time>2018-08-09T11:46:25.129000Z</time>
      </trkpt>
      <trkpt lat="41.681859889106526" lon="123.42664469976297">
        <time>2018-08-09T11:46:29.107000Z</time>
      </trkpt>
      <trkpt lat="41.68185892518766" lon="123.42652022850088">
        <time>2018-08-09T11:46:32.117000Z</time>
      </trkpt>
      <trkpt lat="41.6818553209693" lon="123.42636591766349">
        <ele>41.92763716908946</ele>
        <time>2018-08-09T11:46:36.121000Z</time>
      </trkpt>
      <trkpt lat="41.68185016609885" lon="123.4262100142645">
        <time>2018-08-09T11:46:40.126000Z</time>
      </trkpt>
      <trkpt lat="41.68184572369017" lon="123.42605888855032">
        <time>2018-08-09T11:46:44.116000Z</time>
      </trkpt>
      <trkpt lat="41.6818431672097" lon="123.42593307618371">
        <ele>41.843080589499614</ele>
        <time>2018-08-09T11:46:47.120000Z</time>
      </trkpt>
      <trkpt lat="41.681831767821386" lon="123.42578899126819">
        <time>2018-08-09T11:46:51.121000Z</time>
      </trkpt>
      <trkpt lat="41.6818275768698" lon="123.42564834293296">
        <ele>41.9223499986793</ele>
        <time>2018-08-09T11:46:55.157000Z</time>
      </trkpt>
      <trkpt lat="41.6818283731506" lon="123.42548690747788">
        <time>2018-08-09T11:46:59.118000Z</time>
      </trkpt>
      <trkpt lat="41.68183897625811" lon="123.42532983061244">
        <time>2018-08-09T11:47:03.126000Z</time>
      </trkpt>
      <trkpt lat="41.681834911035075" lon="123.4251906910198">
        <ele>42.06239516469493</ele>
        <time>2018-08-09T11:47:07.110000Z</time>
      </trkpt>
      <trkpt lat="41.681841281281486" lon="123.42506848287155">
        <time>2018-08-09T11:47:10.125000Z</time>
      </trkpt>
      <trkpt lat="41.681855237150266" lon="123.42491576459577">
        <time>2018-08-09T11:47:14.120000Z</time>
      </trkpt>
      <trkpt lat="41.681851004289165" lon="123.42478073213567">
        <ele>42.19186598989024</ele>
        <time>2018-08-09T11:47:18.124000Z</time>
      </trkpt>
      <trkpt lat="41.681832061188" lon="123.42464687314202">
        <time>2018-08-09T11:47:21.142000Z</time>
      </trkpt>
      <trkpt lat="41.68183574922539" lon="123.42449541215171">
        <ele>42.00954634877696</ele>
        <time>2018-08-09T11:47:25.116000Z</time>
      </trkpt>
      <trkpt lat="41.68184216138132" lon="123.42437345546057">
        <time>2018-08-09T11:47:28.124000Z</time>
      </trkpt>
      <trkpt lat="41.681851297655776" lon="123.42424822982719">
        <time>2018-08-09T11:47:31.114000Z</time>
      </trkpt>
      <trkpt lat="41.681859805287495" lon="123.4241161310332">
        <time>2018-08-09T11:47:34.110000Z</time>
      </trkpt>
      <trkpt lat="41.68187078558065" lon="123.42399098921885">
        <ele>42.279062339987895</ele>
        <time>2018-08-09T11:47:37.134000Z</time>
      </trkpt>
      <trkpt lat="41.68187816165544" lon="123.42383709747662">
        <time>2018-08-09T11:47:41.213000Z</time>
      </trkpt>
      <trkpt lat="41.68188092768349" lon="123.42368580412437">
        <ele>42.50101668569102</ele>
        <time>2018-08-09T11:47:45.108000Z</time>
      </trkpt>
      <trkpt lat="41.681893290990665" lon="123.42355228040685">
        <time>2018-08-09T11:47:48.131000Z</time>
      </trkpt>
      <trkpt lat="41.6819190234334" lon="123.4234168288516">
        <time>2018-08-09T11:47:52.112000Z</time>
      </trkpt>
      <trkpt lat="41.68193545196362" lon="123.42327752162089">
        <ele>42.67012984487071</ele>
        <time>2018-08-09T11:47:56.117000Z</time>
      </trkpt>
      <trkpt lat="41.68193499095894" lon="123.42315045196881">
        <time>2018-08-09T11:48:00.106000Z</time>
      </trkpt>
      <trkpt lat="41.68194052301504" lon="123.42299672786464">
        <time>2018-08-09T11:48:04.114000Z</time>
      </trkpt>
      <trkpt lat="41.681956029535904" lon="123.42287343006899">
        <ele>42.74147231313243</ele>
        <time>2018-08-09T11:48:08.115000Z</time>
      </trkpt>
      <trkpt lat="41.681966548824384" lon="123.42272222053577">
        <time>2018-08-09T11:48:12.129000Z</time>
      </trkpt>
      <trkpt lat="41.68198767122038" lon="123.42258266184797">
        <ele>42.775819847312114</ele>
        <time>2018-08-09T11:48:16.119000Z</time>
      </trkpt>
      <trkpt lat="41.681967848019376" lon="123.42242818337252">
        <time>2018-08-09T11:48:20.119000Z</time>
      </trkpt>
      <trkpt lat="41.681972625704184" lon="123.42227814730575">
        <time>2018-08-09T11:48:24.113000Z</time>
      </trkpt>
      <trkpt lat="41.681980211326554" lon="123.42213406239023">
        <ele>42.77053267690196</ele>
        <time>2018-08-09T11:48:28.117000Z</time>
      </trkpt>
      <trkpt lat="41.681979079769626" lon="123.42200498108139">
        <time>2018-08-09T11:48:31.111000Z</time>
      </trkpt>
      <trkpt lat="41.6819811333359" lon="123.42187749233415">
        <time>2018-08-09T11:48:34.118000Z</time>
      </trkpt>
      <trkpt lat="41.681994376742914" lon="123.4217505065011">
        <ele>42.704477379050395</ele>
        <time>2018-08-09T11:48:37.120000Z</time>
      </trkpt>
      <trkpt lat="41.682007201054766" lon="123.42162645433416">
        <time>2018-08-09T11:48:40.110000Z</time>
      </trkpt>
      <trkpt lat="41.68200422547914" lon="123.42149301443567">
        <time>2018-08-09T11:48:44.126000Z</time>
      </trkpt>
      <trkpt lat="41.681996178852096" lon="123.42134675022533">
        <ele>42.74147231313243</ele>
        <time>2018-08-09T11:48:48.140000Z</time>
      </trkpt>
      <trkpt lat="41.682005189398005" lon="123.42122429061999">
        <time>2018-08-09T11:48:52.120000Z</time>
      </trkpt>
      <trkpt lat="41.68202094737597" lon="123.42109881352951">
        <ele>42.57235915395274</ele>
        <time>2018-08-09T11:48:55.113000Z</time>
      </trkpt>
      <trkpt lat="41.68204118967213" lon="123.420978533219">
        <time>2018-08-09T11:48:58.136000Z</time>
      </trkpt>
      <trkpt lat="41.68208171617396" lon="123.42086562898328">
        <time>2018-08-09T11:49:01.160000Z</time>
      </trkpt>
      <trkpt lat="41.682108789721205" lon="123.42074316937794">
        <ele>42.56179244252696</ele>
        <time>2018-08-09T11:49:05.135000Z</time>
      </trkpt>
      <trkpt lat="41.682093325109854" lon="123.4206003417479">
        <time>2018-08-09T11:49:09.124000Z</time>
      </trkpt>
      <trkpt lat="41.68209965344675" lon="123.42045349080433">
        <time>2018-08-09T11:49:13.120000Z</time>
      </trkpt>
      <trkpt lat="41.68210346721269" lon="123.42029356409182">
        <ele>42.47195632192149</ele>
        <time>2018-08-09T11:49:17.117000Z</time>
      </trkpt>
      <trkpt lat="41.682103341484144" lon="123.42014109727313">
        <time>2018-08-09T11:49:21.107000Z</time>
      </trkpt>
      <trkpt lat="41.682094330938234" lon="123.42002073314359">
        <time>2018-08-09T11:49:24.139000Z</time>
      </trkpt>
      <trkpt lat="41.68210933454491" lon="123.41989869263341">
        <ele>42.33719832631602</ele>
        <time>2018-08-09T11:49:27.113000Z</time>
      </trkpt>
      <trkpt lat="41.6821333486975" lon="123.41974572290053">
        <time>2018-08-09T11:49:32.120000Z</time>
      </trkpt>
      <trkpt lat="41.6821325524167" lon="123.41962401766648">
        <ele>42.25792891713633</ele>
        <time>2018-08-09T11:49:35.117000Z</time>
      </trkpt>
      <trkpt lat="41.68212329041369" lon="123.41949149977734">
        <time>2018-08-09T11:49:38.114000Z</time>
      </trkpt>
      <trkpt lat="41.68212106920935" lon="123.41936317283978">
        <time>2018-08-09T11:49:42.138000Z</time>
      </trkpt>
      <trkpt lat="41.68212291322805" lon="123.41921824973394">
        <ele>42.20244033071055</ele>
        <time>2018-08-09T11:49:47.122000Z</time>
      </trkpt>
      <trkpt lat="41.682143784166946" lon="123.41909646068086">
        <time>2018-08-09T11:49:51.108000Z</time>
      </trkpt>
      <trkpt lat="41.682155225464776" lon="123.41896268550624">
        <ele>42.12052352162852</ele>
        <time>2018-08-09T11:49:55.123000Z</time>
      </trkpt>
      <trkpt lat="41.682165954300835" lon="123.41881206270625">
        <time>2018-08-09T11:49:59.138000Z</time>
      </trkpt>
      <trkpt lat="41.682172031180635" lon="123.41865532111694">
        <time>2018-08-09T11:50:03.138000Z</time>
      </trkpt>
      <trkpt lat="41.68217701841302" lon="123.41852213267555">
        <ele>42.27113539906993</ele>
        <time>2018-08-09T11:50:07.104000Z</time>
      </trkpt>
      <trkpt lat="41.68217894625075" lon="123.41839363809993">
        <time>2018-08-09T11:50:14.094000Z</time>
      </trkpt>
      <trkpt lat="41.68220363095559" lon="123.41827218432297">
        <ele>41.53392989369883</ele>
        <time>2018-08-09T11:50:18.097000Z</time>
      </trkpt>
    </trkseg>
  </trk>
</gpx>