<?xml version="1.0" encoding="UTF-8"?>
<gpx xmlns="http://www.topografix.com/GPX/1/1" xmlns:gpxtpx="http://www.garmin.com/xmlschemas/TrackPointExtension/v1" xmlns:xsi="http://www.w3.org/2001/XMLSchema-instance" xsi:schemaLocation="http://www.topografix.com/GPX/1/1 http://www.topografix.com/GPX/1/1/gpx.xsd" version="1.1" creator="gpx.py -- https://github.com/tkrajina/gpxpy">
  <trk>
    <name>星期二 晚间跑</name>
    <trkseg>
      <trkpt lat="41.68345110960461" lon="123.4140312765943">
        <time>2019-03-26T12:36:08.051000Z</time>
      </trkpt>
      <trkpt lat="41.68343271132715" lon="123.4141575918751">
        <ele>53.3420462103781</ele>
        <time>2019-03-26T12:36:13.091000Z</time>
      </trkpt>
      <trkpt lat="41.68351711709209" lon="123.41420268651416">
        <time>2019-03-26T12:36:19.114000Z</time>
      </trkpt>
      <trkpt lat="41.68353572491713" lon="123.41433755133619">
        <ele>53.83880181035369</ele>
        <time>2019-03-26T12:36:23.087000Z</time>
      </trkpt>
      <trkpt lat="41.68352591809042" lon="123.41446059767475">
        <time>2019-03-26T12:36:26.086000Z</time>
      </trkpt>
      <trkpt lat="41.683522313872054" lon="123.41459319938292">
        <time>2019-03-26T12:36:30.060000Z</time>
      </trkpt>
      <trkpt lat="41.68350860946037" lon="123.41474155906906">
        <ele>53.09630913457244</ele>
        <time>2019-03-26T12:36:35.075000Z</time>
      </trkpt>
      <trkpt lat="41.683491133192256" lon="123.41486142028441">
        <time>2019-03-26T12:36:40.072000Z</time>
      </trkpt>
      <trkpt lat="41.6834817454607" lon="123.41499930259158">
        <ele>53.54814667424529</ele>
        <time>2019-03-26T12:36:47.054000Z</time>
      </trkpt>
      <trkpt lat="41.68348270937957" lon="123.41512905445268">
        <time>2019-03-26T12:36:51.096000Z</time>
      </trkpt>
      <trkpt lat="41.683506220617964" lon="123.41527070861628">
        <ele>53.48208756169646</ele>
        <time>2019-03-26T12:36:55.079000Z</time>
      </trkpt>
      <trkpt lat="41.68349046264" lon="123.41539534751644">
        <time>2019-03-26T12:37:00.075000Z</time>
      </trkpt>
      <trkpt lat="41.68345303744234" lon="123.41553524148037">
        <ele>53.3711103888449</ele>
        <time>2019-03-26T12:37:05.061000Z</time>
      </trkpt>
      <trkpt lat="41.68335987258859" lon="123.41559072967937">
        <time>2019-03-26T12:37:08.085000Z</time>
      </trkpt>
      <trkpt lat="41.68326088231213" lon="123.41563641105165">
        <time>2019-03-26T12:37:11.086000Z</time>
      </trkpt>
      <trkpt lat="41.68316503524937" lon="123.41564512823095">
        <ele>53.664409110158374</ele>
        <time>2019-03-26T12:37:14.084000Z</time>
      </trkpt>
      <trkpt lat="41.68307082265772" lon="123.41567161504497">
        <time>2019-03-26T12:37:21.087000Z</time>
      </trkpt>
      <trkpt lat="41.683083521241024" lon="123.41581620287468">
        <ele>53.64326996526091</ele>
        <time>2019-03-26T12:37:29.087000Z</time>
      </trkpt>
      <trkpt lat="41.68310250625171" lon="123.41593849484195">
        <time>2019-03-26T12:37:32.094000Z</time>
      </trkpt>
      <trkpt lat="41.6830665478871" lon="123.41606531303694">
        <ele>53.77010101994841</ele>
        <time>2019-03-26T12:37:37.381000Z</time>
      </trkpt>
      <trkpt lat="41.68295385319896" lon="123.41608366940488">
        <time>2019-03-26T12:37:40.102000Z</time>
      </trkpt>
      <trkpt lat="41.6828413680584" lon="123.41609884064962">
        <ele>53.97091812810271</ele>
        <time>2019-03-26T12:37:43.105000Z</time>
      </trkpt>
      <trkpt lat="41.682743467429354" lon="123.41610915039053">
        <time>2019-03-26T12:37:46.112000Z</time>
      </trkpt>
      <trkpt lat="41.68262146882869" lon="123.41609490115513">
        <time>2019-03-26T12:37:50.106000Z</time>
      </trkpt>
      <trkpt lat="41.682530692817345" lon="123.41608509432842">
        <ele>54.26157326421111</ele>
        <time>2019-03-26T12:37:53.116000Z</time>
      </trkpt>
      <trkpt lat="41.682426673398986" lon="123.41610730637183">
        <time>2019-03-26T12:37:57.112000Z</time>
      </trkpt>
      <trkpt lat="41.68237340640433" lon="123.41621073905696">
        <time>2019-03-26T12:38:00.114000Z</time>
      </trkpt>
      <trkpt lat="41.68233828623004" lon="123.41632590640654">
        <ele>54.12417168340056</ele>
        <time>2019-03-26T12:38:03.143000Z</time>
      </trkpt>
      <trkpt lat="41.682321773880794" lon="123.41645088058283">
        <time>2019-03-26T12:38:06.110000Z</time>
      </trkpt>
      <trkpt lat="41.68231481690116" lon="123.41660158720185">
        <time>2019-03-26T12:38:10.134000Z</time>
      </trkpt>
      <trkpt lat="41.68231653519131" lon="123.41675849642922">
        <ele>54.29592270573943</ele>
        <time>2019-03-26T12:38:14.108000Z</time>
      </trkpt>
      <trkpt lat="41.682326719203665" lon="123.41690526355376">
        <time>2019-03-26T12:38:18.134000Z</time>
      </trkpt>
      <trkpt lat="41.68231167368747" lon="123.41703669179549">
        <time>2019-03-26T12:38:21.110000Z</time>
      </trkpt>
      <trkpt lat="41.682290299834385" lon="123.41718354273905">
        <ele>53.85994095525115</ele>
        <time>2019-03-26T12:38:25.108000Z</time>
      </trkpt>
      <trkpt lat="41.68228640224941" lon="123.4173298069494">
        <time>2019-03-26T12:38:29.155000Z</time>
      </trkpt>
      <trkpt lat="41.682273410299494" lon="123.41745520022084">
        <ele>53.260133215993335</ele>
        <time>2019-03-26T12:38:34.103000Z</time>
      </trkpt>
      <trkpt lat="41.682270769999995" lon="123.41759861458411">
        <time>2019-03-26T12:38:42.167000Z</time>
      </trkpt>
      <trkpt lat="41.68226037644006" lon="123.41772736061682">
        <ele>52.18999428471892</ele>
        <time>2019-03-26T12:38:49.076000Z</time>
      </trkpt>
      <trkpt lat="41.68224273253389" lon="123.41784629982283">
        <ele>52.913989493459155</ele>
        <time>2019-03-26T12:38:59.089000Z</time>
      </trkpt>
      <trkpt lat="41.68222839947946" lon="123.41800287377407">
        <ele>52.80565399846404</ele>
        <time>2019-03-26T12:39:04.139000Z</time>
      </trkpt>
      <trkpt lat="41.68222357988514" lon="123.41812449518909">
        <time>2019-03-26T12:39:07.114000Z</time>
      </trkpt>
      <trkpt lat="41.68221394069649" lon="123.41826640080978">
        <time>2019-03-26T12:39:10.110000Z</time>
      </trkpt>
      <trkpt lat="41.682201367841735" lon="123.41841408994367">
        <ele>52.76866287907927</ele>
        <time>2019-03-26T12:39:13.109000Z</time>
      </trkpt>
      <trkpt lat="41.682190639005675" lon="123.41855130169859">
        <time>2019-03-26T12:39:16.107000Z</time>
      </trkpt>
      <trkpt lat="41.682181041726544" lon="123.41869605716636">
        <time>2019-03-26T12:39:19.150000Z</time>
      </trkpt>
      <trkpt lat="41.682195500509515" lon="123.41883217927386">
        <ele>52.668254325002124</ele>
        <time>2019-03-26T12:39:23.111000Z</time>
      </trkpt>
      <trkpt lat="41.68218242474057" lon="123.41895497415533">
        <time>2019-03-26T12:39:26.108000Z</time>
      </trkpt>
      <trkpt lat="41.682174252384975" lon="123.41908874932994">
        <time>2019-03-26T12:39:29.108000Z</time>
      </trkpt>
      <trkpt lat="41.68216390073456" lon="123.41922311123778">
        <time>2019-03-26T12:39:32.152000Z</time>
      </trkpt>
      <trkpt lat="41.68215430345543" lon="123.41935118671825">
        <ele>52.71845764836638</ele>
        <time>2019-03-26T12:39:35.128000Z</time>
      </trkpt>
      <trkpt lat="41.68214726265676" lon="123.41948739264478">
        <time>2019-03-26T12:39:39.109000Z</time>
      </trkpt>
      <trkpt lat="41.68214152105309" lon="123.4196124506401">
        <time>2019-03-26T12:39:42.108000Z</time>
      </trkpt>
      <trkpt lat="41.68213624045409" lon="123.41973549697866">
        <ele>52.5731310339865</ele>
        <time>2019-03-26T12:39:45.132000Z</time>
      </trkpt>
      <trkpt lat="41.68213745583005" lon="123.41989642951955">
        <time>2019-03-26T12:39:49.107000Z</time>
      </trkpt>
      <trkpt lat="41.68213272005476" lon="123.42002559464743">
        <time>2019-03-26T12:39:52.109000Z</time>
      </trkpt>
      <trkpt lat="41.682138838844075" lon="123.42015199374725">
        <ele>52.81093926152556</ele>
        <time>2019-03-26T12:39:55.134000Z</time>
      </trkpt>
      <trkpt lat="41.68214210778631" lon="123.42030982498397">
        <time>2019-03-26T12:39:59.104000Z</time>
      </trkpt>
      <trkpt lat="41.68217622213222" lon="123.42044770729115">
        <ele>52.89020867070525</ele>
        <time>2019-03-26T12:40:03.112000Z</time>
      </trkpt>
      <trkpt lat="41.68215711139299" lon="123.42057620186677">
        <time>2019-03-26T12:40:06.138000Z</time>
      </trkpt>
      <trkpt lat="41.682134396435394" lon="123.420708971213">
        <time>2019-03-26T12:40:09.111000Z</time>
      </trkpt>
      <trkpt lat="41.682120231019034" lon="123.42086311441233">
        <ele>53.014398047536304</ele>
        <time>2019-03-26T12:40:13.103000Z</time>
      </trkpt>
      <trkpt lat="41.68211205866344" lon="123.42098574165573">
        <time>2019-03-26T12:40:16.137000Z</time>
      </trkpt>
      <trkpt lat="41.68211205866344" lon="123.42112806637158">
        <time>2019-03-26T12:40:20.107000Z</time>
      </trkpt>
      <trkpt lat="41.68209730651386" lon="123.42127952736189">
        <ele>53.217856833547046</ele>
        <time>2019-03-26T12:40:24.112000Z</time>
      </trkpt>
      <trkpt lat="41.68209470812388" lon="123.4214273003148">
        <time>2019-03-26T12:40:28.098000Z</time>
      </trkpt>
      <trkpt lat="41.68210086882271" lon="123.42156928975453">
        <time>2019-03-26T12:40:32.113000Z</time>
      </trkpt>
      <trkpt lat="41.68208569757797" lon="123.4217230138587">
        <ele>53.27070374211638</ele>
        <time>2019-03-26T12:40:36.101000Z</time>
      </trkpt>
      <trkpt lat="41.682066796386316" lon="123.42184689838757">
        <time>2019-03-26T12:40:39.111000Z</time>
      </trkpt>
      <trkpt lat="41.68205510363139" lon="123.42197262693514">
        <time>2019-03-26T12:40:42.114000Z</time>
      </trkpt>
      <trkpt lat="41.68202312667079" lon="123.42209106322696">
        <ele>53.40281815251677</ele>
        <time>2019-03-26T12:40:45.112000Z</time>
      </trkpt>
      <trkpt lat="41.68200749442138" lon="123.422210086252">
        <time>2019-03-26T12:40:48.117000Z</time>
      </trkpt>
      <trkpt lat="41.68201038617797" lon="123.42236557055583">
        <time>2019-03-26T12:40:52.108000Z</time>
      </trkpt>
      <trkpt lat="41.68199680749483" lon="123.42251669627001">
        <ele>53.310338446706226</ele>
        <time>2019-03-26T12:40:56.109000Z</time>
      </trkpt>
      <trkpt lat="41.68199793905176" lon="123.42266614560356">
        <time>2019-03-26T12:41:00.108000Z</time>
      </trkpt>
      <trkpt lat="41.68198712639667" lon="123.42281207453777">
        <ele>53.42924256047576</ele>
        <time>2019-03-26T12:41:04.166000Z</time>
      </trkpt>
      <trkpt lat="41.681968057566955" lon="123.42297216888835">
        <time>2019-03-26T12:41:08.109000Z</time>
      </trkpt>
      <trkpt lat="41.68195242531754" lon="123.42309664015045">
        <time>2019-03-26T12:41:11.111000Z</time>
      </trkpt>
      <trkpt lat="41.68191780805744" lon="123.42322781693508">
        <ele>53.27070374211638</ele>
        <time>2019-03-26T12:41:14.115000Z</time>
      </trkpt>
      <trkpt lat="41.68188855521537" lon="123.42336745944192">
        <time>2019-03-26T12:41:18.111000Z</time>
      </trkpt>
      <trkpt lat="41.68189869731821" lon="123.42348933231403">
        <time>2019-03-26T12:41:22.112000Z</time>
      </trkpt>
      <trkpt lat="41.68189827822305" lon="123.42361363593807">
        <ele>53.19407601079314</ele>
        <time>2019-03-26T12:41:25.126000Z</time>
      </trkpt>
      <trkpt lat="41.68189295571454" lon="123.42373534117212">
        <time>2019-03-26T12:41:28.107000Z</time>
      </trkpt>
      <trkpt lat="41.68189291380502" lon="123.42386693705191">
        <time>2019-03-26T12:41:31.126000Z</time>
      </trkpt>
      <trkpt lat="41.6818838613496" lon="123.42400548991134">
        <ele>53.125375220387866</ele>
        <time>2019-03-26T12:41:34.108000Z</time>
      </trkpt>
      <trkpt lat="41.681875688994005" lon="123.42413272720148">
        <time>2019-03-26T12:41:37.106000Z</time>
      </trkpt>
      <trkpt lat="41.68188189160235" lon="123.42426608328094">
        <time>2019-03-26T12:41:40.140000Z</time>
      </trkpt>
      <trkpt lat="41.68186634317197" lon="123.42442475270798">
        <ele>52.87699646672576</ele>
        <time>2019-03-26T12:41:44.108000Z</time>
      </trkpt>
      <trkpt lat="41.68184274811454" lon="123.424546374123">
        <time>2019-03-26T12:41:47.083000Z</time>
      </trkpt>
      <trkpt lat="41.681841197462454" lon="123.42467855673601">
        <time>2019-03-26T12:41:51.080000Z</time>
      </trkpt>
      <trkpt lat="41.68184174228616" lon="123.42480076488425">
        <ele>52.4383711310324</ele>
        <time>2019-03-26T12:41:54.087000Z</time>
      </trkpt>
      <trkpt lat="41.681834617668464" lon="123.4249264096128">
        <time>2019-03-26T12:41:57.082000Z</time>
      </trkpt>
      <trkpt lat="41.68182619385578" lon="123.42506035242548">
        <time>2019-03-26T12:42:01.092000Z</time>
      </trkpt>
      <trkpt lat="41.68183134872623" lon="123.42521675873866">
        <ele>52.64182991704314</ele>
        <time>2019-03-26T12:42:05.115000Z</time>
      </trkpt>
      <trkpt lat="41.68183478530653" lon="123.4253540543126">
        <time>2019-03-26T12:42:09.126000Z</time>
      </trkpt>
      <trkpt lat="41.6818275768698" lon="123.42550216254165">
        <ele>52.52556938847869</ele>
        <time>2019-03-26T12:42:13.105000Z</time>
      </trkpt>
      <trkpt lat="41.681815884114876" lon="123.42564306233396">
        <time>2019-03-26T12:42:17.105000Z</time>
      </trkpt>
      <trkpt lat="41.68181035205878" lon="123.42579418804816">
        <time>2019-03-26T12:42:21.124000Z</time>
      </trkpt>
      <trkpt lat="41.681820452252104" lon="123.42592771176568">
        <ele>52.48064942082732</ele>
        <time>2019-03-26T12:42:25.106000Z</time>
      </trkpt>
      <trkpt lat="41.68182636149384" lon="123.4260702041196">
        <time>2019-03-26T12:42:29.131000Z</time>
      </trkpt>
      <trkpt lat="41.681836042592" lon="123.42623306449822">
        <ele>52.42516083440154</ele>
        <time>2019-03-26T12:42:33.104000Z</time>
      </trkpt>
      <trkpt lat="41.68181948833324" lon="123.42635937977902">
        <time>2019-03-26T12:42:36.118000Z</time>
      </trkpt>
      <trkpt lat="41.68181424964376" lon="123.4265084100174">
        <time>2019-03-26T12:42:40.109000Z</time>
      </trkpt>
      <trkpt lat="41.681813662910535" lon="123.4266677499967">
        <ele>52.51764244756072</ele>
        <time>2019-03-26T12:42:44.135000Z</time>
      </trkpt>
      <trkpt lat="41.681811232158616" lon="123.42678836558333">
        <time>2019-03-26T12:42:47.097000Z</time>
      </trkpt>
      <trkpt lat="41.68180867567815" lon="123.42693764727882">
        <time>2019-03-26T12:42:51.109000Z</time>
      </trkpt>
      <trkpt lat="41.68182221245177" lon="123.42708013963274">
        <ele>52.602195212453296</ele>
        <time>2019-03-26T12:42:55.127000Z</time>
      </trkpt>
      <trkpt lat="41.68182284109451" lon="123.4272222128915">
        <time>2019-03-26T12:42:59.123000Z</time>
      </trkpt>
      <trkpt lat="41.68180817276396" lon="123.42736420233122">
        <ele>52.71845764836638</ele>
        <time>2019-03-26T12:43:03.104000Z</time>
      </trkpt>
      <trkpt lat="41.68180280834593" lon="123.42752848763338">
        <time>2019-03-26T12:43:07.103000Z</time>
      </trkpt>
      <trkpt lat="41.681802221612706" lon="123.42768422339431">
        <time>2019-03-26T12:43:11.106000Z</time>
      </trkpt>
      <trkpt lat="41.68179886885144" lon="123.42783744458428">
        <ele>52.81093926152556</ele>
        <time>2019-03-26T12:43:15.132000Z</time>
      </trkpt>
      <trkpt lat="41.68179643809952" lon="123.42795806017092">
        <time>2019-03-26T12:43:18.113000Z</time>
      </trkpt>
      <trkpt lat="41.68179731819935" lon="123.42808160942367">
        <time>2019-03-26T12:43:22.110000Z</time>
      </trkpt>
      <trkpt lat="41.68180725075461" lon="123.42820440430513">
        <ele>52.97476334294646</ele>
        <time>2019-03-26T12:43:25.134000Z</time>
      </trkpt>
      <trkpt lat="41.681815297381654" lon="123.42835603293351">
        <time>2019-03-26T12:43:29.111000Z</time>
      </trkpt>
      <trkpt lat="41.681814375372305" lon="123.42848553333751">
        <time>2019-03-26T12:43:32.109000Z</time>
      </trkpt>
      <trkpt lat="41.681800629051104" lon="123.42862593021563">
        <ele>53.061959693044116</ele>
        <time>2019-03-26T12:43:36.133000Z</time>
      </trkpt>
      <trkpt lat="41.681805364826396" lon="123.428759034838">
        <time>2019-03-26T12:43:40.118000Z</time>
      </trkpt>
      <trkpt lat="41.68179639619" lon="123.42889255855552">
        <ele>53.13858742436736</ele>
        <time>2019-03-26T12:43:43.115000Z</time>
      </trkpt>
      <trkpt lat="41.681784032882824" lon="123.429018035646">
        <time>2019-03-26T12:43:46.136000Z</time>
      </trkpt>
      <trkpt lat="41.68184090409584" lon="123.42912842531076">
        <time>2019-03-26T12:43:51.128000Z</time>
      </trkpt>
      <trkpt lat="41.68186441533424" lon="123.42927435424498">
        <ele>53.03817887029021</ele>
        <time>2019-03-26T12:43:56.122000Z</time>
      </trkpt>
      <trkpt lat="41.6818648344294" lon="123.42941651132277">
        <time>2019-03-26T12:44:01.130000Z</time>
      </trkpt>
      <trkpt lat="41.68186332568683" lon="123.42955187905899">
        <ele>53.47680420598357</ele>
        <time>2019-03-26T12:44:05.116000Z</time>
      </trkpt>
      <trkpt lat="41.68185154911287" lon="123.42971130285731">
        <time>2019-03-26T12:44:09.109000Z</time>
      </trkpt>
      <trkpt lat="41.68185913473524" lon="123.4298537113922">
        <ele>53.65383858403533</ele>
        <time>2019-03-26T12:44:13.108000Z</time>
      </trkpt>
      <trkpt lat="41.681862529406025" lon="123.42999503027967">
        <time>2019-03-26T12:44:17.104000Z</time>
      </trkpt>
      <trkpt lat="41.68186420578666" lon="123.43014221649936">
        <time>2019-03-26T12:44:21.104000Z</time>
      </trkpt>
      <trkpt lat="41.68185330931254" lon="123.43029568914643">
        <ele>53.58778137883513</ele>
        <time>2019-03-26T12:44:25.106000Z</time>
      </trkpt>
      <trkpt lat="41.68183901816763" lon="123.43044673104158">
        <time>2019-03-26T12:44:29.124000Z</time>
      </trkpt>
      <trkpt lat="41.6818344500304" lon="123.43058712791971">
        <ele>53.537578055470874</ele>
        <time>2019-03-26T12:44:33.114000Z</time>
      </trkpt>
      <trkpt lat="41.681840778367295" lon="123.43074546207062">
        <time>2019-03-26T12:44:37.114000Z</time>
      </trkpt>
      <trkpt lat="41.68184111364342" lon="123.43087521393171">
        <time>2019-03-26T12:44:40.114000Z</time>
      </trkpt>
      <trkpt lat="41.68184777725644" lon="123.43102416035107">
        <ele>53.381680914967944</ele>
        <time>2019-03-26T12:44:44.109000Z</time>
      </trkpt>
      <trkpt lat="41.681836126411035" lon="123.4311487154322">
        <time>2019-03-26T12:44:47.117000Z</time>
      </trkpt>
      <trkpt lat="41.68182015888549" lon="123.43128995050064">
        <time>2019-03-26T12:44:51.111000Z</time>
      </trkpt>
      <trkpt lat="41.68181663848616" lon="123.43143579561583">
        <ele>53.33411926946013</ele>
        <time>2019-03-26T12:44:55.119000Z</time>
      </trkpt>
      <trkpt lat="41.68179145086713" lon="123.43158666987291">
        <time>2019-03-26T12:44:59.132000Z</time>
      </trkpt>
      <trkpt lat="41.681785834992006" lon="123.43172522273234">
        <ele>53.13594383916228</ele>
        <time>2019-03-26T12:45:03.111000Z</time>
      </trkpt>
      <trkpt lat="41.6817887267486" lon="123.43187400151363">
        <time>2019-03-26T12:45:07.111000Z</time>
      </trkpt>
      <trkpt lat="41.681792205238416" lon="123.43202504340879">
        <time>2019-03-26T12:45:11.118000Z</time>
      </trkpt>
      <trkpt lat="41.68178428433992" lon="123.43214775447122">
        <ele>52.96947807988494</ele>
        <time>2019-03-26T12:45:14.110000Z</time>
      </trkpt>
      <trkpt lat="41.681783529968634" lon="123.43228052381745">
        <time>2019-03-26T12:45:17.114000Z</time>
      </trkpt>
      <trkpt lat="41.68177971620269" lon="123.43243005697003">
        <time>2019-03-26T12:45:21.118000Z</time>
      </trkpt>
      <trkpt lat="41.68179388161905" lon="123.4325631615924">
        <ele>52.57048744878142</ele>
        <time>2019-03-26T12:45:26.124000Z</time>
      </trkpt>
      <trkpt lat="41.68178570926346" lon="123.43270548630825">
        <time>2019-03-26T12:45:30.106000Z</time>
      </trkpt>
      <trkpt lat="41.68177640535094" lon="123.43283356178871">
        <ele>52.55991883000701</ele>
        <time>2019-03-26T12:45:33.109000Z</time>
      </trkpt>
      <trkpt lat="41.68177627962239" lon="123.43296348128787">
        <time>2019-03-26T12:45:36.115000Z</time>
      </trkpt>
      <trkpt lat="41.681790696495845" lon="123.43312843714229">
        <time>2019-03-26T12:45:40.107000Z</time>
      </trkpt>
      <trkpt lat="41.68180029377498" lon="123.43326212849787">
        <ele>52.62861962041228</ele>
        <time>2019-03-26T12:45:44.109000Z</time>
      </trkpt>
      <trkpt lat="41.681821248532906" lon="123.4334112425553">
        <time>2019-03-26T12:45:48.123000Z</time>
      </trkpt>
      <trkpt lat="41.68183017525978" lon="123.43356412846914">
        <time>2019-03-26T12:45:52.130000Z</time>
      </trkpt>
      <trkpt lat="41.681822673456445" lon="123.4336924554067">
        <ele>52.57048744878142</ele>
        <time>2019-03-26T12:45:55.122000Z</time>
      </trkpt>
      <trkpt lat="41.68181961406179" lon="123.4338182677733">
        <time>2019-03-26T12:45:58.102000Z</time>
      </trkpt>
      <trkpt lat="41.68180305980302" lon="123.43394106265477">
        <time>2019-03-26T12:46:01.118000Z</time>
      </trkpt>
      <trkpt lat="41.681768735909536" lon="123.43405589472822">
        <ele>52.64711518010466</ele>
        <time>2019-03-26T12:46:05.119000Z</time>
      </trkpt>
      <trkpt lat="41.68177221439935" lon="123.43417994689516">
        <time>2019-03-26T12:46:08.101000Z</time>
      </trkpt>
      <trkpt lat="41.68176978364743" lon="123.43432336125842">
        <time>2019-03-26T12:46:12.101000Z</time>
      </trkpt>
      <trkpt lat="41.68176869400002" lon="123.43446216557494">
        <ele>52.73431153020232</ele>
        <time>2019-03-26T12:46:16.105000Z</time>
      </trkpt>
      <trkpt lat="41.68175423521705" lon="123.4346044902908">
        <time>2019-03-26T12:46:20.108000Z</time>
      </trkpt>
      <trkpt lat="41.681765508876815" lon="123.43473851692251">
        <ele>52.86906952580779</ele>
        <time>2019-03-26T12:46:23.122000Z</time>
      </trkpt>
      <trkpt lat="41.68179710865177" lon="123.43487790797225">
        <time>2019-03-26T12:46:27.120000Z</time>
      </trkpt>
      <trkpt lat="41.681791199410036" lon="123.4350326379048">
        <time>2019-03-26T12:46:32.139000Z</time>
      </trkpt>
      <trkpt lat="41.681801718698516" lon="123.43518552381865">
        <ele>53.10687966069548</ele>
        <time>2019-03-26T12:46:36.213000Z</time>
      </trkpt>
      <trkpt lat="41.6818095976875" lon="123.43532156210712">
        <time>2019-03-26T12:46:40.103000Z</time>
      </trkpt>
      <trkpt lat="41.68179773729451" lon="123.4354570974814">
        <ele>53.27070374211638</ele>
        <time>2019-03-26T12:46:44.103000Z</time>
      </trkpt>
      <trkpt lat="41.681812447534575" lon="123.43558299366704">
        <time>2019-03-26T12:46:48.111000Z</time>
      </trkpt>
      <trkpt lat="41.6818291694314" lon="123.43574023817054">
        <time>2019-03-26T12:46:52.110000Z</time>
      </trkpt>
      <trkpt lat="41.68182627767481" lon="123.43589463282696">
        <ele>53.51908058842986</ele>
        <time>2019-03-26T12:46:56.109000Z</time>
      </trkpt>
      <trkpt lat="41.68179539036162" lon="123.43602413323096">
        <time>2019-03-26T12:47:00.111000Z</time>
      </trkpt>
      <trkpt lat="41.68179467789985" lon="123.43617182236484">
        <ele>53.73839325627654</ele>
        <time>2019-03-26T12:47:04.115000Z</time>
      </trkpt>
      <trkpt lat="41.681829839983656" lon="123.4362962098079">
        <time>2019-03-26T12:47:08.117000Z</time>
      </trkpt>
      <trkpt lat="41.681822463908865" lon="123.43643350538186">
        <time>2019-03-26T12:47:12.109000Z</time>
      </trkpt>
      <trkpt lat="41.681831181088164" lon="123.4365779255735">
        <ele>53.952420661061694</ele>
        <time>2019-03-26T12:47:16.087000Z</time>
      </trkpt>
      <trkpt lat="41.68183817997731" lon="123.43671530496648">
        <time>2019-03-26T12:47:20.130000Z</time>
      </trkpt>
      <trkpt lat="41.68182443365611" lon="123.43686877761355">
        <ele>54.073968360036304</ele>
        <time>2019-03-26T12:47:24.168000Z</time>
      </trkpt>
      <trkpt lat="41.68181005869217" lon="123.4370253515648">
        <time>2019-03-26T12:47:28.110000Z</time>
      </trkpt>
      <trkpt lat="41.68180268261738" lon="123.43716801155678">
        <time>2019-03-26T12:47:32.102000Z</time>
      </trkpt>
      <trkpt lat="41.68180599346913" lon="123.43729751196078">
        <ele>54.29328102788298</ele>
        <time>2019-03-26T12:47:37.104000Z</time>
      </trkpt>
      <trkpt lat="41.68181471064843" lon="123.43743874702922">
        <time>2019-03-26T12:47:41.125000Z</time>
      </trkpt>
      <trkpt lat="41.6818138305486" lon="123.43759951193205">
        <ele>54.28006882390349</ele>
        <time>2019-03-26T12:47:45.122000Z</time>
      </trkpt>
      <trkpt lat="41.68179639619" lon="123.43774074700049">
        <time>2019-03-26T12:47:48.116000Z</time>
      </trkpt>
      <trkpt lat="41.68179668955661" lon="123.43787091795674">
        <time>2019-03-26T12:47:51.108000Z</time>
      </trkpt>
      <trkpt lat="41.681801006236746" lon="123.43800326820782">
        <ele>54.2377924414572</ele>
        <time>2019-03-26T12:47:55.126000Z</time>
      </trkpt>
      <trkpt lat="41.681807711759284" lon="123.4381287452983">
        <time>2019-03-26T12:47:58.140000Z</time>
      </trkpt>
      <trkpt lat="41.68181332763441" lon="123.43824885797075">
        <time>2019-03-26T12:48:01.125000Z</time>
      </trkpt>
      <trkpt lat="41.68182120662339" lon="123.43838380661181">
        <ele>54.340842673390796</ele>
        <time>2019-03-26T12:48:05.143000Z</time>
      </trkpt>
      <trkpt lat="41.681820745618715" lon="123.43854054820112">
        <time>2019-03-26T12:48:09.111000Z</time>
      </trkpt>
      <trkpt lat="41.68182242199935" lon="123.43866485182515">
        <time>2019-03-26T12:48:12.125000Z</time>
      </trkpt>
      <trkpt lat="41.68182200290419" lon="123.43879317876271">
        <ele>54.19551415166228</ele>
        <time>2019-03-26T12:48:15.130000Z</time>
      </trkpt>
      <trkpt lat="41.681805281007364" lon="123.43894841160945">
        <time>2019-03-26T12:48:19.105000Z</time>
      </trkpt>
      <trkpt lat="41.68180238925077" lon="123.43906936247221">
        <time>2019-03-26T12:48:22.125000Z</time>
      </trkpt>
      <trkpt lat="41.68180134151287" lon="123.43919442046753">
        <ele>53.74896187505095</ele>
        <time>2019-03-26T12:48:25.108000Z</time>
      </trkpt>
      <trkpt lat="41.681804652364626" lon="123.43932232830993">
        <time>2019-03-26T12:48:28.109000Z</time>
      </trkpt>
      <trkpt lat="41.68180117387481" lon="123.43946255754999">
        <time>2019-03-26T12:48:32.122000Z</time>
      </trkpt>
      <trkpt lat="41.681795138904526" lon="123.43960337352327">
        <ele>53.973559805959155</ele>
        <time>2019-03-26T12:48:36.311000Z</time>
      </trkpt>
      <trkpt lat="41.68180117387481" lon="123.43974804517201">
        <time>2019-03-26T12:48:40.115000Z</time>
      </trkpt>
      <trkpt lat="41.681834701487496" lon="123.43988316145114">
        <ele>53.52700752934783</ele>
        <time>2019-03-26T12:48:45.113000Z</time>
      </trkpt>
      <trkpt lat="41.68179622855194" lon="123.4400125780361">
        <time>2019-03-26T12:48:49.115000Z</time>
      </trkpt>
      <trkpt lat="41.6817749804274" lon="123.44015699822775">
        <ele>53.73046631535857</ele>
        <time>2019-03-26T12:48:53.120000Z</time>
      </trkpt>
      <trkpt lat="41.68177062183775" lon="123.4403098841416">
        <time>2019-03-26T12:48:57.110000Z</time>
      </trkpt>
      <trkpt lat="41.6817670595289" lon="123.44046411115995">
        <time>2019-03-26T12:49:01.120000Z</time>
      </trkpt>
      <trkpt lat="41.68175268456496" lon="123.4406138119506">
        <ele>53.669692465871265</ele>
        <time>2019-03-26T12:49:05.117000Z</time>
      </trkpt>
      <trkpt lat="41.68175767179735" lon="123.4407570586758">
        <time>2019-03-26T12:49:09.106000Z</time>
      </trkpt>
      <trkpt lat="41.68176416777231" lon="123.4409058374571">
        <ele>53.6855463477072</ele>
        <time>2019-03-26T12:49:13.130000Z</time>
      </trkpt>
      <trkpt lat="41.68177548334159" lon="123.44104900036328">
        <time>2019-03-26T12:49:17.106000Z</time>
      </trkpt>
      <trkpt lat="41.68178206313558" lon="123.4411930852788">
        <time>2019-03-26T12:49:21.125000Z</time>
      </trkpt>
      <trkpt lat="41.68177749499835" lon="123.44134731229715">
        <ele>53.727824637502124</ele>
        <time>2019-03-26T12:49:25.127000Z</time>
      </trkpt>
      <trkpt lat="41.68178277559735" lon="123.44149709690683">
        <time>2019-03-26T12:49:29.108000Z</time>
      </trkpt>
      <trkpt lat="41.6817757767082" lon="123.44165434141033">
        <ele>53.89164871892302</ele>
        <time>2019-03-26T12:49:33.114000Z</time>
      </trkpt>
      <trkpt lat="41.681771879123225" lon="123.4418112506377">
        <time>2019-03-26T12:49:37.106000Z</time>
      </trkpt>
      <trkpt lat="41.68177384887047" lon="123.44195382681065">
        <time>2019-03-26T12:49:41.111000Z</time>
      </trkpt>
      <trkpt lat="41.681773513594344" lon="123.44209355313652">
        <ele>53.94185204228728</ele>
        <time>2019-03-26T12:49:45.131000Z</time>
      </trkpt>
      <trkpt lat="41.681772298218384" lon="123.44223981734686">
        <time>2019-03-26T12:49:49.111000Z</time>
      </trkpt>
      <trkpt lat="41.68177007701404" lon="123.4423620254951">
        <ele>54.21136803349822</ele>
        <time>2019-03-26T12:49:53.110000Z</time>
      </trkpt>
      <trkpt lat="41.68177447751321" lon="123.44250384729676">
        <time>2019-03-26T12:49:57.112000Z</time>
      </trkpt>
      <trkpt lat="41.681771082842424" lon="123.44264726166003">
        <time>2019-03-26T12:50:01.120000Z</time>
      </trkpt>
      <trkpt lat="41.681768652090504" lon="123.4427954537081">
        <ele>54.31441826543181</ele>
        <time>2019-03-26T12:50:05.121000Z</time>
      </trkpt>
      <trkpt lat="41.6817842424304" lon="123.44293668877654">
        <time>2019-03-26T12:50:09.106000Z</time>
      </trkpt>
      <trkpt lat="41.68180310171254" lon="123.44308454554849">
        <ele>54.20608467778533</ele>
        <time>2019-03-26T12:50:13.110000Z</time>
      </trkpt>
      <trkpt lat="41.6818156745673" lon="123.44323173176818">
        <time>2019-03-26T12:50:17.107000Z</time>
      </trkpt>
      <trkpt lat="41.68182602621771" lon="123.44335201207869">
        <time>2019-03-26T12:50:20.114000Z</time>
      </trkpt>
      <trkpt lat="41.68184082027681" lon="123.44349182222359">
        <ele>54.531089255422046</ele>
        <time>2019-03-26T12:50:24.111000Z</time>
      </trkpt>
      <trkpt lat="41.681836335958614" lon="123.44363967899554">
        <time>2019-03-26T12:50:28.116000Z</time>
      </trkpt>
      <trkpt lat="41.68181098070152" lon="123.44378946360521">
        <time>2019-03-26T12:50:32.130000Z</time>
      </trkpt>
      <trkpt lat="41.68179694101371" lon="123.4439435229855">
        <ele>55.17845673283904</ele>
        <time>2019-03-26T12:50:36.124000Z</time>
      </trkpt>
      <trkpt lat="41.681798072570636" lon="123.44407595705562">
        <time>2019-03-26T12:50:40.110000Z</time>
      </trkpt>
      <trkpt lat="41.681803856083825" lon="123.44422247272306">
        <ele>55.35549492558806</ele>
        <time>2019-03-26T12:50:44.111000Z</time>
      </trkpt>
      <trkpt lat="41.68179572563775" lon="123.44434501614742">
        <time>2019-03-26T12:50:47.111000Z</time>
      </trkpt>
      <trkpt lat="41.68178357187815" lon="123.44448943633907">
        <time>2019-03-26T12:50:51.126000Z</time>
      </trkpt>
      <trkpt lat="41.681777033993676" lon="123.44464542355709">
        <ele>55.50874657353728</ele>
        <time>2019-03-26T12:50:55.120000Z</time>
      </trkpt>
      <trkpt lat="41.68177569288917" lon="123.44478858646326">
        <time>2019-03-26T12:50:59.101000Z</time>
      </trkpt>
      <trkpt lat="41.68178172785945" lon="123.44492973771267">
        <ele>55.675212332814624</ele>
        <time>2019-03-26T12:51:03.105000Z</time>
      </trkpt>
      <trkpt lat="41.68177456133224" lon="123.4450783488559">
        <time>2019-03-26T12:51:07.112000Z</time>
      </trkpt>
      <trkpt lat="41.68177556716062" lon="123.44520935800247">
        <time>2019-03-26T12:51:11.115000Z</time>
      </trkpt>
      <trkpt lat="41.6818000842274" lon="123.44533994805388">
        <ele>55.77033562383025</ele>
        <time>2019-03-26T12:51:15.106000Z</time>
      </trkpt>
      <trkpt lat="41.681785332077816" lon="123.44547405850463">
        <time>2019-03-26T12:51:19.121000Z</time>
      </trkpt>
      <trkpt lat="41.68179082222439" lon="123.44561303045921">
        <ele>55.75976891240447</ele>
        <time>2019-03-26T12:51:23.116000Z</time>
      </trkpt>
      <trkpt lat="41.681776321531906" lon="123.44577161606722">
        <time>2019-03-26T12:51:27.115000Z</time>
      </trkpt>
      <trkpt lat="41.68176312003441" lon="123.44589474622481">
        <time>2019-03-26T12:51:30.122000Z</time>
      </trkpt>
      <trkpt lat="41.6817617789299" lon="123.44602365989559">
        <ele>55.69899315556853</ele>
        <time>2019-03-26T12:51:33.113000Z</time>
      </trkpt>
      <trkpt lat="41.681797276289835" lon="123.44616246421211">
        <time>2019-03-26T12:51:37.120000Z</time>
      </trkpt>
      <trkpt lat="41.68180238925077" lon="123.44630797405117">
        <time>2019-03-26T12:51:41.111000Z</time>
      </trkpt>
      <trkpt lat="41.681787762829735" lon="123.44644744891994">
        <ele>55.70428032597869</ele>
        <time>2019-03-26T12:51:44.131000Z</time>
      </trkpt>
      <trkpt lat="41.681770579928234" lon="123.44658139173262">
        <time>2019-03-26T12:51:47.106000Z</time>
      </trkpt>
      <trkpt lat="41.6817577975259" lon="123.44671248469822">
        <time>2019-03-26T12:51:50.150000Z</time>
      </trkpt>
      <trkpt lat="41.681739105881825" lon="123.44683913525515">
        <ele>55.64086479863494</ele>
        <time>2019-03-26T12:51:53.122000Z</time>
      </trkpt>
      <trkpt lat="41.68174002789117" lon="123.44698430981808">
        <time>2019-03-26T12:51:57.111000Z</time>
      </trkpt>
      <trkpt lat="41.681745266580656" lon="123.44711934227817">
        <time>2019-03-26T12:52:01.112000Z</time>
      </trkpt>
      <trkpt lat="41.68175557632156" lon="123.44726870779269">
        <ele>55.46118492802947</ele>
        <time>2019-03-26T12:52:05.127000Z</time>
      </trkpt>
      <trkpt lat="41.68176068928249" lon="123.4474167322027">
        <time>2019-03-26T12:52:09.107000Z</time>
      </trkpt>
      <trkpt lat="41.681760144458785" lon="123.44755369250052">
        <ele>55.231303641408374</ele>
        <time>2019-03-26T12:52:13.106000Z</time>
      </trkpt>
      <trkpt lat="41.68174338065244" lon="123.4477018845486">
        <time>2019-03-26T12:52:17.144000Z</time>
      </trkpt>
      <trkpt lat="41.68173512447782" lon="123.44782509852521">
        <time>2019-03-26T12:52:20.120000Z</time>
      </trkpt>
      <trkpt lat="41.68174807451822" lon="123.44797035690718">
        <ele>55.05955261906951</ele>
        <time>2019-03-26T12:52:24.131000Z</time>
      </trkpt>
      <trkpt lat="41.68177091520436" lon="123.44809231359832">
        <time>2019-03-26T12:52:28.122000Z</time>
      </trkpt>
      <trkpt lat="41.68179723438032" lon="123.44821678486042">
        <time>2019-03-26T12:52:32.144000Z</time>
      </trkpt>
      <trkpt lat="41.681799916589334" lon="123.44836028304272">
        <ele>54.88251824101775</ele>
        <time>2019-03-26T12:52:36.093000Z</time>
      </trkpt>
      <trkpt lat="41.68178436815895" lon="123.44851149257593">
        <time>2019-03-26T12:52:40.085000Z</time>
      </trkpt>
      <trkpt lat="41.681780596302524" lon="123.44865633186274">
        <ele>54.927438208669116</ele>
        <time>2019-03-26T12:52:44.089000Z</time>
      </trkpt>
      <trkpt lat="41.68177862655528" lon="123.4487823118674">
        <time>2019-03-26T12:52:48.125000Z</time>
      </trkpt>
      <trkpt lat="41.68177439369418" lon="123.44893486250513">
        <time>2019-03-26T12:52:52.119000Z</time>
      </trkpt>
      <trkpt lat="41.68176907118566" lon="123.44907475646906">
        <ele>55.03048844060271</ele>
        <time>2019-03-26T12:52:56.118000Z</time>
      </trkpt>
      <trkpt lat="41.681763371491506" lon="123.44921490189009">
        <time>2019-03-26T12:52:59.136000Z</time>
      </trkpt>
      <trkpt lat="41.681766011791005" lon="123.44934633013182">
        <ele>55.16524643620818</ele>
        <time>2019-03-26T12:53:03.120000Z</time>
      </trkpt>
      <trkpt lat="41.68176756244309" lon="123.44947616581194">
        <time>2019-03-26T12:53:07.118000Z</time>
      </trkpt>
      <trkpt lat="41.681761066468134" lon="123.44962142419391">
        <time>2019-03-26T12:53:11.115000Z</time>
      </trkpt>
      <trkpt lat="41.681760563553944" lon="123.44976785604231">
        <ele>55.28414864262908</ele>
        <time>2019-03-26T12:53:15.116000Z</time>
      </trkpt>
      <trkpt lat="41.68176768817164" lon="123.44991101894848">
        <time>2019-03-26T12:53:19.110000Z</time>
      </trkpt>
      <trkpt lat="41.68176483832456" lon="123.45005200255983">
        <ele>55.26565499028533</ele>
        <time>2019-03-26T12:53:23.121000Z</time>
      </trkpt>
      <trkpt lat="41.68178298514493" lon="123.450179323669">
        <time>2019-03-26T12:53:27.110000Z</time>
      </trkpt>
      <trkpt lat="41.68178780473925" lon="123.45031150628202">
        <time>2019-03-26T12:53:32.115000Z</time>
      </trkpt>
      <trkpt lat="41.681785038711205" lon="123.45044318598084">
        <ele>55.08333344182341</ele>
        <time>2019-03-26T12:53:39.104000Z</time>
      </trkpt>
      <trkpt lat="41.681725443379655" lon="123.45095565554075">
        <ele>48.04089262780208</ele>
        <time>2019-03-26T13:03:41.252000Z</time>
      </trkpt>
      <trkpt lat="41.681725443379655" lon="123.45095565554075">
        <ele>49.22729399498958</ele>
        <time>2019-03-26T13:04:04.119000Z</time>
      </trkpt>
      <trkpt lat="41.68176576033391" lon="123.45078491617315">
        <time>2019-03-26T13:04:04.129000Z</time>
      </trkpt>
      <trkpt lat="41.681764293500855" lon="123.45073596585863">
        <time>2019-03-26T13:04:05.118000Z</time>
      </trkpt>
      <trkpt lat="41.6817662632481" lon="123.45059271913343">
        <ele>48.09638121422786</ele>
        <time>2019-03-26T13:04:08.127000Z</time>
      </trkpt>
      <trkpt lat="41.68176932264276" lon="123.4504451976376">
        <time>2019-03-26T13:04:11.120000Z</time>
      </trkpt>
      <trkpt lat="41.681775734798684" lon="123.45030270528369">
        <time>2019-03-26T13:04:14.130000Z</time>
      </trkpt>
      <trkpt lat="41.681777453088834" lon="123.45017488126032">
        <ele>48.06995680626888</ele>
        <time>2019-03-26T13:04:17.119000Z</time>
      </trkpt>
      <trkpt lat="41.6817741841466" lon="123.45001403253846">
        <time>2019-03-26T13:04:21.107000Z</time>
      </trkpt>
      <trkpt lat="41.681772801132574" lon="123.44984404754214">
        <time>2019-03-26T13:04:24.108000Z</time>
      </trkpt>
      <trkpt lat="41.68177665680803" lon="123.44969920825534">
        <ele>48.09902479943294</ele>
        <time>2019-03-26T13:04:27.112000Z</time>
      </trkpt>
      <trkpt lat="41.68177908755995" lon="123.4495558777111">
        <time>2019-03-26T13:04:30.104000Z</time>
      </trkpt>
      <trkpt lat="41.681776824446096" lon="123.4494160675662">
        <time>2019-03-26T13:04:33.108000Z</time>
      </trkpt>
      <trkpt lat="41.681775525251105" lon="123.44928698625736">
        <time>2019-03-26T13:04:36.129000Z</time>
      </trkpt>
      <trkpt lat="41.68178591881104" lon="123.44914063822799">
        <ele>48.03560927208919</ele>
        <time>2019-03-26T13:04:39.132000Z</time>
      </trkpt>
      <trkpt lat="41.68179107368149" lon="123.44900929380529">
        <time>2019-03-26T13:04:42.107000Z</time>
      </trkpt>
      <trkpt lat="41.68179073840536" lon="123.44887937430613">
        <time>2019-03-26T13:04:45.105000Z</time>
      </trkpt>
      <trkpt lat="41.681791115591004" lon="123.44874174345605">
        <ele>47.98276045617122</ele>
        <time>2019-03-26T13:04:48.139000Z</time>
      </trkpt>
      <trkpt lat="41.68179765347548" lon="123.44861090194755">
        <time>2019-03-26T13:04:51.111000Z</time>
      </trkpt>
      <trkpt lat="41.68180318553157" lon="123.44848467048578">
        <time>2019-03-26T13:04:54.109000Z</time>
      </trkpt>
      <trkpt lat="41.68180624492623" lon="123.4483628814327">
        <ele>48.05146315392513</ele>
        <time>2019-03-26T13:04:57.134000Z</time>
      </trkpt>
      <trkpt lat="41.68182627767481" lon="123.44823480595224">
        <time>2019-03-26T13:05:01.108000Z</time>
      </trkpt>
      <trkpt lat="41.68183415666379" lon="123.44810036022537">
        <time>2019-03-26T13:05:05.107000Z</time>
      </trkpt>
      <trkpt lat="41.681784829163625" lon="123.44799952593021">
        <ele>47.97219374474544</ele>
        <time>2019-03-26T13:05:14.109000Z</time>
      </trkpt>
      <trkpt lat="41.68178738564409" lon="123.44786122452788">
        <ele>48.511225727167314</ele>
        <time>2019-03-26T13:05:18.105000Z</time>
      </trkpt>
      <trkpt lat="41.68179530654259" lon="123.44772795226746">
        <time>2019-03-26T13:05:21.108000Z</time>
      </trkpt>
      <trkpt lat="41.68180289216496" lon="123.4475911596077">
        <time>2019-03-26T13:05:24.126000Z</time>
      </trkpt>
      <trkpt lat="41.68182900179334" lon="123.4474600666421">
        <ele>48.376467731561846</ele>
        <time>2019-03-26T13:05:27.129000Z</time>
      </trkpt>
      <trkpt lat="41.681833611840084" lon="123.4473213461446">
        <time>2019-03-26T13:05:31.112000Z</time>
      </trkpt>
      <trkpt lat="41.68182887606479" lon="123.44718824152224">
        <time>2019-03-26T13:05:35.115000Z</time>
      </trkpt>
      <trkpt lat="41.681834701487496" lon="123.44704968866282">
        <ele>48.688262012567705</ele>
        <time>2019-03-26T13:05:38.108000Z</time>
      </trkpt>
      <trkpt lat="41.68184065263875" lon="123.4469106328892">
        <time>2019-03-26T13:05:41.108000Z</time>
      </trkpt>
      <trkpt lat="41.68182787023641" lon="123.44676814053528">
        <time>2019-03-26T13:05:44.114000Z</time>
      </trkpt>
      <trkpt lat="41.681841197462454" lon="123.4466225468772">
        <ele>48.759604480829424</ele>
        <time>2019-03-26T13:05:48.110000Z</time>
      </trkpt>
      <trkpt lat="41.68184279002406" lon="123.44650084164314">
        <time>2019-03-26T13:05:51.127000Z</time>
      </trkpt>
      <trkpt lat="41.68186487633891" lon="123.44637461018138">
        <time>2019-03-26T13:05:55.112000Z</time>
      </trkpt>
      <trkpt lat="41.681872964875474" lon="123.44620881613665">
        <ele>49.010623004999346</ele>
        <time>2019-03-26T13:05:59.127000Z</time>
      </trkpt>
      <trkpt lat="41.68188658546813" lon="123.44606716197305">
        <time>2019-03-26T13:06:03.114000Z</time>
      </trkpt>
      <trkpt lat="41.681894003452435" lon="123.44593338679843">
        <ele>49.15859511193294</ele>
        <time>2019-03-26T13:06:07.111000Z</time>
      </trkpt>
      <trkpt lat="41.6818828136117" lon="123.44577563938074">
        <time>2019-03-26T13:06:11.110000Z</time>
      </trkpt>
      <trkpt lat="41.68188717220135" lon="123.44561730522983">
        <time>2019-03-26T13:06:15.109000Z</time>
      </trkpt>
      <trkpt lat="41.681888429486825" lon="123.44546324584954">
        <ele>49.137454059686846</ele>
        <time>2019-03-26T13:06:19.137000Z</time>
      </trkpt>
      <trkpt lat="41.68189215943374" lon="123.44530331913703">
        <time>2019-03-26T13:06:23.109000Z</time>
      </trkpt>
      <trkpt lat="41.6818878427536" lon="123.44517574657075">
        <time>2019-03-26T13:06:26.110000Z</time>
      </trkpt>
      <trkpt lat="41.68187128849484" lon="123.44505345460348">
        <ele>49.142741230097</ele>
        <time>2019-03-26T13:06:29.135000Z</time>
      </trkpt>
      <trkpt lat="41.68187095321871" lon="123.44492437329464">
        <time>2019-03-26T13:06:32.112000Z</time>
      </trkpt>
      <trkpt lat="41.681868606285825" lon="123.44479252595775">
        <time>2019-03-26T13:06:35.115000Z</time>
      </trkpt>
      <trkpt lat="41.68187015693791" lon="123.44464039441519">
        <ele>49.005339649286455</ele>
        <time>2019-03-26T13:06:39.120000Z</time>
      </trkpt>
      <trkpt lat="41.68189002204843" lon="123.44450410466962">
        <time>2019-03-26T13:06:43.112000Z</time>
      </trkpt>
      <trkpt lat="41.68188637592055" lon="123.44436781492405">
        <time>2019-03-26T13:06:46.111000Z</time>
      </trkpt>
      <trkpt lat="41.681862319858446" lon="123.4442101513254">
        <ele>48.9181432991888</ele>
        <time>2019-03-26T13:06:50.132000Z</time>
      </trkpt>
      <trkpt lat="41.68186613362439" lon="123.44405852269702">
        <time>2019-03-26T13:06:54.116000Z</time>
      </trkpt>
      <trkpt lat="41.68187543753691" lon="123.44393430289202">
        <ele>48.68561842736263</ele>
        <time>2019-03-26T13:06:58.113000Z</time>
      </trkpt>
      <trkpt lat="41.681865463072135" lon="123.44380513776414">
        <time>2019-03-26T13:07:01.138000Z</time>
      </trkpt>
      <trkpt lat="41.681856662073805" lon="123.4436845221775">
        <time>2019-03-26T13:07:04.111000Z</time>
      </trkpt>
      <trkpt lat="41.681871749499514" lon="123.44353817414813">
        <ele>48.498015430536455</ele>
        <time>2019-03-26T13:07:08.131000Z</time>
      </trkpt>
      <trkpt lat="41.68188050858833" lon="123.44337841507368">
        <time>2019-03-26T13:07:12.132000Z</time>
      </trkpt>
      <trkpt lat="41.681861733125224" lon="123.44325955968671">
        <time>2019-03-26T13:07:15.145000Z</time>
      </trkpt>
      <trkpt lat="41.681867390909865" lon="123.4431049135732">
        <ele>47.94312575158138</ele>
        <time>2019-03-26T13:07:19.106000Z</time>
      </trkpt>
      <trkpt lat="41.68187166568048" lon="123.44298429798656">
        <time>2019-03-26T13:07:22.119000Z</time>
      </trkpt>
      <trkpt lat="41.681880969593" lon="123.44285865325801">
        <time>2019-03-26T13:07:25.120000Z</time>
      </trkpt>
      <trkpt lat="41.6818965599329" lon="123.44271557417088">
        <ele>47.824221637811846</ele>
        <time>2019-03-26T13:07:29.137000Z</time>
      </trkpt>
      <trkpt lat="41.68186043393023" lon="123.44256226916187">
        <time>2019-03-26T13:07:33.113000Z</time>
      </trkpt>
      <trkpt lat="41.68184346057631" lon="123.44243218202465">
        <time>2019-03-26T13:07:36.137000Z</time>
      </trkpt>
      <trkpt lat="41.681839562991335" lon="123.4422790446537">
        <ele>47.80836775597591</ele>
        <time>2019-03-26T13:07:40.103000Z</time>
      </trkpt>
      <trkpt lat="41.681839772538915" lon="123.44215448957257">
        <time>2019-03-26T13:07:43.128000Z</time>
      </trkpt>
      <trkpt lat="41.68185066901304" lon="123.44201308686607">
        <ele>47.56263258751888</ele>
        <time>2019-03-26T13:07:47.114000Z</time>
      </trkpt>
      <trkpt lat="41.68184639424242" lon="123.44188291590982">
        <time>2019-03-26T13:07:50.121000Z</time>
      </trkpt>
      <trkpt lat="41.68184496931888" lon="123.44173212547176">
        <time>2019-03-26T13:07:53.114000Z</time>
      </trkpt>
      <trkpt lat="41.68184488549985" lon="123.44160740275257">
        <time>2019-03-26T13:07:56.143000Z</time>
      </trkpt>
      <trkpt lat="41.68184752579935" lon="123.44148569751852">
        <ele>47.38559820946712</ele>
        <time>2019-03-26T13:07:59.107000Z</time>
      </trkpt>
      <trkpt lat="41.6818492440895" lon="123.44132887211018">
        <time>2019-03-26T13:08:03.109000Z</time>
      </trkpt>
      <trkpt lat="41.681840568819716" lon="123.44119903643005">
        <time>2019-03-26T13:08:06.131000Z</time>
      </trkpt>
      <trkpt lat="41.681840778367295" lon="123.44107775029116">
        <ele>47.11608031090755</ele>
        <time>2019-03-26T13:08:09.064000Z</time>
      </trkpt>
      <trkpt lat="41.681838557162955" lon="123.44092075724474">
        <time>2019-03-26T13:08:13.112000Z</time>
      </trkpt>
      <trkpt lat="41.68184253856696" lon="123.44076661404542">
        <ele>46.91790678795833</ele>
        <time>2019-03-26T13:08:17.093000Z</time>
      </trkpt>
      <trkpt lat="41.68184153273858" lon="123.44062839646212">
        <time>2019-03-26T13:08:21.088000Z</time>
      </trkpt>
      <trkpt lat="41.68184509504743" lon="123.44047551054827">
        <time>2019-03-26T13:08:25.111000Z</time>
      </trkpt>
      <trkpt lat="41.681852513031735" lon="123.44035531405679">
        <ele>47.034169223871416</ele>
        <time>2019-03-26T13:08:28.112000Z</time>
      </trkpt>
      <trkpt lat="41.68183889243908" lon="123.44023142952791">
        <time>2019-03-26T13:08:31.152000Z</time>
      </trkpt>
      <trkpt lat="41.681840485000684" lon="123.44008633878401">
        <time>2019-03-26T13:08:35.107000Z</time>
      </trkpt>
      <trkpt lat="41.681870115028396" lon="123.43997251253894">
        <ele>46.97603895958919</ele>
        <time>2019-03-26T13:08:38.113000Z</time>
      </trkpt>
      <trkpt lat="41.68189635038532" lon="123.4398230632054">
        <time>2019-03-26T13:08:42.120000Z</time>
      </trkpt>
      <trkpt lat="41.68189567983307" lon="123.43969750229589">
        <ele>47.09229948815364</ele>
        <time>2019-03-26T13:08:47.111000Z</time>
      </trkpt>
      <trkpt lat="41.681874976532235" lon="123.43957303103379">
        <time>2019-03-26T13:08:54.172000Z</time>
      </trkpt>
      <trkpt lat="41.681874976532235" lon="123.43957303103379">
        <ele>47.08701613244075</ele>
        <time>2019-03-26T13:09:33.063000Z</time>
      </trkpt>
      <trkpt lat="41.68184480168082" lon="123.43941268522612">
        <time>2019-03-26T13:09:33.066000Z</time>
      </trkpt>
      <trkpt lat="41.68184672951855" lon="123.43926256534031">
        <time>2019-03-26T13:09:36.084000Z</time>
      </trkpt>
      <trkpt lat="41.68186257131554" lon="123.43913231056503">
        <time>2019-03-26T13:09:39.105000Z</time>
      </trkpt>
      <trkpt lat="41.68189165651955" lon="123.43898797419241">
        <ele>47.29840185936946</ele>
        <time>2019-03-26T13:09:42.194000Z</time>
      </trkpt>
      <trkpt lat="41.68191420383908" lon="123.43885285791329">
        <time>2019-03-26T13:09:45.125000Z</time>
      </trkpt>
      <trkpt lat="41.681906953492835" lon="123.4387127963113">
        <time>2019-03-26T13:09:48.120000Z</time>
      </trkpt>
      <trkpt lat="41.681882855521216" lon="123.4385896661537">
        <ele>47.52564146813411</ele>
        <time>2019-03-26T13:09:51.113000Z</time>
      </trkpt>
      <trkpt lat="41.68187024075694" lon="123.43845371168426">
        <time>2019-03-26T13:09:54.113000Z</time>
      </trkpt>
      <trkpt lat="41.681869402566626" lon="123.43833141971699">
        <time>2019-03-26T13:09:57.119000Z</time>
      </trkpt>
      <trkpt lat="41.681850794741585" lon="123.43817761179379">
        <ele>47.66039946373958</ele>
        <time>2019-03-26T13:10:01.135000Z</time>
      </trkpt>
      <trkpt lat="41.68185754217364" lon="123.43805431399814">
        <time>2019-03-26T13:10:04.112000Z</time>
      </trkpt>
      <trkpt lat="41.68188143059768" lon="123.43790302064589">
        <time>2019-03-26T13:10:08.112000Z</time>
      </trkpt>
      <trkpt lat="41.68189211752422" lon="123.43777762737444">
        <ele>47.83479216393489</ele>
        <time>2019-03-26T13:10:11.111000Z</time>
      </trkpt>
      <trkpt lat="41.681883567982986" lon="123.4376279265838">
        <time>2019-03-26T13:10:14.132000Z</time>
      </trkpt>
      <trkpt lat="41.68188314888783" lon="123.43748384166828">
        <time>2019-03-26T13:10:18.120000Z</time>
      </trkpt>
      <trkpt lat="41.681876401455774" lon="123.43732710007897">
        <ele>47.760806110468096</ele>
        <time>2019-03-26T13:10:22.117000Z</time>
      </trkpt>
      <trkpt lat="41.68186797764309" lon="123.43719508510402">
        <time>2019-03-26T13:10:25.114000Z</time>
      </trkpt>
      <trkpt lat="41.68190506756462" lon="123.43706910509935">
        <time>2019-03-26T13:10:29.110000Z</time>
      </trkpt>
      <trkpt lat="41.681942157486155" lon="123.4369582125204">
        <ele>47.61283781823177</ele>
        <time>2019-03-26T13:10:34.138000Z</time>
      </trkpt>
      <trkpt lat="41.68196030430652" lon="123.43680817645362">
        <time>2019-03-26T13:10:38.116000Z</time>
      </trkpt>
      <trkpt lat="41.6819589212925" lon="123.43668420810572">
        <ele>47.536210086908525</ele>
        <time>2019-03-26T13:10:41.134000Z</time>
      </trkpt>
      <trkpt lat="41.681941738391" lon="123.43655353423527">
        <time>2019-03-26T13:10:44.112000Z</time>
      </trkpt>
      <trkpt lat="41.68192903980769" lon="123.43641179625264">
        <time>2019-03-26T13:10:47.110000Z</time>
      </trkpt>
      <trkpt lat="41.68193059045978" lon="123.43627651233545">
        <time>2019-03-26T13:10:50.139000Z</time>
      </trkpt>
      <trkpt lat="41.681936457792" lon="123.43611708853713">
        <ele>47.1794958382513</ele>
        <time>2019-03-26T13:10:54.111000Z</time>
      </trkpt>
      <trkpt lat="41.68194219939567" lon="123.43597593728772">
        <time>2019-03-26T13:10:57.189000Z</time>
      </trkpt>
      <trkpt lat="41.68193976864375" lon="123.43584828090242">
        <time>2019-03-26T13:11:00.111000Z</time>
      </trkpt>
      <trkpt lat="41.68190728876896" lon="123.43572288763097">
        <ele>46.878272083368486</ele>
        <time>2019-03-26T13:11:04.111000Z</time>
      </trkpt>
      <trkpt lat="41.681906450578644" lon="123.43557293538323">
        <time>2019-03-26T13:11:08.108000Z</time>
      </trkpt>
      <trkpt lat="41.68189517691888" lon="123.43544217769376">
        <ele>46.77786352929134</ele>
        <time>2019-03-26T13:11:11.120000Z</time>
      </trkpt>
      <trkpt lat="41.68189245280035" lon="123.4353125096517">
        <time>2019-03-26T13:11:14.115000Z</time>
      </trkpt>
      <trkpt lat="41.681901169979646" lon="123.43516892765037">
        <time>2019-03-26T13:11:18.135000Z</time>
      </trkpt>
      <trkpt lat="41.68191256936796" lon="123.43504923407308">
        <ele>46.37358954247493</ele>
        <time>2019-03-26T13:11:21.104000Z</time>
      </trkpt>
      <trkpt lat="41.68189584747113" lon="123.43490523297659">
        <time>2019-03-26T13:11:25.116000Z</time>
      </trkpt>
      <trkpt lat="41.681897230485156" lon="123.43477095488778">
        <time>2019-03-26T13:11:28.101000Z</time>
      </trkpt>
      <trkpt lat="41.681901169979646" lon="123.43464606453053">
        <ele>46.088217762079424</ele>
        <time>2019-03-26T13:11:31.111000Z</time>
      </trkpt>
      <trkpt lat="41.68190758213557" lon="123.43452318583003">
        <time>2019-03-26T13:11:34.130000Z</time>
      </trkpt>
      <trkpt lat="41.68191680222906" lon="123.43439058412186">
        <time>2019-03-26T13:11:37.113000Z</time>
      </trkpt>
      <trkpt lat="41.681911186353936" lon="123.43425077397696">
        <ele>45.87419035729427</ele>
        <time>2019-03-26T13:11:41.114000Z</time>
      </trkpt>
      <trkpt lat="41.681900373698845" lon="123.43410509649983">
        <time>2019-03-26T13:11:45.139000Z</time>
      </trkpt>
      <trkpt lat="41.68188897431053" lon="123.4339776077526">
        <time>2019-03-26T13:11:48.108000Z</time>
      </trkpt>
      <trkpt lat="41.681886250192" lon="123.43383050535193">
        <ele>45.83719733056087</ele>
        <time>2019-03-26T13:11:52.110000Z</time>
      </trkpt>
      <trkpt lat="41.68189685329951" lon="123.43369153339735">
        <time>2019-03-26T13:11:56.117000Z</time>
      </trkpt>
      <trkpt lat="41.68191734705277" lon="123.43356354173592">
        <time>2019-03-26T13:11:59.107000Z</time>
      </trkpt>
      <trkpt lat="41.68191793378599" lon="123.43342456978134">
        <ele>45.74735930260677</ele>
        <time>2019-03-26T13:12:02.130000Z</time>
      </trkpt>
      <trkpt lat="41.68190598957397" lon="123.43329280626348">
        <time>2019-03-26T13:12:05.110000Z</time>
      </trkpt>
      <trkpt lat="41.681905528569295" lon="123.43317143630556">
        <time>2019-03-26T13:12:08.106000Z</time>
      </trkpt>
      <trkpt lat="41.681885705368295" lon="123.43301938858203">
        <ele>45.80284788903255</ele>
        <time>2019-03-26T13:12:12.110000Z</time>
      </trkpt>
      <trkpt lat="41.68188696265377" lon="123.43286306608788">
        <time>2019-03-26T13:12:16.107000Z</time>
      </trkpt>
      <trkpt lat="41.6818740964324" lon="123.43271269474498">
        <time>2019-03-26T13:12:20.111000Z</time>
      </trkpt>
      <trkpt lat="41.681916257405355" lon="123.43258897785417">
        <ele>45.99573805626888</ele>
        <time>2019-03-26T13:12:24.139000Z</time>
      </trkpt>
      <trkpt lat="41.68190678585477" lon="123.43245838780275">
        <time>2019-03-26T13:12:27.108000Z</time>
      </trkpt>
      <trkpt lat="41.68186994739033" lon="123.4323055018889">
        <ele>45.876833942499346</ele>
        <time>2019-03-26T13:12:31.130000Z</time>
      </trkpt>
      <trkpt lat="41.681874054522886" lon="123.43218019243649">
        <time>2019-03-26T13:12:34.109000Z</time>
      </trkpt>
      <trkpt lat="41.681891866067126" lon="123.43205111112765">
        <time>2019-03-26T13:12:37.110000Z</time>
      </trkpt>
      <trkpt lat="41.6818854539112" lon="123.43189244170061">
        <ele>46.257327106561846</ele>
        <time>2019-03-26T13:12:41.140000Z</time>
      </trkpt>
      <trkpt lat="41.681887130291834" lon="123.43174525548092">
        <time>2019-03-26T13:12:45.108000Z</time>
      </trkpt>
      <trkpt lat="41.68187635954626" lon="123.43162531044653">
        <time>2019-03-26T13:12:48.134000Z</time>
      </trkpt>
      <trkpt lat="41.68188214305945" lon="123.43147527437976">
        <ele>46.43700506981868</ele>
        <time>2019-03-26T13:12:52.106000Z</time>
      </trkpt>
      <trkpt lat="41.68187158186145" lon="123.4313368891584">
        <time>2019-03-26T13:12:55.128000Z</time>
      </trkpt>
      <trkpt lat="41.68185448277898" lon="123.43121442955307">
        <time>2019-03-26T13:12:58.108000Z</time>
      </trkpt>
      <trkpt lat="41.6818481963516" lon="123.43109331105224">
        <ele>46.55326750573177</ele>
        <time>2019-03-26T13:13:01.111000Z</time>
      </trkpt>
      <trkpt lat="41.681837844701185" lon="123.43097370129398">
        <time>2019-03-26T13:13:04.108000Z</time>
      </trkpt>
      <trkpt lat="41.68183151636429" lon="123.43083271768263">
        <time>2019-03-26T13:13:08.110000Z</time>
      </trkpt>
      <trkpt lat="41.681841323191" lon="123.43069567356578">
        <ele>46.62989332970638</ele>
        <time>2019-03-26T13:13:12.125000Z</time>
      </trkpt>
      <trkpt lat="41.681848866903856" lon="123.43057447124592">
        <time>2019-03-26T13:13:15.117000Z</time>
      </trkpt>
      <trkpt lat="41.68184920217998" lon="123.43045067053608">
        <time>2019-03-26T13:13:18.112000Z</time>
      </trkpt>
      <trkpt lat="41.681841281281486" lon="123.43030440632573">
        <ele>46.7620096474554</ele>
        <time>2019-03-26T13:13:22.120000Z</time>
      </trkpt>
      <trkpt lat="41.681843502485826" lon="123.43017381627432">
        <time>2019-03-26T13:13:26.129000Z</time>
      </trkpt>
      <trkpt lat="41.68184467595227" lon="123.43001866724661">
        <time>2019-03-26T13:13:30.110000Z</time>
      </trkpt>
      <trkpt lat="41.68184186801471" lon="123.42987944383493">
        <ele>46.8359957009222</ele>
        <time>2019-03-26T13:13:34.107000Z</time>
      </trkpt>
      <trkpt lat="41.68184505313791" lon="123.42972664174012">
        <time>2019-03-26T13:13:38.132000Z</time>
      </trkpt>
      <trkpt lat="41.68184945363708" lon="123.42958213772944">
        <ele>46.7990026741888</ele>
        <time>2019-03-26T13:13:42.109000Z</time>
      </trkpt>
      <trkpt lat="41.681853015945926" lon="123.42943470005265">
        <time>2019-03-26T13:13:46.102000Z</time>
      </trkpt>
      <trkpt lat="41.681858296544924" lon="123.42930536728672">
        <time>2019-03-26T13:13:49.114000Z</time>
      </trkpt>
      <trkpt lat="41.68185305785544" lon="123.42916589241794">
        <ele>46.75672629174251</ele>
        <time>2019-03-26T13:13:53.084000Z</time>
      </trkpt>
      <trkpt lat="41.68185175866045" lon="123.42901216831378">
        <time>2019-03-26T13:13:59.085000Z</time>
      </trkpt>
      <trkpt lat="41.681853518860116" lon="123.42888954107038">
        <ele>46.455500629511064</ele>
        <time>2019-03-26T13:14:02.100000Z</time>
      </trkpt>
      <trkpt lat="41.68185527905978" lon="123.42874989856354">
        <time>2019-03-26T13:14:06.107000Z</time>
      </trkpt>
      <trkpt lat="41.68185540478833" lon="123.4285930731552">
        <time>2019-03-26T13:14:10.109000Z</time>
      </trkpt>
      <trkpt lat="41.681860601568296" lon="123.42846097436122">
        <ele>46.505705860223955</ele>
        <time>2019-03-26T13:14:14.106000Z</time>
      </trkpt>
      <trkpt lat="41.68186680417664" lon="123.42833893385104">
        <time>2019-03-26T13:14:17.116000Z</time>
      </trkpt>
      <trkpt lat="41.68186357714392" lon="123.42821697715989">
        <time>2019-03-26T13:14:20.120000Z</time>
      </trkpt>
      <trkpt lat="41.681867181362286" lon="123.42806995857826">
        <ele>46.32602789696712</ele>
        <time>2019-03-26T13:14:24.117000Z</time>
      </trkpt>
      <trkpt lat="41.6818698635713" lon="123.42794884007743">
        <time>2019-03-26T13:14:27.106000Z</time>
      </trkpt>
      <trkpt lat="41.68187242005177" lon="123.4278263804721">
        <time>2019-03-26T13:14:30.115000Z</time>
      </trkpt>
      <trkpt lat="41.68188172396429" lon="123.42767106380633">
        <ele>46.28110792931575</ele>
        <time>2019-03-26T13:14:34.122000Z</time>
      </trkpt>
      <trkpt lat="41.68188516054459" lon="123.427543323602">
        <time>2019-03-26T13:14:37.108000Z</time>
      </trkpt>
      <trkpt lat="41.68188252024509" lon="123.42741893615893">
        <time>2019-03-26T13:14:40.140000Z</time>
      </trkpt>
      <trkpt lat="41.681882059240415" lon="123.42728331696561">
        <ele>46.01423361596126</ele>
        <time>2019-03-26T13:14:43.118000Z</time>
      </trkpt>
      <trkpt lat="41.681883274616375" lon="123.42712531809083">
        <time>2019-03-26T13:14:47.117000Z</time>
      </trkpt>
      <trkpt lat="41.68188390325911" lon="123.42698768724075">
        <time>2019-03-26T13:14:50.109000Z</time>
      </trkpt>
      <trkpt lat="41.681881053412035" lon="123.42683438223175">
        <ele>45.90589812096614</ele>
        <time>2019-03-26T13:14:54.131000Z</time>
      </trkpt>
      <trkpt lat="41.68187899984576" lon="123.42670387599937">
        <time>2019-03-26T13:14:58.114000Z</time>
      </trkpt>
      <trkpt lat="41.681886208282485" lon="123.42658367950789">
        <ele>45.8292703896429</ele>
        <time>2019-03-26T13:15:02.128000Z</time>
      </trkpt>
      <trkpt lat="41.68188780084409" lon="123.42646038171223">
        <time>2019-03-26T13:15:05.108000Z</time>
      </trkpt>
      <trkpt lat="41.68188637592055" lon="123.42632836673728">
        <time>2019-03-26T13:15:08.107000Z</time>
      </trkpt>
      <trkpt lat="41.681891153605356" lon="123.42619492683879">
        <ele>45.665448215570635</ele>
        <time>2019-03-26T13:15:11.111000Z</time>
      </trkpt>
      <trkpt lat="41.68189781721838" lon="123.42606710281542">
        <time>2019-03-26T13:15:14.110000Z</time>
      </trkpt>
      <trkpt lat="41.68189052496262" lon="123.42589912947587">
        <time>2019-03-26T13:15:18.115000Z</time>
      </trkpt>
      <trkpt lat="41.68188633401103" lon="123.42577239509991">
        <ele>45.74471762475032</ele>
        <time>2019-03-26T13:15:21.110000Z</time>
      </trkpt>
      <trkpt lat="41.68188293934025" lon="123.42565027077069">
        <time>2019-03-26T13:15:25.110000Z</time>
      </trkpt>
      <trkpt lat="41.68188557963975" lon="123.42551213700642">
        <time>2019-03-26T13:15:28.109000Z</time>
      </trkpt>
      <trkpt lat="41.681887004563286" lon="123.42537811037471">
        <ele>45.85305311974544</ele>
        <time>2019-03-26T13:15:31.126000Z</time>
      </trkpt>
      <trkpt lat="41.68188930958666" lon="123.42525271710326">
        <time>2019-03-26T13:15:34.111000Z</time>
      </trkpt>
      <trkpt lat="41.68190041560836" lon="123.42510041792264">
        <time>2019-03-26T13:15:38.111000Z</time>
      </trkpt>
      <trkpt lat="41.68190485801704" lon="123.42497552756538">
        <ele>46.04329970177669</ele>
        <time>2019-03-26T13:15:41.103000Z</time>
      </trkpt>
      <trkpt lat="41.68191173117764" lon="123.42483345430662">
        <time>2019-03-26T13:15:45.112000Z</time>
      </trkpt>
      <trkpt lat="41.681925561317875" lon="123.42470160696973">
        <time>2019-03-26T13:15:49.106000Z</time>
      </trkpt>
      <trkpt lat="41.68193369176395" lon="123.42457713570764">
        <ele>45.964030292597</ele>
        <time>2019-03-26T13:15:52.101000Z</time>
      </trkpt>
      <trkpt lat="41.681944085323885" lon="123.42443321843018">
        <time>2019-03-26T13:15:56.123000Z</time>
      </trkpt>
      <trkpt lat="41.68196231596328" lon="123.42429391119947">
        <time>2019-03-26T13:16:00.132000Z</time>
      </trkpt>
      <trkpt lat="41.681968267114534" lon="123.42412862006893">
        <ele>46.00102141198177</ele>
        <time>2019-03-26T13:16:04.108000Z</time>
      </trkpt>
      <trkpt lat="41.68196374088682" lon="123.42398562480082">
        <time>2019-03-26T13:16:07.114000Z</time>
      </trkpt>
      <trkpt lat="41.68196935676195" lon="123.4238589742439">
        <time>2019-03-26T13:16:10.118000Z</time>
      </trkpt>
      <trkpt lat="41.681978995950594" lon="123.42371405113806">
        <ele>46.26261236962337</ele>
        <time>2019-03-26T13:16:14.117000Z</time>
      </trkpt>
      <trkpt lat="41.68197501454659" lon="123.42357080441286">
        <time>2019-03-26T13:16:17.108000Z</time>
      </trkpt>
      <trkpt lat="41.68196428571053" lon="123.42342730623056">
        <time>2019-03-26T13:16:20.123000Z</time>
      </trkpt>
      <trkpt lat="41.68195422742672" lon="123.4232616798239">
        <ele>46.421151187982744</ele>
        <time>2019-03-26T13:16:24.111000Z</time>
      </trkpt>
      <trkpt lat="41.681960681492164" lon="123.4231266473638">
        <time>2019-03-26T13:16:28.109000Z</time>
      </trkpt>
      <trkpt lat="41.68197773866512" lon="123.42297032486965">
        <ele>46.66160109337825</ele>
        <time>2019-03-26T13:16:32.121000Z</time>
      </trkpt>
      <trkpt lat="41.681987880767956" lon="123.42283638205697">
        <time>2019-03-26T13:16:35.110000Z</time>
      </trkpt>
      <trkpt lat="41.68199965734191" lon="123.42270210396816">
        <time>2019-03-26T13:16:39.102000Z</time>
      </trkpt>
      <trkpt lat="41.68198989242472" lon="123.42257629160156">
        <ele>46.54269697960872</ele>
        <time>2019-03-26T13:16:42.103000Z</time>
      </trkpt>
      <trkpt lat="41.681992658452764" lon="123.4224461206453">
        <time>2019-03-26T13:16:46.107000Z</time>
      </trkpt>
      <trkpt lat="41.68199521493323" lon="123.4223033768343">
        <time>2019-03-26T13:16:50.112000Z</time>
      </trkpt>
      <trkpt lat="41.682029161641076" lon="123.42216725472679">
        <ele>46.66952803429622</ele>
        <time>2019-03-26T13:16:55.103000Z</time>
      </trkpt>
      <trkpt lat="41.682059126944914" lon="123.42204672295918">
        <time>2019-03-26T13:16:59.105000Z</time>
      </trkpt>
      <trkpt lat="41.68206926904775" lon="123.42191562999358">
        <ele>46.632536914911455</ele>
        <time>2019-03-26T13:17:02.108000Z</time>
      </trkpt>
      <trkpt lat="41.68208599094458" lon="123.42176291171779">
        <time>2019-03-26T13:17:06.136000Z</time>
      </trkpt>
      <trkpt lat="41.682095336766615" lon="123.42163575824668">
        <time>2019-03-26T13:17:09.108000Z</time>
      </trkpt>
      <trkpt lat="41.6820952948571" lon="123.42150717985203">
        <ele>46.5083475380804</ele>
        <time>2019-03-26T13:17:12.126000Z</time>
      </trkpt>
      <trkpt lat="41.68210237756528" lon="123.42136720206906">
        <time>2019-03-26T13:17:15.098000Z</time>
      </trkpt>
      <trkpt lat="41.68210610751219" lon="123.42121934529712">
        <time>2019-03-26T13:17:19.130000Z</time>
      </trkpt>
      <trkpt lat="41.68209885716595" lon="123.42107031505873">
        <ele>46.46078589257259</ele>
        <time>2019-03-26T13:17:23.107000Z</time>
      </trkpt>
      <trkpt lat="41.68210883163072" lon="123.42091893788745">
        <time>2019-03-26T13:17:27.125000Z</time>
      </trkpt>
      <trkpt lat="41.68213959321536" lon="123.42077745136191">
        <ele>46.25996878441829</ele>
        <time>2019-03-26T13:17:31.109000Z</time>
      </trkpt>
      <trkpt lat="41.68214650828548" lon="123.42063009750416">
        <time>2019-03-26T13:17:35.125000Z</time>
      </trkpt>
      <trkpt lat="41.682157949583306" lon="123.42046790767779">
        <time>2019-03-26T13:17:39.101000Z</time>
      </trkpt>
      <trkpt lat="41.68216620575793" lon="123.42032172728648">
        <ele>46.13313772973079</ele>
        <time>2019-03-26T13:17:42.128000Z</time>
      </trkpt>
      <trkpt lat="41.68217651549883" lon="123.42017781000902">
        <time>2019-03-26T13:17:45.104000Z</time>
      </trkpt>
      <trkpt lat="41.682193782219365" lon="123.42005769733657">
        <time>2019-03-26T13:17:49.131000Z</time>
      </trkpt>
      <trkpt lat="41.682196925433054" lon="123.4199110978501">
        <ele>45.890044239130205</ele>
        <time>2019-03-26T13:17:53.111000Z</time>
      </trkpt>
      <trkpt lat="41.68219344694324" lon="123.41975133877565">
        <time>2019-03-26T13:17:57.108000Z</time>
      </trkpt>
      <trkpt lat="41.682196003423705" lon="123.41961923998167">
        <time>2019-03-26T13:18:00.117000Z</time>
      </trkpt>
      <trkpt lat="41.6821909742818" lon="123.4194813576745">
        <ele>45.565039661493486</ele>
        <time>2019-03-26T13:18:04.115000Z</time>
      </trkpt>
      <trkpt lat="41.68219566814758" lon="123.41932838794162">
        <time>2019-03-26T13:18:08.110000Z</time>
      </trkpt>
      <trkpt lat="41.68219198011018" lon="123.4191930202054">
        <ele>45.543900516596025</ele>
        <time>2019-03-26T13:18:11.115000Z</time>
      </trkpt>
      <trkpt lat="41.682179910169616" lon="123.4190682974862">
        <time>2019-03-26T13:18:14.109000Z</time>
      </trkpt>
      <trkpt lat="41.68217877861269" lon="123.41894516732862">
        <time>2019-03-26T13:18:17.117000Z</time>
      </trkpt>
      <trkpt lat="41.6821885854394" lon="123.41878809046318">
        <ele>45.28231146630306</ele>
        <time>2019-03-26T13:18:21.164000Z</time>
      </trkpt>
      <trkpt lat="41.682186992877796" lon="123.41865808714499">
        <time>2019-03-26T13:18:24.108000Z</time>
      </trkpt>
      <trkpt lat="41.68219319548614" lon="123.41850411158373">
        <time>2019-03-26T13:18:28.115000Z</time>
      </trkpt>
      <trkpt lat="41.68220396623172" lon="123.41837251570394">
        <ele>45.36422255333919</ele>
        <time>2019-03-26T13:18:31.116000Z</time>
      </trkpt>
      <trkpt lat="41.682220981495156" lon="123.41823806997706">
        <time>2019-03-26T13:18:34.113000Z</time>
      </trkpt>
      <trkpt lat="41.68224834840901" lon="123.41810328897407">
        <time>2019-03-26T13:18:38.110000Z</time>
      </trkpt>
      <trkpt lat="41.68225425765075" lon="123.41796456847658">
        <ele>45.30609228905696</ele>
        <time>2019-03-26T13:18:41.105000Z</time>
      </trkpt>
      <trkpt lat="41.68226527985342" lon="123.41782802727391">
        <time>2019-03-26T13:18:45.128000Z</time>
      </trkpt>
      <trkpt lat="41.68225404810317" lon="123.4176765662836">
        <time>2019-03-26T13:18:50.254000Z</time>
      </trkpt>
      <trkpt lat="41.6822591610641" lon="123.41754094709029">
        <ele>47.21913054284114</ele>
        <time>2019-03-26T13:18:54.086000Z</time>
      </trkpt>
      <trkpt lat="41.68226716578163" lon="123.41738772590031">
        <time>2019-03-26T13:18:58.097000Z</time>
      </trkpt>
    </trkseg>
  </trk>
</gpx>